<?xml version="1.0" encoding="UTF-8"?>
 <gpx creator="Garmin Connect" version="1.1"
	 xsi:schemaLocation="http://www.topografix.com/GPX/1/1 http://www.topografix.com/GPX/11.xsd"
	 xmlns:ns3="http://www.garmin.com/xmlschemas/TrackPointExtension/v1"
	 xmlns="http://www.topografix.com/GPX/1/1"
	 xmlns:xsi="http://www.w3.org/2001/XMLSchema-instance" xmlns:ns2="http://www.garmin.com/xmlschemas/GpxExtensions/v3">
	 <metadata>
		<name>Run The Alamo 2025 - 42.195 km</name>
		 <link href="https://www.goandrace.com">
		 <text>Garmin Connect</text>
		 </link>
	 <time>2026-08-08T20:51:28</time>
	 </metadata>
	 <trk>
		 <name>Run The Alamo 2025 - 42.195 km</name>
		 <trkseg>
			 <trkpt lat="29.419636" lon="-98.486458">
				 <ele>198.5</ele>
			 </trkpt>
			 <trkpt lat="29.41936" lon="-98.486183">
				 <ele>198.3</ele>
			 </trkpt>
			 <trkpt lat="29.419265" lon="-98.486318">
				 <ele>198.1</ele>
			 </trkpt>
			 <trkpt lat="29.418798" lon="-98.48684">
				 <ele>197.9</ele>
			 </trkpt>
			 <trkpt lat="29.41852" lon="-98.487152">
				 <ele>197.8</ele>
			 </trkpt>
			 <trkpt lat="29.418411" lon="-98.487231">
				 <ele>197.5</ele>
			 </trkpt>
			 <trkpt lat="29.418457" lon="-98.487622">
				 <ele>197.3</ele>
			 </trkpt>
			 <trkpt lat="29.418472" lon="-98.487974">
				 <ele>196.9</ele>
			 </trkpt>
			 <trkpt lat="29.418494" lon="-98.488402">
				 <ele>196.6</ele>
			 </trkpt>
			 <trkpt lat="29.418479" lon="-98.488854">
				 <ele>196.1</ele>
			 </trkpt>
			 <trkpt lat="29.418414" lon="-98.489658">
				 <ele>195.8</ele>
			 </trkpt>
			 <trkpt lat="29.419474" lon="-98.490007">
				 <ele>195.7</ele>
			 </trkpt>
			 <trkpt lat="29.420713" lon="-98.489825">
				 <ele>195.3</ele>
			 </trkpt>
			 <trkpt lat="29.422086" lon="-98.489744">
				 <ele>195.3</ele>
			 </trkpt>
			 <trkpt lat="29.422549" lon="-98.489674">
				 <ele>195.5</ele>
			 </trkpt>
			 <trkpt lat="29.423918" lon="-98.489063">
				 <ele>195.6</ele>
			 </trkpt>
			 <trkpt lat="29.425058" lon="-98.488805">
				 <ele>195.7</ele>
			 </trkpt>
			 <trkpt lat="29.425409" lon="-98.488725">
				 <ele>195.7</ele>
			 </trkpt>
			 <trkpt lat="29.426465" lon="-98.488757">
				 <ele>195.7</ele>
			 </trkpt>
			 <trkpt lat="29.426497" lon="-98.493719">
				 <ele>195.7</ele>
			 </trkpt>
			 <trkpt lat="29.428226" lon="-98.493923">
				 <ele>196.2</ele>
			 </trkpt>
			 <trkpt lat="29.428347" lon="-98.496079">
				 <ele>196.5</ele>
			 </trkpt>
			 <trkpt lat="29.427908" lon="-98.496192">
				 <ele>196.7</ele>
			 </trkpt>
			 <trkpt lat="29.427731" lon="-98.496235">
				 <ele>197.3</ele>
			 </trkpt>
			 <trkpt lat="29.427441" lon="-98.496198">
				 <ele>197.4</ele>
			 </trkpt>
			 <trkpt lat="29.426497" lon="-98.495999">
				 <ele>197.4</ele>
			 </trkpt>
			 <trkpt lat="29.426427" lon="-98.493816">
				 <ele>197.3</ele>
			 </trkpt>
			 <trkpt lat="29.425479" lon="-98.493767">
				 <ele>197.3</ele>
			 </trkpt>
			 <trkpt lat="29.424012" lon="-98.493853">
				 <ele>197.3</ele>
			 </trkpt>
			 <trkpt lat="29.423694" lon="-98.493912">
				 <ele>197.2</ele>
			 </trkpt>
			 <trkpt lat="29.42247" lon="-98.494197">
				 <ele>197</ele>
			 </trkpt>
			 <trkpt lat="29.422114" lon="-98.493558">
				 <ele>196.3</ele>
			 </trkpt>
			 <trkpt lat="29.419624" lon="-98.493891">
				 <ele>195.8</ele>
			 </trkpt>
			 <trkpt lat="29.418717" lon="-98.494293">
				 <ele>195.3</ele>
			 </trkpt>
			 <trkpt lat="29.418451" lon="-98.493843">
				 <ele>194.8</ele>
			 </trkpt>
			 <trkpt lat="29.418241" lon="-98.493419">
				 <ele>194.4</ele>
			 </trkpt>
			 <trkpt lat="29.418068" lon="-98.492823">
				 <ele>193.9</ele>
			 </trkpt>
			 <trkpt lat="29.417923" lon="-98.492008">
				 <ele>193.5</ele>
			 </trkpt>
			 <trkpt lat="29.417376" lon="-98.492131">
				 <ele>193.2</ele>
			 </trkpt>
			 <trkpt lat="29.417091" lon="-98.492249">
				 <ele>192.8</ele>
			 </trkpt>
			 <trkpt lat="29.416951" lon="-98.492078">
				 <ele>192.5</ele>
			 </trkpt>
			 <trkpt lat="29.417222" lon="-98.490828">
				 <ele>192.4</ele>
			 </trkpt>
			 <trkpt lat="29.416489" lon="-98.491412">
				 <ele>192.7</ele>
			 </trkpt>
			 <trkpt lat="29.415858" lon="-98.49064">
				 <ele>192.7</ele>
			 </trkpt>
			 <trkpt lat="29.41126" lon="-98.494792">
				 <ele>192.7</ele>
			 </trkpt>
			 <trkpt lat="29.411811" lon="-98.495607">
				 <ele>192.8</ele>
			 </trkpt>
			 <trkpt lat="29.41454" lon="-98.493177">
				 <ele>192.9</ele>
			 </trkpt>
			 <trkpt lat="29.416475" lon="-98.491488">
				 <ele>193</ele>
			 </trkpt>
			 <trkpt lat="29.417049" lon="-98.492287">
				 <ele>193.2</ele>
			 </trkpt>
			 <trkpt lat="29.415451" lon="-98.4938">
				 <ele>193.5</ele>
			 </trkpt>
			 <trkpt lat="29.41618" lon="-98.495548">
				 <ele>193.8</ele>
			 </trkpt>
			 <trkpt lat="29.416928" lon="-98.497281">
				 <ele>194.3</ele>
			 </trkpt>
			 <trkpt lat="29.417204" lon="-98.49786">
				 <ele>194.5</ele>
			 </trkpt>
			 <trkpt lat="29.418311" lon="-98.497308">
				 <ele>194.8</ele>
			 </trkpt>
			 <trkpt lat="29.418145" lon="-98.496946">
				 <ele>195.1</ele>
			 </trkpt>
			 <trkpt lat="29.418192" lon="-98.49679">
				 <ele>195.4</ele>
			 </trkpt>
			 <trkpt lat="29.418264" lon="-98.496632">
				 <ele>195.5</ele>
			 </trkpt>
			 <trkpt lat="29.4184" lon="-98.496557">
				 <ele>195.7</ele>
			 </trkpt>
			 <trkpt lat="29.418535" lon="-98.496506">
				 <ele>195.9</ele>
			 </trkpt>
			 <trkpt lat="29.418666" lon="-98.496533">
				 <ele>196</ele>
			 </trkpt>
			 <trkpt lat="29.41875" lon="-98.496624">
				 <ele>196</ele>
			 </trkpt>
			 <trkpt lat="29.418755" lon="-98.496712">
				 <ele>196</ele>
			 </trkpt>
			 <trkpt lat="29.418717" lon="-98.496804">
				 <ele>196</ele>
			 </trkpt>
			 <trkpt lat="29.418619" lon="-98.496865">
				 <ele>195.9</ele>
			 </trkpt>
			 <trkpt lat="29.418521" lon="-98.496927">
				 <ele>195.8</ele>
			 </trkpt>
			 <trkpt lat="29.418404" lon="-98.49697">
				 <ele>195.7</ele>
			 </trkpt>
			 <trkpt lat="29.418353" lon="-98.497018">
				 <ele>195.5</ele>
			 </trkpt>
			 <trkpt lat="29.418304" lon="-98.497109">
				 <ele>195.4</ele>
			 </trkpt>
			 <trkpt lat="29.418327" lon="-98.497284">
				 <ele>195.2</ele>
			 </trkpt>
			 <trkpt lat="29.418311" lon="-98.497343">
				 <ele>195</ele>
			 </trkpt>
			 <trkpt lat="29.417923" lon="-98.497547">
				 <ele>194.8</ele>
			 </trkpt>
			 <trkpt lat="29.417187" lon="-98.497919">
				 <ele>194.6</ele>
			 </trkpt>
			 <trkpt lat="29.416725" lon="-98.496884">
				 <ele>194.5</ele>
			 </trkpt>
			 <trkpt lat="29.416423" lon="-98.496187">
				 <ele>194.2</ele>
			 </trkpt>
			 <trkpt lat="29.41607" lon="-98.496246">
				 <ele>194</ele>
			 </trkpt>
			 <trkpt lat="29.415806" lon="-98.496361">
				 <ele>193.7</ele>
			 </trkpt>
			 <trkpt lat="29.415479" lon="-98.496533">
				 <ele>193.5</ele>
			 </trkpt>
			 <trkpt lat="29.41475" lon="-98.496895">
				 <ele>193.2</ele>
			 </trkpt>
			 <trkpt lat="29.41397" lon="-98.497115">
				 <ele>192.7</ele>
			 </trkpt>
			 <trkpt lat="29.413596" lon="-98.49727">
				 <ele>192.5</ele>
			 </trkpt>
			 <trkpt lat="29.413021" lon="-98.497528">
				 <ele>192.5</ele>
			 </trkpt>
			 <trkpt lat="29.412788" lon="-98.497045">
				 <ele>192.3</ele>
			 </trkpt>
			 <trkpt lat="29.412367" lon="-98.496466">
				 <ele>192.1</ele>
			 </trkpt>
			 <trkpt lat="29.411825" lon="-98.495683">
				 <ele>191.9</ele>
			 </trkpt>
			 <trkpt lat="29.411166" lon="-98.494749">
				 <ele>191.7</ele>
			 </trkpt>
			 <trkpt lat="29.410872" lon="-98.494277">
				 <ele>191.5</ele>
			 </trkpt>
			 <trkpt lat="29.410227" lon="-98.493751">
				 <ele>191.4</ele>
			 </trkpt>
			 <trkpt lat="29.409372" lon="-98.493108">
				 <ele>191.1</ele>
			 </trkpt>
			 <trkpt lat="29.408862" lon="-98.492721">
				 <ele>191.2</ele>
			 </trkpt>
			 <trkpt lat="29.407904" lon="-98.492276">
				 <ele>191.4</ele>
			 </trkpt>
			 <trkpt lat="29.407175" lon="-98.491874">
				 <ele>191.3</ele>
			 </trkpt>
			 <trkpt lat="29.406208" lon="-98.491134">
				 <ele>190.8</ele>
			 </trkpt>
			 <trkpt lat="29.405077" lon="-98.490211">
				 <ele>190.4</ele>
			 </trkpt>
			 <trkpt lat="29.406862" lon="-98.486692">
				 <ele>189.9</ele>
			 </trkpt>
			 <trkpt lat="29.404376" lon="-98.485866">
				 <ele>189.5</ele>
			 </trkpt>
			 <trkpt lat="29.403983" lon="-98.485823">
				 <ele>189.1</ele>
			 </trkpt>
			 <trkpt lat="29.40288" lon="-98.486102">
				 <ele>188.7</ele>
			 </trkpt>
			 <trkpt lat="29.401773" lon="-98.486386">
				 <ele>188.4</ele>
			 </trkpt>
			 <trkpt lat="29.401778" lon="-98.486821">
				 <ele>188.1</ele>
			 </trkpt>
			 <trkpt lat="29.401707" lon="-98.487228">
				 <ele>187.5</ele>
			 </trkpt>
			 <trkpt lat="29.401628" lon="-98.487529">
				 <ele>187</ele>
			 </trkpt>
			 <trkpt lat="29.401455" lon="-98.487867">
				 <ele>186.5</ele>
			 </trkpt>
			 <trkpt lat="29.40139" lon="-98.488038">
				 <ele>186.2</ele>
			 </trkpt>
			 <trkpt lat="29.401175" lon="-98.488264">
				 <ele>186</ele>
			 </trkpt>
			 <trkpt lat="29.400967" lon="-98.488374">
				 <ele>186.1</ele>
			 </trkpt>
			 <trkpt lat="29.400967" lon="-98.488599">
				 <ele>186.2</ele>
			 </trkpt>
			 <trkpt lat="29.400915" lon="-98.488687">
				 <ele>186.3</ele>
			 </trkpt>
			 <trkpt lat="29.400773" lon="-98.488741">
				 <ele>186.5</ele>
			 </trkpt>
			 <trkpt lat="29.400413" lon="-98.488728">
				 <ele>186.7</ele>
			 </trkpt>
			 <trkpt lat="29.400397" lon="-98.487971">
				 <ele>187</ele>
			 </trkpt>
			 <trkpt lat="29.400411" lon="-98.487829">
				 <ele>187.2</ele>
			 </trkpt>
			 <trkpt lat="29.400499" lon="-98.48777">
				 <ele>187.5</ele>
			 </trkpt>
			 <trkpt lat="29.400658" lon="-98.48781">
				 <ele>187.6</ele>
			 </trkpt>
			 <trkpt lat="29.400693" lon="-98.487885">
				 <ele>187.7</ele>
			 </trkpt>
			 <trkpt lat="29.400703" lon="-98.488003">
				 <ele>187.8</ele>
			 </trkpt>
			 <trkpt lat="29.400738" lon="-98.488062">
				 <ele>187.6</ele>
			 </trkpt>
			 <trkpt lat="29.400897" lon="-98.488156">
				 <ele>187.5</ele>
			 </trkpt>
			 <trkpt lat="29.400948" lon="-98.488237">
				 <ele>187.5</ele>
			 </trkpt>
			 <trkpt lat="29.400974" lon="-98.488339">
				 <ele>187.3</ele>
			 </trkpt>
			 <trkpt lat="29.401182" lon="-98.488213">
				 <ele>187.1</ele>
			 </trkpt>
			 <trkpt lat="29.401336" lon="-98.488049">
				 <ele>186.9</ele>
			 </trkpt>
			 <trkpt lat="29.401439" lon="-98.487856">
				 <ele>186.8</ele>
			 </trkpt>
			 <trkpt lat="29.401586" lon="-98.487534">
				 <ele>186.8</ele>
			 </trkpt>
			 <trkpt lat="29.401684" lon="-98.487226">
				 <ele>186.9</ele>
			 </trkpt>
			 <trkpt lat="29.401747" lon="-98.486917">
				 <ele>187.1</ele>
			 </trkpt>
			 <trkpt lat="29.401761" lon="-98.486689">
				 <ele>187.3</ele>
			 </trkpt>
			 <trkpt lat="29.401764" lon="-98.48655">
				 <ele>187.5</ele>
			 </trkpt>
			 <trkpt lat="29.401728" lon="-98.486375">
				 <ele>187.5</ele>
			 </trkpt>
			 <trkpt lat="29.401357" lon="-98.486402">
				 <ele>187.5</ele>
			 </trkpt>
			 <trkpt lat="29.400749" lon="-98.486407">
				 <ele>187.5</ele>
			 </trkpt>
			 <trkpt lat="29.399464" lon="-98.486338">
				 <ele>187.5</ele>
			 </trkpt>
			 <trkpt lat="29.399044" lon="-98.486332">
				 <ele>187.5</ele>
			 </trkpt>
			 <trkpt lat="29.39902" lon="-98.487024">
				 <ele>187.5</ele>
			 </trkpt>
			 <trkpt lat="29.399039" lon="-98.487314">
				 <ele>187.4</ele>
			 </trkpt>
			 <trkpt lat="29.399118" lon="-98.487636">
				 <ele>187.4</ele>
			 </trkpt>
			 <trkpt lat="29.399095" lon="-98.487829">
				 <ele>187.4</ele>
			 </trkpt>
			 <trkpt lat="29.399011" lon="-98.487963">
				 <ele>187.3</ele>
			 </trkpt>
			 <trkpt lat="29.398726" lon="-98.488226">
				 <ele>187.2</ele>
			 </trkpt>
			 <trkpt lat="29.398399" lon="-98.488521">
				 <ele>187.1</ele>
			 </trkpt>
			 <trkpt lat="29.398118" lon="-98.48872">
				 <ele>187.2</ele>
			 </trkpt>
			 <trkpt lat="29.397511" lon="-98.4891">
				 <ele>187.2</ele>
			 </trkpt>
			 <trkpt lat="29.396679" lon="-98.489562">
				 <ele>187.2</ele>
			 </trkpt>
			 <trkpt lat="29.396024" lon="-98.489975">
				 <ele>187.2</ele>
			 </trkpt>
			 <trkpt lat="29.395781" lon="-98.490141">
				 <ele>187.3</ele>
			 </trkpt>
			 <trkpt lat="29.395192" lon="-98.490313">
				 <ele>187.3</ele>
			 </trkpt>
			 <trkpt lat="29.394795" lon="-98.490506">
				 <ele>187.1</ele>
			 </trkpt>
			 <trkpt lat="29.394604" lon="-98.490769">
				 <ele>186.9</ele>
			 </trkpt>
			 <trkpt lat="29.394403" lon="-98.491166">
				 <ele>186.8</ele>
			 </trkpt>
			 <trkpt lat="29.394197" lon="-98.491418">
				 <ele>186.7</ele>
			 </trkpt>
			 <trkpt lat="29.393902" lon="-98.491595">
				 <ele>186.5</ele>
			 </trkpt>
			 <trkpt lat="29.393384" lon="-98.491863">
				 <ele>186.3</ele>
			 </trkpt>
			 <trkpt lat="29.392477" lon="-98.492035">
				 <ele>186.1</ele>
			 </trkpt>
			 <trkpt lat="29.392225" lon="-98.492163">
				 <ele>185.9</ele>
			 </trkpt>
			 <trkpt lat="29.391841" lon="-98.492485">
				 <ele>185.7</ele>
			 </trkpt>
			 <trkpt lat="29.391215" lon="-98.492786">
				 <ele>185.4</ele>
			 </trkpt>
			 <trkpt lat="29.391206" lon="-98.493226">
				 <ele>185</ele>
			 </trkpt>
			 <trkpt lat="29.391079" lon="-98.493789">
				 <ele>184.5</ele>
			 </trkpt>
			 <trkpt lat="29.390906" lon="-98.494293">
				 <ele>184.1</ele>
			 </trkpt>
			 <trkpt lat="29.390589" lon="-98.49484">
				 <ele>183.7</ele>
			 </trkpt>
			 <trkpt lat="29.390205" lon="-98.495468">
				 <ele>183.4</ele>
			 </trkpt>
			 <trkpt lat="29.389906" lon="-98.495929">
				 <ele>183</ele>
			 </trkpt>
			 <trkpt lat="29.389925" lon="-98.496434">
				 <ele>182.6</ele>
			 </trkpt>
			 <trkpt lat="29.390112" lon="-98.497624">
				 <ele>182.3</ele>
			 </trkpt>
			 <trkpt lat="29.390084" lon="-98.49786">
				 <ele>181.8</ele>
			 </trkpt>
			 <trkpt lat="29.389878" lon="-98.498011">
				 <ele>181.4</ele>
			 </trkpt>
			 <trkpt lat="29.389542" lon="-98.498204">
				 <ele>181.2</ele>
			 </trkpt>
			 <trkpt lat="29.389243" lon="-98.498225">
				 <ele>181</ele>
			 </trkpt>
			 <trkpt lat="29.388962" lon="-98.498182">
				 <ele>181</ele>
			 </trkpt>
			 <trkpt lat="29.388925" lon="-98.498097">
				 <ele>181</ele>
			 </trkpt>
			 <trkpt lat="29.388946" lon="-98.497893">
				 <ele>181</ele>
			 </trkpt>
			 <trkpt lat="29.389191" lon="-98.497903">
				 <ele>181</ele>
			 </trkpt>
			 <trkpt lat="29.389338" lon="-98.49797">
				 <ele>181.1</ele>
			 </trkpt>
			 <trkpt lat="29.38942" lon="-98.498107">
				 <ele>181.2</ele>
			 </trkpt>
			 <trkpt lat="29.389519" lon="-98.498082">
				 <ele>181.2</ele>
			 </trkpt>
			 <trkpt lat="29.389773" lon="-98.497962">
				 <ele>181.3</ele>
			 </trkpt>
			 <trkpt lat="29.389902" lon="-98.49785">
				 <ele>181.3</ele>
			 </trkpt>
			 <trkpt lat="29.389936" lon="-98.497799">
				 <ele>181.2</ele>
			 </trkpt>
			 <trkpt lat="29.389974" lon="-98.497668">
				 <ele>181.1</ele>
			 </trkpt>
			 <trkpt lat="29.389941" lon="-98.497562">
				 <ele>181.3</ele>
			 </trkpt>
			 <trkpt lat="29.389894" lon="-98.49734">
				 <ele>181.5</ele>
			 </trkpt>
			 <trkpt lat="29.389837" lon="-98.497099">
				 <ele>181.6</ele>
			 </trkpt>
			 <trkpt lat="29.389785" lon="-98.49679">
				 <ele>181.8</ele>
			 </trkpt>
			 <trkpt lat="29.389798" lon="-98.496566">
				 <ele>182</ele>
			 </trkpt>
			 <trkpt lat="29.389847" lon="-98.495873">
				 <ele>182.3</ele>
			 </trkpt>
			 <trkpt lat="29.389864" lon="-98.495809">
				 <ele>182.6</ele>
			 </trkpt>
			 <trkpt lat="29.390276" lon="-98.495188">
				 <ele>183</ele>
			 </trkpt>
			 <trkpt lat="29.390696" lon="-98.494541">
				 <ele>183.5</ele>
			 </trkpt>
			 <trkpt lat="29.390899" lon="-98.494105">
				 <ele>183.9</ele>
			 </trkpt>
			 <trkpt lat="29.390987" lon="-98.493817">
				 <ele>184.3</ele>
			 </trkpt>
			 <trkpt lat="29.391047" lon="-98.493554">
				 <ele>184.3</ele>
			 </trkpt>
			 <trkpt lat="29.391091" lon="-98.493199">
				 <ele>184.3</ele>
			 </trkpt>
			 <trkpt lat="29.391123" lon="-98.492942">
				 <ele>184.2</ele>
			 </trkpt>
			 <trkpt lat="29.391094" lon="-98.492857">
				 <ele>184.1</ele>
			 </trkpt>
			 <trkpt lat="29.390951" lon="-98.492936">
				 <ele>184</ele>
			 </trkpt>
			 <trkpt lat="29.39087" lon="-98.492951">
				 <ele>183.8</ele>
			 </trkpt>
			 <trkpt lat="29.390661" lon="-98.492866">
				 <ele>183.6</ele>
			 </trkpt>
			 <trkpt lat="29.390507" lon="-98.492886">
				 <ele>183.5</ele>
			 </trkpt>
			 <trkpt lat="29.390438" lon="-98.49287">
				 <ele>183.5</ele>
			 </trkpt>
			 <trkpt lat="29.390376" lon="-98.492855">
				 <ele>183.4</ele>
			 </trkpt>
			 <trkpt lat="29.390353" lon="-98.492919">
				 <ele>183.4</ele>
			 </trkpt>
			 <trkpt lat="29.390323" lon="-98.492974">
				 <ele>183.4</ele>
			 </trkpt>
			 <trkpt lat="29.390279" lon="-98.493105">
				 <ele>183.4</ele>
			 </trkpt>
			 <trkpt lat="29.390274" lon="-98.493139">
				 <ele>183.4</ele>
			 </trkpt>
			 <trkpt lat="29.390254" lon="-98.493244">
				 <ele>183.4</ele>
			 </trkpt>
			 <trkpt lat="29.390209" lon="-98.493329">
				 <ele>183.4</ele>
			 </trkpt>
			 <trkpt lat="29.390119" lon="-98.493443">
				 <ele>183.4</ele>
			 </trkpt>
			 <trkpt lat="29.390104" lon="-98.493478">
				 <ele>183.4</ele>
			 </trkpt>
			 <trkpt lat="29.390087" lon="-98.493626">
				 <ele>183.3</ele>
			 </trkpt>
			 <trkpt lat="29.390108" lon="-98.493843">
				 <ele>183.2</ele>
			 </trkpt>
			 <trkpt lat="29.390102" lon="-98.49394">
				 <ele>183</ele>
			 </trkpt>
			 <trkpt lat="29.390069" lon="-98.494062">
				 <ele>182.8</ele>
			 </trkpt>
			 <trkpt lat="29.390003" lon="-98.494168">
				 <ele>182.7</ele>
			 </trkpt>
			 <trkpt lat="29.389917" lon="-98.494299">
				 <ele>182.6</ele>
			 </trkpt>
			 <trkpt lat="29.389731" lon="-98.494421">
				 <ele>182.5</ele>
			 </trkpt>
			 <trkpt lat="29.38965" lon="-98.494442">
				 <ele>182.5</ele>
			 </trkpt>
			 <trkpt lat="29.389496" lon="-98.494482">
				 <ele>182.4</ele>
			 </trkpt>
			 <trkpt lat="29.389417" lon="-98.494527">
				 <ele>182.3</ele>
			 </trkpt>
			 <trkpt lat="29.389315" lon="-98.49462">
				 <ele>182.2</ele>
			 </trkpt>
			 <trkpt lat="29.38924" lon="-98.494718">
				 <ele>182.1</ele>
			 </trkpt>
			 <trkpt lat="29.389147" lon="-98.494772">
				 <ele>182</ele>
			 </trkpt>
			 <trkpt lat="29.388962" lon="-98.49482">
				 <ele>182</ele>
			 </trkpt>
			 <trkpt lat="29.388885" lon="-98.49484">
				 <ele>182</ele>
			 </trkpt>
			 <trkpt lat="29.388809" lon="-98.494884">
				 <ele>182</ele>
			 </trkpt>
			 <trkpt lat="29.388618" lon="-98.495088">
				 <ele>182</ele>
			 </trkpt>
			 <trkpt lat="29.388447" lon="-98.495204">
				 <ele>182</ele>
			 </trkpt>
			 <trkpt lat="29.388289" lon="-98.495249">
				 <ele>182</ele>
			 </trkpt>
			 <trkpt lat="29.388254" lon="-98.495276">
				 <ele>182</ele>
			 </trkpt>
			 <trkpt lat="29.388193" lon="-98.495321">
				 <ele>181.9</ele>
			 </trkpt>
			 <trkpt lat="29.388078" lon="-98.495477">
				 <ele>181.9</ele>
			 </trkpt>
			 <trkpt lat="29.387864" lon="-98.495606">
				 <ele>181.9</ele>
			 </trkpt>
			 <trkpt lat="29.387812" lon="-98.495688">
				 <ele>181.9</ele>
			 </trkpt>
			 <trkpt lat="29.387779" lon="-98.495868">
				 <ele>181.9</ele>
			 </trkpt>
			 <trkpt lat="29.387744" lon="-98.495941">
				 <ele>181.9</ele>
			 </trkpt>
			 <trkpt lat="29.387706" lon="-98.495997">
				 <ele>181.7</ele>
			 </trkpt>
			 <trkpt lat="29.387641" lon="-98.496036">
				 <ele>181.5</ele>
			 </trkpt>
			 <trkpt lat="29.387601" lon="-98.496062">
				 <ele>181.3</ele>
			 </trkpt>
			 <trkpt lat="29.387572" lon="-98.496081">
				 <ele>181</ele>
			 </trkpt>
			 <trkpt lat="29.387509" lon="-98.496186">
				 <ele>180.7</ele>
			 </trkpt>
			 <trkpt lat="29.387483" lon="-98.496379">
				 <ele>180.5</ele>
			 </trkpt>
			 <trkpt lat="29.387484" lon="-98.496617">
				 <ele>180.4</ele>
			 </trkpt>
			 <trkpt lat="29.387516" lon="-98.496781">
				 <ele>180.2</ele>
			 </trkpt>
			 <trkpt lat="29.387551" lon="-98.496846">
				 <ele>180</ele>
			 </trkpt>
			 <trkpt lat="29.387555" lon="-98.496924">
				 <ele>179.8</ele>
			 </trkpt>
			 <trkpt lat="29.387589" lon="-98.497008">
				 <ele>179.6</ele>
			 </trkpt>
			 <trkpt lat="29.387681" lon="-98.49718">
				 <ele>179.6</ele>
			 </trkpt>
			 <trkpt lat="29.387746" lon="-98.497263">
				 <ele>179.7</ele>
			 </trkpt>
			 <trkpt lat="29.387785" lon="-98.497332">
				 <ele>179.8</ele>
			 </trkpt>
			 <trkpt lat="29.387856" lon="-98.497454">
				 <ele>180</ele>
			 </trkpt>
			 <trkpt lat="29.387961" lon="-98.497742">
				 <ele>180.2</ele>
			 </trkpt>
			 <trkpt lat="29.388004" lon="-98.497732">
				 <ele>180.4</ele>
			 </trkpt>
			 <trkpt lat="29.388057" lon="-98.497835">
				 <ele>180.5</ele>
			 </trkpt>
			 <trkpt lat="29.38809" lon="-98.497987">
				 <ele>180.5</ele>
			 </trkpt>
			 <trkpt lat="29.388155" lon="-98.498067">
				 <ele>180.5</ele>
			 </trkpt>
			 <trkpt lat="29.388266" lon="-98.498121">
				 <ele>180.5</ele>
			 </trkpt>
			 <trkpt lat="29.388492" lon="-98.498136">
				 <ele>180.5</ele>
			 </trkpt>
			 <trkpt lat="29.388559" lon="-98.49821">
				 <ele>180.4</ele>
			 </trkpt>
			 <trkpt lat="29.388599" lon="-98.498302">
				 <ele>180.2</ele>
			 </trkpt>
			 <trkpt lat="29.388605" lon="-98.498332">
				 <ele>179.9</ele>
			 </trkpt>
			 <trkpt lat="29.388337" lon="-98.498414">
				 <ele>179.7</ele>
			 </trkpt>
			 <trkpt lat="29.388219" lon="-98.498477">
				 <ele>179.6</ele>
			 </trkpt>
			 <trkpt lat="29.388088" lon="-98.498523">
				 <ele>179.5</ele>
			 </trkpt>
			 <trkpt lat="29.387782" lon="-98.49858">
				 <ele>179.3</ele>
			 </trkpt>
			 <trkpt lat="29.387581" lon="-98.498592">
				 <ele>179.1</ele>
			 </trkpt>
			 <trkpt lat="29.387397" lon="-98.498581">
				 <ele>179.1</ele>
			 </trkpt>
			 <trkpt lat="29.387214" lon="-98.498528">
				 <ele>179.1</ele>
			 </trkpt>
			 <trkpt lat="29.386829" lon="-98.498416">
				 <ele>179.2</ele>
			 </trkpt>
			 <trkpt lat="29.386434" lon="-98.498349">
				 <ele>179.3</ele>
			 </trkpt>
			 <trkpt lat="29.386244" lon="-98.498293">
				 <ele>179.5</ele>
			 </trkpt>
			 <trkpt lat="29.386113" lon="-98.498226">
				 <ele>179.6</ele>
			 </trkpt>
			 <trkpt lat="29.385872" lon="-98.498101">
				 <ele>179.8</ele>
			 </trkpt>
			 <trkpt lat="29.385679" lon="-98.497941">
				 <ele>179.9</ele>
			 </trkpt>
			 <trkpt lat="29.385484" lon="-98.497748">
				 <ele>180.2</ele>
			 </trkpt>
			 <trkpt lat="29.385359" lon="-98.497591">
				 <ele>180.5</ele>
			 </trkpt>
			 <trkpt lat="29.38527" lon="-98.497428">
				 <ele>180.7</ele>
			 </trkpt>
			 <trkpt lat="29.385198" lon="-98.497233">
				 <ele>180.9</ele>
			 </trkpt>
			 <trkpt lat="29.385162" lon="-98.497051">
				 <ele>181.1</ele>
			 </trkpt>
			 <trkpt lat="29.38507" lon="-98.495925">
				 <ele>181.3</ele>
			 </trkpt>
			 <trkpt lat="29.385023" lon="-98.495749">
				 <ele>181.5</ele>
			 </trkpt>
			 <trkpt lat="29.384881" lon="-98.495425">
				 <ele>181.6</ele>
			 </trkpt>
			 <trkpt lat="29.384718" lon="-98.495189">
				 <ele>181.8</ele>
			 </trkpt>
			 <trkpt lat="29.384579" lon="-98.495046">
				 <ele>181.8</ele>
			 </trkpt>
			 <trkpt lat="29.384384" lon="-98.494901">
				 <ele>181.9</ele>
			 </trkpt>
			 <trkpt lat="29.384216" lon="-98.494817">
				 <ele>181.9</ele>
			 </trkpt>
			 <trkpt lat="29.383939" lon="-98.494734">
				 <ele>181.3</ele>
			 </trkpt>
			 <trkpt lat="29.383802" lon="-98.494701">
				 <ele>180.5</ele>
			 </trkpt>
			 <trkpt lat="29.383603" lon="-98.494612">
				 <ele>179.7</ele>
			 </trkpt>
			 <trkpt lat="29.383174" lon="-98.494332">
				 <ele>178.9</ele>
			 </trkpt>
			 <trkpt lat="29.38249" lon="-98.493989">
				 <ele>178</ele>
			 </trkpt>
			 <trkpt lat="29.382122" lon="-98.493855">
				 <ele>177</ele>
			 </trkpt>
			 <trkpt lat="29.382023" lon="-98.4938">
				 <ele>176</ele>
			 </trkpt>
			 <trkpt lat="29.381936" lon="-98.493703">
				 <ele>174.9</ele>
			 </trkpt>
			 <trkpt lat="29.381865" lon="-98.493588">
				 <ele>173.9</ele>
			 </trkpt>
			 <trkpt lat="29.381784" lon="-98.493523">
				 <ele>172.8</ele>
			 </trkpt>
			 <trkpt lat="29.381593" lon="-98.493438">
				 <ele>172.5</ele>
			 </trkpt>
			 <trkpt lat="29.381496" lon="-98.493361">
				 <ele>172.7</ele>
			 </trkpt>
			 <trkpt lat="29.381386" lon="-98.49321">
				 <ele>173</ele>
			 </trkpt>
			 <trkpt lat="29.38134" lon="-98.493216">
				 <ele>173</ele>
			 </trkpt>
			 <trkpt lat="29.381289" lon="-98.49325">
				 <ele>172.8</ele>
			 </trkpt>
			 <trkpt lat="29.380956" lon="-98.493456">
				 <ele>172.7</ele>
			 </trkpt>
			 <trkpt lat="29.380847" lon="-98.493233">
				 <ele>172.7</ele>
			 </trkpt>
			 <trkpt lat="29.380779" lon="-98.493057">
				 <ele>172.7</ele>
			 </trkpt>
			 <trkpt lat="29.380628" lon="-98.492478">
				 <ele>172.9</ele>
			 </trkpt>
			 <trkpt lat="29.380439" lon="-98.491968">
				 <ele>173.1</ele>
			 </trkpt>
			 <trkpt lat="29.380306" lon="-98.491689">
				 <ele>173.3</ele>
			 </trkpt>
			 <trkpt lat="29.380103" lon="-98.491352">
				 <ele>172.7</ele>
			 </trkpt>
			 <trkpt lat="29.379977" lon="-98.491106">
				 <ele>172.2</ele>
			 </trkpt>
			 <trkpt lat="29.379817" lon="-98.490721">
				 <ele>171.8</ele>
			 </trkpt>
			 <trkpt lat="29.379696" lon="-98.490327">
				 <ele>172.2</ele>
			 </trkpt>
			 <trkpt lat="29.37963" lon="-98.490043">
				 <ele>172.7</ele>
			 </trkpt>
			 <trkpt lat="29.379591" lon="-98.48975">
				 <ele>173.4</ele>
			 </trkpt>
			 <trkpt lat="29.379508" lon="-98.489119">
				 <ele>174</ele>
			 </trkpt>
			 <trkpt lat="29.379424" lon="-98.488902">
				 <ele>174.7</ele>
			 </trkpt>
			 <trkpt lat="29.379239" lon="-98.488583">
				 <ele>175.4</ele>
			 </trkpt>
			 <trkpt lat="29.379132" lon="-98.488274">
				 <ele>175.9</ele>
			 </trkpt>
			 <trkpt lat="29.379113" lon="-98.488299">
				 <ele>176.5</ele>
			 </trkpt>
			 <trkpt lat="29.379099" lon="-98.488332">
				 <ele>177.1</ele>
			 </trkpt>
			 <trkpt lat="29.379102" lon="-98.488466">
				 <ele>177.7</ele>
			 </trkpt>
			 <trkpt lat="29.379119" lon="-98.488522">
				 <ele>178.3</ele>
			 </trkpt>
			 <trkpt lat="29.379194" lon="-98.488644">
				 <ele>178.5</ele>
			 </trkpt>
			 <trkpt lat="29.379198" lon="-98.488729">
				 <ele>178.6</ele>
			 </trkpt>
			 <trkpt lat="29.379152" lon="-98.488801">
				 <ele>178.7</ele>
			 </trkpt>
			 <trkpt lat="29.37901" lon="-98.488824">
				 <ele>178.7</ele>
			 </trkpt>
			 <trkpt lat="29.378976" lon="-98.488891">
				 <ele>178.4</ele>
			 </trkpt>
			 <trkpt lat="29.379024" lon="-98.488904">
				 <ele>178.4</ele>
			 </trkpt>
			 <trkpt lat="29.379065" lon="-98.489">
				 <ele>178.4</ele>
			 </trkpt>
			 <trkpt lat="29.379069" lon="-98.489068">
				 <ele>178.5</ele>
			 </trkpt>
			 <trkpt lat="29.379334" lon="-98.489192">
				 <ele>178.4</ele>
			 </trkpt>
			 <trkpt lat="29.380132" lon="-98.489444">
				 <ele>178.2</ele>
			 </trkpt>
			 <trkpt lat="29.380301" lon="-98.489495">
				 <ele>177.9</ele>
			 </trkpt>
			 <trkpt lat="29.380955" lon="-98.489719">
				 <ele>177.6</ele>
			 </trkpt>
			 <trkpt lat="29.381185" lon="-98.489771">
				 <ele>177.5</ele>
			 </trkpt>
			 <trkpt lat="29.381586" lon="-98.489717">
				 <ele>177.3</ele>
			 </trkpt>
			 <trkpt lat="29.381972" lon="-98.489635">
				 <ele>177.4</ele>
			 </trkpt>
			 <trkpt lat="29.382296" lon="-98.489518">
				 <ele>177.7</ele>
			 </trkpt>
			 <trkpt lat="29.382467" lon="-98.489476">
				 <ele>177.6</ele>
			 </trkpt>
			 <trkpt lat="29.382244" lon="-98.48958">
				 <ele>177.7</ele>
			 </trkpt>
			 <trkpt lat="29.38198" lon="-98.489675">
				 <ele>177.7</ele>
			 </trkpt>
			 <trkpt lat="29.381432" lon="-98.489781">
				 <ele>177.5</ele>
			 </trkpt>
			 <trkpt lat="29.381183" lon="-98.489812">
				 <ele>177.6</ele>
			 </trkpt>
			 <trkpt lat="29.380947" lon="-98.489759">
				 <ele>177.8</ele>
			 </trkpt>
			 <trkpt lat="29.380327" lon="-98.489548">
				 <ele>178.1</ele>
			 </trkpt>
			 <trkpt lat="29.380291" lon="-98.489535">
				 <ele>178.3</ele>
			 </trkpt>
			 <trkpt lat="29.379414" lon="-98.489268">
				 <ele>178.5</ele>
			 </trkpt>
			 <trkpt lat="29.379242" lon="-98.489197">
				 <ele>178.5</ele>
			 </trkpt>
			 <trkpt lat="29.37915" lon="-98.489134">
				 <ele>178.5</ele>
			 </trkpt>
			 <trkpt lat="29.379045" lon="-98.489088">
				 <ele>178.5</ele>
			 </trkpt>
			 <trkpt lat="29.379031" lon="-98.48901">
				 <ele>178.5</ele>
			 </trkpt>
			 <trkpt lat="29.378998" lon="-98.48893">
				 <ele>178.5</ele>
			 </trkpt>
			 <trkpt lat="29.378951" lon="-98.488896">
				 <ele>178.8</ele>
			 </trkpt>
			 <trkpt lat="29.378993" lon="-98.488791">
				 <ele>178.9</ele>
			 </trkpt>
			 <trkpt lat="29.379136" lon="-98.488768">
				 <ele>178.9</ele>
			 </trkpt>
			 <trkpt lat="29.379166" lon="-98.488716">
				 <ele>178.8</ele>
			 </trkpt>
			 <trkpt lat="29.379161" lon="-98.488656">
				 <ele>178.6</ele>
			 </trkpt>
			 <trkpt lat="29.379087" lon="-98.48854">
				 <ele>178.3</ele>
			 </trkpt>
			 <trkpt lat="29.379067" lon="-98.488473">
				 <ele>177.8</ele>
			 </trkpt>
			 <trkpt lat="29.379066" lon="-98.488321">
				 <ele>177.3</ele>
			 </trkpt>
			 <trkpt lat="29.379092" lon="-98.488268">
				 <ele>176.7</ele>
			 </trkpt>
			 <trkpt lat="29.379142" lon="-98.488244">
				 <ele>176.2</ele>
			 </trkpt>
			 <trkpt lat="29.379077" lon="-98.488">
				 <ele>175.6</ele>
			 </trkpt>
			 <trkpt lat="29.379047" lon="-98.487848">
				 <ele>175</ele>
			 </trkpt>
			 <trkpt lat="29.378969" lon="-98.487654">
				 <ele>174.3</ele>
			 </trkpt>
			 <trkpt lat="29.378897" lon="-98.487525">
				 <ele>173.5</ele>
			 </trkpt>
			 <trkpt lat="29.378809" lon="-98.487405">
				 <ele>172.9</ele>
			 </trkpt>
			 <trkpt lat="29.378344" lon="-98.48686">
				 <ele>172.5</ele>
			 </trkpt>
			 <trkpt lat="29.377927" lon="-98.486372">
				 <ele>172.3</ele>
			 </trkpt>
			 <trkpt lat="29.377766" lon="-98.486161">
				 <ele>172.4</ele>
			 </trkpt>
			 <trkpt lat="29.377574" lon="-98.485837">
				 <ele>172.5</ele>
			 </trkpt>
			 <trkpt lat="29.377107" lon="-98.484915">
				 <ele>172.6</ele>
			 </trkpt>
			 <trkpt lat="29.376954" lon="-98.484681">
				 <ele>172.6</ele>
			 </trkpt>
			 <trkpt lat="29.376864" lon="-98.484543">
				 <ele>172.6</ele>
			 </trkpt>
			 <trkpt lat="29.376504" lon="-98.484108">
				 <ele>172.8</ele>
			 </trkpt>
			 <trkpt lat="29.376155" lon="-98.483763">
				 <ele>173</ele>
			 </trkpt>
			 <trkpt lat="29.375942" lon="-98.483487">
				 <ele>173.3</ele>
			 </trkpt>
			 <trkpt lat="29.375832" lon="-98.483276">
				 <ele>173.5</ele>
			 </trkpt>
			 <trkpt lat="29.375771" lon="-98.483112">
				 <ele>173.7</ele>
			 </trkpt>
			 <trkpt lat="29.375715" lon="-98.482869">
				 <ele>173.5</ele>
			 </trkpt>
			 <trkpt lat="29.375695" lon="-98.482648">
				 <ele>173.1</ele>
			 </trkpt>
			 <trkpt lat="29.375684" lon="-98.482609">
				 <ele>172.5</ele>
			 </trkpt>
			 <trkpt lat="29.375718" lon="-98.48229">
				 <ele>172</ele>
			 </trkpt>
			 <trkpt lat="29.375865" lon="-98.481723">
				 <ele>171.5</ele>
			 </trkpt>
			 <trkpt lat="29.375881" lon="-98.48147">
				 <ele>171.2</ele>
			 </trkpt>
			 <trkpt lat="29.37588" lon="-98.481361">
				 <ele>170.9</ele>
			 </trkpt>
			 <trkpt lat="29.375836" lon="-98.481083">
				 <ele>170.9</ele>
			 </trkpt>
			 <trkpt lat="29.375692" lon="-98.480683">
				 <ele>171</ele>
			 </trkpt>
			 <trkpt lat="29.375571" lon="-98.480455">
				 <ele>170.9</ele>
			 </trkpt>
			 <trkpt lat="29.375395" lon="-98.480213">
				 <ele>170.8</ele>
			 </trkpt>
			 <trkpt lat="29.375241" lon="-98.480028">
				 <ele>171</ele>
			 </trkpt>
			 <trkpt lat="29.375015" lon="-98.479829">
				 <ele>171.3</ele>
			 </trkpt>
			 <trkpt lat="29.374629" lon="-98.479572">
				 <ele>171.5</ele>
			 </trkpt>
			 <trkpt lat="29.374458" lon="-98.479396">
				 <ele>171.6</ele>
			 </trkpt>
			 <trkpt lat="29.37438" lon="-98.479247">
				 <ele>171.7</ele>
			 </trkpt>
			 <trkpt lat="29.374336" lon="-98.479162">
				 <ele>171.7</ele>
			 </trkpt>
			 <trkpt lat="29.374297" lon="-98.47902">
				 <ele>171.6</ele>
			 </trkpt>
			 <trkpt lat="29.374249" lon="-98.478626">
				 <ele>171.5</ele>
			 </trkpt>
			 <trkpt lat="29.374152" lon="-98.478426">
				 <ele>171.3</ele>
			 </trkpt>
			 <trkpt lat="29.37402" lon="-98.478297">
				 <ele>171.3</ele>
			 </trkpt>
			 <trkpt lat="29.373854" lon="-98.478222">
				 <ele>171.3</ele>
			 </trkpt>
			 <trkpt lat="29.373719" lon="-98.478213">
				 <ele>171.3</ele>
			 </trkpt>
			 <trkpt lat="29.373631" lon="-98.478224">
				 <ele>171.2</ele>
			 </trkpt>
			 <trkpt lat="29.373468" lon="-98.478244">
				 <ele>170.9</ele>
			 </trkpt>
			 <trkpt lat="29.373294" lon="-98.478242">
				 <ele>170.9</ele>
			 </trkpt>
			 <trkpt lat="29.373076" lon="-98.4782">
				 <ele>170.9</ele>
			 </trkpt>
			 <trkpt lat="29.372857" lon="-98.478114">
				 <ele>171</ele>
			 </trkpt>
			 <trkpt lat="29.372642" lon="-98.477976">
				 <ele>171</ele>
			 </trkpt>
			 <trkpt lat="29.372249" lon="-98.477611">
				 <ele>170.9</ele>
			 </trkpt>
			 <trkpt lat="29.372142" lon="-98.477532">
				 <ele>170.7</ele>
			 </trkpt>
			 <trkpt lat="29.371963" lon="-98.477447">
				 <ele>170.5</ele>
			 </trkpt>
			 <trkpt lat="29.371596" lon="-98.477334">
				 <ele>170.1</ele>
			 </trkpt>
			 <trkpt lat="29.371287" lon="-98.477206">
				 <ele>169.6</ele>
			 </trkpt>
			 <trkpt lat="29.371053" lon="-98.47707">
				 <ele>169.2</ele>
			 </trkpt>
			 <trkpt lat="29.370761" lon="-98.476856">
				 <ele>168.9</ele>
			 </trkpt>
			 <trkpt lat="29.370577" lon="-98.476688">
				 <ele>168.6</ele>
			 </trkpt>
			 <trkpt lat="29.370355" lon="-98.476442">
				 <ele>168.4</ele>
			 </trkpt>
			 <trkpt lat="29.370178" lon="-98.476197">
				 <ele>168.1</ele>
			 </trkpt>
			 <trkpt lat="29.370019" lon="-98.475919">
				 <ele>167.8</ele>
			 </trkpt>
			 <trkpt lat="29.369821" lon="-98.475516">
				 <ele>167.5</ele>
			 </trkpt>
			 <trkpt lat="29.369737" lon="-98.475386">
				 <ele>167.5</ele>
			 </trkpt>
			 <trkpt lat="29.369577" lon="-98.475142">
				 <ele>167.4</ele>
			 </trkpt>
			 <trkpt lat="29.369304" lon="-98.474913">
				 <ele>167.5</ele>
			 </trkpt>
			 <trkpt lat="29.369145" lon="-98.474666">
				 <ele>167.8</ele>
			 </trkpt>
			 <trkpt lat="29.369046" lon="-98.474549">
				 <ele>168.2</ele>
			 </trkpt>
			 <trkpt lat="29.368831" lon="-98.474396">
				 <ele>168.6</ele>
			 </trkpt>
			 <trkpt lat="29.36878" lon="-98.474342">
				 <ele>169.1</ele>
			 </trkpt>
			 <trkpt lat="29.368625" lon="-98.474485">
				 <ele>169.5</ele>
			 </trkpt>
			 <trkpt lat="29.368612" lon="-98.474588">
				 <ele>169.9</ele>
			 </trkpt>
			 <trkpt lat="29.368581" lon="-98.47468">
				 <ele>170.3</ele>
			 </trkpt>
			 <trkpt lat="29.368539" lon="-98.474731">
				 <ele>170.6</ele>
			 </trkpt>
			 <trkpt lat="29.368411" lon="-98.474797">
				 <ele>170.8</ele>
			 </trkpt>
			 <trkpt lat="29.368313" lon="-98.474803">
				 <ele>171.1</ele>
			 </trkpt>
			 <trkpt lat="29.368245" lon="-98.474824">
				 <ele>171.2</ele>
			 </trkpt>
			 <trkpt lat="29.368194" lon="-98.47486">
				 <ele>171.3</ele>
			 </trkpt>
			 <trkpt lat="29.368131" lon="-98.474903">
				 <ele>171.4</ele>
			 </trkpt>
			 <trkpt lat="29.368041" lon="-98.475088">
				 <ele>171.5</ele>
			 </trkpt>
			 <trkpt lat="29.368078" lon="-98.475302">
				 <ele>171.7</ele>
			 </trkpt>
			 <trkpt lat="29.368107" lon="-98.475379">
				 <ele>171.9</ele>
			 </trkpt>
			 <trkpt lat="29.368046" lon="-98.475452">
				 <ele>172</ele>
			 </trkpt>
			 <trkpt lat="29.367933" lon="-98.47555">
				 <ele>172.1</ele>
			 </trkpt>
			 <trkpt lat="29.367256" lon="-98.476131">
				 <ele>172.1</ele>
			 </trkpt>
			 <trkpt lat="29.366537" lon="-98.476747">
				 <ele>172.1</ele>
			 </trkpt>
			 <trkpt lat="29.366509" lon="-98.47677">
				 <ele>172</ele>
			 </trkpt>
			 <trkpt lat="29.365869" lon="-98.476238">
				 <ele>171.9</ele>
			 </trkpt>
			 <trkpt lat="29.365232" lon="-98.475688">
				 <ele>171.7</ele>
			 </trkpt>
			 <trkpt lat="29.364597" lon="-98.475138">
				 <ele>171.5</ele>
			 </trkpt>
			 <trkpt lat="29.363957" lon="-98.474589">
				 <ele>171.2</ele>
			 </trkpt>
			 <trkpt lat="29.363676" lon="-98.474397">
				 <ele>170.9</ele>
			 </trkpt>
			 <trkpt lat="29.363403" lon="-98.47426">
				 <ele>170.5</ele>
			 </trkpt>
			 <trkpt lat="29.363166" lon="-98.474171">
				 <ele>170.3</ele>
			 </trkpt>
			 <trkpt lat="29.362311" lon="-98.473849">
				 <ele>170</ele>
			 </trkpt>
			 <trkpt lat="29.361455" lon="-98.473527">
				 <ele>169.8</ele>
			 </trkpt>
			 <trkpt lat="29.360599" lon="-98.473209">
				 <ele>169.6</ele>
			 </trkpt>
			 <trkpt lat="29.360346" lon="-98.47312">
				 <ele>169.5</ele>
			 </trkpt>
			 <trkpt lat="29.360219" lon="-98.473095">
				 <ele>169.4</ele>
			 </trkpt>
			 <trkpt lat="29.360012" lon="-98.473089">
				 <ele>169.4</ele>
			 </trkpt>
			 <trkpt lat="29.359702" lon="-98.473148">
				 <ele>169.4</ele>
			 </trkpt>
			 <trkpt lat="29.359334" lon="-98.473254">
				 <ele>169.5</ele>
			 </trkpt>
			 <trkpt lat="29.359306" lon="-98.473227">
				 <ele>169.5</ele>
			 </trkpt>
			 <trkpt lat="29.358889" lon="-98.473442">
				 <ele>169.5</ele>
			 </trkpt>
			 <trkpt lat="29.358422" lon="-98.473619">
				 <ele>169.5</ele>
			 </trkpt>
			 <trkpt lat="29.358235" lon="-98.473699">
				 <ele>169.5</ele>
			 </trkpt>
			 <trkpt lat="29.358132" lon="-98.473715">
				 <ele>169.5</ele>
			 </trkpt>
			 <trkpt lat="29.357716" lon="-98.473517">
				 <ele>169.7</ele>
			 </trkpt>
			 <trkpt lat="29.357496" lon="-98.473399">
				 <ele>169.9</ele>
			 </trkpt>
			 <trkpt lat="29.357234" lon="-98.473377">
				 <ele>170.1</ele>
			 </trkpt>
			 <trkpt lat="29.357033" lon="-98.473436">
				 <ele>170.4</ele>
			 </trkpt>
			 <trkpt lat="29.356631" lon="-98.47371">
				 <ele>170.6</ele>
			 </trkpt>
			 <trkpt lat="29.356439" lon="-98.473967">
				 <ele>170.7</ele>
			 </trkpt>
			 <trkpt lat="29.356252" lon="-98.474059">
				 <ele>170.5</ele>
			 </trkpt>
			 <trkpt lat="29.355874" lon="-98.474209">
				 <ele>170.4</ele>
			 </trkpt>
			 <trkpt lat="29.355649" lon="-98.474246">
				 <ele>170.2</ele>
			 </trkpt>
			 <trkpt lat="29.355612" lon="-98.474321">
				 <ele>169.9</ele>
			 </trkpt>
			 <trkpt lat="29.354579" lon="-98.474348">
				 <ele>169.5</ele>
			 </trkpt>
			 <trkpt lat="29.354438" lon="-98.47312">
				 <ele>169.1</ele>
			 </trkpt>
			 <trkpt lat="29.354256" lon="-98.472814">
				 <ele>168.7</ele>
			 </trkpt>
			 <trkpt lat="29.353985" lon="-98.472498">
				 <ele>168.3</ele>
			 </trkpt>
			 <trkpt lat="29.353742" lon="-98.472143">
				 <ele>167.7</ele>
			 </trkpt>
			 <trkpt lat="29.353564" lon="-98.471484">
				 <ele>167.2</ele>
			 </trkpt>
			 <trkpt lat="29.353325" lon="-98.470845">
				 <ele>166.8</ele>
			 </trkpt>
			 <trkpt lat="29.353195" lon="-98.470405">
				 <ele>166.7</ele>
			 </trkpt>
			 <trkpt lat="29.353157" lon="-98.469842">
				 <ele>166.6</ele>
			 </trkpt>
			 <trkpt lat="29.353116" lon="-98.469135">
				 <ele>166.5</ele>
			 </trkpt>
			 <trkpt lat="29.353083" lon="-98.46904">
				 <ele>166.3</ele>
			 </trkpt>
			 <trkpt lat="29.35303" lon="-98.468985">
				 <ele>166.2</ele>
			 </trkpt>
			 <trkpt lat="29.353008" lon="-98.468961">
				 <ele>166</ele>
			 </trkpt>
			 <trkpt lat="29.352834" lon="-98.468881">
				 <ele>165.8</ele>
			 </trkpt>
			 <trkpt lat="29.352124" lon="-98.468575">
				 <ele>165.6</ele>
			 </trkpt>
			 <trkpt lat="29.351906" lon="-98.468512">
				 <ele>165.5</ele>
			 </trkpt>
			 <trkpt lat="29.351311" lon="-98.468457">
				 <ele>165.2</ele>
			 </trkpt>
			 <trkpt lat="29.351054" lon="-98.468477">
				 <ele>164.9</ele>
			 </trkpt>
			 <trkpt lat="29.350846" lon="-98.468462">
				 <ele>164.6</ele>
			 </trkpt>
			 <trkpt lat="29.349935" lon="-98.468385">
				 <ele>164.5</ele>
			 </trkpt>
			 <trkpt lat="29.349473" lon="-98.468295">
				 <ele>164.4</ele>
			 </trkpt>
			 <trkpt lat="29.349048" lon="-98.468145">
				 <ele>164.4</ele>
			 </trkpt>
			 <trkpt lat="29.348961" lon="-98.468114">
				 <ele>164.4</ele>
			 </trkpt>
			 <trkpt lat="29.34857" lon="-98.467904">
				 <ele>164.3</ele>
			 </trkpt>
			 <trkpt lat="29.348289" lon="-98.467669">
				 <ele>164.2</ele>
			 </trkpt>
			 <trkpt lat="29.348102" lon="-98.467488">
				 <ele>164.1</ele>
			 </trkpt>
			 <trkpt lat="29.347789" lon="-98.467129">
				 <ele>163.9</ele>
			 </trkpt>
			 <trkpt lat="29.347674" lon="-98.466956">
				 <ele>163.8</ele>
			 </trkpt>
			 <trkpt lat="29.347045" lon="-98.465998">
				 <ele>163.6</ele>
			 </trkpt>
			 <trkpt lat="29.346629" lon="-98.465377">
				 <ele>163.3</ele>
			 </trkpt>
			 <trkpt lat="29.34638" lon="-98.465066">
				 <ele>162.9</ele>
			 </trkpt>
			 <trkpt lat="29.346276" lon="-98.464935">
				 <ele>162.6</ele>
			 </trkpt>
			 <trkpt lat="29.346229" lon="-98.464848">
				 <ele>162.4</ele>
			 </trkpt>
			 <trkpt lat="29.346198" lon="-98.46469">
				 <ele>162.1</ele>
			 </trkpt>
			 <trkpt lat="29.346219" lon="-98.464462">
				 <ele>161.7</ele>
			 </trkpt>
			 <trkpt lat="29.346224" lon="-98.464427">
				 <ele>161.4</ele>
			 </trkpt>
			 <trkpt lat="29.346147" lon="-98.464427">
				 <ele>161.1</ele>
			 </trkpt>
			 <trkpt lat="29.346107" lon="-98.464379">
				 <ele>160.9</ele>
			 </trkpt>
			 <trkpt lat="29.346073" lon="-98.464244">
				 <ele>160.5</ele>
			 </trkpt>
			 <trkpt lat="29.346029" lon="-98.464162">
				 <ele>160.2</ele>
			 </trkpt>
			 <trkpt lat="29.345855" lon="-98.463948">
				 <ele>160</ele>
			 </trkpt>
			 <trkpt lat="29.345829" lon="-98.463911">
				 <ele>159.8</ele>
			 </trkpt>
			 <trkpt lat="29.345736" lon="-98.463771">
				 <ele>159.5</ele>
			 </trkpt>
			 <trkpt lat="29.345569" lon="-98.463289">
				 <ele>159.3</ele>
			 </trkpt>
			 <trkpt lat="29.345205" lon="-98.462503">
				 <ele>159.1</ele>
			 </trkpt>
			 <trkpt lat="29.345164" lon="-98.462387">
				 <ele>159</ele>
			 </trkpt>
			 <trkpt lat="29.345085" lon="-98.462157">
				 <ele>158.9</ele>
			 </trkpt>
			 <trkpt lat="29.344971" lon="-98.461945">
				 <ele>158.9</ele>
			 </trkpt>
			 <trkpt lat="29.344841" lon="-98.461771">
				 <ele>158.9</ele>
			 </trkpt>
			 <trkpt lat="29.344611" lon="-98.461536">
				 <ele>159.1</ele>
			 </trkpt>
			 <trkpt lat="29.344423" lon="-98.461311">
				 <ele>159.4</ele>
			 </trkpt>
			 <trkpt lat="29.344307" lon="-98.461215">
				 <ele>159.6</ele>
			 </trkpt>
			 <trkpt lat="29.344016" lon="-98.460971">
				 <ele>159.9</ele>
			 </trkpt>
			 <trkpt lat="29.343744" lon="-98.46063">
				 <ele>160.2</ele>
			 </trkpt>
			 <trkpt lat="29.34361" lon="-98.460503">
				 <ele>160.4</ele>
			 </trkpt>
			 <trkpt lat="29.343487" lon="-98.460385">
				 <ele>160.5</ele>
			 </trkpt>
			 <trkpt lat="29.343304" lon="-98.460255">
				 <ele>160.5</ele>
			 </trkpt>
			 <trkpt lat="29.34296" lon="-98.460066">
				 <ele>160.7</ele>
			 </trkpt>
			 <trkpt lat="29.34284" lon="-98.460021">
				 <ele>160.8</ele>
			 </trkpt>
			 <trkpt lat="29.34245" lon="-98.459925">
				 <ele>161</ele>
			 </trkpt>
			 <trkpt lat="29.34215" lon="-98.459928">
				 <ele>161.2</ele>
			 </trkpt>
			 <trkpt lat="29.34199" lon="-98.459947">
				 <ele>161.4</ele>
			 </trkpt>
			 <trkpt lat="29.34134" lon="-98.460088">
				 <ele>161.5</ele>
			 </trkpt>
			 <trkpt lat="29.341084" lon="-98.460169">
				 <ele>161.7</ele>
			 </trkpt>
			 <trkpt lat="29.340733" lon="-98.460341">
				 <ele>161.9</ele>
			 </trkpt>
			 <trkpt lat="29.340333" lon="-98.460626">
				 <ele>162.1</ele>
			 </trkpt>
			 <trkpt lat="29.3401" lon="-98.460761">
				 <ele>162.3</ele>
			 </trkpt>
			 <trkpt lat="29.339936" lon="-98.460811">
				 <ele>162.5</ele>
			 </trkpt>
			 <trkpt lat="29.339731" lon="-98.460836">
				 <ele>162.5</ele>
			 </trkpt>
			 <trkpt lat="29.339486" lon="-98.460802">
				 <ele>162.5</ele>
			 </trkpt>
			 <trkpt lat="29.339281" lon="-98.460726">
				 <ele>162.3</ele>
			 </trkpt>
			 <trkpt lat="29.339065" lon="-98.460583">
				 <ele>161.9</ele>
			 </trkpt>
			 <trkpt lat="29.338905" lon="-98.460418">
				 <ele>161.6</ele>
			 </trkpt>
			 <trkpt lat="29.33868" lon="-98.460075">
				 <ele>161.4</ele>
			 </trkpt>
			 <trkpt lat="29.338548" lon="-98.459919">
				 <ele>161.1</ele>
			 </trkpt>
			 <trkpt lat="29.338464" lon="-98.459851">
				 <ele>160.9</ele>
			 </trkpt>
			 <trkpt lat="29.337786" lon="-98.459308">
				 <ele>160.8</ele>
			 </trkpt>
			 <trkpt lat="29.337356" lon="-98.458906">
				 <ele>160.6</ele>
			 </trkpt>
			 <trkpt lat="29.337188" lon="-98.458749">
				 <ele>160.5</ele>
			 </trkpt>
			 <trkpt lat="29.337023" lon="-98.458636">
				 <ele>160.4</ele>
			 </trkpt>
			 <trkpt lat="29.336898" lon="-98.45857">
				 <ele>160.3</ele>
			 </trkpt>
			 <trkpt lat="29.33616" lon="-98.458243">
				 <ele>160.1</ele>
			 </trkpt>
			 <trkpt lat="29.335963" lon="-98.458176">
				 <ele>160.2</ele>
			 </trkpt>
			 <trkpt lat="29.335661" lon="-98.458128">
				 <ele>160.2</ele>
			 </trkpt>
			 <trkpt lat="29.335051" lon="-98.458154">
				 <ele>160.2</ele>
			 </trkpt>
			 <trkpt lat="29.334741" lon="-98.458235">
				 <ele>159.9</ele>
			 </trkpt>
			 <trkpt lat="29.334621" lon="-98.458266">
				 <ele>159.8</ele>
			 </trkpt>
			 <trkpt lat="29.334288" lon="-98.458424">
				 <ele>159.7</ele>
			 </trkpt>
			 <trkpt lat="29.333743" lon="-98.458597">
				 <ele>159.6</ele>
			 </trkpt>
			 <trkpt lat="29.333532" lon="-98.458697">
				 <ele>159.4</ele>
			 </trkpt>
			 <trkpt lat="29.33339" lon="-98.458744">
				 <ele>159.2</ele>
			 </trkpt>
			 <trkpt lat="29.332747" lon="-98.458821">
				 <ele>159</ele>
			 </trkpt>
			 <trkpt lat="29.331936" lon="-98.458921">
				 <ele>158.8</ele>
			 </trkpt>
			 <trkpt lat="29.331675" lon="-98.458874">
				 <ele>158.5</ele>
			 </trkpt>
			 <trkpt lat="29.33151" lon="-98.458865">
				 <ele>158</ele>
			 </trkpt>
			 <trkpt lat="29.330931" lon="-98.458861">
				 <ele>157.5</ele>
			 </trkpt>
			 <trkpt lat="29.330733" lon="-98.458834">
				 <ele>157.3</ele>
			 </trkpt>
			 <trkpt lat="29.330625" lon="-98.458788">
				 <ele>156.9</ele>
			 </trkpt>
			 <trkpt lat="29.330578" lon="-98.458769">
				 <ele>156.6</ele>
			 </trkpt>
			 <trkpt lat="29.329732" lon="-98.458165">
				 <ele>156.5</ele>
			 </trkpt>
			 <trkpt lat="29.329548" lon="-98.458094">
				 <ele>156.3</ele>
			 </trkpt>
			 <trkpt lat="29.329205" lon="-98.458046">
				 <ele>156</ele>
			 </trkpt>
			 <trkpt lat="29.328999" lon="-98.457992">
				 <ele>155.6</ele>
			 </trkpt>
			 <trkpt lat="29.328738" lon="-98.457883">
				 <ele>155.3</ele>
			 </trkpt>
			 <trkpt lat="29.328523" lon="-98.45776">
				 <ele>154.9</ele>
			 </trkpt>
			 <trkpt lat="29.328302" lon="-98.457587">
				 <ele>154.8</ele>
			 </trkpt>
			 <trkpt lat="29.32805" lon="-98.457312">
				 <ele>154.8</ele>
			 </trkpt>
			 <trkpt lat="29.327743" lon="-98.456875">
				 <ele>154.7</ele>
			 </trkpt>
			 <trkpt lat="29.32759" lon="-98.456695">
				 <ele>154.6</ele>
			 </trkpt>
			 <trkpt lat="29.327419" lon="-98.456537">
				 <ele>154.5</ele>
			 </trkpt>
			 <trkpt lat="29.327144" lon="-98.456339">
				 <ele>154.4</ele>
			 </trkpt>
			 <trkpt lat="29.327322" lon="-98.455871">
				 <ele>154.3</ele>
			 </trkpt>
			 <trkpt lat="29.327369" lon="-98.455791">
				 <ele>154.3</ele>
			 </trkpt>
			 <trkpt lat="29.327456" lon="-98.455775">
				 <ele>154.5</ele>
			 </trkpt>
			 <trkpt lat="29.327505" lon="-98.455802">
				 <ele>154.8</ele>
			 </trkpt>
			 <trkpt lat="29.327734" lon="-98.455949">
				 <ele>155.2</ele>
			 </trkpt>
			 <trkpt lat="29.328017" lon="-98.456219">
				 <ele>155.6</ele>
			 </trkpt>
			 <trkpt lat="29.328368" lon="-98.456487">
				 <ele>156</ele>
			 </trkpt>
			 <trkpt lat="29.328818" lon="-98.456734">
				 <ele>156.4</ele>
			 </trkpt>
			 <trkpt lat="29.328996" lon="-98.45681">
				 <ele>156.6</ele>
			 </trkpt>
			 <trkpt lat="29.329087" lon="-98.456826">
				 <ele>156.9</ele>
			 </trkpt>
			 <trkpt lat="29.329218" lon="-98.456811">
				 <ele>157.1</ele>
			 </trkpt>
			 <trkpt lat="29.329283" lon="-98.45678">
				 <ele>157.4</ele>
			 </trkpt>
			 <trkpt lat="29.329634" lon="-98.456463">
				 <ele>157.7</ele>
			 </trkpt>
			 <trkpt lat="29.329755" lon="-98.456393">
				 <ele>158</ele>
			 </trkpt>
			 <trkpt lat="29.330064" lon="-98.456327">
				 <ele>158.2</ele>
			 </trkpt>
			 <trkpt lat="29.330448" lon="-98.456172">
				 <ele>158.4</ele>
			 </trkpt>
			 <trkpt lat="29.330556" lon="-98.456142">
				 <ele>158.5</ele>
			 </trkpt>
			 <trkpt lat="29.330963" lon="-98.456146">
				 <ele>158.6</ele>
			 </trkpt>
			 <trkpt lat="29.331038" lon="-98.456133">
				 <ele>158.8</ele>
			 </trkpt>
			 <trkpt lat="29.331268" lon="-98.456017">
				 <ele>159</ele>
			 </trkpt>
			 <trkpt lat="29.331365" lon="-98.455969">
				 <ele>159.2</ele>
			 </trkpt>
			 <trkpt lat="29.331383" lon="-98.455873">
				 <ele>159.4</ele>
			 </trkpt>
			 <trkpt lat="29.331543" lon="-98.455671">
				 <ele>159.5</ele>
			 </trkpt>
			 <trkpt lat="29.331586" lon="-98.455651">
				 <ele>159.7</ele>
			 </trkpt>
			 <trkpt lat="29.331692" lon="-98.455649">
				 <ele>159.9</ele>
			 </trkpt>
			 <trkpt lat="29.331895" lon="-98.455594">
				 <ele>160.1</ele>
			 </trkpt>
			 <trkpt lat="29.331935" lon="-98.455551">
				 <ele>160.3</ele>
			 </trkpt>
			 <trkpt lat="29.331951" lon="-98.455473">
				 <ele>160.5</ele>
			 </trkpt>
			 <trkpt lat="29.331979" lon="-98.455213">
				 <ele>160.5</ele>
			 </trkpt>
			 <trkpt lat="29.332032" lon="-98.454819">
				 <ele>160.6</ele>
			 </trkpt>
			 <trkpt lat="29.332071" lon="-98.454759">
				 <ele>160.7</ele>
			 </trkpt>
			 <trkpt lat="29.332645" lon="-98.454651">
				 <ele>160.9</ele>
			 </trkpt>
			 <trkpt lat="29.332878" lon="-98.45462">
				 <ele>161.1</ele>
			 </trkpt>
			 <trkpt lat="29.332977" lon="-98.454644">
				 <ele>161.3</ele>
			 </trkpt>
			 <trkpt lat="29.33304" lon="-98.454681">
				 <ele>161.4</ele>
			 </trkpt>
			 <trkpt lat="29.333184" lon="-98.454819">
				 <ele>161.5</ele>
			 </trkpt>
			 <trkpt lat="29.333442" lon="-98.454743">
				 <ele>161.5</ele>
			 </trkpt>
			 <trkpt lat="29.333538" lon="-98.454729">
				 <ele>161.6</ele>
			 </trkpt>
			 <trkpt lat="29.333653" lon="-98.454765">
				 <ele>161.7</ele>
			 </trkpt>
			 <trkpt lat="29.33369" lon="-98.454796">
				 <ele>161.8</ele>
			 </trkpt>
			 <trkpt lat="29.333879" lon="-98.454767">
				 <ele>162</ele>
			 </trkpt>
			 <trkpt lat="29.334058" lon="-98.454774">
				 <ele>162</ele>
			 </trkpt>
			 <trkpt lat="29.334121" lon="-98.454762">
				 <ele>161.9</ele>
			 </trkpt>
			 <trkpt lat="29.3342" lon="-98.454742">
				 <ele>161.8</ele>
			 </trkpt>
			 <trkpt lat="29.334224" lon="-98.454762">
				 <ele>161.7</ele>
			 </trkpt>
			 <trkpt lat="29.334513" lon="-98.454688">
				 <ele>161.6</ele>
			 </trkpt>
			 <trkpt lat="29.335224" lon="-98.454752">
				 <ele>161.5</ele>
			 </trkpt>
			 <trkpt lat="29.335748" lon="-98.455149">
				 <ele>161.6</ele>
			 </trkpt>
			 <trkpt lat="29.336506" lon="-98.456082">
				 <ele>161.7</ele>
			 </trkpt>
			 <trkpt lat="29.336534" lon="-98.456051">
				 <ele>161.9</ele>
			 </trkpt>
			 <trkpt lat="29.337115" lon="-98.456738">
				 <ele>162.1</ele>
			 </trkpt>
			 <trkpt lat="29.337511" lon="-98.457266">
				 <ele>162.2</ele>
			 </trkpt>
			 <trkpt lat="29.33804" lon="-98.45786">
				 <ele>162.5</ele>
			 </trkpt>
			 <trkpt lat="29.338164" lon="-98.457984">
				 <ele>162.7</ele>
			 </trkpt>
			 <trkpt lat="29.338363" lon="-98.458136">
				 <ele>163</ele>
			 </trkpt>
			 <trkpt lat="29.338929" lon="-98.458489">
				 <ele>163.3</ele>
			 </trkpt>
			 <trkpt lat="29.3391" lon="-98.458595">
				 <ele>163.6</ele>
			 </trkpt>
			 <trkpt lat="29.339267" lon="-98.458664">
				 <ele>163.9</ele>
			 </trkpt>
			 <trkpt lat="29.33959" lon="-98.458735">
				 <ele>164</ele>
			 </trkpt>
			 <trkpt lat="29.339776" lon="-98.458734">
				 <ele>164.1</ele>
			 </trkpt>
			 <trkpt lat="29.340226" lon="-98.458687">
				 <ele>164.1</ele>
			 </trkpt>
			 <trkpt lat="29.341047" lon="-98.458598">
				 <ele>164.2</ele>
			 </trkpt>
			 <trkpt lat="29.341338" lon="-98.458546">
				 <ele>164.1</ele>
			 </trkpt>
			 <trkpt lat="29.341706" lon="-98.458442">
				 <ele>164</ele>
			 </trkpt>
			 <trkpt lat="29.342056" lon="-98.458343">
				 <ele>164</ele>
			 </trkpt>
			 <trkpt lat="29.34246" lon="-98.45836">
				 <ele>164</ele>
			 </trkpt>
			 <trkpt lat="29.34262" lon="-98.45835">
				 <ele>164</ele>
			 </trkpt>
			 <trkpt lat="29.343414" lon="-98.458238">
				 <ele>164</ele>
			 </trkpt>
			 <trkpt lat="29.343738" lon="-98.45831">
				 <ele>164</ele>
			 </trkpt>
			 <trkpt lat="29.344643" lon="-98.458695">
				 <ele>164</ele>
			 </trkpt>
			 <trkpt lat="29.34484" lon="-98.458803">
				 <ele>164</ele>
			 </trkpt>
			 <trkpt lat="29.345006" lon="-98.458947">
				 <ele>164</ele>
			 </trkpt>
			 <trkpt lat="29.34514" lon="-98.459123">
				 <ele>163.9</ele>
			 </trkpt>
			 <trkpt lat="29.346396" lon="-98.461315">
				 <ele>164</ele>
			 </trkpt>
			 <trkpt lat="29.346472" lon="-98.461544">
				 <ele>164.2</ele>
			 </trkpt>
			 <trkpt lat="29.346502" lon="-98.461755">
				 <ele>164.3</ele>
			 </trkpt>
			 <trkpt lat="29.346494" lon="-98.462135">
				 <ele>164.4</ele>
			 </trkpt>
			 <trkpt lat="29.346481" lon="-98.462762">
				 <ele>164.5</ele>
			 </trkpt>
			 <trkpt lat="29.346623" lon="-98.462726">
				 <ele>164.5</ele>
			 </trkpt>
			 <trkpt lat="29.346752" lon="-98.462766">
				 <ele>164.5</ele>
			 </trkpt>
			 <trkpt lat="29.346757" lon="-98.462879">
				 <ele>164.6</ele>
			 </trkpt>
			 <trkpt lat="29.34677" lon="-98.463002">
				 <ele>164.7</ele>
			 </trkpt>
			 <trkpt lat="29.346802" lon="-98.463095">
				 <ele>164.8</ele>
			 </trkpt>
			 <trkpt lat="29.346866" lon="-98.463182">
				 <ele>164.9</ele>
			 </trkpt>
			 <trkpt lat="29.347037" lon="-98.463252">
				 <ele>165</ele>
			 </trkpt>
			 <trkpt lat="29.3472" lon="-98.463397">
				 <ele>165</ele>
			 </trkpt>
			 <trkpt lat="29.347275" lon="-98.463514">
				 <ele>165</ele>
			 </trkpt>
			 <trkpt lat="29.347315" lon="-98.463696">
				 <ele>165</ele>
			 </trkpt>
			 <trkpt lat="29.347313" lon="-98.463876">
				 <ele>165</ele>
			 </trkpt>
			 <trkpt lat="29.347327" lon="-98.463973">
				 <ele>165</ele>
			 </trkpt>
			 <trkpt lat="29.347379" lon="-98.464059">
				 <ele>165</ele>
			 </trkpt>
			 <trkpt lat="29.34746" lon="-98.464127">
				 <ele>165</ele>
			 </trkpt>
			 <trkpt lat="29.34755" lon="-98.464145">
				 <ele>165</ele>
			 </trkpt>
			 <trkpt lat="29.347629" lon="-98.464121">
				 <ele>165</ele>
			 </trkpt>
			 <trkpt lat="29.347701" lon="-98.464217">
				 <ele>165</ele>
			 </trkpt>
			 <trkpt lat="29.347777" lon="-98.464285">
				 <ele>165</ele>
			 </trkpt>
			 <trkpt lat="29.347894" lon="-98.464335">
				 <ele>165</ele>
			 </trkpt>
			 <trkpt lat="29.347976" lon="-98.464413">
				 <ele>165</ele>
			 </trkpt>
			 <trkpt lat="29.348033" lon="-98.464517">
				 <ele>165.1</ele>
			 </trkpt>
			 <trkpt lat="29.348067" lon="-98.464669">
				 <ele>165.1</ele>
			 </trkpt>
			 <trkpt lat="29.348057" lon="-98.464789">
				 <ele>165.1</ele>
			 </trkpt>
			 <trkpt lat="29.348033" lon="-98.464874">
				 <ele>165.1</ele>
			 </trkpt>
			 <trkpt lat="29.347957" lon="-98.464986">
				 <ele>165.1</ele>
			 </trkpt>
			 <trkpt lat="29.347949" lon="-98.465061">
				 <ele>165.2</ele>
			 </trkpt>
			 <trkpt lat="29.347963" lon="-98.465209">
				 <ele>165.3</ele>
			 </trkpt>
			 <trkpt lat="29.34801" lon="-98.465304">
				 <ele>165.4</ele>
			 </trkpt>
			 <trkpt lat="29.348088" lon="-98.465365">
				 <ele>165.5</ele>
			 </trkpt>
			 <trkpt lat="29.348214" lon="-98.465419">
				 <ele>165.5</ele>
			 </trkpt>
			 <trkpt lat="29.348396" lon="-98.465532">
				 <ele>165.5</ele>
			 </trkpt>
			 <trkpt lat="29.348549" lon="-98.465697">
				 <ele>165.5</ele>
			 </trkpt>
			 <trkpt lat="29.348714" lon="-98.465957">
				 <ele>165.6</ele>
			 </trkpt>
			 <trkpt lat="29.348798" lon="-98.466244">
				 <ele>165.8</ele>
			 </trkpt>
			 <trkpt lat="29.348821" lon="-98.466495">
				 <ele>166.1</ele>
			 </trkpt>
			 <trkpt lat="29.348869" lon="-98.466615">
				 <ele>166.4</ele>
			 </trkpt>
			 <trkpt lat="29.348966" lon="-98.466685">
				 <ele>166.5</ele>
			 </trkpt>
			 <trkpt lat="29.349209" lon="-98.466671">
				 <ele>166.7</ele>
			 </trkpt>
			 <trkpt lat="29.349385" lon="-98.466699">
				 <ele>166.9</ele>
			 </trkpt>
			 <trkpt lat="29.349492" lon="-98.466724">
				 <ele>167</ele>
			 </trkpt>
			 <trkpt lat="29.34974" lon="-98.466876">
				 <ele>167.2</ele>
			 </trkpt>
			 <trkpt lat="29.349849" lon="-98.466995">
				 <ele>167.5</ele>
			 </trkpt>
			 <trkpt lat="29.34994" lon="-98.46714">
				 <ele>167.6</ele>
			 </trkpt>
			 <trkpt lat="29.350032" lon="-98.46734">
				 <ele>167.6</ele>
			 </trkpt>
			 <trkpt lat="29.350154" lon="-98.467428">
				 <ele>167.6</ele>
			 </trkpt>
			 <trkpt lat="29.350296" lon="-98.467443">
				 <ele>167.5</ele>
			 </trkpt>
			 <trkpt lat="29.350422" lon="-98.467379">
				 <ele>167.5</ele>
			 </trkpt>
			 <trkpt lat="29.350505" lon="-98.467313">
				 <ele>167.4</ele>
			 </trkpt>
			 <trkpt lat="29.350594" lon="-98.467413">
				 <ele>167.3</ele>
			 </trkpt>
			 <trkpt lat="29.350699" lon="-98.467487">
				 <ele>167.2</ele>
			 </trkpt>
			 <trkpt lat="29.350749" lon="-98.467496">
				 <ele>167.2</ele>
			 </trkpt>
			 <trkpt lat="29.350893" lon="-98.467527">
				 <ele>167.2</ele>
			 </trkpt>
			 <trkpt lat="29.351925" lon="-98.46765">
				 <ele>166.9</ele>
			 </trkpt>
			 <trkpt lat="29.352241" lon="-98.467655">
				 <ele>166.8</ele>
			 </trkpt>
			 <trkpt lat="29.352492" lon="-98.467597">
				 <ele>166.8</ele>
			 </trkpt>
			 <trkpt lat="29.352648" lon="-98.46748">
				 <ele>166.8</ele>
			 </trkpt>
			 <trkpt lat="29.352764" lon="-98.467336">
				 <ele>166.8</ele>
			 </trkpt>
			 <trkpt lat="29.352927" lon="-98.467334">
				 <ele>166.8</ele>
			 </trkpt>
			 <trkpt lat="29.353079" lon="-98.467338">
				 <ele>166.9</ele>
			 </trkpt>
			 <trkpt lat="29.353548" lon="-98.467344">
				 <ele>167</ele>
			 </trkpt>
			 <trkpt lat="29.35378" lon="-98.46739">
				 <ele>167</ele>
			 </trkpt>
			 <trkpt lat="29.35395" lon="-98.467451">
				 <ele>167</ele>
			 </trkpt>
			 <trkpt lat="29.35416" lon="-98.467566">
				 <ele>166.9</ele>
			 </trkpt>
			 <trkpt lat="29.354374" lon="-98.467684">
				 <ele>167.2</ele>
			 </trkpt>
			 <trkpt lat="29.354644" lon="-98.467795">
				 <ele>167.4</ele>
			 </trkpt>
			 <trkpt lat="29.355591" lon="-98.468044">
				 <ele>167.5</ele>
			 </trkpt>
			 <trkpt lat="29.356145" lon="-98.468165">
				 <ele>167.8</ele>
			 </trkpt>
			 <trkpt lat="29.35683" lon="-98.468251">
				 <ele>168</ele>
			 </trkpt>
			 <trkpt lat="29.357047" lon="-98.468214">
				 <ele>168.2</ele>
			 </trkpt>
			 <trkpt lat="29.357327" lon="-98.468077">
				 <ele>168.3</ele>
			 </trkpt>
			 <trkpt lat="29.35745" lon="-98.468018">
				 <ele>168.4</ele>
			 </trkpt>
			 <trkpt lat="29.357621" lon="-98.467987">
				 <ele>168.5</ele>
			 </trkpt>
			 <trkpt lat="29.357767" lon="-98.468009">
				 <ele>168.7</ele>
			 </trkpt>
			 <trkpt lat="29.358073" lon="-98.468148">
				 <ele>168.9</ele>
			 </trkpt>
			 <trkpt lat="29.358206" lon="-98.468184">
				 <ele>168.9</ele>
			 </trkpt>
			 <trkpt lat="29.358575" lon="-98.468225">
				 <ele>168.8</ele>
			 </trkpt>
			 <trkpt lat="29.358758" lon="-98.468209">
				 <ele>168.7</ele>
			 </trkpt>
			 <trkpt lat="29.358783" lon="-98.468191">
				 <ele>168.5</ele>
			 </trkpt>
			 <trkpt lat="29.359041" lon="-98.468029">
				 <ele>168.2</ele>
			 </trkpt>
			 <trkpt lat="29.359232" lon="-98.467962">
				 <ele>167.9</ele>
			 </trkpt>
			 <trkpt lat="29.359459" lon="-98.467934">
				 <ele>167.7</ele>
			 </trkpt>
			 <trkpt lat="29.359738" lon="-98.467979">
				 <ele>167.5</ele>
			 </trkpt>
			 <trkpt lat="29.36008" lon="-98.468122">
				 <ele>167.4</ele>
			 </trkpt>
			 <trkpt lat="29.360308" lon="-98.468188">
				 <ele>167.2</ele>
			 </trkpt>
			 <trkpt lat="29.360401" lon="-98.468242">
				 <ele>167.1</ele>
			 </trkpt>
			 <trkpt lat="29.360444" lon="-98.468321">
				 <ele>167.2</ele>
			 </trkpt>
			 <trkpt lat="29.360454" lon="-98.468416">
				 <ele>167.4</ele>
			 </trkpt>
			 <trkpt lat="29.360479" lon="-98.468467">
				 <ele>167.5</ele>
			 </trkpt>
			 <trkpt lat="29.360536" lon="-98.468484">
				 <ele>167.9</ele>
			 </trkpt>
			 <trkpt lat="29.360658" lon="-98.468491">
				 <ele>168.4</ele>
			 </trkpt>
			 <trkpt lat="29.360925" lon="-98.46843">
				 <ele>168.8</ele>
			 </trkpt>
			 <trkpt lat="29.361164" lon="-98.468468">
				 <ele>169.2</ele>
			 </trkpt>
			 <trkpt lat="29.361331" lon="-98.46844">
				 <ele>169.5</ele>
			 </trkpt>
			 <trkpt lat="29.36141" lon="-98.468442">
				 <ele>169.9</ele>
			 </trkpt>
			 <trkpt lat="29.361516" lon="-98.468473">
				 <ele>170.3</ele>
			 </trkpt>
			 <trkpt lat="29.361667" lon="-98.468561">
				 <ele>170.6</ele>
			 </trkpt>
			 <trkpt lat="29.361708" lon="-98.468604">
				 <ele>170.8</ele>
			 </trkpt>
			 <trkpt lat="29.361807" lon="-98.468712">
				 <ele>170.9</ele>
			 </trkpt>
			 <trkpt lat="29.361884" lon="-98.468755">
				 <ele>171</ele>
			 </trkpt>
			 <trkpt lat="29.362042" lon="-98.468799">
				 <ele>171</ele>
			 </trkpt>
			 <trkpt lat="29.36212" lon="-98.468851">
				 <ele>170.9</ele>
			 </trkpt>
			 <trkpt lat="29.362202" lon="-98.468933">
				 <ele>170.8</ele>
			 </trkpt>
			 <trkpt lat="29.362216" lon="-98.468981">
				 <ele>170.7</ele>
			 </trkpt>
			 <trkpt lat="29.362199" lon="-98.469065">
				 <ele>170.6</ele>
			 </trkpt>
			 <trkpt lat="29.362152" lon="-98.469096">
				 <ele>170.5</ele>
			 </trkpt>
			 <trkpt lat="29.362103" lon="-98.469094">
				 <ele>170.3</ele>
			 </trkpt>
			 <trkpt lat="29.362022" lon="-98.469047">
				 <ele>170</ele>
			 </trkpt>
			 <trkpt lat="29.361776" lon="-98.4689">
				 <ele>169.7</ele>
			 </trkpt>
			 <trkpt lat="29.361745" lon="-98.468902">
				 <ele>169.4</ele>
			 </trkpt>
			 <trkpt lat="29.361592" lon="-98.468895">
				 <ele>169.1</ele>
			 </trkpt>
			 <trkpt lat="29.361611" lon="-98.468928">
				 <ele>168.8</ele>
			 </trkpt>
			 <trkpt lat="29.361635" lon="-98.468971">
				 <ele>168.8</ele>
			 </trkpt>
			 <trkpt lat="29.361941" lon="-98.469167">
				 <ele>168.8</ele>
			 </trkpt>
			 <trkpt lat="29.362234" lon="-98.469427">
				 <ele>168.8</ele>
			 </trkpt>
			 <trkpt lat="29.362429" lon="-98.469537">
				 <ele>168.8</ele>
			 </trkpt>
			 <trkpt lat="29.362532" lon="-98.469584">
				 <ele>168.9</ele>
			 </trkpt>
			 <trkpt lat="29.36274" lon="-98.469647">
				 <ele>169</ele>
			 </trkpt>
			 <trkpt lat="29.363116" lon="-98.4699">
				 <ele>169.2</ele>
			 </trkpt>
			 <trkpt lat="29.363252" lon="-98.469962">
				 <ele>169.3</ele>
			 </trkpt>
			 <trkpt lat="29.363456" lon="-98.470007">
				 <ele>169.5</ele>
			 </trkpt>
			 <trkpt lat="29.363851" lon="-98.470135">
				 <ele>169.7</ele>
			 </trkpt>
			 <trkpt lat="29.363932" lon="-98.470176">
				 <ele>169.9</ele>
			 </trkpt>
			 <trkpt lat="29.364433" lon="-98.470456">
				 <ele>169.7</ele>
			 </trkpt>
			 <trkpt lat="29.364658" lon="-98.470613">
				 <ele>169.5</ele>
			 </trkpt>
			 <trkpt lat="29.364752" lon="-98.470712">
				 <ele>169.4</ele>
			 </trkpt>
			 <trkpt lat="29.365012" lon="-98.470991">
				 <ele>169.3</ele>
			 </trkpt>
			 <trkpt lat="29.365252" lon="-98.471332">
				 <ele>169.3</ele>
			 </trkpt>
			 <trkpt lat="29.365348" lon="-98.471523">
				 <ele>169.4</ele>
			 </trkpt>
			 <trkpt lat="29.365492" lon="-98.471563">
				 <ele>169.4</ele>
			 </trkpt>
			 <trkpt lat="29.365513" lon="-98.471537">
				 <ele>169.5</ele>
			 </trkpt>
			 <trkpt lat="29.365664" lon="-98.471421">
				 <ele>169.7</ele>
			 </trkpt>
			 <trkpt lat="29.365697" lon="-98.47138">
				 <ele>169.7</ele>
			 </trkpt>
			 <trkpt lat="29.36569" lon="-98.471281">
				 <ele>169.8</ele>
			 </trkpt>
			 <trkpt lat="29.365623" lon="-98.471293">
				 <ele>170.1</ele>
			 </trkpt>
			 <trkpt lat="29.36558" lon="-98.471258">
				 <ele>170.4</ele>
			 </trkpt>
			 <trkpt lat="29.365521" lon="-98.471186">
				 <ele>170.6</ele>
			 </trkpt>
			 <trkpt lat="29.365493" lon="-98.471097">
				 <ele>170.8</ele>
			 </trkpt>
			 <trkpt lat="29.365432" lon="-98.471088">
				 <ele>170.9</ele>
			 </trkpt>
			 <trkpt lat="29.365337" lon="-98.471008">
				 <ele>170.9</ele>
			 </trkpt>
			 <trkpt lat="29.365321" lon="-98.470966">
				 <ele>171</ele>
			 </trkpt>
			 <trkpt lat="29.365336" lon="-98.470806">
				 <ele>171.1</ele>
			 </trkpt>
			 <trkpt lat="29.365407" lon="-98.470673">
				 <ele>171.2</ele>
			 </trkpt>
			 <trkpt lat="29.365465" lon="-98.47063">
				 <ele>171.3</ele>
			 </trkpt>
			 <trkpt lat="29.365598" lon="-98.470596">
				 <ele>171.4</ele>
			 </trkpt>
			 <trkpt lat="29.365672" lon="-98.470577">
				 <ele>171.5</ele>
			 </trkpt>
			 <trkpt lat="29.365814" lon="-98.470581">
				 <ele>171.5</ele>
			 </trkpt>
			 <trkpt lat="29.365872" lon="-98.470557">
				 <ele>171.6</ele>
			 </trkpt>
			 <trkpt lat="29.365953" lon="-98.470626">
				 <ele>171.7</ele>
			 </trkpt>
			 <trkpt lat="29.365969" lon="-98.470712">
				 <ele>171.8</ele>
			 </trkpt>
			 <trkpt lat="29.365998" lon="-98.470794">
				 <ele>171.8</ele>
			 </trkpt>
			 <trkpt lat="29.366058" lon="-98.470882">
				 <ele>171.7</ele>
			 </trkpt>
			 <trkpt lat="29.366052" lon="-98.470954">
				 <ele>171.6</ele>
			 </trkpt>
			 <trkpt lat="29.366117" lon="-98.471012">
				 <ele>171.5</ele>
			 </trkpt>
			 <trkpt lat="29.366086" lon="-98.471115">
				 <ele>171.3</ele>
			 </trkpt>
			 <trkpt lat="29.365983" lon="-98.471333">
				 <ele>171</ele>
			 </trkpt>
			 <trkpt lat="29.365882" lon="-98.471329">
				 <ele>170.6</ele>
			 </trkpt>
			 <trkpt lat="29.365778" lon="-98.471285">
				 <ele>170.3</ele>
			 </trkpt>
			 <trkpt lat="29.365711" lon="-98.471301">
				 <ele>169.9</ele>
			 </trkpt>
			 <trkpt lat="29.365728" lon="-98.471394">
				 <ele>169.5</ele>
			 </trkpt>
			 <trkpt lat="29.365698" lon="-98.471439">
				 <ele>169</ele>
			 </trkpt>
			 <trkpt lat="29.365496" lon="-98.471599">
				 <ele>168.6</ele>
			 </trkpt>
			 <trkpt lat="29.365623" lon="-98.471645">
				 <ele>168.3</ele>
			 </trkpt>
			 <trkpt lat="29.365647" lon="-98.47166">
				 <ele>167.8</ele>
			 </trkpt>
			 <trkpt lat="29.365689" lon="-98.471767">
				 <ele>167.5</ele>
			 </trkpt>
			 <trkpt lat="29.365678" lon="-98.471823">
				 <ele>167.1</ele>
			 </trkpt>
			 <trkpt lat="29.365832" lon="-98.471899">
				 <ele>166.8</ele>
			 </trkpt>
			 <trkpt lat="29.365962" lon="-98.472007">
				 <ele>166.8</ele>
			 </trkpt>
			 <trkpt lat="29.366098" lon="-98.472153">
				 <ele>166.8</ele>
			 </trkpt>
			 <trkpt lat="29.366126" lon="-98.472183">
				 <ele>166.8</ele>
			 </trkpt>
			 <trkpt lat="29.366301" lon="-98.472281">
				 <ele>166.9</ele>
			 </trkpt>
			 <trkpt lat="29.366438" lon="-98.47231">
				 <ele>167.2</ele>
			 </trkpt>
			 <trkpt lat="29.36683" lon="-98.472287">
				 <ele>167.5</ele>
			 </trkpt>
			 <trkpt lat="29.366883" lon="-98.472302">
				 <ele>167.9</ele>
			 </trkpt>
			 <trkpt lat="29.367019" lon="-98.472343">
				 <ele>168.2</ele>
			 </trkpt>
			 <trkpt lat="29.367169" lon="-98.472359">
				 <ele>168.4</ele>
			 </trkpt>
			 <trkpt lat="29.367316" lon="-98.472337">
				 <ele>168.7</ele>
			 </trkpt>
			 <trkpt lat="29.367562" lon="-98.472343">
				 <ele>169.4</ele>
			 </trkpt>
			 <trkpt lat="29.367717" lon="-98.472396">
				 <ele>169.7</ele>
			 </trkpt>
			 <trkpt lat="29.367966" lon="-98.472537">
				 <ele>169.8</ele>
			 </trkpt>
			 <trkpt lat="29.368073" lon="-98.472575">
				 <ele>170.1</ele>
			 </trkpt>
			 <trkpt lat="29.368357" lon="-98.472676">
				 <ele>170.5</ele>
			 </trkpt>
			 <trkpt lat="29.368639" lon="-98.472835">
				 <ele>170.7</ele>
			 </trkpt>
			 <trkpt lat="29.368794" lon="-98.472939">
				 <ele>170.9</ele>
			 </trkpt>
			 <trkpt lat="29.368933" lon="-98.473096">
				 <ele>171.2</ele>
			 </trkpt>
			 <trkpt lat="29.369365" lon="-98.473707">
				 <ele>171</ele>
			 </trkpt>
			 <trkpt lat="29.369725" lon="-98.474216">
				 <ele>170.7</ele>
			 </trkpt>
			 <trkpt lat="29.369898" lon="-98.474393">
				 <ele>170.8</ele>
			 </trkpt>
			 <trkpt lat="29.369947" lon="-98.474391">
				 <ele>170.8</ele>
			 </trkpt>
			 <trkpt lat="29.370039" lon="-98.474333">
				 <ele>170.9</ele>
			 </trkpt>
			 <trkpt lat="29.369804" lon="-98.474836">
				 <ele>171.3</ele>
			 </trkpt>
			 <trkpt lat="29.369638" lon="-98.475083">
				 <ele>171.5</ele>
			 </trkpt>
			 <trkpt lat="29.369439" lon="-98.475435">
				 <ele>171.5</ele>
			 </trkpt>
			 <trkpt lat="29.368976" lon="-98.476156">
				 <ele>171.5</ele>
			 </trkpt>
			 <trkpt lat="29.36889" lon="-98.476105">
				 <ele>171.5</ele>
			 </trkpt>
			 <trkpt lat="29.368565" lon="-98.475979">
				 <ele>171.5</ele>
			 </trkpt>
			 <trkpt lat="29.368574" lon="-98.47601">
				 <ele>172</ele>
			 </trkpt>
			 <trkpt lat="29.368458" lon="-98.47606">
				 <ele>172.6</ele>
			 </trkpt>
			 <trkpt lat="29.368375" lon="-98.476081">
				 <ele>172.6</ele>
			 </trkpt>
			 <trkpt lat="29.368058" lon="-98.476089">
				 <ele>172.5</ele>
			 </trkpt>
			 <trkpt lat="29.368097" lon="-98.475783">
				 <ele>172.3</ele>
			 </trkpt>
			 <trkpt lat="29.368109" lon="-98.475523">
				 <ele>172.1</ele>
			 </trkpt>
			 <trkpt lat="29.368039" lon="-98.475276">
				 <ele>171.9</ele>
			 </trkpt>
			 <trkpt lat="29.368006" lon="-98.475056">
				 <ele>171.7</ele>
			 </trkpt>
			 <trkpt lat="29.368111" lon="-98.474869">
				 <ele>171.4</ele>
			 </trkpt>
			 <trkpt lat="29.368289" lon="-98.474767">
				 <ele>170.8</ele>
			 </trkpt>
			 <trkpt lat="29.368467" lon="-98.474729">
				 <ele>170.3</ele>
			 </trkpt>
			 <trkpt lat="29.368539" lon="-98.474643">
				 <ele>169.7</ele>
			 </trkpt>
			 <trkpt lat="29.368583" lon="-98.474496">
				 <ele>169.2</ele>
			 </trkpt>
			 <trkpt lat="29.368761" lon="-98.474292">
				 <ele>168.7</ele>
			 </trkpt>
			 <trkpt lat="29.368983" lon="-98.474458">
				 <ele>168.2</ele>
			 </trkpt>
			 <trkpt lat="29.369069" lon="-98.474518">
				 <ele>167.7</ele>
			 </trkpt>
			 <trkpt lat="29.369172" lon="-98.47464">
				 <ele>167.3</ele>
			 </trkpt>
			 <trkpt lat="29.369329" lon="-98.474884">
				 <ele>166.8</ele>
			 </trkpt>
			 <trkpt lat="29.369359" lon="-98.474907">
				 <ele>166.5</ele>
			 </trkpt>
			 <trkpt lat="29.369602" lon="-98.475113">
				 <ele>166.4</ele>
			 </trkpt>
			 <trkpt lat="29.369703" lon="-98.475268">
				 <ele>166.5</ele>
			 </trkpt>
			 <trkpt lat="29.369851" lon="-98.475494">
				 <ele>166.7</ele>
			 </trkpt>
			 <trkpt lat="29.370049" lon="-98.475897">
				 <ele>167</ele>
			 </trkpt>
			 <trkpt lat="29.370207" lon="-98.476173">
				 <ele>167.3</ele>
			 </trkpt>
			 <trkpt lat="29.370407" lon="-98.476443">
				 <ele>167.5</ele>
			 </trkpt>
			 <trkpt lat="29.370601" lon="-98.476657">
				 <ele>167.9</ele>
			 </trkpt>
			 <trkpt lat="29.370818" lon="-98.47685">
				 <ele>168.2</ele>
			 </trkpt>
			 <trkpt lat="29.371019" lon="-98.477004">
				 <ele>168.5</ele>
			 </trkpt>
			 <trkpt lat="29.371296" lon="-98.477167">
				 <ele>169</ele>
			 </trkpt>
			 <trkpt lat="29.371607" lon="-98.477295">
				 <ele>169.5</ele>
			 </trkpt>
			 <trkpt lat="29.371975" lon="-98.477408">
				 <ele>169.9</ele>
			 </trkpt>
			 <trkpt lat="29.372159" lon="-98.477496">
				 <ele>170.3</ele>
			 </trkpt>
			 <trkpt lat="29.372337" lon="-98.477628">
				 <ele>170.5</ele>
			 </trkpt>
			 <trkpt lat="29.372663" lon="-98.477942">
				 <ele>170.5</ele>
			 </trkpt>
			 <trkpt lat="29.372872" lon="-98.478076">
				 <ele>170.5</ele>
			 </trkpt>
			 <trkpt lat="29.373085" lon="-98.478161">
				 <ele>170.4</ele>
			 </trkpt>
			 <trkpt lat="29.373288" lon="-98.478199">
				 <ele>170.4</ele>
			 </trkpt>
			 <trkpt lat="29.373466" lon="-98.478202">
				 <ele>170.4</ele>
			 </trkpt>
			 <trkpt lat="29.373718" lon="-98.478172">
				 <ele>170.5</ele>
			 </trkpt>
			 <trkpt lat="29.373862" lon="-98.478182">
				 <ele>170.6</ele>
			 </trkpt>
			 <trkpt lat="29.374039" lon="-98.478262">
				 <ele>170.7</ele>
			 </trkpt>
			 <trkpt lat="29.374124" lon="-98.478344">
				 <ele>170.7</ele>
			 </trkpt>
			 <trkpt lat="29.37418" lon="-98.478401">
				 <ele>170.8</ele>
			 </trkpt>
			 <trkpt lat="29.374283" lon="-98.478613">
				 <ele>171</ele>
			 </trkpt>
			 <trkpt lat="29.374332" lon="-98.479011">
				 <ele>171.4</ele>
			 </trkpt>
			 <trkpt lat="29.374368" lon="-98.479145">
				 <ele>171.5</ele>
			 </trkpt>
			 <trkpt lat="29.374485" lon="-98.479371">
				 <ele>171.5</ele>
			 </trkpt>
			 <trkpt lat="29.37465" lon="-98.479539">
				 <ele>171.5</ele>
			 </trkpt>
			 <trkpt lat="29.37486" lon="-98.479679">
				 <ele>171.4</ele>
			 </trkpt>
			 <trkpt lat="29.375035" lon="-98.479795">
				 <ele>171.1</ele>
			 </trkpt>
			 <trkpt lat="29.375265" lon="-98.479998">
				 <ele>170.7</ele>
			 </trkpt>
			 <trkpt lat="29.375503" lon="-98.480283">
				 <ele>170.5</ele>
			 </trkpt>
			 <trkpt lat="29.375686" lon="-98.480591">
				 <ele>170.5</ele>
			 </trkpt>
			 <trkpt lat="29.375724" lon="-98.480664">
				 <ele>170.5</ele>
			 </trkpt>
			 <trkpt lat="29.375871" lon="-98.481071">
				 <ele>170.5</ele>
			 </trkpt>
			 <trkpt lat="29.375916" lon="-98.481357">
				 <ele>170.5</ele>
			 </trkpt>
			 <trkpt lat="29.375918" lon="-98.481553">
				 <ele>170.9</ele>
			 </trkpt>
			 <trkpt lat="29.3759" lon="-98.481731">
				 <ele>171.5</ele>
			 </trkpt>
			 <trkpt lat="29.375828" lon="-98.482029">
				 <ele>171.9</ele>
			 </trkpt>
			 <trkpt lat="29.375753" lon="-98.482298">
				 <ele>172.5</ele>
			 </trkpt>
			 <trkpt lat="29.375729" lon="-98.482623">
				 <ele>173.1</ele>
			 </trkpt>
			 <trkpt lat="29.37575" lon="-98.482862">
				 <ele>173.6</ele>
			 </trkpt>
			 <trkpt lat="29.375805" lon="-98.483099">
				 <ele>173.8</ele>
			 </trkpt>
			 <trkpt lat="29.375864" lon="-98.483257">
				 <ele>173.5</ele>
			 </trkpt>
			 <trkpt lat="29.375985" lon="-98.483483">
				 <ele>173.2</ele>
			 </trkpt>
			 <trkpt lat="29.376133" lon="-98.483686">
				 <ele>172.9</ele>
			 </trkpt>
			 <trkpt lat="29.376529" lon="-98.484078">
				 <ele>172.7</ele>
			 </trkpt>
			 <trkpt lat="29.376859" lon="-98.484478">
				 <ele>172.6</ele>
			 </trkpt>
			 <trkpt lat="29.377136" lon="-98.484893">
				 <ele>172.5</ele>
			 </trkpt>
			 <trkpt lat="29.377654" lon="-98.485907">
				 <ele>172.5</ele>
			 </trkpt>
			 <trkpt lat="29.377795" lon="-98.486135">
				 <ele>172.5</ele>
			 </trkpt>
			 <trkpt lat="29.377954" lon="-98.486345">
				 <ele>172.5</ele>
			 </trkpt>
			 <trkpt lat="29.378836" lon="-98.487378">
				 <ele>172.6</ele>
			 </trkpt>
			 <trkpt lat="29.378926" lon="-98.487501">
				 <ele>172.9</ele>
			 </trkpt>
			 <trkpt lat="29.379" lon="-98.487634">
				 <ele>173.1</ele>
			 </trkpt>
			 <trkpt lat="29.37908" lon="-98.487834">
				 <ele>173.2</ele>
			 </trkpt>
			 <trkpt lat="29.379166" lon="-98.488258">
				 <ele>173.2</ele>
			 </trkpt>
			 <trkpt lat="29.379213" lon="-98.488394">
				 <ele>173.2</ele>
			 </trkpt>
			 <trkpt lat="29.379271" lon="-98.488565">
				 <ele>173</ele>
			 </trkpt>
			 <trkpt lat="29.379455" lon="-98.488883">
				 <ele>172.8</ele>
			 </trkpt>
			 <trkpt lat="29.379542" lon="-98.489108">
				 <ele>172.6</ele>
			 </trkpt>
			 <trkpt lat="29.37964" lon="-98.489844">
				 <ele>172.4</ele>
			 </trkpt>
			 <trkpt lat="29.379665" lon="-98.490035">
				 <ele>171.8</ele>
			 </trkpt>
			 <trkpt lat="29.37973" lon="-98.490315">
				 <ele>171.4</ele>
			 </trkpt>
			 <trkpt lat="29.379847" lon="-98.490697">
				 <ele>171</ele>
			 </trkpt>
			 <trkpt lat="29.380008" lon="-98.491086">
				 <ele>171.4</ele>
			 </trkpt>
			 <trkpt lat="29.380215" lon="-98.491465">
				 <ele>172</ele>
			 </trkpt>
			 <trkpt lat="29.380337" lon="-98.491667">
				 <ele>171.9</ele>
			 </trkpt>
			 <trkpt lat="29.380502" lon="-98.492015">
				 <ele>171.8</ele>
			 </trkpt>
			 <trkpt lat="29.380662" lon="-98.492464">
				 <ele>171.7</ele>
			 </trkpt>
			 <trkpt lat="29.380809" lon="-98.493032">
				 <ele>171.7</ele>
			 </trkpt>
			 <trkpt lat="29.380963" lon="-98.49343">
				 <ele>171.7</ele>
			 </trkpt>
			 <trkpt lat="29.381272" lon="-98.493214">
				 <ele>171.9</ele>
			 </trkpt>
			 <trkpt lat="29.381332" lon="-98.493177">
				 <ele>172.2</ele>
			 </trkpt>
			 <trkpt lat="29.381401" lon="-98.493176">
				 <ele>172.5</ele>
			 </trkpt>
			 <trkpt lat="29.381533" lon="-98.49335">
				 <ele>172.6</ele>
			 </trkpt>
			 <trkpt lat="29.381608" lon="-98.493401">
				 <ele>172.5</ele>
			 </trkpt>
			 <trkpt lat="29.381719" lon="-98.493451">
				 <ele>172.4</ele>
			 </trkpt>
			 <trkpt lat="29.381801" lon="-98.493487">
				 <ele>173.5</ele>
			 </trkpt>
			 <trkpt lat="29.38189" lon="-98.493559">
				 <ele>174.5</ele>
			 </trkpt>
			 <trkpt lat="29.381964" lon="-98.493676">
				 <ele>175.6</ele>
			 </trkpt>
			 <trkpt lat="29.382044" lon="-98.493766">
				 <ele>176.5</ele>
			 </trkpt>
			 <trkpt lat="29.382135" lon="-98.493817">
				 <ele>177.5</ele>
			 </trkpt>
			 <trkpt lat="29.382502" lon="-98.49395">
				 <ele>178.4</ele>
			 </trkpt>
			 <trkpt lat="29.382637" lon="-98.494018">
				 <ele>179.2</ele>
			 </trkpt>
			 <trkpt lat="29.383196" lon="-98.494298">
				 <ele>179.9</ele>
			 </trkpt>
			 <trkpt lat="29.38348" lon="-98.494485">
				 <ele>180.6</ele>
			 </trkpt>
			 <trkpt lat="29.383618" lon="-98.494575">
				 <ele>181.3</ele>
			 </trkpt>
			 <trkpt lat="29.383813" lon="-98.494662">
				 <ele>181.8</ele>
			 </trkpt>
			 <trkpt lat="29.38407" lon="-98.494723">
				 <ele>181.8</ele>
			 </trkpt>
			 <trkpt lat="29.384228" lon="-98.494778">
				 <ele>181.8</ele>
			 </trkpt>
			 <trkpt lat="29.384401" lon="-98.494865">
				 <ele>181.8</ele>
			 </trkpt>
			 <trkpt lat="29.384601" lon="-98.495014">
				 <ele>181.9</ele>
			 </trkpt>
			 <trkpt lat="29.384744" lon="-98.495161">
				 <ele>181.9</ele>
			 </trkpt>
			 <trkpt lat="29.384876" lon="-98.495335">
				 <ele>181.8</ele>
			 </trkpt>
			 <trkpt lat="29.384969" lon="-98.495512">
				 <ele>181.6</ele>
			 </trkpt>
			 <trkpt lat="29.385056" lon="-98.495735">
				 <ele>181.5</ele>
			 </trkpt>
			 <trkpt lat="29.385105" lon="-98.495917">
				 <ele>181.3</ele>
			 </trkpt>
			 <trkpt lat="29.385198" lon="-98.497045">
				 <ele>181.1</ele>
			 </trkpt>
			 <trkpt lat="29.385235" lon="-98.497241">
				 <ele>180.9</ele>
			 </trkpt>
			 <trkpt lat="29.385301" lon="-98.497409">
				 <ele>180.6</ele>
			 </trkpt>
			 <trkpt lat="29.385387" lon="-98.497566">
				 <ele>180.4</ele>
			 </trkpt>
			 <trkpt lat="29.385489" lon="-98.497693">
				 <ele>180.1</ele>
			 </trkpt>
			 <trkpt lat="29.385702" lon="-98.497909">
				 <ele>179.8</ele>
			 </trkpt>
			 <trkpt lat="29.38589" lon="-98.498065">
				 <ele>179.6</ele>
			 </trkpt>
			 <trkpt lat="29.386253" lon="-98.498253">
				 <ele>179.5</ele>
			 </trkpt>
			 <trkpt lat="29.386442" lon="-98.498309">
				 <ele>179.5</ele>
			 </trkpt>
			 <trkpt lat="29.386836" lon="-98.498376">
				 <ele>179.5</ele>
			 </trkpt>
			 <trkpt lat="29.387402" lon="-98.49854">
				 <ele>179.5</ele>
			 </trkpt>
			 <trkpt lat="29.387581" lon="-98.49855">
				 <ele>179.5</ele>
			 </trkpt>
			 <trkpt lat="29.387778" lon="-98.498539">
				 <ele>179.5</ele>
			 </trkpt>
			 <trkpt lat="29.388076" lon="-98.498484">
				 <ele>179.6</ele>
			 </trkpt>
			 <trkpt lat="29.388206" lon="-98.498438">
				 <ele>179.7</ele>
			 </trkpt>
			 <trkpt lat="29.388326" lon="-98.498375">
				 <ele>179.8</ele>
			 </trkpt>
			 <trkpt lat="29.388584" lon="-98.498316">
				 <ele>180</ele>
			 </trkpt>
			 <trkpt lat="29.388756" lon="-98.498311">
				 <ele>179.8</ele>
			 </trkpt>
			 <trkpt lat="29.389034" lon="-98.498395">
				 <ele>179.5</ele>
			 </trkpt>
			 <trkpt lat="29.389325" lon="-98.498413">
				 <ele>179.2</ele>
			 </trkpt>
			 <trkpt lat="29.389468" lon="-98.4984">
				 <ele>178.8</ele>
			 </trkpt>
			 <trkpt lat="29.389688" lon="-98.498352">
				 <ele>179</ele>
			 </trkpt>
			 <trkpt lat="29.390211" lon="-98.498316">
				 <ele>179.2</ele>
			 </trkpt>
			 <trkpt lat="29.390811" lon="-98.498102">
				 <ele>179.4</ele>
			 </trkpt>
			 <trkpt lat="29.390865" lon="-98.498104">
				 <ele>179.7</ele>
			 </trkpt>
			 <trkpt lat="29.390905" lon="-98.498141">
				 <ele>180.2</ele>
			 </trkpt>
			 <trkpt lat="29.390985" lon="-98.498387">
				 <ele>180.6</ele>
			 </trkpt>
			 <trkpt lat="29.391036" lon="-98.498405">
				 <ele>181</ele>
			 </trkpt>
			 <trkpt lat="29.391061" lon="-98.498392">
				 <ele>181.9</ele>
			 </trkpt>
			 <trkpt lat="29.391536" lon="-98.497961">
				 <ele>182.9</ele>
			 </trkpt>
			 <trkpt lat="29.391687" lon="-98.497801">
				 <ele>183.8</ele>
			 </trkpt>
			 <trkpt lat="29.391875" lon="-98.497513">
				 <ele>184.7</ele>
			 </trkpt>
			 <trkpt lat="29.39204" lon="-98.497137">
				 <ele>185.1</ele>
			 </trkpt>
			 <trkpt lat="29.392214" lon="-98.496565">
				 <ele>185.3</ele>
			 </trkpt>
			 <trkpt lat="29.392291" lon="-98.496177">
				 <ele>185.2</ele>
			 </trkpt>
			 <trkpt lat="29.392344" lon="-98.495717">
				 <ele>184.9</ele>
			 </trkpt>
			 <trkpt lat="29.392443" lon="-98.495401">
				 <ele>184.6</ele>
			 </trkpt>
			 <trkpt lat="29.392491" lon="-98.495335">
				 <ele>184.5</ele>
			 </trkpt>
			 <trkpt lat="29.392586" lon="-98.49521">
				 <ele>184.5</ele>
			 </trkpt>
			 <trkpt lat="29.392807" lon="-98.495017">
				 <ele>184.3</ele>
			 </trkpt>
			 <trkpt lat="29.393077" lon="-98.494877">
				 <ele>184</ele>
			 </trkpt>
			 <trkpt lat="29.393531" lon="-98.494769">
				 <ele>183.8</ele>
			 </trkpt>
			 <trkpt lat="29.393622" lon="-98.494771">
				 <ele>183.6</ele>
			 </trkpt>
			 <trkpt lat="29.393811" lon="-98.494828">
				 <ele>183.5</ele>
			 </trkpt>
			 <trkpt lat="29.394072" lon="-98.494958">
				 <ele>183.5</ele>
			 </trkpt>
			 <trkpt lat="29.394162" lon="-98.49498">
				 <ele>183.6</ele>
			 </trkpt>
			 <trkpt lat="29.394374" lon="-98.494983">
				 <ele>183.8</ele>
			 </trkpt>
			 <trkpt lat="29.394597" lon="-98.494919">
				 <ele>183.9</ele>
			 </trkpt>
			 <trkpt lat="29.394751" lon="-98.494819">
				 <ele>184.1</ele>
			 </trkpt>
			 <trkpt lat="29.39487" lon="-98.494717">
				 <ele>184.1</ele>
			 </trkpt>
			 <trkpt lat="29.395088" lon="-98.494432">
				 <ele>184.2</ele>
			 </trkpt>
			 <trkpt lat="29.395522" lon="-98.493963">
				 <ele>184.3</ele>
			 </trkpt>
			 <trkpt lat="29.395563" lon="-98.493919">
				 <ele>184.4</ele>
			 </trkpt>
			 <trkpt lat="29.395812" lon="-98.493509">
				 <ele>184.3</ele>
			 </trkpt>
			 <trkpt lat="29.395987" lon="-98.493078">
				 <ele>184.1</ele>
			 </trkpt>
			 <trkpt lat="29.396034" lon="-98.492766">
				 <ele>183.9</ele>
			 </trkpt>
			 <trkpt lat="29.39594" lon="-98.491586">
				 <ele>183.6</ele>
			 </trkpt>
			 <trkpt lat="29.39595" lon="-98.491467">
				 <ele>183.5</ele>
			 </trkpt>
			 <trkpt lat="29.396018" lon="-98.491158">
				 <ele>183.3</ele>
			 </trkpt>
			 <trkpt lat="29.396125" lon="-98.49091">
				 <ele>182.9</ele>
			 </trkpt>
			 <trkpt lat="29.396183" lon="-98.490826">
				 <ele>182.5</ele>
			 </trkpt>
			 <trkpt lat="29.396407" lon="-98.490588">
				 <ele>182.1</ele>
			 </trkpt>
			 <trkpt lat="29.396528" lon="-98.4905">
				 <ele>181.7</ele>
			 </trkpt>
			 <trkpt lat="29.396648" lon="-98.490442">
				 <ele>181.6</ele>
			 </trkpt>
			 <trkpt lat="29.396908" lon="-98.490382">
				 <ele>181.8</ele>
			 </trkpt>
			 <trkpt lat="29.397181" lon="-98.490347">
				 <ele>182.1</ele>
			 </trkpt>
			 <trkpt lat="29.397567" lon="-98.490359">
				 <ele>182.4</ele>
			 </trkpt>
			 <trkpt lat="29.397554" lon="-98.490331">
				 <ele>182.6</ele>
			 </trkpt>
			 <trkpt lat="29.397574" lon="-98.49015">
				 <ele>182.8</ele>
			 </trkpt>
			 <trkpt lat="29.397619" lon="-98.490106">
				 <ele>183</ele>
			 </trkpt>
			 <trkpt lat="29.397676" lon="-98.490102">
				 <ele>183.2</ele>
			 </trkpt>
			 <trkpt lat="29.398202" lon="-98.490173">
				 <ele>183.4</ele>
			 </trkpt>
			 <trkpt lat="29.398477" lon="-98.49021">
				 <ele>183.6</ele>
			 </trkpt>
			 <trkpt lat="29.398692" lon="-98.490164">
				 <ele>184</ele>
			 </trkpt>
			 <trkpt lat="29.398774" lon="-98.490122">
				 <ele>184.2</ele>
			 </trkpt>
			 <trkpt lat="29.398919" lon="-98.489971">
				 <ele>184.3</ele>
			 </trkpt>
			 <trkpt lat="29.399012" lon="-98.489844">
				 <ele>184.4</ele>
			 </trkpt>
			 <trkpt lat="29.399057" lon="-98.489723">
				 <ele>184.5</ele>
			 </trkpt>
			 <trkpt lat="29.399076" lon="-98.489314">
				 <ele>184.6</ele>
			 </trkpt>
			 <trkpt lat="29.399115" lon="-98.489154">
				 <ele>184.8</ele>
			 </trkpt>
			 <trkpt lat="29.399194" lon="-98.489">
				 <ele>185</ele>
			 </trkpt>
			 <trkpt lat="29.399293" lon="-98.488895">
				 <ele>185.2</ele>
			 </trkpt>
			 <trkpt lat="29.399465" lon="-98.488796">
				 <ele>185.3</ele>
			 </trkpt>
			 <trkpt lat="29.399663" lon="-98.488745">
				 <ele>185.3</ele>
			 </trkpt>
			 <trkpt lat="29.399796" lon="-98.488753">
				 <ele>185.2</ele>
			 </trkpt>
			 <trkpt lat="29.399867" lon="-98.48877">
				 <ele>185</ele>
			 </trkpt>
			 <trkpt lat="29.400193" lon="-98.488924">
				 <ele>184.9</ele>
			 </trkpt>
			 <trkpt lat="29.400387" lon="-98.48896">
				 <ele>184.8</ele>
			 </trkpt>
			 <trkpt lat="29.400559" lon="-98.488962">
				 <ele>184.7</ele>
			 </trkpt>
			 <trkpt lat="29.400688" lon="-98.488947">
				 <ele>184.6</ele>
			 </trkpt>
			 <trkpt lat="29.400847" lon="-98.488893">
				 <ele>184.6</ele>
			 </trkpt>
			 <trkpt lat="29.400982" lon="-98.488824">
				 <ele>184.6</ele>
			 </trkpt>
			 <trkpt lat="29.401095" lon="-98.488747">
				 <ele>184.8</ele>
			 </trkpt>
			 <trkpt lat="29.401245" lon="-98.48861">
				 <ele>185.1</ele>
			 </trkpt>
			 <trkpt lat="29.40131" lon="-98.488514">
				 <ele>185.5</ele>
			 </trkpt>
			 <trkpt lat="29.401389" lon="-98.488356">
				 <ele>185.7</ele>
			 </trkpt>
			 <trkpt lat="29.401444" lon="-98.488202">
				 <ele>186.2</ele>
			 </trkpt>
			 <trkpt lat="29.401503" lon="-98.487948">
				 <ele>186.5</ele>
			 </trkpt>
			 <trkpt lat="29.40154" lon="-98.487875">
				 <ele>186.9</ele>
			 </trkpt>
			 <trkpt lat="29.401559" lon="-98.487794">
				 <ele>187.3</ele>
			 </trkpt>
			 <trkpt lat="29.401634" lon="-98.487652">
				 <ele>187.8</ele>
			 </trkpt>
			 <trkpt lat="29.402223" lon="-98.488132">
				 <ele>188.4</ele>
			 </trkpt>
			 <trkpt lat="29.402297" lon="-98.488247">
				 <ele>188.9</ele>
			 </trkpt>
			 <trkpt lat="29.402358" lon="-98.488413">
				 <ele>189.3</ele>
			 </trkpt>
			 <trkpt lat="29.402389" lon="-98.488567">
				 <ele>189.6</ele>
			 </trkpt>
			 <trkpt lat="29.402828" lon="-98.491853">
				 <ele>189.9</ele>
			 </trkpt>
			 <trkpt lat="29.402836" lon="-98.491922">
				 <ele>190</ele>
			 </trkpt>
			 <trkpt lat="29.402914" lon="-98.49276">
				 <ele>190</ele>
			 </trkpt>
			 <trkpt lat="29.402927" lon="-98.493019">
				 <ele>189.9</ele>
			 </trkpt>
			 <trkpt lat="29.402875" lon="-98.492387">
				 <ele>189.8</ele>
			 </trkpt>
			 <trkpt lat="29.402792" lon="-98.491859">
				 <ele>189.6</ele>
			 </trkpt>
			 <trkpt lat="29.402353" lon="-98.488575">
				 <ele>189.2</ele>
			 </trkpt>
			 <trkpt lat="29.402324" lon="-98.488426">
				 <ele>188.7</ele>
			 </trkpt>
			 <trkpt lat="29.402265" lon="-98.488267">
				 <ele>188.3</ele>
			 </trkpt>
			 <trkpt lat="29.402197" lon="-98.48816">
				 <ele>187.8</ele>
			 </trkpt>
			 <trkpt lat="29.401638" lon="-98.48768">
				 <ele>187.5</ele>
			 </trkpt>
			 <trkpt lat="29.401738" lon="-98.487382">
				 <ele>187.2</ele>
			 </trkpt>
			 <trkpt lat="29.401809" lon="-98.487115">
				 <ele>187.1</ele>
			 </trkpt>
			 <trkpt lat="29.401898" lon="-98.486988">
				 <ele>186.9</ele>
			 </trkpt>
			 <trkpt lat="29.402213" lon="-98.48684">
				 <ele>186.8</ele>
			 </trkpt>
			 <trkpt lat="29.40245" lon="-98.486729">
				 <ele>186.7</ele>
			 </trkpt>
			 <trkpt lat="29.402658" lon="-98.48668">
				 <ele>186.7</ele>
			 </trkpt>
			 <trkpt lat="29.402804" lon="-98.486657">
				 <ele>186.8</ele>
			 </trkpt>
			 <trkpt lat="29.402913" lon="-98.486675">
				 <ele>186.9</ele>
			 </trkpt>
			 <trkpt lat="29.403008" lon="-98.48673">
				 <ele>186.9</ele>
			 </trkpt>
			 <trkpt lat="29.403091" lon="-98.486797">
				 <ele>187.1</ele>
			 </trkpt>
			 <trkpt lat="29.403148" lon="-98.486879">
				 <ele>187.1</ele>
			 </trkpt>
			 <trkpt lat="29.40323" lon="-98.487038">
				 <ele>187.1</ele>
			 </trkpt>
			 <trkpt lat="29.403286" lon="-98.487208">
				 <ele>187.2</ele>
			 </trkpt>
			 <trkpt lat="29.403301" lon="-98.487291">
				 <ele>187.3</ele>
			 </trkpt>
			 <trkpt lat="29.403415" lon="-98.487938">
				 <ele>187.5</ele>
			 </trkpt>
			 <trkpt lat="29.403477" lon="-98.488159">
				 <ele>187.7</ele>
			 </trkpt>
			 <trkpt lat="29.403647" lon="-98.488764">
				 <ele>188</ele>
			 </trkpt>
			 <trkpt lat="29.403818" lon="-98.489103">
				 <ele>188.3</ele>
			 </trkpt>
			 <trkpt lat="29.404094" lon="-98.489469">
				 <ele>188.5</ele>
			 </trkpt>
			 <trkpt lat="29.40446" lon="-98.489777">
				 <ele>188.6</ele>
			 </trkpt>
			 <trkpt lat="29.404546" lon="-98.489927">
				 <ele>188.6</ele>
			 </trkpt>
			 <trkpt lat="29.404668" lon="-98.490078">
				 <ele>188.6</ele>
			 </trkpt>
			 <trkpt lat="29.404714" lon="-98.490161">
				 <ele>188.6</ele>
			 </trkpt>
			 <trkpt lat="29.404752" lon="-98.490315">
				 <ele>188.5</ele>
			 </trkpt>
			 <trkpt lat="29.404551" lon="-98.490966">
				 <ele>188.4</ele>
			 </trkpt>
			 <trkpt lat="29.404947" lon="-98.491491">
				 <ele>188.2</ele>
			 </trkpt>
			 <trkpt lat="29.405041" lon="-98.49159">
				 <ele>187.8</ele>
			 </trkpt>
			 <trkpt lat="29.405352" lon="-98.491802">
				 <ele>187.5</ele>
			 </trkpt>
			 <trkpt lat="29.405723" lon="-98.491962">
				 <ele>187.1</ele>
			 </trkpt>
			 <trkpt lat="29.40586" lon="-98.492142">
				 <ele>186.9</ele>
			 </trkpt>
			 <trkpt lat="29.405949" lon="-98.492237">
				 <ele>186.9</ele>
			 </trkpt>
			 <trkpt lat="29.406159" lon="-98.492299">
				 <ele>186.9</ele>
			 </trkpt>
			 <trkpt lat="29.406225" lon="-98.492348">
				 <ele>186.9</ele>
			 </trkpt>
			 <trkpt lat="29.406352" lon="-98.492492">
				 <ele>187.1</ele>
			 </trkpt>
			 <trkpt lat="29.406435" lon="-98.492782">
				 <ele>187.4</ele>
			 </trkpt>
			 <trkpt lat="29.406665" lon="-98.494069">
				 <ele>187.5</ele>
			 </trkpt>
			 <trkpt lat="29.406755" lon="-98.494334">
				 <ele>187.7</ele>
			 </trkpt>
			 <trkpt lat="29.40687" lon="-98.49452">
				 <ele>188</ele>
			 </trkpt>
			 <trkpt lat="29.407043" lon="-98.494727">
				 <ele>188.3</ele>
			 </trkpt>
			 <trkpt lat="29.407151" lon="-98.494819">
				 <ele>188.6</ele>
			 </trkpt>
			 <trkpt lat="29.407312" lon="-98.494907">
				 <ele>188.8</ele>
			 </trkpt>
			 <trkpt lat="29.407518" lon="-98.49499">
				 <ele>188.9</ele>
			 </trkpt>
			 <trkpt lat="29.407654" lon="-98.494999">
				 <ele>189</ele>
			 </trkpt>
			 <trkpt lat="29.407778" lon="-98.495029">
				 <ele>189</ele>
			 </trkpt>
			 <trkpt lat="29.407992" lon="-98.495014">
				 <ele>188.7</ele>
			 </trkpt>
			 <trkpt lat="29.408648" lon="-98.494733">
				 <ele>188.5</ele>
			 </trkpt>
			 <trkpt lat="29.408712" lon="-98.494723">
				 <ele>188.2</ele>
			 </trkpt>
			 <trkpt lat="29.408863" lon="-98.4947">
				 <ele>187.9</ele>
			 </trkpt>
			 <trkpt lat="29.408991" lon="-98.494702">
				 <ele>187.7</ele>
			 </trkpt>
			 <trkpt lat="29.409383" lon="-98.494751">
				 <ele>187.5</ele>
			 </trkpt>
			 <trkpt lat="29.40965" lon="-98.49482">
				 <ele>187.3</ele>
			 </trkpt>
			 <trkpt lat="29.409993" lon="-98.495039">
				 <ele>187.1</ele>
			 </trkpt>
			 <trkpt lat="29.41016" lon="-98.495086">
				 <ele>186.9</ele>
			 </trkpt>
			 <trkpt lat="29.410499" lon="-98.495368">
				 <ele>186.8</ele>
			 </trkpt>
			 <trkpt lat="29.410591" lon="-98.495396">
				 <ele>186.8</ele>
			 </trkpt>
			 <trkpt lat="29.410663" lon="-98.495402">
				 <ele>187.1</ele>
			 </trkpt>
			 <trkpt lat="29.410763" lon="-98.495465">
				 <ele>187.3</ele>
			 </trkpt>
			 <trkpt lat="29.410863" lon="-98.495537">
				 <ele>187.5</ele>
			 </trkpt>
			 <trkpt lat="29.410937" lon="-98.495567">
				 <ele>187.5</ele>
			 </trkpt>
			 <trkpt lat="29.411091" lon="-98.49559">
				 <ele>187.5</ele>
			 </trkpt>
			 <trkpt lat="29.411285" lon="-98.495581">
				 <ele>187.6</ele>
			 </trkpt>
			 <trkpt lat="29.411481" lon="-98.495611">
				 <ele>187.7</ele>
			 </trkpt>
			 <trkpt lat="29.411626" lon="-98.495663">
				 <ele>187.8</ele>
			 </trkpt>
			 <trkpt lat="29.412158" lon="-98.49597">
				 <ele>187.9</ele>
			 </trkpt>
			 <trkpt lat="29.412256" lon="-98.496062">
				 <ele>187.9</ele>
			 </trkpt>
			 <trkpt lat="29.412342" lon="-98.496215">
				 <ele>188</ele>
			 </trkpt>
			 <trkpt lat="29.412618" lon="-98.496306">
				 <ele>188</ele>
			 </trkpt>
			 <trkpt lat="29.412784" lon="-98.496325">
				 <ele>188.1</ele>
			 </trkpt>
			 <trkpt lat="29.412917" lon="-98.4963">
				 <ele>188.2</ele>
			 </trkpt>
			 <trkpt lat="29.41302" lon="-98.496263">
				 <ele>188.4</ele>
			 </trkpt>
			 <trkpt lat="29.413113" lon="-98.496165">
				 <ele>188.5</ele>
			 </trkpt>
			 <trkpt lat="29.413231" lon="-98.495968">
				 <ele>188.5</ele>
			 </trkpt>
			 <trkpt lat="29.413259" lon="-98.495821">
				 <ele>188.5</ele>
			 </trkpt>
			 <trkpt lat="29.413306" lon="-98.495721">
				 <ele>188.5</ele>
			 </trkpt>
			 <trkpt lat="29.41341" lon="-98.495517">
				 <ele>188.6</ele>
			 </trkpt>
			 <trkpt lat="29.413486" lon="-98.495428">
				 <ele>188.7</ele>
			 </trkpt>
			 <trkpt lat="29.413702" lon="-98.495314">
				 <ele>188.7</ele>
			 </trkpt>
			 <trkpt lat="29.4141" lon="-98.495198">
				 <ele>188.6</ele>
			 </trkpt>
			 <trkpt lat="29.414389" lon="-98.495136">
				 <ele>188.6</ele>
			 </trkpt>
			 <trkpt lat="29.414914" lon="-98.49483">
				 <ele>188.6</ele>
			 </trkpt>
			 <trkpt lat="29.415203" lon="-98.494558">
				 <ele>188.6</ele>
			 </trkpt>
			 <trkpt lat="29.415439" lon="-98.494281">
				 <ele>188.6</ele>
			 </trkpt>
			 <trkpt lat="29.415713" lon="-98.494141">
				 <ele>188.7</ele>
			 </trkpt>
			 <trkpt lat="29.415961" lon="-98.494141">
				 <ele>188.7</ele>
			 </trkpt>
			 <trkpt lat="29.416038" lon="-98.494127">
				 <ele>188.7</ele>
			 </trkpt>
			 <trkpt lat="29.41617" lon="-98.494102">
				 <ele>188.6</ele>
			 </trkpt>
			 <trkpt lat="29.416749" lon="-98.493899">
				 <ele>188.6</ele>
			 </trkpt>
			 <trkpt lat="29.416872" lon="-98.493866">
				 <ele>188.6</ele>
			 </trkpt>
			 <trkpt lat="29.41695" lon="-98.493804">
				 <ele>188.7</ele>
			 </trkpt>
			 <trkpt lat="29.417033" lon="-98.493787">
				 <ele>188.7</ele>
			 </trkpt>
			 <trkpt lat="29.417197" lon="-98.493645">
				 <ele>188.7</ele>
			 </trkpt>
			 <trkpt lat="29.417389" lon="-98.493519">
				 <ele>188.8</ele>
			 </trkpt>
			 <trkpt lat="29.417607" lon="-98.493339">
				 <ele>188.9</ele>
			 </trkpt>
			 <trkpt lat="29.417844" lon="-98.493097">
				 <ele>189</ele>
			 </trkpt>
			 <trkpt lat="29.41818" lon="-98.492836">
				 <ele>189.1</ele>
			 </trkpt>
			 <trkpt lat="29.418366" lon="-98.492747">
				 <ele>189.1</ele>
			 </trkpt>
			 <trkpt lat="29.418679" lon="-98.492633">
				 <ele>189.2</ele>
			 </trkpt>
			 <trkpt lat="29.418778" lon="-98.492596">
				 <ele>189.2</ele>
			 </trkpt>
			 <trkpt lat="29.419047" lon="-98.492546">
				 <ele>189.3</ele>
			 </trkpt>
			 <trkpt lat="29.419242" lon="-98.49248">
				 <ele>189.4</ele>
			 </trkpt>
			 <trkpt lat="29.419752" lon="-98.492399">
				 <ele>189.5</ele>
			 </trkpt>
			 <trkpt lat="29.419855" lon="-98.492402">
				 <ele>189.6</ele>
			 </trkpt>
			 <trkpt lat="29.420063" lon="-98.492446">
				 <ele>189.6</ele>
			 </trkpt>
			 <trkpt lat="29.42025" lon="-98.492537">
				 <ele>189.6</ele>
			 </trkpt>
			 <trkpt lat="29.420362" lon="-98.492539">
				 <ele>189.8</ele>
			 </trkpt>
			 <trkpt lat="29.420558" lon="-98.492575">
				 <ele>190.2</ele>
			 </trkpt>
			 <trkpt lat="29.421068" lon="-98.492693">
				 <ele>190.6</ele>
			 </trkpt>
			 <trkpt lat="29.421099" lon="-98.492626">
				 <ele>191</ele>
			 </trkpt>
			 <trkpt lat="29.42118" lon="-98.492589">
				 <ele>191.5</ele>
			 </trkpt>
			 <trkpt lat="29.421319" lon="-98.49268">
				 <ele>192</ele>
			 </trkpt>
			 <trkpt lat="29.421342" lon="-98.492702">
				 <ele>192.5</ele>
			 </trkpt>
			 <trkpt lat="29.4214" lon="-98.492675">
				 <ele>192.9</ele>
			 </trkpt>
			 <trkpt lat="29.421413" lon="-98.492493">
				 <ele>193.3</ele>
			 </trkpt>
			 <trkpt lat="29.421442" lon="-98.492333">
				 <ele>193.6</ele>
			 </trkpt>
			 <trkpt lat="29.421592" lon="-98.492341">
				 <ele>194.1</ele>
			 </trkpt>
			 <trkpt lat="29.421608" lon="-98.492385">
				 <ele>194.5</ele>
			 </trkpt>
			 <trkpt lat="29.421675" lon="-98.492354">
				 <ele>194.7</ele>
			 </trkpt>
			 <trkpt lat="29.421653" lon="-98.492294">
				 <ele>195.1</ele>
			 </trkpt>
			 <trkpt lat="29.421195" lon="-98.491079">
				 <ele>195.5</ele>
			 </trkpt>
			 <trkpt lat="29.421148" lon="-98.490908">
				 <ele>195.8</ele>
			 </trkpt>
			 <trkpt lat="29.420984" lon="-98.489798">
				 <ele>196.2</ele>
			 </trkpt>
			 <trkpt lat="29.420933" lon="-98.489654">
				 <ele>196.5</ele>
			 </trkpt>
			 <trkpt lat="29.420697" lon="-98.488103">
				 <ele>196.9</ele>
			 </trkpt>
			 <trkpt lat="29.420763" lon="-98.488068">
				 <ele>197.1</ele>
			 </trkpt>
			 <trkpt lat="29.420674" lon="-98.487606">
				 <ele>197.4</ele>
			 </trkpt>
			 <trkpt lat="29.419807" lon="-98.486647">
				 <ele>197.8</ele>
			 </trkpt>
			 <trkpt lat="29.419897" lon="-98.486545">
				 <ele>198</ele>
			 </trkpt>
			 <trkpt lat="29.419936" lon="-98.486353">
				 <ele>198.3</ele>
			 </trkpt>
			 <trkpt lat="29.42111" lon="-98.486745">
				 <ele>198.3</ele>
			 </trkpt>
		 </trkseg>
	 </trk>
</gpx>