<?xml version="1.0" encoding="UTF-8"?>
 <gpx creator="Garmin Connect" version="1.1"
	 xsi:schemaLocation="http://www.topografix.com/GPX/1/1 http://www.topografix.com/GPX/11.xsd"
	 xmlns:ns3="http://www.garmin.com/xmlschemas/TrackPointExtension/v1"
	 xmlns="http://www.topografix.com/GPX/1/1"
	 xmlns:xsi="http://www.w3.org/2001/XMLSchema-instance" xmlns:ns2="http://www.garmin.com/xmlschemas/GpxExtensions/v3">
	 <metadata>
		<name>Bacolod City Marathon - 42.195 km</name>
		 <link href="https://www.goandrace.com">
		 <text>Garmin Connect</text>
		 </link>
	 <time>2026-08-10T02:53:00</time>
	 </metadata>
	 <trk>
		 <name>Bacolod City Marathon - 42.195 km</name>
		 <trkseg>
			 <trkpt lat="10.659335" lon="122.96529">
				 <ele>25.5</ele>
			 </trkpt>
			 <trkpt lat="10.65934" lon="122.96527">
				 <ele>25.7</ele>
			 </trkpt>
			 <trkpt lat="10.65953" lon="122.96527">
				 <ele>26.1</ele>
			 </trkpt>
			 <trkpt lat="10.65972" lon="122.96531">
				 <ele>26.4</ele>
			 </trkpt>
			 <trkpt lat="10.65986" lon="122.96534">
				 <ele>26.8</ele>
			 </trkpt>
			 <trkpt lat="10.65998" lon="122.9654">
				 <ele>27.1</ele>
			 </trkpt>
			 <trkpt lat="10.66079" lon="122.9659">
				 <ele>27.6</ele>
			 </trkpt>
			 <trkpt lat="10.66142" lon="122.9663">
				 <ele>28.3</ele>
			 </trkpt>
			 <trkpt lat="10.66203" lon="122.96666">
				 <ele>29</ele>
			 </trkpt>
			 <trkpt lat="10.6629" lon="122.96711">
				 <ele>29.7</ele>
			 </trkpt>
			 <trkpt lat="10.66371" lon="122.96747">
				 <ele>30.4</ele>
			 </trkpt>
			 <trkpt lat="10.66422" lon="122.96769">
				 <ele>31.1</ele>
			 </trkpt>
			 <trkpt lat="10.66424" lon="122.9677">
				 <ele>31.9</ele>
			 </trkpt>
			 <trkpt lat="10.66309" lon="122.97043">
				 <ele>32.6</ele>
			 </trkpt>
			 <trkpt lat="10.66202" lon="122.97301">
				 <ele>33.4</ele>
			 </trkpt>
			 <trkpt lat="10.66137" lon="122.9748">
				 <ele>34.3</ele>
			 </trkpt>
			 <trkpt lat="10.6609" lon="122.97609">
				 <ele>35.3</ele>
			 </trkpt>
			 <trkpt lat="10.66075" lon="122.97654">
				 <ele>36.3</ele>
			 </trkpt>
			 <trkpt lat="10.66073" lon="122.97719">
				 <ele>37.2</ele>
			 </trkpt>
			 <trkpt lat="10.66075" lon="122.9792">
				 <ele>38.1</ele>
			 </trkpt>
			 <trkpt lat="10.66076" lon="122.97968">
				 <ele>38.9</ele>
			 </trkpt>
			 <trkpt lat="10.6608" lon="122.98095">
				 <ele>39.7</ele>
			 </trkpt>
			 <trkpt lat="10.6608" lon="122.98225">
				 <ele>40.7</ele>
			 </trkpt>
			 <trkpt lat="10.66079" lon="122.9826">
				 <ele>41.9</ele>
			 </trkpt>
			 <trkpt lat="10.66081" lon="122.9831">
				 <ele>43.2</ele>
			 </trkpt>
			 <trkpt lat="10.66081" lon="122.98378">
				 <ele>44.5</ele>
			 </trkpt>
			 <trkpt lat="10.66082" lon="122.98483">
				 <ele>45.6</ele>
			 </trkpt>
			 <trkpt lat="10.66082" lon="122.9861">
				 <ele>46.9</ele>
			 </trkpt>
			 <trkpt lat="10.66087" lon="122.9892">
				 <ele>48.2</ele>
			 </trkpt>
			 <trkpt lat="10.66087" lon="122.98946">
				 <ele>49.5</ele>
			 </trkpt>
			 <trkpt lat="10.66087" lon="122.98998">
				 <ele>51</ele>
			 </trkpt>
			 <trkpt lat="10.66091" lon="122.99065">
				 <ele>52.4</ele>
			 </trkpt>
			 <trkpt lat="10.66089" lon="122.99187">
				 <ele>53.8</ele>
			 </trkpt>
			 <trkpt lat="10.66089" lon="122.99218">
				 <ele>55.3</ele>
			 </trkpt>
			 <trkpt lat="10.66091" lon="122.9944">
				 <ele>56.7</ele>
			 </trkpt>
			 <trkpt lat="10.66096" lon="122.99899">
				 <ele>58.1</ele>
			 </trkpt>
			 <trkpt lat="10.66098" lon="122.99946">
				 <ele>59.5</ele>
			 </trkpt>
			 <trkpt lat="10.66102" lon="122.99975">
				 <ele>61</ele>
			 </trkpt>
			 <trkpt lat="10.66118" lon="123.00021">
				 <ele>62.3</ele>
			 </trkpt>
			 <trkpt lat="10.66147" lon="123.00089">
				 <ele>63.7</ele>
			 </trkpt>
			 <trkpt lat="10.66183" lon="123.0018">
				 <ele>65.2</ele>
			 </trkpt>
			 <trkpt lat="10.6632" lon="123.00518">
				 <ele>66.4</ele>
			 </trkpt>
			 <trkpt lat="10.66336" lon="123.00556">
				 <ele>67.7</ele>
			 </trkpt>
			 <trkpt lat="10.66362" lon="123.00632">
				 <ele>69</ele>
			 </trkpt>
			 <trkpt lat="10.66402" lon="123.0079">
				 <ele>70.3</ele>
			 </trkpt>
			 <trkpt lat="10.66448" lon="123.00992">
				 <ele>71.5</ele>
			 </trkpt>
			 <trkpt lat="10.66458" lon="123.01045">
				 <ele>72.7</ele>
			 </trkpt>
			 <trkpt lat="10.66487" lon="123.01238">
				 <ele>74</ele>
			 </trkpt>
			 <trkpt lat="10.66491" lon="123.01264">
				 <ele>75.1</ele>
			 </trkpt>
			 <trkpt lat="10.66502" lon="123.01379">
				 <ele>76.3</ele>
			 </trkpt>
			 <trkpt lat="10.66515" lon="123.01553">
				 <ele>77.4</ele>
			 </trkpt>
			 <trkpt lat="10.66525" lon="123.01691">
				 <ele>78.5</ele>
			 </trkpt>
			 <trkpt lat="10.66541" lon="123.01885">
				 <ele>80</ele>
			 </trkpt>
			 <trkpt lat="10.66541" lon="123.01885">
				 <ele>81.4</ele>
			 </trkpt>
			 <trkpt lat="10.66514" lon="123.01913">
				 <ele>82.8</ele>
			 </trkpt>
			 <trkpt lat="10.66488" lon="123.01935">
				 <ele>84.3</ele>
			 </trkpt>
			 <trkpt lat="10.66443" lon="123.01978">
				 <ele>85.6</ele>
			 </trkpt>
			 <trkpt lat="10.66367" lon="123.02055">
				 <ele>86.8</ele>
			 </trkpt>
			 <trkpt lat="10.66303" lon="123.0212">
				 <ele>87.9</ele>
			 </trkpt>
			 <trkpt lat="10.66239" lon="123.02182">
				 <ele>88.9</ele>
			 </trkpt>
			 <trkpt lat="10.66223" lon="123.02196">
				 <ele>89.9</ele>
			 </trkpt>
			 <trkpt lat="10.66187" lon="123.02218">
				 <ele>90.9</ele>
			 </trkpt>
			 <trkpt lat="10.66178" lon="123.02222">
				 <ele>91.7</ele>
			 </trkpt>
			 <trkpt lat="10.66153" lon="123.02232">
				 <ele>92.5</ele>
			 </trkpt>
			 <trkpt lat="10.66128" lon="123.0224">
				 <ele>93.5</ele>
			 </trkpt>
			 <trkpt lat="10.66092" lon="123.02246">
				 <ele>94.5</ele>
			 </trkpt>
			 <trkpt lat="10.66048" lon="123.02248">
				 <ele>95.5</ele>
			 </trkpt>
			 <trkpt lat="10.65999" lon="123.02243">
				 <ele>96</ele>
			 </trkpt>
			 <trkpt lat="10.65843" lon="123.02225">
				 <ele>96.3</ele>
			 </trkpt>
			 <trkpt lat="10.65728" lon="123.02213">
				 <ele>96.3</ele>
			 </trkpt>
			 <trkpt lat="10.65629" lon="123.02202">
				 <ele>96.3</ele>
			 </trkpt>
			 <trkpt lat="10.65483" lon="123.02186">
				 <ele>96.4</ele>
			 </trkpt>
			 <trkpt lat="10.65383" lon="123.02175">
				 <ele>96.6</ele>
			 </trkpt>
			 <trkpt lat="10.65192" lon="123.02154">
				 <ele>96.9</ele>
			 </trkpt>
			 <trkpt lat="10.65118" lon="123.02145">
				 <ele>96.7</ele>
			 </trkpt>
			 <trkpt lat="10.65097" lon="123.0214">
				 <ele>95.2</ele>
			 </trkpt>
			 <trkpt lat="10.65073" lon="123.02131">
				 <ele>94.5</ele>
			 </trkpt>
			 <trkpt lat="10.6504" lon="123.02117">
				 <ele>93.6</ele>
			 </trkpt>
			 <trkpt lat="10.65023" lon="123.02109">
				 <ele>92.6</ele>
			 </trkpt>
			 <trkpt lat="10.64922" lon="123.02066">
				 <ele>91.8</ele>
			 </trkpt>
			 <trkpt lat="10.64849" lon="123.02034">
				 <ele>91.4</ele>
			 </trkpt>
			 <trkpt lat="10.64663" lon="123.01955">
				 <ele>90.8</ele>
			 </trkpt>
			 <trkpt lat="10.64629" lon="123.01941">
				 <ele>90.5</ele>
			 </trkpt>
			 <trkpt lat="10.64547" lon="123.0191">
				 <ele>89.5</ele>
			 </trkpt>
			 <trkpt lat="10.6451" lon="123.019">
				 <ele>88.4</ele>
			 </trkpt>
			 <trkpt lat="10.64491" lon="123.01897">
				 <ele>87.4</ele>
			 </trkpt>
			 <trkpt lat="10.64432" lon="123.01891">
				 <ele>87.6</ele>
			 </trkpt>
			 <trkpt lat="10.644" lon="123.01892">
				 <ele>86.9</ele>
			 </trkpt>
			 <trkpt lat="10.64331" lon="123.01893">
				 <ele>85.9</ele>
			 </trkpt>
			 <trkpt lat="10.64293" lon="123.01894">
				 <ele>85.4</ele>
			 </trkpt>
			 <trkpt lat="10.64221" lon="123.01897">
				 <ele>85.5</ele>
			 </trkpt>
			 <trkpt lat="10.64188" lon="123.01897">
				 <ele>85.7</ele>
			 </trkpt>
			 <trkpt lat="10.64134" lon="123.01894">
				 <ele>86.2</ele>
			 </trkpt>
			 <trkpt lat="10.64058" lon="123.01879">
				 <ele>85.5</ele>
			 </trkpt>
			 <trkpt lat="10.64019" lon="123.01869">
				 <ele>85.5</ele>
			 </trkpt>
			 <trkpt lat="10.63974" lon="123.01854">
				 <ele>85.9</ele>
			 </trkpt>
			 <trkpt lat="10.63882" lon="123.01818">
				 <ele>86.4</ele>
			 </trkpt>
			 <trkpt lat="10.63768" lon="123.01769">
				 <ele>86.6</ele>
			 </trkpt>
			 <trkpt lat="10.63659" lon="123.01722">
				 <ele>86.7</ele>
			 </trkpt>
			 <trkpt lat="10.63501" lon="123.01653">
				 <ele>86.9</ele>
			 </trkpt>
			 <trkpt lat="10.63447" lon="123.01634">
				 <ele>87</ele>
			 </trkpt>
			 <trkpt lat="10.63398" lon="123.01622">
				 <ele>86.4</ele>
			 </trkpt>
			 <trkpt lat="10.63312" lon="123.01603">
				 <ele>85.4</ele>
			 </trkpt>
			 <trkpt lat="10.6315" lon="123.01579">
				 <ele>84.5</ele>
			 </trkpt>
			 <trkpt lat="10.62974" lon="123.01552">
				 <ele>84.1</ele>
			 </trkpt>
			 <trkpt lat="10.62919" lon="123.01547">
				 <ele>83</ele>
			 </trkpt>
			 <trkpt lat="10.62844" lon="123.01543">
				 <ele>81.2</ele>
			 </trkpt>
			 <trkpt lat="10.6261" lon="123.01536">
				 <ele>79.7</ele>
			 </trkpt>
			 <trkpt lat="10.62562" lon="123.01531">
				 <ele>78.5</ele>
			 </trkpt>
			 <trkpt lat="10.62536" lon="123.01526">
				 <ele>77.5</ele>
			 </trkpt>
			 <trkpt lat="10.62487" lon="123.01514">
				 <ele>76.5</ele>
			 </trkpt>
			 <trkpt lat="10.62382" lon="123.01488">
				 <ele>75.3</ele>
			 </trkpt>
			 <trkpt lat="10.62245" lon="123.01453">
				 <ele>74</ele>
			 </trkpt>
			 <trkpt lat="10.62148" lon="123.01428">
				 <ele>72.4</ele>
			 </trkpt>
			 <trkpt lat="10.62055" lon="123.01406">
				 <ele>70.5</ele>
			 </trkpt>
			 <trkpt lat="10.62055" lon="123.01406">
				 <ele>69</ele>
			 </trkpt>
			 <trkpt lat="10.6201" lon="123.01392">
				 <ele>67.7</ele>
			 </trkpt>
			 <trkpt lat="10.61982" lon="123.0138">
				 <ele>66.9</ele>
			 </trkpt>
			 <trkpt lat="10.61961" lon="123.0137">
				 <ele>66</ele>
			 </trkpt>
			 <trkpt lat="10.61935" lon="123.01355">
				 <ele>64.8</ele>
			 </trkpt>
			 <trkpt lat="10.61909" lon="123.01336">
				 <ele>63.5</ele>
			 </trkpt>
			 <trkpt lat="10.61843" lon="123.0128">
				 <ele>62.5</ele>
			 </trkpt>
			 <trkpt lat="10.61733" lon="123.01186">
				 <ele>61.9</ele>
			 </trkpt>
			 <trkpt lat="10.61622" lon="123.01094">
				 <ele>61.4</ele>
			 </trkpt>
			 <trkpt lat="10.61595" lon="123.01069">
				 <ele>61</ele>
			 </trkpt>
			 <trkpt lat="10.61518" lon="123.00997">
				 <ele>60.4</ele>
			 </trkpt>
			 <trkpt lat="10.61481" lon="123.00959">
				 <ele>59.5</ele>
			 </trkpt>
			 <trkpt lat="10.6139" lon="123.00845">
				 <ele>58.8</ele>
			 </trkpt>
			 <trkpt lat="10.6124" lon="123.00662">
				 <ele>58.1</ele>
			 </trkpt>
			 <trkpt lat="10.61085" lon="123.00471">
				 <ele>57.5</ele>
			 </trkpt>
			 <trkpt lat="10.60931" lon="123.00282">
				 <ele>56.7</ele>
			 </trkpt>
			 <trkpt lat="10.60879" lon="123.00214">
				 <ele>56.3</ele>
			 </trkpt>
			 <trkpt lat="10.60831" lon="123.00143">
				 <ele>55.5</ele>
			 </trkpt>
			 <trkpt lat="10.60805" lon="123.00097">
				 <ele>54.6</ele>
			 </trkpt>
			 <trkpt lat="10.60747" lon="122.99996">
				 <ele>53.7</ele>
			 </trkpt>
			 <trkpt lat="10.60592" lon="122.99729">
				 <ele>52.7</ele>
			 </trkpt>
			 <trkpt lat="10.605" lon="122.9957">
				 <ele>51.9</ele>
			 </trkpt>
			 <trkpt lat="10.60472" lon="122.99509">
				 <ele>51.3</ele>
			 </trkpt>
			 <trkpt lat="10.60454" lon="122.99451">
				 <ele>50.6</ele>
			 </trkpt>
			 <trkpt lat="10.60416" lon="122.99296">
				 <ele>50.1</ele>
			 </trkpt>
			 <trkpt lat="10.60387" lon="122.99189">
				 <ele>49</ele>
			 </trkpt>
			 <trkpt lat="10.60381" lon="122.99172">
				 <ele>48.2</ele>
			 </trkpt>
			 <trkpt lat="10.60353" lon="122.99104">
				 <ele>47</ele>
			 </trkpt>
			 <trkpt lat="10.60311" lon="122.99024">
				 <ele>45.9</ele>
			 </trkpt>
			 <trkpt lat="10.60205" lon="122.98816">
				 <ele>45</ele>
			 </trkpt>
			 <trkpt lat="10.60135" lon="122.98678">
				 <ele>44.1</ele>
			 </trkpt>
			 <trkpt lat="10.6007" lon="122.98559">
				 <ele>43.5</ele>
			 </trkpt>
			 <trkpt lat="10.60024" lon="122.98489">
				 <ele>43</ele>
			 </trkpt>
			 <trkpt lat="10.59989" lon="122.98437">
				 <ele>42.3</ele>
			 </trkpt>
			 <trkpt lat="10.59886" lon="122.98281">
				 <ele>41.1</ele>
			 </trkpt>
			 <trkpt lat="10.59712" lon="122.9802">
				 <ele>39.7</ele>
			 </trkpt>
			 <trkpt lat="10.59642" lon="122.97906">
				 <ele>38.7</ele>
			 </trkpt>
			 <trkpt lat="10.59602" lon="122.97835">
				 <ele>38</ele>
			 </trkpt>
			 <trkpt lat="10.59562" lon="122.97756">
				 <ele>37.5</ele>
			 </trkpt>
			 <trkpt lat="10.59532" lon="122.97694">
				 <ele>36.9</ele>
			 </trkpt>
			 <trkpt lat="10.59511" lon="122.97657">
				 <ele>36.2</ele>
			 </trkpt>
			 <trkpt lat="10.59491" lon="122.97628">
				 <ele>35.5</ele>
			 </trkpt>
			 <trkpt lat="10.59472" lon="122.97596">
				 <ele>34.8</ele>
			 </trkpt>
			 <trkpt lat="10.59459" lon="122.97569">
				 <ele>34</ele>
			 </trkpt>
			 <trkpt lat="10.59452" lon="122.97547">
				 <ele>33.3</ele>
			 </trkpt>
			 <trkpt lat="10.59443" lon="122.97519">
				 <ele>32.4</ele>
			 </trkpt>
			 <trkpt lat="10.59419" lon="122.97442">
				 <ele>31.6</ele>
			 </trkpt>
			 <trkpt lat="10.59391" lon="122.97343">
				 <ele>30.7</ele>
			 </trkpt>
			 <trkpt lat="10.59371" lon="122.97274">
				 <ele>29.5</ele>
			 </trkpt>
			 <trkpt lat="10.59338" lon="122.97142">
				 <ele>28.1</ele>
			 </trkpt>
			 <trkpt lat="10.59313" lon="122.97006">
				 <ele>27</ele>
			 </trkpt>
			 <trkpt lat="10.59297" lon="122.96898">
				 <ele>25.9</ele>
			 </trkpt>
			 <trkpt lat="10.59286" lon="122.96805">
				 <ele>24.7</ele>
			 </trkpt>
			 <trkpt lat="10.59257" lon="122.96553">
				 <ele>23.5</ele>
			 </trkpt>
			 <trkpt lat="10.59232" lon="122.96326">
				 <ele>22.5</ele>
			 </trkpt>
			 <trkpt lat="10.59214" lon="122.9616">
				 <ele>21.9</ele>
			 </trkpt>
			 <trkpt lat="10.59202" lon="122.96062">
				 <ele>21.9</ele>
			 </trkpt>
			 <trkpt lat="10.59168" lon="122.95753">
				 <ele>21.6</ele>
			 </trkpt>
			 <trkpt lat="10.59153" lon="122.95628">
				 <ele>21.3</ele>
			 </trkpt>
			 <trkpt lat="10.59148" lon="122.95545">
				 <ele>20.6</ele>
			 </trkpt>
			 <trkpt lat="10.59151" lon="122.95483">
				 <ele>20.1</ele>
			 </trkpt>
			 <trkpt lat="10.59156" lon="122.95426">
				 <ele>19.5</ele>
			 </trkpt>
			 <trkpt lat="10.59171" lon="122.95353">
				 <ele>18.8</ele>
			 </trkpt>
			 <trkpt lat="10.59184" lon="122.95304">
				 <ele>18.6</ele>
			 </trkpt>
			 <trkpt lat="10.59204" lon="122.95253">
				 <ele>18.8</ele>
			 </trkpt>
			 <trkpt lat="10.59261" lon="122.9512">
				 <ele>18.5</ele>
			 </trkpt>
			 <trkpt lat="10.59368" lon="122.94871">
				 <ele>18.1</ele>
			 </trkpt>
			 <trkpt lat="10.59429" lon="122.94735">
				 <ele>17.7</ele>
			 </trkpt>
			 <trkpt lat="10.59469" lon="122.94655">
				 <ele>17.5</ele>
			 </trkpt>
			 <trkpt lat="10.59533" lon="122.94505">
				 <ele>17.5</ele>
			 </trkpt>
			 <trkpt lat="10.59583" lon="122.94388">
				 <ele>17.8</ele>
			 </trkpt>
			 <trkpt lat="10.59625" lon="122.94289">
				 <ele>18.2</ele>
			 </trkpt>
			 <trkpt lat="10.59628" lon="122.94283">
				 <ele>18.2</ele>
			 </trkpt>
			 <trkpt lat="10.59622" lon="122.94279">
				 <ele>18.2</ele>
			 </trkpt>
			 <trkpt lat="10.59708" lon="122.94085">
				 <ele>17.9</ele>
			 </trkpt>
			 <trkpt lat="10.59713" lon="122.9407">
				 <ele>17.5</ele>
			 </trkpt>
			 <trkpt lat="10.59748" lon="122.93985">
				 <ele>17.6</ele>
			 </trkpt>
			 <trkpt lat="10.5978" lon="122.93921">
				 <ele>17.8</ele>
			 </trkpt>
			 <trkpt lat="10.59827" lon="122.93837">
				 <ele>18.2</ele>
			 </trkpt>
			 <trkpt lat="10.59841" lon="122.93814">
				 <ele>18.5</ele>
			 </trkpt>
			 <trkpt lat="10.59862" lon="122.93782">
				 <ele>18.9</ele>
			 </trkpt>
			 <trkpt lat="10.59862" lon="122.93782">
				 <ele>18.7</ele>
			 </trkpt>
			 <trkpt lat="10.59827" lon="122.93837">
				 <ele>18.9</ele>
			 </trkpt>
			 <trkpt lat="10.5978" lon="122.93921">
				 <ele>19.5</ele>
			 </trkpt>
			 <trkpt lat="10.59748" lon="122.93985">
				 <ele>20.2</ele>
			 </trkpt>
			 <trkpt lat="10.59713" lon="122.9407">
				 <ele>20.6</ele>
			 </trkpt>
			 <trkpt lat="10.59622" lon="122.94279">
				 <ele>21.3</ele>
			 </trkpt>
			 <trkpt lat="10.59628" lon="122.94283">
				 <ele>21.6</ele>
			 </trkpt>
			 <trkpt lat="10.59625" lon="122.94289">
				 <ele>21.9</ele>
			 </trkpt>
			 <trkpt lat="10.59583" lon="122.94388">
				 <ele>21.9</ele>
			 </trkpt>
			 <trkpt lat="10.59533" lon="122.94505">
				 <ele>22.5</ele>
			 </trkpt>
			 <trkpt lat="10.59469" lon="122.94655">
				 <ele>23.5</ele>
			 </trkpt>
			 <trkpt lat="10.59429" lon="122.94735">
				 <ele>24.7</ele>
			 </trkpt>
			 <trkpt lat="10.59368" lon="122.94871">
				 <ele>25.9</ele>
			 </trkpt>
			 <trkpt lat="10.59309" lon="122.95009">
				 <ele>27</ele>
			 </trkpt>
			 <trkpt lat="10.59204" lon="122.95253">
				 <ele>28.1</ele>
			 </trkpt>
			 <trkpt lat="10.59184" lon="122.95304">
				 <ele>29.5</ele>
			 </trkpt>
			 <trkpt lat="10.59171" lon="122.95353">
				 <ele>30.7</ele>
			 </trkpt>
			 <trkpt lat="10.59156" lon="122.95426">
				 <ele>31.6</ele>
			 </trkpt>
			 <trkpt lat="10.59151" lon="122.95483">
				 <ele>32.4</ele>
			 </trkpt>
			 <trkpt lat="10.59148" lon="122.95545">
				 <ele>33.3</ele>
			 </trkpt>
			 <trkpt lat="10.59153" lon="122.95628">
				 <ele>34</ele>
			 </trkpt>
			 <trkpt lat="10.59168" lon="122.95753">
				 <ele>34.8</ele>
			 </trkpt>
			 <trkpt lat="10.59183" lon="122.95898">
				 <ele>35.6</ele>
			 </trkpt>
			 <trkpt lat="10.59214" lon="122.9616">
				 <ele>36.3</ele>
			 </trkpt>
			 <trkpt lat="10.59247" lon="122.96462">
				 <ele>37</ele>
			 </trkpt>
			 <trkpt lat="10.59297" lon="122.96898">
				 <ele>37.6</ele>
			 </trkpt>
			 <trkpt lat="10.59313" lon="122.97006">
				 <ele>38.1</ele>
			 </trkpt>
			 <trkpt lat="10.59338" lon="122.97142">
				 <ele>38.8</ele>
			 </trkpt>
			 <trkpt lat="10.59371" lon="122.97274">
				 <ele>39.8</ele>
			 </trkpt>
			 <trkpt lat="10.59391" lon="122.97343">
				 <ele>41.2</ele>
			 </trkpt>
			 <trkpt lat="10.59419" lon="122.97442">
				 <ele>42.4</ele>
			 </trkpt>
			 <trkpt lat="10.59452" lon="122.97547">
				 <ele>43.1</ele>
			 </trkpt>
			 <trkpt lat="10.59459" lon="122.97569">
				 <ele>43.5</ele>
			 </trkpt>
			 <trkpt lat="10.59472" lon="122.97596">
				 <ele>44.1</ele>
			 </trkpt>
			 <trkpt lat="10.59491" lon="122.97628">
				 <ele>45</ele>
			 </trkpt>
			 <trkpt lat="10.59511" lon="122.97657">
				 <ele>45.9</ele>
			 </trkpt>
			 <trkpt lat="10.59532" lon="122.97694">
				 <ele>47</ele>
			 </trkpt>
			 <trkpt lat="10.59562" lon="122.97756">
				 <ele>48.2</ele>
			 </trkpt>
			 <trkpt lat="10.59602" lon="122.97835">
				 <ele>49</ele>
			 </trkpt>
			 <trkpt lat="10.59642" lon="122.97906">
				 <ele>50.1</ele>
			 </trkpt>
			 <trkpt lat="10.59712" lon="122.9802">
				 <ele>50.7</ele>
			 </trkpt>
			 <trkpt lat="10.59823" lon="122.98186">
				 <ele>51.4</ele>
			 </trkpt>
			 <trkpt lat="10.59989" lon="122.98437">
				 <ele>52</ele>
			 </trkpt>
			 <trkpt lat="10.60024" lon="122.98489">
				 <ele>52.8</ele>
			 </trkpt>
			 <trkpt lat="10.6007" lon="122.98559">
				 <ele>53.8</ele>
			 </trkpt>
			 <trkpt lat="10.60135" lon="122.98678">
				 <ele>54.7</ele>
			 </trkpt>
			 <trkpt lat="10.60205" lon="122.98816">
				 <ele>55.6</ele>
			 </trkpt>
			 <trkpt lat="10.60259" lon="122.98921">
				 <ele>56.4</ele>
			 </trkpt>
			 <trkpt lat="10.60353" lon="122.99104">
				 <ele>56.8</ele>
			 </trkpt>
			 <trkpt lat="10.60381" lon="122.99172">
				 <ele>57.7</ele>
			 </trkpt>
			 <trkpt lat="10.60387" lon="122.99189">
				 <ele>58.3</ele>
			 </trkpt>
			 <trkpt lat="10.60416" lon="122.99296">
				 <ele>58.9</ele>
			 </trkpt>
			 <trkpt lat="10.60454" lon="122.99451">
				 <ele>59.6</ele>
			 </trkpt>
			 <trkpt lat="10.60472" lon="122.99509">
				 <ele>60.5</ele>
			 </trkpt>
			 <trkpt lat="10.605" lon="122.9957">
				 <ele>61.1</ele>
			 </trkpt>
			 <trkpt lat="10.60592" lon="122.99729">
				 <ele>61.5</ele>
			 </trkpt>
			 <trkpt lat="10.6064" lon="122.99812">
				 <ele>62</ele>
			 </trkpt>
			 <trkpt lat="10.60805" lon="123.00097">
				 <ele>62.6</ele>
			 </trkpt>
			 <trkpt lat="10.60831" lon="123.00143">
				 <ele>63.5</ele>
			 </trkpt>
			 <trkpt lat="10.60879" lon="123.00214">
				 <ele>64.9</ele>
			 </trkpt>
			 <trkpt lat="10.60931" lon="123.00282">
				 <ele>66</ele>
			 </trkpt>
			 <trkpt lat="10.61183" lon="123.00591">
				 <ele>67</ele>
			 </trkpt>
			 <trkpt lat="10.61291" lon="123.00723">
				 <ele>67.8</ele>
			 </trkpt>
			 <trkpt lat="10.6139" lon="123.00845">
				 <ele>69.1</ele>
			 </trkpt>
			 <trkpt lat="10.61444" lon="123.00913">
				 <ele>70.6</ele>
			 </trkpt>
			 <trkpt lat="10.61481" lon="123.00959">
				 <ele>72.5</ele>
			 </trkpt>
			 <trkpt lat="10.61518" lon="123.00997">
				 <ele>74.1</ele>
			 </trkpt>
			 <trkpt lat="10.61595" lon="123.01069">
				 <ele>75.4</ele>
			 </trkpt>
			 <trkpt lat="10.61622" lon="123.01094">
				 <ele>76.5</ele>
			 </trkpt>
			 <trkpt lat="10.61678" lon="123.01139">
				 <ele>77.6</ele>
			 </trkpt>
			 <trkpt lat="10.61764" lon="123.01212">
				 <ele>78.6</ele>
			 </trkpt>
			 <trkpt lat="10.61909" lon="123.01336">
				 <ele>79.8</ele>
			 </trkpt>
			 <trkpt lat="10.61935" lon="123.01355">
				 <ele>81.2</ele>
			 </trkpt>
			 <trkpt lat="10.61961" lon="123.0137">
				 <ele>83</ele>
			 </trkpt>
			 <trkpt lat="10.61982" lon="123.0138">
				 <ele>84.1</ele>
			 </trkpt>
			 <trkpt lat="10.6201" lon="123.01392">
				 <ele>84.5</ele>
			 </trkpt>
			 <trkpt lat="10.62045" lon="123.01403">
				 <ele>85.4</ele>
			 </trkpt>
			 <trkpt lat="10.62045" lon="123.01403">
				 <ele>86.4</ele>
			 </trkpt>
			 <trkpt lat="10.6221" lon="123.01444">
				 <ele>87</ele>
			 </trkpt>
			 <trkpt lat="10.6228" lon="123.01463">
				 <ele>86.9</ele>
			 </trkpt>
			 <trkpt lat="10.62413" lon="123.01496">
				 <ele>86.7</ele>
			 </trkpt>
			 <trkpt lat="10.62503" lon="123.01518">
				 <ele>86.6</ele>
			 </trkpt>
			 <trkpt lat="10.62562" lon="123.01531">
				 <ele>86.4</ele>
			 </trkpt>
			 <trkpt lat="10.6261" lon="123.01536">
				 <ele>85.9</ele>
			 </trkpt>
			 <trkpt lat="10.6268" lon="123.01538">
				 <ele>85.5</ele>
			 </trkpt>
			 <trkpt lat="10.62776" lon="123.01541">
				 <ele>85.5</ele>
			 </trkpt>
			 <trkpt lat="10.62894" lon="123.01545">
				 <ele>86.2</ele>
			 </trkpt>
			 <trkpt lat="10.62935" lon="123.01548">
				 <ele>85.8</ele>
			 </trkpt>
			 <trkpt lat="10.63007" lon="123.01557">
				 <ele>85.5</ele>
			 </trkpt>
			 <trkpt lat="10.63187" lon="123.01585">
				 <ele>85.5</ele>
			 </trkpt>
			 <trkpt lat="10.6331" lon="123.01603">
				 <ele>86</ele>
			 </trkpt>
			 <trkpt lat="10.63364" lon="123.01614">
				 <ele>86.9</ele>
			 </trkpt>
			 <trkpt lat="10.63447" lon="123.01634">
				 <ele>87.6</ele>
			 </trkpt>
			 <trkpt lat="10.63515" lon="123.01659">
				 <ele>87.4</ele>
			 </trkpt>
			 <trkpt lat="10.6375" lon="123.01761">
				 <ele>88.4</ele>
			 </trkpt>
			 <trkpt lat="10.63835" lon="123.01798">
				 <ele>89.5</ele>
			 </trkpt>
			 <trkpt lat="10.63882" lon="123.01818">
				 <ele>90.5</ele>
			 </trkpt>
			 <trkpt lat="10.63974" lon="123.01854">
				 <ele>90.8</ele>
			 </trkpt>
			 <trkpt lat="10.64058" lon="123.01879">
				 <ele>91.3</ele>
			 </trkpt>
			 <trkpt lat="10.64134" lon="123.01894">
				 <ele>91.7</ele>
			 </trkpt>
			 <trkpt lat="10.64188" lon="123.01897">
				 <ele>92.5</ele>
			 </trkpt>
			 <trkpt lat="10.64273" lon="123.01895">
				 <ele>93.5</ele>
			 </trkpt>
			 <trkpt lat="10.64324" lon="123.01893">
				 <ele>94.5</ele>
			 </trkpt>
			 <trkpt lat="10.64432" lon="123.01891">
				 <ele>95.2</ele>
			 </trkpt>
			 <trkpt lat="10.64491" lon="123.01897">
				 <ele>96.7</ele>
			 </trkpt>
			 <trkpt lat="10.6451" lon="123.019">
				 <ele>96.9</ele>
			 </trkpt>
			 <trkpt lat="10.64567" lon="123.01916">
				 <ele>96.6</ele>
			 </trkpt>
			 <trkpt lat="10.64708" lon="123.01973">
				 <ele>96.4</ele>
			 </trkpt>
			 <trkpt lat="10.6504" lon="123.02117">
				 <ele>96.3</ele>
			 </trkpt>
			 <trkpt lat="10.65073" lon="123.02131">
				 <ele>96.3</ele>
			 </trkpt>
			 <trkpt lat="10.65097" lon="123.0214">
				 <ele>96.3</ele>
			 </trkpt>
			 <trkpt lat="10.65118" lon="123.02145">
				 <ele>96</ele>
			 </trkpt>
			 <trkpt lat="10.65192" lon="123.02154">
				 <ele>95.5</ele>
			 </trkpt>
			 <trkpt lat="10.65195" lon="123.02155">
				 <ele>94.5</ele>
			 </trkpt>
			 <trkpt lat="10.65283" lon="123.02164">
				 <ele>93.5</ele>
			 </trkpt>
			 <trkpt lat="10.6541" lon="123.02178">
				 <ele>92.5</ele>
			 </trkpt>
			 <trkpt lat="10.65555" lon="123.02193">
				 <ele>91.7</ele>
			 </trkpt>
			 <trkpt lat="10.65771" lon="123.02217">
				 <ele>90.9</ele>
			 </trkpt>
			 <trkpt lat="10.66003" lon="123.02243">
				 <ele>89.9</ele>
			 </trkpt>
			 <trkpt lat="10.66048" lon="123.02248">
				 <ele>88.9</ele>
			 </trkpt>
			 <trkpt lat="10.66092" lon="123.02246">
				 <ele>87.9</ele>
			 </trkpt>
			 <trkpt lat="10.66128" lon="123.0224">
				 <ele>86.8</ele>
			 </trkpt>
			 <trkpt lat="10.66153" lon="123.02232">
				 <ele>85.6</ele>
			 </trkpt>
			 <trkpt lat="10.66187" lon="123.02218">
				 <ele>84.3</ele>
			 </trkpt>
			 <trkpt lat="10.66223" lon="123.02196">
				 <ele>82.8</ele>
			 </trkpt>
			 <trkpt lat="10.66239" lon="123.02182">
				 <ele>81.4</ele>
			 </trkpt>
			 <trkpt lat="10.66319" lon="123.02103">
				 <ele>80</ele>
			 </trkpt>
			 <trkpt lat="10.6638" lon="123.02043">
				 <ele>78.5</ele>
			 </trkpt>
			 <trkpt lat="10.66468" lon="123.01954">
				 <ele>77.4</ele>
			 </trkpt>
			 <trkpt lat="10.66514" lon="123.01913">
				 <ele>76.3</ele>
			 </trkpt>
			 <trkpt lat="10.66541" lon="123.01885">
				 <ele>75.1</ele>
			 </trkpt>
			 <trkpt lat="10.66541" lon="123.01885">
				 <ele>74</ele>
			 </trkpt>
			 <trkpt lat="10.66509" lon="123.01473">
				 <ele>72.7</ele>
			 </trkpt>
			 <trkpt lat="10.66497" lon="123.01312">
				 <ele>71.5</ele>
			 </trkpt>
			 <trkpt lat="10.66467" lon="123.01092">
				 <ele>70.3</ele>
			 </trkpt>
			 <trkpt lat="10.6645" lon="123.01003">
				 <ele>69</ele>
			 </trkpt>
			 <trkpt lat="10.66427" lon="123.00894">
				 <ele>67.7</ele>
			 </trkpt>
			 <trkpt lat="10.66384" lon="123.00714">
				 <ele>66.4</ele>
			 </trkpt>
			 <trkpt lat="10.66372" lon="123.00669">
				 <ele>65.2</ele>
			 </trkpt>
			 <trkpt lat="10.6635" lon="123.00595">
				 <ele>63.7</ele>
			 </trkpt>
			 <trkpt lat="10.66314" lon="123.00502">
				 <ele>62.3</ele>
			 </trkpt>
			 <trkpt lat="10.66167" lon="123.0014">
				 <ele>61</ele>
			 </trkpt>
			 <trkpt lat="10.6613" lon="123.00052">
				 <ele>59.5</ele>
			 </trkpt>
			 <trkpt lat="10.6611" lon="122.99998">
				 <ele>58.1</ele>
			 </trkpt>
			 <trkpt lat="10.66099" lon="122.99961">
				 <ele>56.7</ele>
			 </trkpt>
			 <trkpt lat="10.66096" lon="122.99929">
				 <ele>55.3</ele>
			 </trkpt>
			 <trkpt lat="10.66096" lon="122.9989">
				 <ele>53.8</ele>
			 </trkpt>
			 <trkpt lat="10.66093" lon="122.99568">
				 <ele>52.4</ele>
			 </trkpt>
			 <trkpt lat="10.66089" lon="122.99198">
				 <ele>51</ele>
			 </trkpt>
			 <trkpt lat="10.66089" lon="122.99183">
				 <ele>49.5</ele>
			 </trkpt>
			 <trkpt lat="10.66091" lon="122.99065">
				 <ele>48.2</ele>
			 </trkpt>
			 <trkpt lat="10.66087" lon="122.98998">
				 <ele>46.9</ele>
			 </trkpt>
			 <trkpt lat="10.66087" lon="122.98942">
				 <ele>45.6</ele>
			 </trkpt>
			 <trkpt lat="10.66085" lon="122.98814">
				 <ele>44.5</ele>
			 </trkpt>
			 <trkpt lat="10.66082" lon="122.98596">
				 <ele>43.2</ele>
			 </trkpt>
			 <trkpt lat="10.66082" lon="122.98549">
				 <ele>41.9</ele>
			 </trkpt>
			 <trkpt lat="10.66081" lon="122.98372">
				 <ele>40.7</ele>
			 </trkpt>
			 <trkpt lat="10.6608" lon="122.9829">
				 <ele>39.7</ele>
			 </trkpt>
			 <trkpt lat="10.66081" lon="122.98179">
				 <ele>38.9</ele>
			 </trkpt>
			 <trkpt lat="10.66076" lon="122.97954">
				 <ele>38.1</ele>
			 </trkpt>
			 <trkpt lat="10.66075" lon="122.97906">
				 <ele>37.2</ele>
			 </trkpt>
			 <trkpt lat="10.66074" lon="122.97669">
				 <ele>36.3</ele>
			 </trkpt>
			 <trkpt lat="10.66079" lon="122.97637">
				 <ele>35.3</ele>
			 </trkpt>
			 <trkpt lat="10.66108" lon="122.97556">
				 <ele>34.3</ele>
			 </trkpt>
			 <trkpt lat="10.6614" lon="122.9747">
				 <ele>33.4</ele>
			 </trkpt>
			 <trkpt lat="10.66179" lon="122.97366">
				 <ele>32.6</ele>
			 </trkpt>
			 <trkpt lat="10.6621" lon="122.97282">
				 <ele>31.9</ele>
			 </trkpt>
			 <trkpt lat="10.66274" lon="122.97127">
				 <ele>31.2</ele>
			 </trkpt>
			 <trkpt lat="10.66377" lon="122.96878">
				 <ele>30.5</ele>
			 </trkpt>
			 <trkpt lat="10.66424" lon="122.9677">
				 <ele>29.8</ele>
			 </trkpt>
			 <trkpt lat="10.66424" lon="122.9677">
				 <ele>29.1</ele>
			 </trkpt>
			 <trkpt lat="10.66294" lon="122.96713">
				 <ele>28.4</ele>
			 </trkpt>
			 <trkpt lat="10.66207" lon="122.96669">
				 <ele>27.7</ele>
			 </trkpt>
			 <trkpt lat="10.66145" lon="122.96632">
				 <ele>27.2</ele>
			 </trkpt>
			 <trkpt lat="10.66081" lon="122.96591">
				 <ele>26.9</ele>
			 </trkpt>
			 <trkpt lat="10.66014" lon="122.96549">
				 <ele>26.6</ele>
			 </trkpt>
			 <trkpt lat="10.65986" lon="122.96534">
				 <ele>26.3</ele>
			 </trkpt>
			 <trkpt lat="10.6595" lon="122.96527">
				 <ele>25.9</ele>
			 </trkpt>
			 <trkpt lat="10.65934" lon="122.96527">
				 <ele>25.5</ele>
			 </trkpt>
		 </trkseg>
	 </trk>
</gpx>