<?xml version="1.0" encoding="UTF-8"?>
 <gpx creator="Garmin Connect" version="1.1"
	 xsi:schemaLocation="http://www.topografix.com/GPX/1/1 http://www.topografix.com/GPX/11.xsd"
	 xmlns:ns3="http://www.garmin.com/xmlschemas/TrackPointExtension/v1"
	 xmlns="http://www.topografix.com/GPX/1/1"
	 xmlns:xsi="http://www.w3.org/2001/XMLSchema-instance" xmlns:ns2="http://www.garmin.com/xmlschemas/GpxExtensions/v3">
	 <metadata>
		<name>Barcelona Marathon 2026 - 42.195 km</name>
		 <link href="https://www.goandrace.com">
		 <text>Garmin Connect</text>
		 </link>
	 <time>2026-08-08T02:34:34</time>
	 </metadata>
	 <trk>
		 <name>Barcelona Marathon 2026 - 42.195 km</name>
		 <trkseg>
			 <trkpt lat="41.388868" lon="2.169217">
				 <ele>40.3</ele>
			 </trkpt>
			 <trkpt lat="41.389201" lon="2.168814">
				 <ele>40</ele>
			 </trkpt>
			 <trkpt lat="41.389382" lon="2.168593">
				 <ele>39.5</ele>
			 </trkpt>
			 <trkpt lat="41.389492" lon="2.168554">
				 <ele>38.9</ele>
			 </trkpt>
			 <trkpt lat="41.389621" lon="2.168593">
				 <ele>38.6</ele>
			 </trkpt>
			 <trkpt lat="41.389778" lon="2.16875">
				 <ele>38.5</ele>
			 </trkpt>
			 <trkpt lat="41.390097" lon="2.169173">
				 <ele>38.5</ele>
			 </trkpt>
			 <trkpt lat="41.390415" lon="2.169596">
				 <ele>38.1</ele>
			 </trkpt>
			 <trkpt lat="41.390734" lon="2.170019">
				 <ele>38</ele>
			 </trkpt>
			 <trkpt lat="41.391053" lon="2.170441">
				 <ele>37.5</ele>
			 </trkpt>
			 <trkpt lat="41.391372" lon="2.170864">
				 <ele>36.7</ele>
			 </trkpt>
			 <trkpt lat="41.39169" lon="2.171287">
				 <ele>36.3</ele>
			 </trkpt>
			 <trkpt lat="41.392009" lon="2.17171">
				 <ele>36.2</ele>
			 </trkpt>
			 <trkpt lat="41.392328" lon="2.172132">
				 <ele>36.1</ele>
			 </trkpt>
			 <trkpt lat="41.392646" lon="2.172555">
				 <ele>36.1</ele>
			 </trkpt>
			 <trkpt lat="41.392965" lon="2.172978">
				 <ele>35.9</ele>
			 </trkpt>
			 <trkpt lat="41.393284" lon="2.173401">
				 <ele>35.4</ele>
			 </trkpt>
			 <trkpt lat="41.393603" lon="2.173824">
				 <ele>34.7</ele>
			 </trkpt>
			 <trkpt lat="41.393921" lon="2.174246">
				 <ele>33.9</ele>
			 </trkpt>
			 <trkpt lat="41.39406" lon="2.17443">
				 <ele>33.2</ele>
			 </trkpt>
			 <trkpt lat="41.39433" lon="2.17496">
				 <ele>33</ele>
			 </trkpt>
			 <trkpt lat="41.39441" lon="2.17533">
				 <ele>33.1</ele>
			 </trkpt>
			 <trkpt lat="41.3944" lon="2.1755">
				 <ele>33.2</ele>
			 </trkpt>
			 <trkpt lat="41.39442" lon="2.17569">
				 <ele>33.3</ele>
			 </trkpt>
			 <trkpt lat="41.39447" lon="2.17586">
				 <ele>33.6</ele>
			 </trkpt>
			 <trkpt lat="41.39456" lon="2.17601">
				 <ele>33.9</ele>
			 </trkpt>
			 <trkpt lat="41.39471" lon="2.17615">
				 <ele>34</ele>
			 </trkpt>
			 <trkpt lat="41.39483" lon="2.17619">
				 <ele>34.4</ele>
			 </trkpt>
			 <trkpt lat="41.39502" lon="2.17619">
				 <ele>33.8</ele>
			 </trkpt>
			 <trkpt lat="41.39522" lon="2.17627">
				 <ele>33.7</ele>
			 </trkpt>
			 <trkpt lat="41.39537" lon="2.17636">
				 <ele>33.9</ele>
			 </trkpt>
			 <trkpt lat="41.39573" lon="2.17669">
				 <ele>33.6</ele>
			 </trkpt>
			 <trkpt lat="41.39627" lon="2.17738">
				 <ele>33</ele>
			 </trkpt>
			 <trkpt lat="41.396832" lon="2.178106">
				 <ele>32.5</ele>
			 </trkpt>
			 <trkpt lat="41.397394" lon="2.178832">
				 <ele>32.4</ele>
			 </trkpt>
			 <trkpt lat="41.397956" lon="2.179558">
				 <ele>32.3</ele>
			 </trkpt>
			 <trkpt lat="41.398518" lon="2.180284">
				 <ele>31.5</ele>
			 </trkpt>
			 <trkpt lat="41.39908" lon="2.18101">
				 <ele>30.8</ele>
			 </trkpt>
			 <trkpt lat="41.399635" lon="2.180365">
				 <ele>30.2</ele>
			 </trkpt>
			 <trkpt lat="41.40019" lon="2.17972">
				 <ele>30.5</ele>
			 </trkpt>
			 <trkpt lat="41.400745" lon="2.179075">
				 <ele>31</ele>
			 </trkpt>
			 <trkpt lat="41.4013" lon="2.17843">
				 <ele>31.9</ele>
			 </trkpt>
			 <trkpt lat="41.40144" lon="2.17829">
				 <ele>33.2</ele>
			 </trkpt>
			 <trkpt lat="41.4018" lon="2.17787">
				 <ele>34.5</ele>
			 </trkpt>
			 <trkpt lat="41.401764" lon="2.177671">
				 <ele>35.5</ele>
			 </trkpt>
			 <trkpt lat="41.401447" lon="2.177246">
				 <ele>36</ele>
			 </trkpt>
			 <trkpt lat="41.40113" lon="2.176821">
				 <ele>36.4</ele>
			 </trkpt>
			 <trkpt lat="41.400813" lon="2.176395">
				 <ele>37.6</ele>
			 </trkpt>
			 <trkpt lat="41.400496" lon="2.17597">
				 <ele>38.7</ele>
			 </trkpt>
			 <trkpt lat="41.400179" lon="2.175545">
				 <ele>39.7</ele>
			 </trkpt>
			 <trkpt lat="41.399863" lon="2.17512">
				 <ele>40.5</ele>
			 </trkpt>
			 <trkpt lat="41.399546" lon="2.174694">
				 <ele>41</ele>
			 </trkpt>
			 <trkpt lat="41.399229" lon="2.174269">
				 <ele>40.7</ele>
			 </trkpt>
			 <trkpt lat="41.398912" lon="2.173844">
				 <ele>40.5</ele>
			 </trkpt>
			 <trkpt lat="41.398595" lon="2.173419">
				 <ele>40.5</ele>
			 </trkpt>
			 <trkpt lat="41.398278" lon="2.172993">
				 <ele>40.9</ele>
			 </trkpt>
			 <trkpt lat="41.397961" lon="2.172568">
				 <ele>41.5</ele>
			 </trkpt>
			 <trkpt lat="41.397644" lon="2.172143">
				 <ele>41.8</ele>
			 </trkpt>
			 <trkpt lat="41.39759" lon="2.172071">
				 <ele>42</ele>
			 </trkpt>
			 <trkpt lat="41.397272" lon="2.171647">
				 <ele>42.5</ele>
			 </trkpt>
			 <trkpt lat="41.396954" lon="2.171224">
				 <ele>42.9</ele>
			 </trkpt>
			 <trkpt lat="41.396636" lon="2.1708">
				 <ele>43.3</ele>
			 </trkpt>
			 <trkpt lat="41.396317" lon="2.170377">
				 <ele>43.5</ele>
			 </trkpt>
			 <trkpt lat="41.395999" lon="2.169953">
				 <ele>43.8</ele>
			 </trkpt>
			 <trkpt lat="41.395681" lon="2.16953">
				 <ele>43.8</ele>
			 </trkpt>
			 <trkpt lat="41.395363" lon="2.169106">
				 <ele>43.8</ele>
			 </trkpt>
			 <trkpt lat="41.395044" lon="2.168683">
				 <ele>43.8</ele>
			 </trkpt>
			 <trkpt lat="41.394726" lon="2.168259">
				 <ele>44</ele>
			 </trkpt>
			 <trkpt lat="41.394408" lon="2.167836">
				 <ele>44.4</ele>
			 </trkpt>
			 <trkpt lat="41.39409" lon="2.167413">
				 <ele>44.8</ele>
			 </trkpt>
			 <trkpt lat="41.393771" lon="2.166989">
				 <ele>45.1</ele>
			 </trkpt>
			 <trkpt lat="41.393453" lon="2.166566">
				 <ele>45.1</ele>
			 </trkpt>
			 <trkpt lat="41.393135" lon="2.166142">
				 <ele>45.3</ele>
			 </trkpt>
			 <trkpt lat="41.392817" lon="2.165719">
				 <ele>45.3</ele>
			 </trkpt>
			 <trkpt lat="41.392498" lon="2.165295">
				 <ele>45.8</ele>
			 </trkpt>
			 <trkpt lat="41.392275" lon="2.164998">
				 <ele>46.8</ele>
			 </trkpt>
			 <trkpt lat="41.391956" lon="2.164575">
				 <ele>47.5</ele>
			 </trkpt>
			 <trkpt lat="41.391638" lon="2.164153">
				 <ele>48</ele>
			 </trkpt>
			 <trkpt lat="41.391319" lon="2.16373">
				 <ele>48</ele>
			 </trkpt>
			 <trkpt lat="41.391" lon="2.163307">
				 <ele>47.5</ele>
			 </trkpt>
			 <trkpt lat="41.390681" lon="2.162884">
				 <ele>46.8</ele>
			 </trkpt>
			 <trkpt lat="41.390362" lon="2.162462">
				 <ele>46.3</ele>
			 </trkpt>
			 <trkpt lat="41.390044" lon="2.162039">
				 <ele>46.4</ele>
			 </trkpt>
			 <trkpt lat="41.389907" lon="2.161857">
				 <ele>46.6</ele>
			 </trkpt>
			 <trkpt lat="41.389587" lon="2.161436">
				 <ele>46.9</ele>
			 </trkpt>
			 <trkpt lat="41.389268" lon="2.161014">
				 <ele>46.5</ele>
			 </trkpt>
			 <trkpt lat="41.388948" lon="2.160592">
				 <ele>45.7</ele>
			 </trkpt>
			 <trkpt lat="41.388669" lon="2.160223">
				 <ele>44.8</ele>
			 </trkpt>
			 <trkpt lat="41.388349" lon="2.159801">
				 <ele>44.3</ele>
			 </trkpt>
			 <trkpt lat="41.38803" lon="2.159378">
				 <ele>44.2</ele>
			 </trkpt>
			 <trkpt lat="41.387711" lon="2.158956">
				 <ele>44.2</ele>
			 </trkpt>
			 <trkpt lat="41.387392" lon="2.158533">
				 <ele>44.5</ele>
			 </trkpt>
			 <trkpt lat="41.387073" lon="2.158111">
				 <ele>44.7</ele>
			 </trkpt>
			 <trkpt lat="41.386754" lon="2.157689">
				 <ele>44.4</ele>
			 </trkpt>
			 <trkpt lat="41.386477" lon="2.157321">
				 <ele>43.8</ele>
			 </trkpt>
			 <trkpt lat="41.386159" lon="2.156897">
				 <ele>43.3</ele>
			 </trkpt>
			 <trkpt lat="41.385841" lon="2.156473">
				 <ele>43.2</ele>
			 </trkpt>
			 <trkpt lat="41.385523" lon="2.15605">
				 <ele>43.3</ele>
			 </trkpt>
			 <trkpt lat="41.385205" lon="2.155626">
				 <ele>43.5</ele>
			 </trkpt>
			 <trkpt lat="41.384887" lon="2.155202">
				 <ele>43.6</ele>
			 </trkpt>
			 <trkpt lat="41.384569" lon="2.154778">
				 <ele>43.7</ele>
			 </trkpt>
			 <trkpt lat="41.384251" lon="2.154354">
				 <ele>44</ele>
			 </trkpt>
			 <trkpt lat="41.383934" lon="2.15393">
				 <ele>44.4</ele>
			 </trkpt>
			 <trkpt lat="41.383616" lon="2.153506">
				 <ele>44.6</ele>
			 </trkpt>
			 <trkpt lat="41.383448" lon="2.153283">
				 <ele>44.9</ele>
			 </trkpt>
			 <trkpt lat="41.38326" lon="2.15296">
				 <ele>44.9</ele>
			 </trkpt>
			 <trkpt lat="41.383242" lon="2.152745">
				 <ele>44.7</ele>
			 </trkpt>
			 <trkpt lat="41.383272" lon="2.152531">
				 <ele>44.2</ele>
			 </trkpt>
			 <trkpt lat="41.3836" lon="2.152121">
				 <ele>44.2</ele>
			 </trkpt>
			 <trkpt lat="41.383922" lon="2.151719">
				 <ele>44.5</ele>
			 </trkpt>
			 <trkpt lat="41.384247" lon="2.152132">
				 <ele>44.4</ele>
			 </trkpt>
			 <trkpt lat="41.384478" lon="2.152426">
				 <ele>44</ele>
			 </trkpt>
			 <trkpt lat="41.384798" lon="2.152848">
				 <ele>44</ele>
			 </trkpt>
			 <trkpt lat="41.385117" lon="2.15327">
				 <ele>44.2</ele>
			 </trkpt>
			 <trkpt lat="41.385436" lon="2.153692">
				 <ele>44.5</ele>
			 </trkpt>
			 <trkpt lat="41.385618" lon="2.153931">
				 <ele>44.5</ele>
			 </trkpt>
			 <trkpt lat="41.385952" lon="2.154332">
				 <ele>44.8</ele>
			 </trkpt>
			 <trkpt lat="41.386269" lon="2.15471">
				 <ele>45.1</ele>
			 </trkpt>
			 <trkpt lat="41.386573" lon="2.155151">
				 <ele>45.4</ele>
			 </trkpt>
			 <trkpt lat="41.386878" lon="2.155592">
				 <ele>45.9</ele>
			 </trkpt>
			 <trkpt lat="41.387183" lon="2.156032">
				 <ele>46.2</ele>
			 </trkpt>
			 <trkpt lat="41.387342" lon="2.156263">
				 <ele>46.4</ele>
			 </trkpt>
			 <trkpt lat="41.387662" lon="2.156683">
				 <ele>46.6</ele>
			 </trkpt>
			 <trkpt lat="41.387982" lon="2.157104">
				 <ele>46.6</ele>
			 </trkpt>
			 <trkpt lat="41.388303" lon="2.157525">
				 <ele>46.5</ele>
			 </trkpt>
			 <trkpt lat="41.388623" lon="2.157945">
				 <ele>46.5</ele>
			 </trkpt>
			 <trkpt lat="41.388943" lon="2.158366">
				 <ele>46.9</ele>
			 </trkpt>
			 <trkpt lat="41.389264" lon="2.158787">
				 <ele>47.3</ele>
			 </trkpt>
			 <trkpt lat="41.389584" lon="2.159207">
				 <ele>47.7</ele>
			 </trkpt>
			 <trkpt lat="41.389904" lon="2.159628">
				 <ele>48.5</ele>
			 </trkpt>
			 <trkpt lat="41.389934" lon="2.159667">
				 <ele>48.5</ele>
			 </trkpt>
			 <trkpt lat="41.390252" lon="2.160091">
				 <ele>48.7</ele>
			 </trkpt>
			 <trkpt lat="41.390571" lon="2.160515">
				 <ele>49.3</ele>
			 </trkpt>
			 <trkpt lat="41.390889" lon="2.160939">
				 <ele>49.5</ele>
			 </trkpt>
			 <trkpt lat="41.391207" lon="2.161362">
				 <ele>49.5</ele>
			 </trkpt>
			 <trkpt lat="41.391525" lon="2.161786">
				 <ele>49.4</ele>
			 </trkpt>
			 <trkpt lat="41.391843" lon="2.16221">
				 <ele>49.3</ele>
			 </trkpt>
			 <trkpt lat="41.392161" lon="2.162634">
				 <ele>49</ele>
			 </trkpt>
			 <trkpt lat="41.392479" lon="2.163058">
				 <ele>49.2</ele>
			 </trkpt>
			 <trkpt lat="41.392797" lon="2.163481">
				 <ele>49.6</ele>
			 </trkpt>
			 <trkpt lat="41.393115" lon="2.163905">
				 <ele>49.7</ele>
			 </trkpt>
			 <trkpt lat="41.393433" lon="2.164329">
				 <ele>50</ele>
			 </trkpt>
			 <trkpt lat="41.393751" lon="2.164753">
				 <ele>49.8</ele>
			 </trkpt>
			 <trkpt lat="41.394069" lon="2.165176">
				 <ele>49.2</ele>
			 </trkpt>
			 <trkpt lat="41.394387" lon="2.1656">
				 <ele>48.9</ele>
			 </trkpt>
			 <trkpt lat="41.394705" lon="2.166024">
				 <ele>48.8</ele>
			 </trkpt>
			 <trkpt lat="41.395023" lon="2.166448">
				 <ele>48.6</ele>
			 </trkpt>
			 <trkpt lat="41.395341" lon="2.166871">
				 <ele>48.3</ele>
			 </trkpt>
			 <trkpt lat="41.395659" lon="2.167295">
				 <ele>47.8</ele>
			 </trkpt>
			 <trkpt lat="41.395977" lon="2.167719">
				 <ele>47.1</ele>
			 </trkpt>
			 <trkpt lat="41.396295" lon="2.168143">
				 <ele>46.4</ele>
			 </trkpt>
			 <trkpt lat="41.396613" lon="2.168566">
				 <ele>45.8</ele>
			 </trkpt>
			 <trkpt lat="41.396931" lon="2.16899">
				 <ele>44.7</ele>
			 </trkpt>
			 <trkpt lat="41.397249" lon="2.169414">
				 <ele>43.8</ele>
			 </trkpt>
			 <trkpt lat="41.397567" lon="2.169838">
				 <ele>43.4</ele>
			 </trkpt>
			 <trkpt lat="41.397885" lon="2.170262">
				 <ele>43.4</ele>
			 </trkpt>
			 <trkpt lat="41.398203" lon="2.170685">
				 <ele>43.4</ele>
			 </trkpt>
			 <trkpt lat="41.398521" lon="2.171109">
				 <ele>43.5</ele>
			 </trkpt>
			 <trkpt lat="41.39884" lon="2.171533">
				 <ele>43.8</ele>
			 </trkpt>
			 <trkpt lat="41.399158" lon="2.171957">
				 <ele>44.3</ele>
			 </trkpt>
			 <trkpt lat="41.399476" lon="2.17238">
				 <ele>44.6</ele>
			 </trkpt>
			 <trkpt lat="41.399794" lon="2.172804">
				 <ele>44.4</ele>
			 </trkpt>
			 <trkpt lat="41.400112" lon="2.173228">
				 <ele>44.1</ele>
			 </trkpt>
			 <trkpt lat="41.40043" lon="2.173652">
				 <ele>44.1</ele>
			 </trkpt>
			 <trkpt lat="41.400748" lon="2.174075">
				 <ele>44.1</ele>
			 </trkpt>
			 <trkpt lat="41.401066" lon="2.174499">
				 <ele>44</ele>
			 </trkpt>
			 <trkpt lat="41.401384" lon="2.174923">
				 <ele>43.4</ele>
			 </trkpt>
			 <trkpt lat="41.401702" lon="2.175347">
				 <ele>43.1</ele>
			 </trkpt>
			 <trkpt lat="41.40202" lon="2.17577">
				 <ele>42.8</ele>
			 </trkpt>
			 <trkpt lat="41.402338" lon="2.176194">
				 <ele>42.2</ele>
			 </trkpt>
			 <trkpt lat="41.402656" lon="2.176618">
				 <ele>41.5</ele>
			 </trkpt>
			 <trkpt lat="41.402974" lon="2.177042">
				 <ele>41.1</ele>
			 </trkpt>
			 <trkpt lat="41.403292" lon="2.177466">
				 <ele>41.4</ele>
			 </trkpt>
			 <trkpt lat="41.40361" lon="2.177889">
				 <ele>41.5</ele>
			 </trkpt>
			 <trkpt lat="41.403928" lon="2.178313">
				 <ele>41.8</ele>
			 </trkpt>
			 <trkpt lat="41.404246" lon="2.178737">
				 <ele>41.9</ele>
			 </trkpt>
			 <trkpt lat="41.404564" lon="2.179161">
				 <ele>42.1</ele>
			 </trkpt>
			 <trkpt lat="41.404882" lon="2.179584">
				 <ele>42.1</ele>
			 </trkpt>
			 <trkpt lat="41.4052" lon="2.180008">
				 <ele>41.8</ele>
			 </trkpt>
			 <trkpt lat="41.405518" lon="2.180432">
				 <ele>41.9</ele>
			 </trkpt>
			 <trkpt lat="41.405836" lon="2.180856">
				 <ele>42.1</ele>
			 </trkpt>
			 <trkpt lat="41.406154" lon="2.181279">
				 <ele>42.3</ele>
			 </trkpt>
			 <trkpt lat="41.406472" lon="2.181703">
				 <ele>42.1</ele>
			 </trkpt>
			 <trkpt lat="41.406791" lon="2.182127">
				 <ele>41.8</ele>
			 </trkpt>
			 <trkpt lat="41.407109" lon="2.182551">
				 <ele>41.5</ele>
			 </trkpt>
			 <trkpt lat="41.407427" lon="2.182974">
				 <ele>41</ele>
			 </trkpt>
			 <trkpt lat="41.407745" lon="2.183398">
				 <ele>40.6</ele>
			 </trkpt>
			 <trkpt lat="41.408071" lon="2.183833">
				 <ele>40.3</ele>
			 </trkpt>
			 <trkpt lat="41.408389" lon="2.184257">
				 <ele>39.8</ele>
			 </trkpt>
			 <trkpt lat="41.408707" lon="2.184681">
				 <ele>39.1</ele>
			 </trkpt>
			 <trkpt lat="41.409025" lon="2.185105">
				 <ele>38</ele>
			 </trkpt>
			 <trkpt lat="41.409343" lon="2.185529">
				 <ele>37</ele>
			 </trkpt>
			 <trkpt lat="41.409661" lon="2.185952">
				 <ele>36</ele>
			 </trkpt>
			 <trkpt lat="41.409979" lon="2.186376">
				 <ele>35.3</ele>
			 </trkpt>
			 <trkpt lat="41.410297" lon="2.1868">
				 <ele>34.6</ele>
			 </trkpt>
			 <trkpt lat="41.410615" lon="2.187224">
				 <ele>34.3</ele>
			 </trkpt>
			 <trkpt lat="41.410933" lon="2.187648">
				 <ele>33.8</ele>
			 </trkpt>
			 <trkpt lat="41.411251" lon="2.188072">
				 <ele>33.1</ele>
			 </trkpt>
			 <trkpt lat="41.411569" lon="2.188496">
				 <ele>32.2</ele>
			 </trkpt>
			 <trkpt lat="41.411887" lon="2.18892">
				 <ele>31.4</ele>
			 </trkpt>
			 <trkpt lat="41.412205" lon="2.189343">
				 <ele>30.5</ele>
			 </trkpt>
			 <trkpt lat="41.412523" lon="2.189767">
				 <ele>29.5</ele>
			 </trkpt>
			 <trkpt lat="41.412816" lon="2.190158">
				 <ele>28.9</ele>
			 </trkpt>
			 <trkpt lat="41.413137" lon="2.190578">
				 <ele>27.8</ele>
			 </trkpt>
			 <trkpt lat="41.413457" lon="2.190998">
				 <ele>26.8</ele>
			 </trkpt>
			 <trkpt lat="41.413778" lon="2.191418">
				 <ele>26.1</ele>
			 </trkpt>
			 <trkpt lat="41.414099" lon="2.191838">
				 <ele>25.2</ele>
			 </trkpt>
			 <trkpt lat="41.41442" lon="2.192259">
				 <ele>24.5</ele>
			 </trkpt>
			 <trkpt lat="41.41474" lon="2.192679">
				 <ele>23.9</ele>
			 </trkpt>
			 <trkpt lat="41.415061" lon="2.193099">
				 <ele>23.2</ele>
			 </trkpt>
			 <trkpt lat="41.415382" lon="2.193519">
				 <ele>22.5</ele>
			 </trkpt>
			 <trkpt lat="41.415708" lon="2.193107">
				 <ele>22.6</ele>
			 </trkpt>
			 <trkpt lat="41.415949" lon="2.192788">
				 <ele>23</ele>
			 </trkpt>
			 <trkpt lat="41.416263" lon="2.192359">
				 <ele>23.5</ele>
			 </trkpt>
			 <trkpt lat="41.416577" lon="2.19193">
				 <ele>24.9</ele>
			 </trkpt>
			 <trkpt lat="41.416892" lon="2.191502">
				 <ele>26.4</ele>
			 </trkpt>
			 <trkpt lat="41.417206" lon="2.191073">
				 <ele>27.3</ele>
			 </trkpt>
			 <trkpt lat="41.417521" lon="2.190644">
				 <ele>28.3</ele>
			 </trkpt>
			 <trkpt lat="41.417835" lon="2.190215">
				 <ele>29.6</ele>
			 </trkpt>
			 <trkpt lat="41.418119" lon="2.189829">
				 <ele>30.5</ele>
			 </trkpt>
			 <trkpt lat="41.418445" lon="2.189417">
				 <ele>31.2</ele>
			 </trkpt>
			 <trkpt lat="41.418772" lon="2.189005">
				 <ele>31.5</ele>
			 </trkpt>
			 <trkpt lat="41.4188" lon="2.18897">
				 <ele>31.7</ele>
			 </trkpt>
			 <trkpt lat="41.41921" lon="2.18956">
				 <ele>31.9</ele>
			 </trkpt>
			 <trkpt lat="41.41962" lon="2.19015">
				 <ele>31.6</ele>
			 </trkpt>
			 <trkpt lat="41.420015" lon="2.1907">
				 <ele>31</ele>
			 </trkpt>
			 <trkpt lat="41.42041" lon="2.19125">
				 <ele>30.5</ele>
			 </trkpt>
			 <trkpt lat="41.421067" lon="2.19122">
				 <ele>30</ele>
			 </trkpt>
			 <trkpt lat="41.421723" lon="2.19119">
				 <ele>29.2</ele>
			 </trkpt>
			 <trkpt lat="41.42238" lon="2.19116">
				 <ele>28.4</ele>
			 </trkpt>
			 <trkpt lat="41.422487" lon="2.190876">
				 <ele>28.4</ele>
			 </trkpt>
			 <trkpt lat="41.422544" lon="2.190281">
				 <ele>29.1</ele>
			 </trkpt>
			 <trkpt lat="41.422601" lon="2.189687">
				 <ele>30.3</ele>
			 </trkpt>
			 <trkpt lat="41.422658" lon="2.189092">
				 <ele>31</ele>
			 </trkpt>
			 <trkpt lat="41.422715" lon="2.188497">
				 <ele>31.7</ele>
			 </trkpt>
			 <trkpt lat="41.422773" lon="2.187902">
				 <ele>33</ele>
			 </trkpt>
			 <trkpt lat="41.42283" lon="2.187307">
				 <ele>34.1</ele>
			 </trkpt>
			 <trkpt lat="41.42284" lon="2.1872">
				 <ele>34.9</ele>
			 </trkpt>
			 <trkpt lat="41.422694" lon="2.187092">
				 <ele>35.9</ele>
			 </trkpt>
			 <trkpt lat="41.422244" lon="2.187089">
				 <ele>37.6</ele>
			 </trkpt>
			 <trkpt lat="41.421795" lon="2.187087">
				 <ele>39.1</ele>
			 </trkpt>
			 <trkpt lat="41.421345" lon="2.187084">
				 <ele>40</ele>
			 </trkpt>
			 <trkpt lat="41.420895" lon="2.187081">
				 <ele>40.5</ele>
			 </trkpt>
			 <trkpt lat="41.420446" lon="2.187078">
				 <ele>41</ele>
			 </trkpt>
			 <trkpt lat="41.419996" lon="2.187075">
				 <ele>41.4</ele>
			 </trkpt>
			 <trkpt lat="41.419546" lon="2.187072">
				 <ele>41.6</ele>
			 </trkpt>
			 <trkpt lat="41.419097" lon="2.187069">
				 <ele>41.5</ele>
			 </trkpt>
			 <trkpt lat="41.418647" lon="2.187066">
				 <ele>41.5</ele>
			 </trkpt>
			 <trkpt lat="41.418197" lon="2.187063">
				 <ele>41</ele>
			 </trkpt>
			 <trkpt lat="41.417966" lon="2.187061">
				 <ele>40.5</ele>
			 </trkpt>
			 <trkpt lat="41.417516" lon="2.187044">
				 <ele>39.6</ele>
			 </trkpt>
			 <trkpt lat="41.417067" lon="2.187027">
				 <ele>38.7</ele>
			 </trkpt>
			 <trkpt lat="41.416962" lon="2.187023">
				 <ele>38</ele>
			 </trkpt>
			 <trkpt lat="41.416512" lon="2.187019">
				 <ele>37.1</ele>
			 </trkpt>
			 <trkpt lat="41.416062" lon="2.187015">
				 <ele>36.3</ele>
			 </trkpt>
			 <trkpt lat="41.415613" lon="2.187011">
				 <ele>35.8</ele>
			 </trkpt>
			 <trkpt lat="41.415163" lon="2.187007">
				 <ele>35.5</ele>
			 </trkpt>
			 <trkpt lat="41.414714" lon="2.187003">
				 <ele>35.3</ele>
			 </trkpt>
			 <trkpt lat="41.414264" lon="2.186999">
				 <ele>35</ele>
			 </trkpt>
			 <trkpt lat="41.413814" lon="2.186995">
				 <ele>35.2</ele>
			 </trkpt>
			 <trkpt lat="41.413365" lon="2.186991">
				 <ele>35.4</ele>
			 </trkpt>
			 <trkpt lat="41.412915" lon="2.186987">
				 <ele>35.6</ele>
			 </trkpt>
			 <trkpt lat="41.412465" lon="2.186983">
				 <ele>36.2</ele>
			 </trkpt>
			 <trkpt lat="41.41215" lon="2.18698">
				 <ele>37.1</ele>
			 </trkpt>
			 <trkpt lat="41.411832" lon="2.186556">
				 <ele>37.9</ele>
			 </trkpt>
			 <trkpt lat="41.411514" lon="2.186132">
				 <ele>38.6</ele>
			 </trkpt>
			 <trkpt lat="41.411197" lon="2.185708">
				 <ele>39.1</ele>
			 </trkpt>
			 <trkpt lat="41.410879" lon="2.185284">
				 <ele>39.3</ele>
			 </trkpt>
			 <trkpt lat="41.410561" lon="2.18486">
				 <ele>39.5</ele>
			 </trkpt>
			 <trkpt lat="41.410243" lon="2.184436">
				 <ele>40</ele>
			 </trkpt>
			 <trkpt lat="41.409925" lon="2.184011">
				 <ele>40.1</ele>
			 </trkpt>
			 <trkpt lat="41.409607" lon="2.183587">
				 <ele>40.2</ele>
			 </trkpt>
			 <trkpt lat="41.40929" lon="2.183163">
				 <ele>40.3</ele>
			 </trkpt>
			 <trkpt lat="41.408972" lon="2.182739">
				 <ele>40.2</ele>
			 </trkpt>
			 <trkpt lat="41.408654" lon="2.182315">
				 <ele>39.7</ele>
			 </trkpt>
			 <trkpt lat="41.408336" lon="2.181891">
				 <ele>39.5</ele>
			 </trkpt>
			 <trkpt lat="41.408018" lon="2.181467">
				 <ele>39.7</ele>
			 </trkpt>
			 <trkpt lat="41.4077" lon="2.181043">
				 <ele>40.1</ele>
			 </trkpt>
			 <trkpt lat="41.407383" lon="2.180619">
				 <ele>40.5</ele>
			 </trkpt>
			 <trkpt lat="41.407065" lon="2.180195">
				 <ele>41</ele>
			 </trkpt>
			 <trkpt lat="41.406747" lon="2.179771">
				 <ele>41.4</ele>
			 </trkpt>
			 <trkpt lat="41.406429" lon="2.179347">
				 <ele>42</ele>
			 </trkpt>
			 <trkpt lat="41.406111" lon="2.178922">
				 <ele>42.7</ele>
			 </trkpt>
			 <trkpt lat="41.405794" lon="2.178498">
				 <ele>42.8</ele>
			 </trkpt>
			 <trkpt lat="41.405476" lon="2.178074">
				 <ele>42.3</ele>
			 </trkpt>
			 <trkpt lat="41.405158" lon="2.17765">
				 <ele>42.2</ele>
			 </trkpt>
			 <trkpt lat="41.40484" lon="2.177226">
				 <ele>43</ele>
			 </trkpt>
			 <trkpt lat="41.404522" lon="2.176802">
				 <ele>43.5</ele>
			 </trkpt>
			 <trkpt lat="41.404204" lon="2.176378">
				 <ele>43.3</ele>
			 </trkpt>
			 <trkpt lat="41.403887" lon="2.175954">
				 <ele>43.2</ele>
			 </trkpt>
			 <trkpt lat="41.403569" lon="2.17553">
				 <ele>43.2</ele>
			 </trkpt>
			 <trkpt lat="41.403251" lon="2.175106">
				 <ele>43.3</ele>
			 </trkpt>
			 <trkpt lat="41.402933" lon="2.174682">
				 <ele>43.5</ele>
			 </trkpt>
			 <trkpt lat="41.402615" lon="2.174258">
				 <ele>43.7</ele>
			 </trkpt>
			 <trkpt lat="41.402297" lon="2.173833">
				 <ele>44.4</ele>
			 </trkpt>
			 <trkpt lat="41.40198" lon="2.173409">
				 <ele>45.6</ele>
			 </trkpt>
			 <trkpt lat="41.401662" lon="2.172985">
				 <ele>46.7</ele>
			 </trkpt>
			 <trkpt lat="41.401344" lon="2.172561">
				 <ele>46.9</ele>
			 </trkpt>
			 <trkpt lat="41.401026" lon="2.172137">
				 <ele>47.1</ele>
			 </trkpt>
			 <trkpt lat="41.400708" lon="2.171713">
				 <ele>47.6</ele>
			 </trkpt>
			 <trkpt lat="41.400391" lon="2.171289">
				 <ele>48.3</ele>
			 </trkpt>
			 <trkpt lat="41.400073" lon="2.170865">
				 <ele>48.5</ele>
			 </trkpt>
			 <trkpt lat="41.399755" lon="2.170441">
				 <ele>48.5</ele>
			 </trkpt>
			 <trkpt lat="41.399437" lon="2.170017">
				 <ele>48.4</ele>
			 </trkpt>
			 <trkpt lat="41.399119" lon="2.169593">
				 <ele>48.4</ele>
			 </trkpt>
			 <trkpt lat="41.398801" lon="2.169169">
				 <ele>48.7</ele>
			 </trkpt>
			 <trkpt lat="41.398484" lon="2.168745">
				 <ele>49</ele>
			 </trkpt>
			 <trkpt lat="41.398166" lon="2.16832">
				 <ele>49.1</ele>
			 </trkpt>
			 <trkpt lat="41.397848" lon="2.167896">
				 <ele>49.3</ele>
			 </trkpt>
			 <trkpt lat="41.39753" lon="2.167472">
				 <ele>49.4</ele>
			 </trkpt>
			 <trkpt lat="41.397212" lon="2.167048">
				 <ele>49.5</ele>
			 </trkpt>
			 <trkpt lat="41.396895" lon="2.166624">
				 <ele>49.7</ele>
			 </trkpt>
			 <trkpt lat="41.396577" lon="2.1662">
				 <ele>50.2</ele>
			 </trkpt>
			 <trkpt lat="41.396259" lon="2.165776">
				 <ele>50.7</ele>
			 </trkpt>
			 <trkpt lat="41.395941" lon="2.165352">
				 <ele>51.2</ele>
			 </trkpt>
			 <trkpt lat="41.395623" lon="2.164928">
				 <ele>51.4</ele>
			 </trkpt>
			 <trkpt lat="41.395305" lon="2.164504">
				 <ele>51.2</ele>
			 </trkpt>
			 <trkpt lat="41.394988" lon="2.16408">
				 <ele>50.9</ele>
			 </trkpt>
			 <trkpt lat="41.39467" lon="2.163656">
				 <ele>50.8</ele>
			 </trkpt>
			 <trkpt lat="41.394352" lon="2.163231">
				 <ele>50.8</ele>
			 </trkpt>
			 <trkpt lat="41.394106" lon="2.162903">
				 <ele>51</ele>
			 </trkpt>
			 <trkpt lat="41.393787" lon="2.16248">
				 <ele>51.3</ele>
			 </trkpt>
			 <trkpt lat="41.393469" lon="2.162057">
				 <ele>51.3</ele>
			 </trkpt>
			 <trkpt lat="41.39315" lon="2.161634">
				 <ele>51.3</ele>
			 </trkpt>
			 <trkpt lat="41.392832" lon="2.161211">
				 <ele>51</ele>
			 </trkpt>
			 <trkpt lat="41.392513" lon="2.160788">
				 <ele>50.7</ele>
			 </trkpt>
			 <trkpt lat="41.392195" lon="2.160365">
				 <ele>50.6</ele>
			 </trkpt>
			 <trkpt lat="41.391876" lon="2.159942">
				 <ele>50.6</ele>
			 </trkpt>
			 <trkpt lat="41.391558" lon="2.159519">
				 <ele>50.7</ele>
			 </trkpt>
			 <trkpt lat="41.391239" lon="2.159096">
				 <ele>50.9</ele>
			 </trkpt>
			 <trkpt lat="41.39092" lon="2.158673">
				 <ele>51.2</ele>
			 </trkpt>
			 <trkpt lat="41.390602" lon="2.15825">
				 <ele>50.9</ele>
			 </trkpt>
			 <trkpt lat="41.390283" lon="2.157827">
				 <ele>50.5</ele>
			 </trkpt>
			 <trkpt lat="41.389965" lon="2.157404">
				 <ele>50.3</ele>
			 </trkpt>
			 <trkpt lat="41.389646" lon="2.156981">
				 <ele>49.6</ele>
			 </trkpt>
			 <trkpt lat="41.389328" lon="2.156558">
				 <ele>49.1</ele>
			 </trkpt>
			 <trkpt lat="41.389009" lon="2.156135">
				 <ele>48.6</ele>
			 </trkpt>
			 <trkpt lat="41.388691" lon="2.155712">
				 <ele>48.3</ele>
			 </trkpt>
			 <trkpt lat="41.388372" lon="2.155289">
				 <ele>48</ele>
			 </trkpt>
			 <trkpt lat="41.388053" lon="2.154866">
				 <ele>47.6</ele>
			 </trkpt>
			 <trkpt lat="41.387735" lon="2.154443">
				 <ele>46.7</ele>
			 </trkpt>
			 <trkpt lat="41.387416" lon="2.15402">
				 <ele>45.8</ele>
			 </trkpt>
			 <trkpt lat="41.387098" lon="2.153597">
				 <ele>45.7</ele>
			 </trkpt>
			 <trkpt lat="41.386779" lon="2.153174">
				 <ele>45.9</ele>
			 </trkpt>
			 <trkpt lat="41.386523" lon="2.152833">
				 <ele>46.1</ele>
			 </trkpt>
			 <trkpt lat="41.386202" lon="2.152413">
				 <ele>46.6</ele>
			 </trkpt>
			 <trkpt lat="41.385881" lon="2.151993">
				 <ele>47.5</ele>
			 </trkpt>
			 <trkpt lat="41.38556" lon="2.151574">
				 <ele>47.9</ele>
			 </trkpt>
			 <trkpt lat="41.385239" lon="2.151154">
				 <ele>48</ele>
			 </trkpt>
			 <trkpt lat="41.384918" lon="2.150734">
				 <ele>48.4</ele>
			 </trkpt>
			 <trkpt lat="41.384597" lon="2.150315">
				 <ele>48.4</ele>
			 </trkpt>
			 <trkpt lat="41.384276" lon="2.149895">
				 <ele>48.5</ele>
			 </trkpt>
			 <trkpt lat="41.383955" lon="2.149475">
				 <ele>48.5</ele>
			 </trkpt>
			 <trkpt lat="41.38392" lon="2.14943">
				 <ele>48</ele>
			 </trkpt>
			 <trkpt lat="41.383602" lon="2.149854">
				 <ele>47</ele>
			 </trkpt>
			 <trkpt lat="41.383284" lon="2.150277">
				 <ele>45.8</ele>
			 </trkpt>
			 <trkpt lat="41.382966" lon="2.150701">
				 <ele>44.4</ele>
			 </trkpt>
			 <trkpt lat="41.382648" lon="2.151125">
				 <ele>43.1</ele>
			 </trkpt>
			 <trkpt lat="41.38233" lon="2.151548">
				 <ele>42.2</ele>
			 </trkpt>
			 <trkpt lat="41.382012" lon="2.151972">
				 <ele>41.2</ele>
			 </trkpt>
			 <trkpt lat="41.381694" lon="2.152396">
				 <ele>39.5</ele>
			 </trkpt>
			 <trkpt lat="41.381376" lon="2.15282">
				 <ele>38.4</ele>
			 </trkpt>
			 <trkpt lat="41.381058" lon="2.153243">
				 <ele>37.3</ele>
			 </trkpt>
			 <trkpt lat="41.38074" lon="2.153667">
				 <ele>36.2</ele>
			 </trkpt>
			 <trkpt lat="41.380633" lon="2.15381">
				 <ele>35.4</ele>
			 </trkpt>
			 <trkpt lat="41.380315" lon="2.154234">
				 <ele>34.9</ele>
			 </trkpt>
			 <trkpt lat="41.379998" lon="2.154659">
				 <ele>34.9</ele>
			 </trkpt>
			 <trkpt lat="41.379703" lon="2.155053">
				 <ele>35</ele>
			 </trkpt>
			 <trkpt lat="41.37971" lon="2.15533">
				 <ele>34.8</ele>
			 </trkpt>
			 <trkpt lat="41.380027" lon="2.155756">
				 <ele>34.5</ele>
			 </trkpt>
			 <trkpt lat="41.380343" lon="2.156181">
				 <ele>34.3</ele>
			 </trkpt>
			 <trkpt lat="41.38066" lon="2.156607">
				 <ele>34.4</ele>
			 </trkpt>
			 <trkpt lat="41.380976" lon="2.157032">
				 <ele>34.3</ele>
			 </trkpt>
			 <trkpt lat="41.381293" lon="2.157458">
				 <ele>34.4</ele>
			 </trkpt>
			 <trkpt lat="41.38161" lon="2.157883">
				 <ele>34.6</ele>
			 </trkpt>
			 <trkpt lat="41.381926" lon="2.158309">
				 <ele>34.7</ele>
			 </trkpt>
			 <trkpt lat="41.382145" lon="2.158603">
				 <ele>34.9</ele>
			 </trkpt>
			 <trkpt lat="41.382464" lon="2.159025">
				 <ele>34.9</ele>
			 </trkpt>
			 <trkpt lat="41.382783" lon="2.159448">
				 <ele>34.8</ele>
			 </trkpt>
			 <trkpt lat="41.383102" lon="2.15987">
				 <ele>34.5</ele>
			 </trkpt>
			 <trkpt lat="41.383421" lon="2.160293">
				 <ele>34.4</ele>
			 </trkpt>
			 <trkpt lat="41.38374" lon="2.160715">
				 <ele>34.3</ele>
			 </trkpt>
			 <trkpt lat="41.384059" lon="2.161138">
				 <ele>33.9</ele>
			 </trkpt>
			 <trkpt lat="41.384378" lon="2.16156">
				 <ele>33.6</ele>
			 </trkpt>
			 <trkpt lat="41.384697" lon="2.161983">
				 <ele>33.4</ele>
			 </trkpt>
			 <trkpt lat="41.385016" lon="2.162405">
				 <ele>33.4</ele>
			 </trkpt>
			 <trkpt lat="41.385334" lon="2.162828">
				 <ele>33.7</ele>
			 </trkpt>
			 <trkpt lat="41.385653" lon="2.16325">
				 <ele>33.8</ele>
			 </trkpt>
			 <trkpt lat="41.385972" lon="2.163673">
				 <ele>34.5</ele>
			 </trkpt>
			 <trkpt lat="41.386291" lon="2.164095">
				 <ele>35.1</ele>
			 </trkpt>
			 <trkpt lat="41.38661" lon="2.164518">
				 <ele>35.3</ele>
			 </trkpt>
			 <trkpt lat="41.386929" lon="2.16494">
				 <ele>35.5</ele>
			 </trkpt>
			 <trkpt lat="41.387248" lon="2.165363">
				 <ele>35.6</ele>
			 </trkpt>
			 <trkpt lat="41.387567" lon="2.165785">
				 <ele>36.3</ele>
			 </trkpt>
			 <trkpt lat="41.387886" lon="2.166208">
				 <ele>37</ele>
			 </trkpt>
			 <trkpt lat="41.388205" lon="2.16663">
				 <ele>38</ele>
			 </trkpt>
			 <trkpt lat="41.38828" lon="2.16673">
				 <ele>37.9</ele>
			 </trkpt>
			 <trkpt lat="41.38835" lon="2.16701">
				 <ele>37.4</ele>
			 </trkpt>
			 <trkpt lat="41.3883" lon="2.16715">
				 <ele>37.3</ele>
			 </trkpt>
			 <trkpt lat="41.38827" lon="2.16728">
				 <ele>36.6</ele>
			 </trkpt>
			 <trkpt lat="41.38788" lon="2.16781">
				 <ele>36.4</ele>
			 </trkpt>
			 <trkpt lat="41.38749" lon="2.16834">
				 <ele>36.5</ele>
			 </trkpt>
			 <trkpt lat="41.387247" lon="2.168072">
				 <ele>36.5</ele>
			 </trkpt>
			 <trkpt lat="41.387044" lon="2.167537">
				 <ele>36.4</ele>
			 </trkpt>
			 <trkpt lat="41.38684" lon="2.167002">
				 <ele>35.9</ele>
			 </trkpt>
			 <trkpt lat="41.386637" lon="2.166468">
				 <ele>35.3</ele>
			 </trkpt>
			 <trkpt lat="41.386434" lon="2.165933">
				 <ele>34.5</ele>
			 </trkpt>
			 <trkpt lat="41.386231" lon="2.165398">
				 <ele>34.4</ele>
			 </trkpt>
			 <trkpt lat="41.386027" lon="2.164864">
				 <ele>34.4</ele>
			 </trkpt>
			 <trkpt lat="41.38595" lon="2.16466">
				 <ele>34.2</ele>
			 </trkpt>
			 <trkpt lat="41.3854" lon="2.16401">
				 <ele>33.7</ele>
			 </trkpt>
			 <trkpt lat="41.38525" lon="2.16397">
				 <ele>33.3</ele>
			 </trkpt>
			 <trkpt lat="41.384695" lon="2.1639">
				 <ele>32.9</ele>
			 </trkpt>
			 <trkpt lat="41.38414" lon="2.16383">
				 <ele>33</ele>
			 </trkpt>
			 <trkpt lat="41.38412" lon="2.16371">
				 <ele>33.5</ele>
			 </trkpt>
			 <trkpt lat="41.38358" lon="2.16299">
				 <ele>33.6</ele>
			 </trkpt>
			 <trkpt lat="41.382953" lon="2.162158">
				 <ele>34.1</ele>
			 </trkpt>
			 <trkpt lat="41.382327" lon="2.161325">
				 <ele>34.4</ele>
			 </trkpt>
			 <trkpt lat="41.3817" lon="2.160493">
				 <ele>34.5</ele>
			 </trkpt>
			 <trkpt lat="41.381073" lon="2.159661">
				 <ele>35</ele>
			 </trkpt>
			 <trkpt lat="41.380447" lon="2.158829">
				 <ele>35.4</ele>
			 </trkpt>
			 <trkpt lat="41.37982" lon="2.157997">
				 <ele>35.6</ele>
			 </trkpt>
			 <trkpt lat="41.379193" lon="2.157164">
				 <ele>35.5</ele>
			 </trkpt>
			 <trkpt lat="41.378567" lon="2.156332">
				 <ele>35.7</ele>
			 </trkpt>
			 <trkpt lat="41.37794" lon="2.1555">
				 <ele>35.8</ele>
			 </trkpt>
			 <trkpt lat="41.377806" lon="2.155507">
				 <ele>35.4</ele>
			 </trkpt>
			 <trkpt lat="41.37761" lon="2.15556">
				 <ele>35.3</ele>
			 </trkpt>
			 <trkpt lat="41.377276" lon="2.155962">
				 <ele>35</ele>
			 </trkpt>
			 <trkpt lat="41.377082" lon="2.156197">
				 <ele>34.7</ele>
			 </trkpt>
			 <trkpt lat="41.377021" lon="2.156585">
				 <ele>34.8</ele>
			 </trkpt>
			 <trkpt lat="41.37734" lon="2.157007">
				 <ele>34.6</ele>
			 </trkpt>
			 <trkpt lat="41.37766" lon="2.157428">
				 <ele>34.5</ele>
			 </trkpt>
			 <trkpt lat="41.377979" lon="2.15785">
				 <ele>34.5</ele>
			 </trkpt>
			 <trkpt lat="41.378299" lon="2.158272">
				 <ele>34.5</ele>
			 </trkpt>
			 <trkpt lat="41.378618" lon="2.158693">
				 <ele>34.4</ele>
			 </trkpt>
			 <trkpt lat="41.378938" lon="2.159115">
				 <ele>34</ele>
			 </trkpt>
			 <trkpt lat="41.379257" lon="2.159537">
				 <ele>33.5</ele>
			 </trkpt>
			 <trkpt lat="41.379577" lon="2.159958">
				 <ele>32.6</ele>
			 </trkpt>
			 <trkpt lat="41.379896" lon="2.16038">
				 <ele>31.5</ele>
			 </trkpt>
			 <trkpt lat="41.380216" lon="2.160802">
				 <ele>30.5</ele>
			 </trkpt>
			 <trkpt lat="41.38029" lon="2.1609">
				 <ele>29.5</ele>
			 </trkpt>
			 <trkpt lat="41.37978" lon="2.161577">
				 <ele>28.5</ele>
			 </trkpt>
			 <trkpt lat="41.37927" lon="2.162253">
				 <ele>27.8</ele>
			 </trkpt>
			 <trkpt lat="41.37876" lon="2.16293">
				 <ele>27.4</ele>
			 </trkpt>
			 <trkpt lat="41.378541" lon="2.163079">
				 <ele>27.1</ele>
			 </trkpt>
			 <trkpt lat="41.378222" lon="2.162658">
				 <ele>26.7</ele>
			 </trkpt>
			 <trkpt lat="41.377902" lon="2.162237">
				 <ele>26.6</ele>
			 </trkpt>
			 <trkpt lat="41.377582" lon="2.161816">
				 <ele>27.2</ele>
			 </trkpt>
			 <trkpt lat="41.377262" lon="2.161394">
				 <ele>28.4</ele>
			 </trkpt>
			 <trkpt lat="41.376942" lon="2.160973">
				 <ele>29.5</ele>
			 </trkpt>
			 <trkpt lat="41.376623" lon="2.160552">
				 <ele>30.6</ele>
			 </trkpt>
			 <trkpt lat="41.376371" lon="2.16022">
				 <ele>31.5</ele>
			 </trkpt>
			 <trkpt lat="41.376055" lon="2.159794">
				 <ele>32.7</ele>
			 </trkpt>
			 <trkpt lat="41.375738" lon="2.159368">
				 <ele>32.8</ele>
			 </trkpt>
			 <trkpt lat="41.375422" lon="2.158943">
				 <ele>33.1</ele>
			 </trkpt>
			 <trkpt lat="41.375247" lon="2.158708">
				 <ele>32.9</ele>
			 </trkpt>
			 <trkpt lat="41.37505" lon="2.15881">
				 <ele>32.8</ele>
			 </trkpt>
			 <trkpt lat="41.375045" lon="2.159945">
				 <ele>31.9</ele>
			 </trkpt>
			 <trkpt lat="41.37504" lon="2.16108">
				 <ele>31.1</ele>
			 </trkpt>
			 <trkpt lat="41.375037" lon="2.162247">
				 <ele>30.6</ele>
			 </trkpt>
			 <trkpt lat="41.375034" lon="2.163414">
				 <ele>29.5</ele>
			 </trkpt>
			 <trkpt lat="41.375031" lon="2.164581">
				 <ele>28</ele>
			 </trkpt>
			 <trkpt lat="41.375029" lon="2.165749">
				 <ele>26.1</ele>
			 </trkpt>
			 <trkpt lat="41.375026" lon="2.166916">
				 <ele>23.9</ele>
			 </trkpt>
			 <trkpt lat="41.375023" lon="2.168083">
				 <ele>22.5</ele>
			 </trkpt>
			 <trkpt lat="41.37502" lon="2.16925">
				 <ele>20.5</ele>
			 </trkpt>
			 <trkpt lat="41.37501" lon="2.17006">
				 <ele>19.1</ele>
			 </trkpt>
			 <trkpt lat="41.374948" lon="2.171022">
				 <ele>17.5</ele>
			 </trkpt>
			 <trkpt lat="41.374886" lon="2.171984">
				 <ele>16.3</ele>
			 </trkpt>
			 <trkpt lat="41.374824" lon="2.172946">
				 <ele>14.5</ele>
			 </trkpt>
			 <trkpt lat="41.374762" lon="2.173908">
				 <ele>12.3</ele>
			 </trkpt>
			 <trkpt lat="41.3747" lon="2.17487">
				 <ele>11.1</ele>
			 </trkpt>
			 <trkpt lat="41.37465" lon="2.17535">
				 <ele>10.5</ele>
			 </trkpt>
			 <trkpt lat="41.37453" lon="2.17557">
				 <ele>10.2</ele>
			 </trkpt>
			 <trkpt lat="41.37443" lon="2.17573">
				 <ele>9.8</ele>
			 </trkpt>
			 <trkpt lat="41.37443" lon="2.17618">
				 <ele>9.4</ele>
			 </trkpt>
			 <trkpt lat="41.37446" lon="2.17642">
				 <ele>8.8</ele>
			 </trkpt>
			 <trkpt lat="41.37449" lon="2.17655">
				 <ele>8.2</ele>
			 </trkpt>
			 <trkpt lat="41.37454" lon="2.17665">
				 <ele>7.8</ele>
			 </trkpt>
			 <trkpt lat="41.374927" lon="2.176955">
				 <ele>7.7</ele>
			 </trkpt>
			 <trkpt lat="41.375314" lon="2.177261">
				 <ele>7.9</ele>
			 </trkpt>
			 <trkpt lat="41.375449" lon="2.177368">
				 <ele>7.9</ele>
			 </trkpt>
			 <trkpt lat="41.37571" lon="2.177394">
				 <ele>7.8</ele>
			 </trkpt>
			 <trkpt lat="41.375935" lon="2.177499">
				 <ele>7.9</ele>
			 </trkpt>
			 <trkpt lat="41.376082" lon="2.177666">
				 <ele>8.3</ele>
			 </trkpt>
			 <trkpt lat="41.376168" lon="2.17797">
				 <ele>8.5</ele>
			 </trkpt>
			 <trkpt lat="41.376541" lon="2.178305">
				 <ele>8.9</ele>
			 </trkpt>
			 <trkpt lat="41.376725" lon="2.178471">
				 <ele>9.3</ele>
			 </trkpt>
			 <trkpt lat="41.377109" lon="2.178784">
				 <ele>9.5</ele>
			 </trkpt>
			 <trkpt lat="41.377492" lon="2.179098">
				 <ele>9.4</ele>
			 </trkpt>
			 <trkpt lat="41.377875" lon="2.179411">
				 <ele>9</ele>
			 </trkpt>
			 <trkpt lat="41.378258" lon="2.179724">
				 <ele>8.6</ele>
			 </trkpt>
			 <trkpt lat="41.378642" lon="2.180038">
				 <ele>8.6</ele>
			 </trkpt>
			 <trkpt lat="41.379025" lon="2.180351">
				 <ele>8.6</ele>
			 </trkpt>
			 <trkpt lat="41.379408" lon="2.180665">
				 <ele>8.4</ele>
			 </trkpt>
			 <trkpt lat="41.379791" lon="2.180978">
				 <ele>7.9</ele>
			 </trkpt>
			 <trkpt lat="41.380175" lon="2.181291">
				 <ele>7.5</ele>
			 </trkpt>
			 <trkpt lat="41.380558" lon="2.181605">
				 <ele>7.6</ele>
			 </trkpt>
			 <trkpt lat="41.38087" lon="2.18186">
				 <ele>7.9</ele>
			 </trkpt>
			 <trkpt lat="41.38098" lon="2.18195">
				 <ele>8.3</ele>
			 </trkpt>
			 <trkpt lat="41.381359" lon="2.182273">
				 <ele>8.8</ele>
			 </trkpt>
			 <trkpt lat="41.381441" lon="2.182343">
				 <ele>9.7</ele>
			 </trkpt>
			 <trkpt lat="41.381821" lon="2.182663">
				 <ele>10.7</ele>
			 </trkpt>
			 <trkpt lat="41.382202" lon="2.182982">
				 <ele>11.6</ele>
			 </trkpt>
			 <trkpt lat="41.382433" lon="2.183176">
				 <ele>12.8</ele>
			 </trkpt>
			 <trkpt lat="41.382525" lon="2.183385">
				 <ele>13.9</ele>
			 </trkpt>
			 <trkpt lat="41.38273" lon="2.18364">
				 <ele>14.1</ele>
			 </trkpt>
			 <trkpt lat="41.38303" lon="2.1838">
				 <ele>14.6</ele>
			 </trkpt>
			 <trkpt lat="41.38339" lon="2.18409">
				 <ele>14.8</ele>
			 </trkpt>
			 <trkpt lat="41.384087" lon="2.184673">
				 <ele>15.1</ele>
			 </trkpt>
			 <trkpt lat="41.384783" lon="2.185257">
				 <ele>15.4</ele>
			 </trkpt>
			 <trkpt lat="41.38548" lon="2.18584">
				 <ele>15.5</ele>
			 </trkpt>
			 <trkpt lat="41.385828" lon="2.18545">
				 <ele>15.5</ele>
			 </trkpt>
			 <trkpt lat="41.386156" lon="2.18504">
				 <ele>15.5</ele>
			 </trkpt>
			 <trkpt lat="41.386484" lon="2.18463">
				 <ele>15.4</ele>
			 </trkpt>
			 <trkpt lat="41.386812" lon="2.18422">
				 <ele>15</ele>
			 </trkpt>
			 <trkpt lat="41.38714" lon="2.18381">
				 <ele>14.4</ele>
			 </trkpt>
			 <trkpt lat="41.387468" lon="2.1834">
				 <ele>14.5</ele>
			 </trkpt>
			 <trkpt lat="41.387796" lon="2.18299">
				 <ele>14.7</ele>
			 </trkpt>
			 <trkpt lat="41.388028" lon="2.182701">
				 <ele>14.7</ele>
			 </trkpt>
			 <trkpt lat="41.38819" lon="2.18271">
				 <ele>14.4</ele>
			 </trkpt>
			 <trkpt lat="41.38871" lon="2.18341">
				 <ele>13.9</ele>
			 </trkpt>
			 <trkpt lat="41.389306" lon="2.184203">
				 <ele>14.4</ele>
			 </trkpt>
			 <trkpt lat="41.389901" lon="2.184996">
				 <ele>15</ele>
			 </trkpt>
			 <trkpt lat="41.390497" lon="2.185788">
				 <ele>15.3</ele>
			 </trkpt>
			 <trkpt lat="41.391093" lon="2.186581">
				 <ele>15.4</ele>
			 </trkpt>
			 <trkpt lat="41.391689" lon="2.187374">
				 <ele>15.4</ele>
			 </trkpt>
			 <trkpt lat="41.392284" lon="2.188167">
				 <ele>15.9</ele>
			 </trkpt>
			 <trkpt lat="41.39288" lon="2.18896">
				 <ele>16.2</ele>
			 </trkpt>
			 <trkpt lat="41.39288" lon="2.18922">
				 <ele>15.5</ele>
			 </trkpt>
			 <trkpt lat="41.3929" lon="2.18927">
				 <ele>15.2</ele>
			 </trkpt>
			 <trkpt lat="41.39283" lon="2.18936">
				 <ele>14.9</ele>
			 </trkpt>
			 <trkpt lat="41.39223" lon="2.190156">
				 <ele>15.1</ele>
			 </trkpt>
			 <trkpt lat="41.39163" lon="2.190953">
				 <ele>14.7</ele>
			 </trkpt>
			 <trkpt lat="41.39103" lon="2.191749">
				 <ele>13.8</ele>
			 </trkpt>
			 <trkpt lat="41.39043" lon="2.192545">
				 <ele>13.3</ele>
			 </trkpt>
			 <trkpt lat="41.38983" lon="2.193341">
				 <ele>12.7</ele>
			 </trkpt>
			 <trkpt lat="41.38923" lon="2.194138">
				 <ele>12.3</ele>
			 </trkpt>
			 <trkpt lat="41.38863" lon="2.194934">
				 <ele>11.7</ele>
			 </trkpt>
			 <trkpt lat="41.38803" lon="2.19573">
				 <ele>11.5</ele>
			 </trkpt>
			 <trkpt lat="41.38793" lon="2.19586">
				 <ele>11.8</ele>
			 </trkpt>
			 <trkpt lat="41.38788" lon="2.19581">
				 <ele>12.4</ele>
			 </trkpt>
			 <trkpt lat="41.38777" lon="2.1958">
				 <ele>13.7</ele>
			 </trkpt>
			 <trkpt lat="41.3876" lon="2.19585">
				 <ele>15.1</ele>
			 </trkpt>
			 <trkpt lat="41.38754" lon="2.19591">
				 <ele>16.7</ele>
			 </trkpt>
			 <trkpt lat="41.38749" lon="2.196">
				 <ele>18.7</ele>
			 </trkpt>
			 <trkpt lat="41.38745" lon="2.19612">
				 <ele>20</ele>
			 </trkpt>
			 <trkpt lat="41.38746" lon="2.19634">
				 <ele>19.8</ele>
			 </trkpt>
			 <trkpt lat="41.38748" lon="2.19638">
				 <ele>19.4</ele>
			 </trkpt>
			 <trkpt lat="41.38762" lon="2.19657">
				 <ele>18.8</ele>
			 </trkpt>
			 <trkpt lat="41.38766" lon="2.1966">
				 <ele>18.3</ele>
			 </trkpt>
			 <trkpt lat="41.38784" lon="2.19685">
				 <ele>17.6</ele>
			 </trkpt>
			 <trkpt lat="41.38812" lon="2.19725">
				 <ele>16.7</ele>
			 </trkpt>
			 <trkpt lat="41.38835" lon="2.19761">
				 <ele>15.3</ele>
			 </trkpt>
			 <trkpt lat="41.38853" lon="2.19807">
				 <ele>13.7</ele>
			 </trkpt>
			 <trkpt lat="41.38865" lon="2.19856">
				 <ele>11.7</ele>
			 </trkpt>
			 <trkpt lat="41.38877" lon="2.19886">
				 <ele>9.9</ele>
			 </trkpt>
			 <trkpt lat="41.38892" lon="2.19911">
				 <ele>8.8</ele>
			 </trkpt>
			 <trkpt lat="41.38916" lon="2.19943">
				 <ele>9.1</ele>
			 </trkpt>
			 <trkpt lat="41.38948" lon="2.1997">
				 <ele>9.5</ele>
			 </trkpt>
			 <trkpt lat="41.38972" lon="2.19982">
				 <ele>9.5</ele>
			 </trkpt>
			 <trkpt lat="41.38998" lon="2.20001">
				 <ele>9.3</ele>
			 </trkpt>
			 <trkpt lat="41.39031" lon="2.20029">
				 <ele>9.2</ele>
			 </trkpt>
			 <trkpt lat="41.39075" lon="2.20081">
				 <ele>9.1</ele>
			 </trkpt>
			 <trkpt lat="41.39102" lon="2.20125">
				 <ele>9</ele>
			 </trkpt>
			 <trkpt lat="41.39122" lon="2.20164">
				 <ele>8.8</ele>
			 </trkpt>
			 <trkpt lat="41.39136" lon="2.20201">
				 <ele>8.5</ele>
			 </trkpt>
			 <trkpt lat="41.39157" lon="2.20268">
				 <ele>8.2</ele>
			 </trkpt>
			 <trkpt lat="41.39175" lon="2.20313">
				 <ele>7.5</ele>
			 </trkpt>
			 <trkpt lat="41.39217" lon="2.20388">
				 <ele>6.7</ele>
			 </trkpt>
			 <trkpt lat="41.39237" lon="2.2041">
				 <ele>6.3</ele>
			 </trkpt>
			 <trkpt lat="41.3925" lon="2.20429">
				 <ele>6.2</ele>
			 </trkpt>
			 <trkpt lat="41.39279" lon="2.20455">
				 <ele>6.5</ele>
			 </trkpt>
			 <trkpt lat="41.39323" lon="2.20483">
				 <ele>6.5</ele>
			 </trkpt>
			 <trkpt lat="41.39344" lon="2.20492">
				 <ele>6.2</ele>
			 </trkpt>
			 <trkpt lat="41.39414" lon="2.20538">
				 <ele>6</ele>
			 </trkpt>
			 <trkpt lat="41.39456" lon="2.20576">
				 <ele>5.8</ele>
			 </trkpt>
			 <trkpt lat="41.39462" lon="2.20578">
				 <ele>5.7</ele>
			 </trkpt>
			 <trkpt lat="41.39514" lon="2.20642">
				 <ele>5.4</ele>
			 </trkpt>
			 <trkpt lat="41.39542" lon="2.20682">
				 <ele>5.2</ele>
			 </trkpt>
			 <trkpt lat="41.39578" lon="2.2073">
				 <ele>5.3</ele>
			 </trkpt>
			 <trkpt lat="41.39614" lon="2.20778">
				 <ele>5.5</ele>
			 </trkpt>
			 <trkpt lat="41.39635" lon="2.20803">
				 <ele>5.8</ele>
			 </trkpt>
			 <trkpt lat="41.39654" lon="2.2082">
				 <ele>6.5</ele>
			 </trkpt>
			 <trkpt lat="41.3967" lon="2.20831">
				 <ele>7.1</ele>
			 </trkpt>
			 <trkpt lat="41.39719" lon="2.20854">
				 <ele>7.7</ele>
			 </trkpt>
			 <trkpt lat="41.39764" lon="2.20868">
				 <ele>7.9</ele>
			 </trkpt>
			 <trkpt lat="41.39784" lon="2.20878">
				 <ele>8.1</ele>
			 </trkpt>
			 <trkpt lat="41.39813" lon="2.20898">
				 <ele>8.3</ele>
			 </trkpt>
			 <trkpt lat="41.39842" lon="2.20922">
				 <ele>8.5</ele>
			 </trkpt>
			 <trkpt lat="41.3986" lon="2.20934">
				 <ele>9</ele>
			 </trkpt>
			 <trkpt lat="41.39901" lon="2.209675">
				 <ele>9.2</ele>
			 </trkpt>
			 <trkpt lat="41.39942" lon="2.21001">
				 <ele>9.1</ele>
			 </trkpt>
			 <trkpt lat="41.39974" lon="2.21033">
				 <ele>8.8</ele>
			 </trkpt>
			 <trkpt lat="41.40011" lon="2.21075">
				 <ele>8.1</ele>
			 </trkpt>
			 <trkpt lat="41.40042" lon="2.21115">
				 <ele>7.6</ele>
			 </trkpt>
			 <trkpt lat="41.40076" lon="2.21163">
				 <ele>7.6</ele>
			 </trkpt>
			 <trkpt lat="41.40108" lon="2.21221">
				 <ele>7.9</ele>
			 </trkpt>
			 <trkpt lat="41.40121" lon="2.21249">
				 <ele>7.9</ele>
			 </trkpt>
			 <trkpt lat="41.40155" lon="2.21311">
				 <ele>8.1</ele>
			 </trkpt>
			 <trkpt lat="41.40182" lon="2.21352">
				 <ele>8.1</ele>
			 </trkpt>
			 <trkpt lat="41.40233" lon="2.21415">
				 <ele>8</ele>
			 </trkpt>
			 <trkpt lat="41.40259" lon="2.21444">
				 <ele>8.3</ele>
			 </trkpt>
			 <trkpt lat="41.40285" lon="2.21477">
				 <ele>8.6</ele>
			 </trkpt>
			 <trkpt lat="41.403387" lon="2.21548">
				 <ele>8.9</ele>
			 </trkpt>
			 <trkpt lat="41.403923" lon="2.21619">
				 <ele>9.4</ele>
			 </trkpt>
			 <trkpt lat="41.40446" lon="2.2169">
				 <ele>9.7</ele>
			 </trkpt>
			 <trkpt lat="41.40491" lon="2.21747">
				 <ele>9.6</ele>
			 </trkpt>
			 <trkpt lat="41.40536" lon="2.21804">
				 <ele>9.7</ele>
			 </trkpt>
			 <trkpt lat="41.4058" lon="2.21863">
				 <ele>9.5</ele>
			 </trkpt>
			 <trkpt lat="41.40624" lon="2.21922">
				 <ele>9</ele>
			 </trkpt>
			 <trkpt lat="41.40635" lon="2.2191">
				 <ele>8.9</ele>
			 </trkpt>
			 <trkpt lat="41.40676" lon="2.21855">
				 <ele>8.6</ele>
			 </trkpt>
			 <trkpt lat="41.40711" lon="2.21814">
				 <ele>8.3</ele>
			 </trkpt>
			 <trkpt lat="41.407685" lon="2.21736">
				 <ele>8.2</ele>
			 </trkpt>
			 <trkpt lat="41.40826" lon="2.21658">
				 <ele>7.9</ele>
			 </trkpt>
			 <trkpt lat="41.408631" lon="2.216919">
				 <ele>7.5</ele>
			 </trkpt>
			 <trkpt lat="41.409001" lon="2.217259">
				 <ele>6.7</ele>
			 </trkpt>
			 <trkpt lat="41.409372" lon="2.217598">
				 <ele>6.1</ele>
			 </trkpt>
			 <trkpt lat="41.409743" lon="2.217938">
				 <ele>5.2</ele>
			 </trkpt>
			 <trkpt lat="41.410113" lon="2.218277">
				 <ele>4.9</ele>
			 </trkpt>
			 <trkpt lat="41.410315" lon="2.218462">
				 <ele>5.2</ele>
			 </trkpt>
			 <trkpt lat="41.410697" lon="2.21878">
				 <ele>6.5</ele>
			 </trkpt>
			 <trkpt lat="41.410983" lon="2.219018">
				 <ele>7.7</ele>
			 </trkpt>
			 <trkpt lat="41.411178" lon="2.219041">
				 <ele>8</ele>
			 </trkpt>
			 <trkpt lat="41.41137" lon="2.21891">
				 <ele>8</ele>
			 </trkpt>
			 <trkpt lat="41.411229" lon="2.218341">
				 <ele>8</ele>
			 </trkpt>
			 <trkpt lat="41.411088" lon="2.217771">
				 <ele>8.2</ele>
			 </trkpt>
			 <trkpt lat="41.410947" lon="2.217202">
				 <ele>9.2</ele>
			 </trkpt>
			 <trkpt lat="41.410806" lon="2.216633">
				 <ele>10.6</ele>
			 </trkpt>
			 <trkpt lat="41.410665" lon="2.216064">
				 <ele>12.3</ele>
			 </trkpt>
			 <trkpt lat="41.410524" lon="2.215494">
				 <ele>13.5</ele>
			 </trkpt>
			 <trkpt lat="41.410383" lon="2.214925">
				 <ele>14</ele>
			 </trkpt>
			 <trkpt lat="41.410242" lon="2.214356">
				 <ele>13.5</ele>
			 </trkpt>
			 <trkpt lat="41.410101" lon="2.213786">
				 <ele>13.4</ele>
			 </trkpt>
			 <trkpt lat="41.40996" lon="2.213217">
				 <ele>13.8</ele>
			 </trkpt>
			 <trkpt lat="41.409819" lon="2.212648">
				 <ele>14.3</ele>
			 </trkpt>
			 <trkpt lat="41.409678" lon="2.212078">
				 <ele>14.8</ele>
			 </trkpt>
			 <trkpt lat="41.409537" lon="2.211509">
				 <ele>15.3</ele>
			 </trkpt>
			 <trkpt lat="41.409396" lon="2.21094">
				 <ele>14.9</ele>
			 </trkpt>
			 <trkpt lat="41.409255" lon="2.210371">
				 <ele>14.1</ele>
			 </trkpt>
			 <trkpt lat="41.409114" lon="2.209801">
				 <ele>13.1</ele>
			 </trkpt>
			 <trkpt lat="41.408973" lon="2.209232">
				 <ele>12.3</ele>
			 </trkpt>
			 <trkpt lat="41.408832" lon="2.208663">
				 <ele>11.6</ele>
			 </trkpt>
			 <trkpt lat="41.408691" lon="2.208093">
				 <ele>11</ele>
			 </trkpt>
			 <trkpt lat="41.40855" lon="2.207524">
				 <ele>10.3</ele>
			 </trkpt>
			 <trkpt lat="41.408409" lon="2.206955">
				 <ele>9.9</ele>
			 </trkpt>
			 <trkpt lat="41.408268" lon="2.206386">
				 <ele>9.6</ele>
			 </trkpt>
			 <trkpt lat="41.408127" lon="2.205816">
				 <ele>9.3</ele>
			 </trkpt>
			 <trkpt lat="41.407986" lon="2.205247">
				 <ele>8.8</ele>
			 </trkpt>
			 <trkpt lat="41.407845" lon="2.204678">
				 <ele>8.5</ele>
			 </trkpt>
			 <trkpt lat="41.407704" lon="2.204108">
				 <ele>8</ele>
			 </trkpt>
			 <trkpt lat="41.407563" lon="2.203539">
				 <ele>7.5</ele>
			 </trkpt>
			 <trkpt lat="41.407422" lon="2.20297">
				 <ele>7.5</ele>
			 </trkpt>
			 <trkpt lat="41.407281" lon="2.202401">
				 <ele>7.4</ele>
			 </trkpt>
			 <trkpt lat="41.40714" lon="2.201831">
				 <ele>7.4</ele>
			 </trkpt>
			 <trkpt lat="41.406999" lon="2.201262">
				 <ele>7.5</ele>
			 </trkpt>
			 <trkpt lat="41.406858" lon="2.200693">
				 <ele>7.7</ele>
			 </trkpt>
			 <trkpt lat="41.406717" lon="2.200123">
				 <ele>7.8</ele>
			 </trkpt>
			 <trkpt lat="41.406576" lon="2.199554">
				 <ele>7.9</ele>
			 </trkpt>
			 <trkpt lat="41.406435" lon="2.198985">
				 <ele>8.1</ele>
			 </trkpt>
			 <trkpt lat="41.406294" lon="2.198415">
				 <ele>8.6</ele>
			 </trkpt>
			 <trkpt lat="41.406153" lon="2.197846">
				 <ele>9.5</ele>
			 </trkpt>
			 <trkpt lat="41.406012" lon="2.197277">
				 <ele>10.7</ele>
			 </trkpt>
			 <trkpt lat="41.405871" lon="2.196708">
				 <ele>11.5</ele>
			 </trkpt>
			 <trkpt lat="41.40573" lon="2.196138">
				 <ele>12.4</ele>
			 </trkpt>
			 <trkpt lat="41.405589" lon="2.195569">
				 <ele>13.5</ele>
			 </trkpt>
			 <trkpt lat="41.405448" lon="2.195">
				 <ele>14.5</ele>
			 </trkpt>
			 <trkpt lat="41.405307" lon="2.19443">
				 <ele>15.4</ele>
			 </trkpt>
			 <trkpt lat="41.405166" lon="2.193861">
				 <ele>16.4</ele>
			 </trkpt>
			 <trkpt lat="41.405025" lon="2.193292">
				 <ele>17.4</ele>
			 </trkpt>
			 <trkpt lat="41.404884" lon="2.192723">
				 <ele>18.2</ele>
			 </trkpt>
			 <trkpt lat="41.404743" lon="2.192153">
				 <ele>18.9</ele>
			 </trkpt>
			 <trkpt lat="41.404602" lon="2.191584">
				 <ele>19.3</ele>
			 </trkpt>
			 <trkpt lat="41.404461" lon="2.191015">
				 <ele>18.9</ele>
			 </trkpt>
			 <trkpt lat="41.404369" lon="2.190645">
				 <ele>18.4</ele>
			 </trkpt>
			 <trkpt lat="41.40425" lon="2.19075">
				 <ele>18.2</ele>
			 </trkpt>
			 <trkpt lat="41.404507" lon="2.191757">
				 <ele>17.4</ele>
			 </trkpt>
			 <trkpt lat="41.404763" lon="2.192763">
				 <ele>16.5</ele>
			 </trkpt>
			 <trkpt lat="41.40502" lon="2.19377">
				 <ele>15.4</ele>
			 </trkpt>
			 <trkpt lat="41.40491" lon="2.19392">
				 <ele>14.2</ele>
			 </trkpt>
			 <trkpt lat="41.405053" lon="2.194489">
				 <ele>13.3</ele>
			 </trkpt>
			 <trkpt lat="41.405195" lon="2.195057">
				 <ele>12.5</ele>
			 </trkpt>
			 <trkpt lat="41.405338" lon="2.195626">
				 <ele>11.4</ele>
			 </trkpt>
			 <trkpt lat="41.40548" lon="2.196194">
				 <ele>10.5</ele>
			 </trkpt>
			 <trkpt lat="41.405623" lon="2.196763">
				 <ele>9.8</ele>
			 </trkpt>
			 <trkpt lat="41.405765" lon="2.197332">
				 <ele>9.5</ele>
			 </trkpt>
			 <trkpt lat="41.405908" lon="2.1979">
				 <ele>8.4</ele>
			 </trkpt>
			 <trkpt lat="41.40605" lon="2.198469">
				 <ele>7.6</ele>
			 </trkpt>
			 <trkpt lat="41.406193" lon="2.199037">
				 <ele>7.1</ele>
			 </trkpt>
			 <trkpt lat="41.406335" lon="2.199606">
				 <ele>6.7</ele>
			 </trkpt>
			 <trkpt lat="41.406478" lon="2.200175">
				 <ele>6.7</ele>
			 </trkpt>
			 <trkpt lat="41.40662" lon="2.200743">
				 <ele>7</ele>
			 </trkpt>
			 <trkpt lat="41.406763" lon="2.201312">
				 <ele>7.4</ele>
			 </trkpt>
			 <trkpt lat="41.406906" lon="2.20188">
				 <ele>7.3</ele>
			 </trkpt>
			 <trkpt lat="41.407048" lon="2.202449">
				 <ele>7</ele>
			 </trkpt>
			 <trkpt lat="41.407191" lon="2.203018">
				 <ele>7.1</ele>
			 </trkpt>
			 <trkpt lat="41.407333" lon="2.203586">
				 <ele>7.2</ele>
			 </trkpt>
			 <trkpt lat="41.407476" lon="2.204155">
				 <ele>7.8</ele>
			 </trkpt>
			 <trkpt lat="41.407618" lon="2.204723">
				 <ele>8.5</ele>
			 </trkpt>
			 <trkpt lat="41.407761" lon="2.205292">
				 <ele>8.9</ele>
			 </trkpt>
			 <trkpt lat="41.407903" lon="2.205861">
				 <ele>9.4</ele>
			 </trkpt>
			 <trkpt lat="41.408046" lon="2.206429">
				 <ele>9.5</ele>
			 </trkpt>
			 <trkpt lat="41.408188" lon="2.206998">
				 <ele>9.2</ele>
			 </trkpt>
			 <trkpt lat="41.408331" lon="2.207566">
				 <ele>8.8</ele>
			 </trkpt>
			 <trkpt lat="41.408473" lon="2.208135">
				 <ele>9.2</ele>
			 </trkpt>
			 <trkpt lat="41.408616" lon="2.208704">
				 <ele>9.9</ele>
			 </trkpt>
			 <trkpt lat="41.408758" lon="2.209272">
				 <ele>10.2</ele>
			 </trkpt>
			 <trkpt lat="41.408798" lon="2.209432">
				 <ele>10.5</ele>
			 </trkpt>
			 <trkpt lat="41.408938" lon="2.210002">
				 <ele>10.8</ele>
			 </trkpt>
			 <trkpt lat="41.409078" lon="2.210571">
				 <ele>10.9</ele>
			 </trkpt>
			 <trkpt lat="41.409218" lon="2.211141">
				 <ele>11.2</ele>
			 </trkpt>
			 <trkpt lat="41.409358" lon="2.211711">
				 <ele>11</ele>
			 </trkpt>
			 <trkpt lat="41.409498" lon="2.212281">
				 <ele>10.7</ele>
			 </trkpt>
			 <trkpt lat="41.409535" lon="2.212431">
				 <ele>10.5</ele>
			 </trkpt>
			 <trkpt lat="41.409636" lon="2.213015">
				 <ele>10.5</ele>
			 </trkpt>
			 <trkpt lat="41.40972" lon="2.2135">
				 <ele>10.3</ele>
			 </trkpt>
			 <trkpt lat="41.409451" lon="2.213313">
				 <ele>10</ele>
			 </trkpt>
			 <trkpt lat="41.409131" lon="2.212892">
				 <ele>10.2</ele>
			 </trkpt>
			 <trkpt lat="41.408811" lon="2.21247">
				 <ele>10.5</ele>
			 </trkpt>
			 <trkpt lat="41.408492" lon="2.212049">
				 <ele>10.7</ele>
			 </trkpt>
			 <trkpt lat="41.408172" lon="2.211627">
				 <ele>11.1</ele>
			 </trkpt>
			 <trkpt lat="41.407852" lon="2.211206">
				 <ele>11.1</ele>
			 </trkpt>
			 <trkpt lat="41.407532" lon="2.210784">
				 <ele>11.2</ele>
			 </trkpt>
			 <trkpt lat="41.407212" lon="2.210363">
				 <ele>11.4</ele>
			 </trkpt>
			 <trkpt lat="41.406893" lon="2.209941">
				 <ele>11.5</ele>
			 </trkpt>
			 <trkpt lat="41.406573" lon="2.20952">
				 <ele>11.5</ele>
			 </trkpt>
			 <trkpt lat="41.406253" lon="2.209098">
				 <ele>11.6</ele>
			 </trkpt>
			 <trkpt lat="41.405933" lon="2.208677">
				 <ele>11.7</ele>
			 </trkpt>
			 <trkpt lat="41.405818" lon="2.208524">
				 <ele>11.8</ele>
			 </trkpt>
			 <trkpt lat="41.405501" lon="2.208099">
				 <ele>11.7</ele>
			 </trkpt>
			 <trkpt lat="41.405184" lon="2.207674">
				 <ele>11.8</ele>
			 </trkpt>
			 <trkpt lat="41.40497" lon="2.207387">
				 <ele>11.7</ele>
			 </trkpt>
			 <trkpt lat="41.404651" lon="2.206965">
				 <ele>11.6</ele>
			 </trkpt>
			 <trkpt lat="41.404331" lon="2.206543">
				 <ele>11.8</ele>
			 </trkpt>
			 <trkpt lat="41.404011" lon="2.206121">
				 <ele>11.8</ele>
			 </trkpt>
			 <trkpt lat="41.403692" lon="2.2057">
				 <ele>11.6</ele>
			 </trkpt>
			 <trkpt lat="41.403372" lon="2.205278">
				 <ele>11.8</ele>
			 </trkpt>
			 <trkpt lat="41.403053" lon="2.204856">
				 <ele>12.1</ele>
			 </trkpt>
			 <trkpt lat="41.402733" lon="2.204434">
				 <ele>12.5</ele>
			 </trkpt>
			 <trkpt lat="41.402414" lon="2.204013">
				 <ele>13</ele>
			 </trkpt>
			 <trkpt lat="41.402094" lon="2.203591">
				 <ele>13.3</ele>
			 </trkpt>
			 <trkpt lat="41.401774" lon="2.203169">
				 <ele>12.9</ele>
			 </trkpt>
			 <trkpt lat="41.401521" lon="2.202834">
				 <ele>12.6</ele>
			 </trkpt>
			 <trkpt lat="41.401212" lon="2.202399">
				 <ele>12.6</ele>
			 </trkpt>
			 <trkpt lat="41.400903" lon="2.201963">
				 <ele>12.5</ele>
			 </trkpt>
			 <trkpt lat="41.400594" lon="2.201527">
				 <ele>12.5</ele>
			 </trkpt>
			 <trkpt lat="41.400285" lon="2.201092">
				 <ele>12.3</ele>
			 </trkpt>
			 <trkpt lat="41.4" lon="2.20069">
				 <ele>11.9</ele>
			 </trkpt>
			 <trkpt lat="41.399996" lon="2.200398">
				 <ele>11.5</ele>
			 </trkpt>
			 <trkpt lat="41.400222" lon="2.200059">
				 <ele>11.1</ele>
			 </trkpt>
			 <trkpt lat="41.400545" lon="2.199642">
				 <ele>10.3</ele>
			 </trkpt>
			 <trkpt lat="41.400868" lon="2.199225">
				 <ele>9.9</ele>
			 </trkpt>
			 <trkpt lat="41.401191" lon="2.198808">
				 <ele>9.7</ele>
			 </trkpt>
			 <trkpt lat="41.401513" lon="2.19839">
				 <ele>9.9</ele>
			 </trkpt>
			 <trkpt lat="41.40156" lon="2.19833">
				 <ele>10.1</ele>
			 </trkpt>
			 <trkpt lat="41.40148" lon="2.19823">
				 <ele>10.3</ele>
			 </trkpt>
			 <trkpt lat="41.400953" lon="2.19753">
				 <ele>10.5</ele>
			 </trkpt>
			 <trkpt lat="41.400425" lon="2.19683">
				 <ele>10.9</ele>
			 </trkpt>
			 <trkpt lat="41.399898" lon="2.19613">
				 <ele>11.8</ele>
			 </trkpt>
			 <trkpt lat="41.39937" lon="2.19543">
				 <ele>12.5</ele>
			 </trkpt>
			 <trkpt lat="41.399" lon="2.19493">
				 <ele>13</ele>
			 </trkpt>
			 <trkpt lat="41.39853" lon="2.19425">
				 <ele>13.2</ele>
			 </trkpt>
			 <trkpt lat="41.39815" lon="2.19379">
				 <ele>13.2</ele>
			 </trkpt>
			 <trkpt lat="41.39774" lon="2.19324">
				 <ele>13.4</ele>
			 </trkpt>
			 <trkpt lat="41.39733" lon="2.19269">
				 <ele>13.1</ele>
			 </trkpt>
			 <trkpt lat="41.39694" lon="2.19212">
				 <ele>12.6</ele>
			 </trkpt>
			 <trkpt lat="41.39655" lon="2.19155">
				 <ele>12.3</ele>
			 </trkpt>
			 <trkpt lat="41.396095" lon="2.192165">
				 <ele>12.1</ele>
			 </trkpt>
			 <trkpt lat="41.39564" lon="2.19278">
				 <ele>11.6</ele>
			 </trkpt>
			 <trkpt lat="41.39524" lon="2.193295">
				 <ele>11</ele>
			 </trkpt>
			 <trkpt lat="41.39484" lon="2.19381">
				 <ele>10.7</ele>
			 </trkpt>
			 <trkpt lat="41.394405" lon="2.1944">
				 <ele>10.3</ele>
			 </trkpt>
			 <trkpt lat="41.39397" lon="2.19499">
				 <ele>10.4</ele>
			 </trkpt>
			 <trkpt lat="41.393493" lon="2.19563">
				 <ele>10.4</ele>
			 </trkpt>
			 <trkpt lat="41.393015" lon="2.19627">
				 <ele>10.6</ele>
			 </trkpt>
			 <trkpt lat="41.392538" lon="2.19691">
				 <ele>10.9</ele>
			 </trkpt>
			 <trkpt lat="41.39206" lon="2.19755">
				 <ele>11.1</ele>
			 </trkpt>
			 <trkpt lat="41.391587" lon="2.198197">
				 <ele>11.2</ele>
			 </trkpt>
			 <trkpt lat="41.391113" lon="2.198843">
				 <ele>11.3</ele>
			 </trkpt>
			 <trkpt lat="41.39064" lon="2.19949">
				 <ele>11.9</ele>
			 </trkpt>
			 <trkpt lat="41.39056" lon="2.19937">
				 <ele>12.2</ele>
			 </trkpt>
			 <trkpt lat="41.389945" lon="2.19856">
				 <ele>12</ele>
			 </trkpt>
			 <trkpt lat="41.38933" lon="2.19775">
				 <ele>12.4</ele>
			 </trkpt>
			 <trkpt lat="41.388715" lon="2.19694">
				 <ele>12.2</ele>
			 </trkpt>
			 <trkpt lat="41.3881" lon="2.19613">
				 <ele>12.2</ele>
			 </trkpt>
			 <trkpt lat="41.38805" lon="2.19606">
				 <ele>11.8</ele>
			 </trkpt>
			 <trkpt lat="41.388362" lon="2.195628">
				 <ele>11.5</ele>
			 </trkpt>
			 <trkpt lat="41.388673" lon="2.195196">
				 <ele>11.5</ele>
			 </trkpt>
			 <trkpt lat="41.388985" lon="2.194763">
				 <ele>11.7</ele>
			 </trkpt>
			 <trkpt lat="41.389296" lon="2.194331">
				 <ele>11.9</ele>
			 </trkpt>
			 <trkpt lat="41.389608" lon="2.193899">
				 <ele>11.5</ele>
			 </trkpt>
			 <trkpt lat="41.389919" lon="2.193467">
				 <ele>11.5</ele>
			 </trkpt>
			 <trkpt lat="41.390231" lon="2.193035">
				 <ele>11.7</ele>
			 </trkpt>
			 <trkpt lat="41.390277" lon="2.192971">
				 <ele>11.8</ele>
			 </trkpt>
			 <trkpt lat="41.390596" lon="2.192548">
				 <ele>12.5</ele>
			 </trkpt>
			 <trkpt lat="41.390915" lon="2.192126">
				 <ele>12.9</ele>
			 </trkpt>
			 <trkpt lat="41.391234" lon="2.191704">
				 <ele>13.4</ele>
			 </trkpt>
			 <trkpt lat="41.391553" lon="2.191281">
				 <ele>14.2</ele>
			 </trkpt>
			 <trkpt lat="41.391872" lon="2.190859">
				 <ele>14.9</ele>
			 </trkpt>
			 <trkpt lat="41.392191" lon="2.190437">
				 <ele>15.6</ele>
			 </trkpt>
			 <trkpt lat="41.39251" lon="2.190014">
				 <ele>16.4</ele>
			 </trkpt>
			 <trkpt lat="41.392829" lon="2.189592">
				 <ele>17.3</ele>
			 </trkpt>
			 <trkpt lat="41.393148" lon="2.189169">
				 <ele>17.8</ele>
			 </trkpt>
			 <trkpt lat="41.393467" lon="2.188747">
				 <ele>18.1</ele>
			 </trkpt>
			 <trkpt lat="41.393786" lon="2.188325">
				 <ele>18.2</ele>
			 </trkpt>
			 <trkpt lat="41.39403" lon="2.188002">
				 <ele>18</ele>
			 </trkpt>
			 <trkpt lat="41.394321" lon="2.187544">
				 <ele>17.9</ele>
			 </trkpt>
			 <trkpt lat="41.39461" lon="2.18709">
				 <ele>17.9</ele>
			 </trkpt>
			 <trkpt lat="41.39458" lon="2.18701">
				 <ele>18.1</ele>
			 </trkpt>
			 <trkpt lat="41.39456" lon="2.18691">
				 <ele>18</ele>
			 </trkpt>
			 <trkpt lat="41.39458" lon="2.1868">
				 <ele>17.8</ele>
			 </trkpt>
			 <trkpt lat="41.39462" lon="2.18671">
				 <ele>17.4</ele>
			 </trkpt>
			 <trkpt lat="41.39451" lon="2.18656">
				 <ele>17.9</ele>
			 </trkpt>
			 <trkpt lat="41.393928" lon="2.185746">
				 <ele>18.5</ele>
			 </trkpt>
			 <trkpt lat="41.393346" lon="2.184932">
				 <ele>18.8</ele>
			 </trkpt>
			 <trkpt lat="41.392764" lon="2.184118">
				 <ele>19.3</ele>
			 </trkpt>
			 <trkpt lat="41.392182" lon="2.183304">
				 <ele>20.1</ele>
			 </trkpt>
			 <trkpt lat="41.3916" lon="2.18249">
				 <ele>21.1</ele>
			 </trkpt>
			 <trkpt lat="41.3916" lon="2.18228">
				 <ele>22.2</ele>
			 </trkpt>
			 <trkpt lat="41.392158" lon="2.181508">
				 <ele>22.8</ele>
			 </trkpt>
			 <trkpt lat="41.392715" lon="2.180735">
				 <ele>23.9</ele>
			 </trkpt>
			 <trkpt lat="41.393273" lon="2.179963">
				 <ele>25.2</ele>
			 </trkpt>
			 <trkpt lat="41.39383" lon="2.17919">
				 <ele>27.1</ele>
			 </trkpt>
			 <trkpt lat="41.3939" lon="2.17911">
				 <ele>27.7</ele>
			 </trkpt>
			 <trkpt lat="41.39377" lon="2.17893">
				 <ele>29</ele>
			 </trkpt>
			 <trkpt lat="41.393142" lon="2.178104">
				 <ele>30.8</ele>
			 </trkpt>
			 <trkpt lat="41.392514" lon="2.177278">
				 <ele>32.5</ele>
			 </trkpt>
			 <trkpt lat="41.391886" lon="2.176452">
				 <ele>33.2</ele>
			 </trkpt>
			 <trkpt lat="41.391258" lon="2.175626">
				 <ele>33.5</ele>
			 </trkpt>
			 <trkpt lat="41.39063" lon="2.1748">
				 <ele>33.9</ele>
			 </trkpt>
			 <trkpt lat="41.39044" lon="2.17478">
				 <ele>34.3</ele>
			 </trkpt>
			 <trkpt lat="41.39039" lon="2.17483">
				 <ele>34.4</ele>
			 </trkpt>
			 <trkpt lat="41.3901" lon="2.17523">
				 <ele>34.5</ele>
			 </trkpt>
			 <trkpt lat="41.39005" lon="2.17529">
				 <ele>34.1</ele>
			 </trkpt>
			 <trkpt lat="41.39002" lon="2.17536">
				 <ele>33.5</ele>
			 </trkpt>
			 <trkpt lat="41.39007" lon="2.17554">
				 <ele>32.1</ele>
			 </trkpt>
			 <trkpt lat="41.39043" lon="2.176565">
				 <ele>30.5</ele>
			 </trkpt>
			 <trkpt lat="41.39079" lon="2.17759">
				 <ele>28.9</ele>
			 </trkpt>
			 <trkpt lat="41.39115" lon="2.178615">
				 <ele>27.7</ele>
			 </trkpt>
			 <trkpt lat="41.39151" lon="2.17964">
				 <ele>26.7</ele>
			 </trkpt>
			 <trkpt lat="41.39158" lon="2.17982">
				 <ele>25.6</ele>
			 </trkpt>
			 <trkpt lat="41.39157" lon="2.17993">
				 <ele>24.5</ele>
			 </trkpt>
			 <trkpt lat="41.39146" lon="2.18006">
				 <ele>23.7</ele>
			 </trkpt>
			 <trkpt lat="41.3913" lon="2.18029">
				 <ele>22.7</ele>
			 </trkpt>
			 <trkpt lat="41.39128" lon="2.18034">
				 <ele>21.5</ele>
			 </trkpt>
			 <trkpt lat="41.39093" lon="2.1808">
				 <ele>20.9</ele>
			 </trkpt>
			 <trkpt lat="41.39058" lon="2.18126">
				 <ele>20.3</ele>
			 </trkpt>
		 </trkseg>
	 </trk>
</gpx>