<?xml version="1.0" encoding="UTF-8"?>
 <gpx creator="Garmin Connect" version="1.1"
	 xsi:schemaLocation="http://www.topografix.com/GPX/1/1 http://www.topografix.com/GPX/11.xsd"
	 xmlns:ns3="http://www.garmin.com/xmlschemas/TrackPointExtension/v1"
	 xmlns="http://www.topografix.com/GPX/1/1"
	 xmlns:xsi="http://www.w3.org/2001/XMLSchema-instance" xmlns:ns2="http://www.garmin.com/xmlschemas/GpxExtensions/v3">
	 <metadata>
		<name>Båstad Marathon 2026 - 42.195 km</name>
		 <link href="https://www.goandrace.com">
		 <text>Garmin Connect</text>
		 </link>
	 <time>2026-08-09T21:58:51</time>
	 </metadata>
	 <trk>
		 <name>Båstad Marathon 2026 - 42.195 km</name>
		 <trkseg>
			 <trkpt lat="56.43109" lon="12.8466">
				 <ele>2.2</ele>
			 </trkpt>
			 <trkpt lat="56.43092" lon="12.84789">
				 <ele>2.3</ele>
			 </trkpt>
			 <trkpt lat="56.43088" lon="12.84804">
				 <ele>2.4</ele>
			 </trkpt>
			 <trkpt lat="56.43081" lon="12.84819">
				 <ele>2.6</ele>
			 </trkpt>
			 <trkpt lat="56.43065" lon="12.84841">
				 <ele>2.8</ele>
			 </trkpt>
			 <trkpt lat="56.43061" lon="12.8485">
				 <ele>3.1</ele>
			 </trkpt>
			 <trkpt lat="56.43045" lon="12.8483">
				 <ele>3.4</ele>
			 </trkpt>
			 <trkpt lat="56.43023" lon="12.84814">
				 <ele>3.9</ele>
			 </trkpt>
			 <trkpt lat="56.43006" lon="12.84845">
				 <ele>4.5</ele>
			 </trkpt>
			 <trkpt lat="56.42949" lon="12.848365">
				 <ele>5.1</ele>
			 </trkpt>
			 <trkpt lat="56.42892" lon="12.84828">
				 <ele>5.8</ele>
			 </trkpt>
			 <trkpt lat="56.42874" lon="12.84952">
				 <ele>6.5</ele>
			 </trkpt>
			 <trkpt lat="56.42807" lon="12.84932">
				 <ele>7.1</ele>
			 </trkpt>
			 <trkpt lat="56.42818" lon="12.84798">
				 <ele>7.7</ele>
			 </trkpt>
			 <trkpt lat="56.42772" lon="12.84804">
				 <ele>8.5</ele>
			 </trkpt>
			 <trkpt lat="56.42734" lon="12.84811">
				 <ele>9</ele>
			 </trkpt>
			 <trkpt lat="56.42667" lon="12.84819">
				 <ele>9.5</ele>
			 </trkpt>
			 <trkpt lat="56.42639" lon="12.8487">
				 <ele>9.9</ele>
			 </trkpt>
			 <trkpt lat="56.4262" lon="12.84861">
				 <ele>10.1</ele>
			 </trkpt>
			 <trkpt lat="56.4256" lon="12.84847">
				 <ele>10.3</ele>
			 </trkpt>
			 <trkpt lat="56.42531" lon="12.84855">
				 <ele>10.4</ele>
			 </trkpt>
			 <trkpt lat="56.42523" lon="12.84869">
				 <ele>10.5</ele>
			 </trkpt>
			 <trkpt lat="56.42518" lon="12.8491">
				 <ele>10.8</ele>
			 </trkpt>
			 <trkpt lat="56.42517" lon="12.84937">
				 <ele>11.1</ele>
			 </trkpt>
			 <trkpt lat="56.42509" lon="12.84958">
				 <ele>11.4</ele>
			 </trkpt>
			 <trkpt lat="56.42504" lon="12.84964">
				 <ele>11.4</ele>
			 </trkpt>
			 <trkpt lat="56.424393" lon="12.84978">
				 <ele>11.5</ele>
			 </trkpt>
			 <trkpt lat="56.423747" lon="12.84992">
				 <ele>11.5</ele>
			 </trkpt>
			 <trkpt lat="56.4231" lon="12.85006">
				 <ele>11.7</ele>
			 </trkpt>
			 <trkpt lat="56.42299" lon="12.85005">
				 <ele>12</ele>
			 </trkpt>
			 <trkpt lat="56.42274" lon="12.84998">
				 <ele>12.3</ele>
			 </trkpt>
			 <trkpt lat="56.42258" lon="12.8499">
				 <ele>12.6</ele>
			 </trkpt>
			 <trkpt lat="56.42236" lon="12.84984">
				 <ele>13</ele>
			 </trkpt>
			 <trkpt lat="56.42206" lon="12.84982">
				 <ele>13.4</ele>
			 </trkpt>
			 <trkpt lat="56.42182" lon="12.84986">
				 <ele>13.6</ele>
			 </trkpt>
			 <trkpt lat="56.42161" lon="12.84982">
				 <ele>13.9</ele>
			 </trkpt>
			 <trkpt lat="56.42151" lon="12.84977">
				 <ele>14.3</ele>
			 </trkpt>
			 <trkpt lat="56.42129" lon="12.84952">
				 <ele>14.6</ele>
			 </trkpt>
			 <trkpt lat="56.42118" lon="12.84952">
				 <ele>15</ele>
			 </trkpt>
			 <trkpt lat="56.42095" lon="12.84949">
				 <ele>15.9</ele>
			 </trkpt>
			 <trkpt lat="56.42098" lon="12.84984">
				 <ele>17</ele>
			 </trkpt>
			 <trkpt lat="56.4209" lon="12.84992">
				 <ele>18.2</ele>
			 </trkpt>
			 <trkpt lat="56.42068" lon="12.85024">
				 <ele>19.3</ele>
			 </trkpt>
			 <trkpt lat="56.4206" lon="12.85031">
				 <ele>20.3</ele>
			 </trkpt>
			 <trkpt lat="56.41987" lon="12.85043">
				 <ele>21.1</ele>
			 </trkpt>
			 <trkpt lat="56.41969" lon="12.85044">
				 <ele>22.2</ele>
			 </trkpt>
			 <trkpt lat="56.41934" lon="12.85038">
				 <ele>23.7</ele>
			 </trkpt>
			 <trkpt lat="56.41918" lon="12.8503">
				 <ele>25.3</ele>
			 </trkpt>
			 <trkpt lat="56.41901" lon="12.85032">
				 <ele>27.3</ele>
			 </trkpt>
			 <trkpt lat="56.41875" lon="12.85046">
				 <ele>29.4</ele>
			 </trkpt>
			 <trkpt lat="56.41853" lon="12.85054">
				 <ele>30.4</ele>
			 </trkpt>
			 <trkpt lat="56.41827" lon="12.85055">
				 <ele>31.1</ele>
			 </trkpt>
			 <trkpt lat="56.41789" lon="12.85046">
				 <ele>31.7</ele>
			 </trkpt>
			 <trkpt lat="56.41728" lon="12.85019">
				 <ele>32.4</ele>
			 </trkpt>
			 <trkpt lat="56.41672" lon="12.85018">
				 <ele>33</ele>
			 </trkpt>
			 <trkpt lat="56.416215" lon="12.85022">
				 <ele>33.6</ele>
			 </trkpt>
			 <trkpt lat="56.41571" lon="12.85026">
				 <ele>34.1</ele>
			 </trkpt>
			 <trkpt lat="56.41559" lon="12.85025">
				 <ele>34.2</ele>
			 </trkpt>
			 <trkpt lat="56.41548" lon="12.85018">
				 <ele>34.3</ele>
			 </trkpt>
			 <trkpt lat="56.41523" lon="12.84987">
				 <ele>34</ele>
			 </trkpt>
			 <trkpt lat="56.4151" lon="12.84984">
				 <ele>33.7</ele>
			 </trkpt>
			 <trkpt lat="56.41487" lon="12.84956">
				 <ele>34.1</ele>
			 </trkpt>
			 <trkpt lat="56.41467" lon="12.84925">
				 <ele>34.5</ele>
			 </trkpt>
			 <trkpt lat="56.41446" lon="12.84882">
				 <ele>35</ele>
			 </trkpt>
			 <trkpt lat="56.4141" lon="12.84856">
				 <ele>35.5</ele>
			 </trkpt>
			 <trkpt lat="56.41361" lon="12.84754">
				 <ele>36.1</ele>
			 </trkpt>
			 <trkpt lat="56.41341" lon="12.84704">
				 <ele>36.6</ele>
			 </trkpt>
			 <trkpt lat="56.41312" lon="12.84617">
				 <ele>37.2</ele>
			 </trkpt>
			 <trkpt lat="56.41292" lon="12.84572">
				 <ele>37.8</ele>
			 </trkpt>
			 <trkpt lat="56.41274" lon="12.84505">
				 <ele>38.5</ele>
			 </trkpt>
			 <trkpt lat="56.41258" lon="12.84481">
				 <ele>39.3</ele>
			 </trkpt>
			 <trkpt lat="56.41247" lon="12.84453">
				 <ele>40.1</ele>
			 </trkpt>
			 <trkpt lat="56.41243" lon="12.84426">
				 <ele>40.7</ele>
			 </trkpt>
			 <trkpt lat="56.4123" lon="12.84281">
				 <ele>41.5</ele>
			 </trkpt>
			 <trkpt lat="56.412107" lon="12.84173">
				 <ele>42.4</ele>
			 </trkpt>
			 <trkpt lat="56.411913" lon="12.84065">
				 <ele>43.3</ele>
			 </trkpt>
			 <trkpt lat="56.41172" lon="12.83957">
				 <ele>44.2</ele>
			 </trkpt>
			 <trkpt lat="56.41151" lon="12.83885">
				 <ele>45.1</ele>
			 </trkpt>
			 <trkpt lat="56.41134" lon="12.8385">
				 <ele>46</ele>
			 </trkpt>
			 <trkpt lat="56.410875" lon="12.837385">
				 <ele>46.7</ele>
			 </trkpt>
			 <trkpt lat="56.41041" lon="12.83627">
				 <ele>47.5</ele>
			 </trkpt>
			 <trkpt lat="56.41045" lon="12.83623">
				 <ele>48.2</ele>
			 </trkpt>
			 <trkpt lat="56.41053" lon="12.83607">
				 <ele>48.9</ele>
			 </trkpt>
			 <trkpt lat="56.41087" lon="12.83527">
				 <ele>49.9</ele>
			 </trkpt>
			 <trkpt lat="56.41093" lon="12.83484">
				 <ele>50.9</ele>
			 </trkpt>
			 <trkpt lat="56.41091" lon="12.83441">
				 <ele>51.9</ele>
			 </trkpt>
			 <trkpt lat="56.41084" lon="12.83422">
				 <ele>53</ele>
			 </trkpt>
			 <trkpt lat="56.4107" lon="12.83401">
				 <ele>54.4</ele>
			 </trkpt>
			 <trkpt lat="56.41056" lon="12.83365">
				 <ele>55.9</ele>
			 </trkpt>
			 <trkpt lat="56.41053" lon="12.83332">
				 <ele>57.5</ele>
			 </trkpt>
			 <trkpt lat="56.41054" lon="12.83265">
				 <ele>59.5</ele>
			 </trkpt>
			 <trkpt lat="56.41052" lon="12.83223">
				 <ele>61.5</ele>
			 </trkpt>
			 <trkpt lat="56.41042" lon="12.83177">
				 <ele>63.5</ele>
			 </trkpt>
			 <trkpt lat="56.41026" lon="12.83121">
				 <ele>65.4</ele>
			 </trkpt>
			 <trkpt lat="56.41012" lon="12.8303">
				 <ele>66.9</ele>
			 </trkpt>
			 <trkpt lat="56.41004" lon="12.82939">
				 <ele>68</ele>
			 </trkpt>
			 <trkpt lat="56.41002" lon="12.8288">
				 <ele>69.1</ele>
			 </trkpt>
			 <trkpt lat="56.40979" lon="12.82753">
				 <ele>70.2</ele>
			 </trkpt>
			 <trkpt lat="56.40968" lon="12.82701">
				 <ele>71</ele>
			 </trkpt>
			 <trkpt lat="56.40959" lon="12.82667">
				 <ele>71.5</ele>
			 </trkpt>
			 <trkpt lat="56.40915" lon="12.8254">
				 <ele>72</ele>
			 </trkpt>
			 <trkpt lat="56.40898" lon="12.82459">
				 <ele>72.2</ele>
			 </trkpt>
			 <trkpt lat="56.40888" lon="12.82387">
				 <ele>72.2</ele>
			 </trkpt>
			 <trkpt lat="56.40881" lon="12.82301">
				 <ele>72.1</ele>
			 </trkpt>
			 <trkpt lat="56.40874" lon="12.82215">
				 <ele>72</ele>
			 </trkpt>
			 <trkpt lat="56.40873" lon="12.82096">
				 <ele>72.2</ele>
			 </trkpt>
			 <trkpt lat="56.40863" lon="12.81948">
				 <ele>72.8</ele>
			 </trkpt>
			 <trkpt lat="56.40852" lon="12.81865">
				 <ele>73.6</ele>
			 </trkpt>
			 <trkpt lat="56.40837" lon="12.81799">
				 <ele>74.5</ele>
			 </trkpt>
			 <trkpt lat="56.40822" lon="12.81772">
				 <ele>75.9</ele>
			 </trkpt>
			 <trkpt lat="56.40808" lon="12.81742">
				 <ele>77.8</ele>
			 </trkpt>
			 <trkpt lat="56.40803" lon="12.81724">
				 <ele>80</ele>
			 </trkpt>
			 <trkpt lat="56.40802" lon="12.81628">
				 <ele>82.8</ele>
			 </trkpt>
			 <trkpt lat="56.40793" lon="12.81585">
				 <ele>86.5</ele>
			 </trkpt>
			 <trkpt lat="56.40788" lon="12.81466">
				 <ele>90.7</ele>
			 </trkpt>
			 <trkpt lat="56.40767" lon="12.81376">
				 <ele>95</ele>
			 </trkpt>
			 <trkpt lat="56.40762" lon="12.81324">
				 <ele>99.3</ele>
			 </trkpt>
			 <trkpt lat="56.40757" lon="12.81179">
				 <ele>103.9</ele>
			 </trkpt>
			 <trkpt lat="56.40752" lon="12.81034">
				 <ele>108.8</ele>
			 </trkpt>
			 <trkpt lat="56.4076" lon="12.80875">
				 <ele>114.1</ele>
			 </trkpt>
			 <trkpt lat="56.4076" lon="12.80846">
				 <ele>118.9</ele>
			 </trkpt>
			 <trkpt lat="56.407495" lon="12.807145">
				 <ele>123.6</ele>
			 </trkpt>
			 <trkpt lat="56.40739" lon="12.80583">
				 <ele>128.2</ele>
			 </trkpt>
			 <trkpt lat="56.40734" lon="12.8044">
				 <ele>132.3</ele>
			 </trkpt>
			 <trkpt lat="56.40729" lon="12.80297">
				 <ele>135.5</ele>
			 </trkpt>
			 <trkpt lat="56.4073" lon="12.80259">
				 <ele>138.2</ele>
			 </trkpt>
			 <trkpt lat="56.407455" lon="12.80157">
				 <ele>140.7</ele>
			 </trkpt>
			 <trkpt lat="56.40761" lon="12.80055">
				 <ele>143.1</ele>
			 </trkpt>
			 <trkpt lat="56.407745" lon="12.799285">
				 <ele>145.1</ele>
			 </trkpt>
			 <trkpt lat="56.40788" lon="12.79802">
				 <ele>146.3</ele>
			 </trkpt>
			 <trkpt lat="56.407995" lon="12.796835">
				 <ele>147</ele>
			 </trkpt>
			 <trkpt lat="56.40811" lon="12.79565">
				 <ele>147.5</ele>
			 </trkpt>
			 <trkpt lat="56.40813" lon="12.79517">
				 <ele>147.6</ele>
			 </trkpt>
			 <trkpt lat="56.408075" lon="12.79406">
				 <ele>147.4</ele>
			 </trkpt>
			 <trkpt lat="56.40802" lon="12.79295">
				 <ele>146.6</ele>
			 </trkpt>
			 <trkpt lat="56.40791" lon="12.7918">
				 <ele>145.9</ele>
			 </trkpt>
			 <trkpt lat="56.40782" lon="12.79052">
				 <ele>145.3</ele>
			 </trkpt>
			 <trkpt lat="56.40781" lon="12.78964">
				 <ele>144.9</ele>
			 </trkpt>
			 <trkpt lat="56.40784" lon="12.788455">
				 <ele>144.7</ele>
			 </trkpt>
			 <trkpt lat="56.40787" lon="12.78727">
				 <ele>144.6</ele>
			 </trkpt>
			 <trkpt lat="56.40782" lon="12.78655">
				 <ele>144.8</ele>
			 </trkpt>
			 <trkpt lat="56.40774" lon="12.7862">
				 <ele>145</ele>
			 </trkpt>
			 <trkpt lat="56.407465" lon="12.785235">
				 <ele>145.2</ele>
			 </trkpt>
			 <trkpt lat="56.40719" lon="12.78427">
				 <ele>145.5</ele>
			 </trkpt>
			 <trkpt lat="56.40689" lon="12.783025">
				 <ele>145.9</ele>
			 </trkpt>
			 <trkpt lat="56.40659" lon="12.78178">
				 <ele>146.7</ele>
			 </trkpt>
			 <trkpt lat="56.406355" lon="12.78083">
				 <ele>147.9</ele>
			 </trkpt>
			 <trkpt lat="56.40612" lon="12.77988">
				 <ele>148.9</ele>
			 </trkpt>
			 <trkpt lat="56.4059" lon="12.779055">
				 <ele>149.8</ele>
			 </trkpt>
			 <trkpt lat="56.40568" lon="12.77823">
				 <ele>150.8</ele>
			 </trkpt>
			 <trkpt lat="56.40501" lon="12.7791">
				 <ele>151.5</ele>
			 </trkpt>
			 <trkpt lat="56.40434" lon="12.77997">
				 <ele>151.7</ele>
			 </trkpt>
			 <trkpt lat="56.40367" lon="12.78084">
				 <ele>151.5</ele>
			 </trkpt>
			 <trkpt lat="56.403" lon="12.78171">
				 <ele>150.8</ele>
			 </trkpt>
			 <trkpt lat="56.40233" lon="12.78258">
				 <ele>149.4</ele>
			 </trkpt>
			 <trkpt lat="56.40195" lon="12.78283">
				 <ele>147.8</ele>
			 </trkpt>
			 <trkpt lat="56.40126" lon="12.78322">
				 <ele>145.9</ele>
			 </trkpt>
			 <trkpt lat="56.40057" lon="12.78361">
				 <ele>142.8</ele>
			 </trkpt>
			 <trkpt lat="56.399885" lon="12.784025">
				 <ele>139.1</ele>
			 </trkpt>
			 <trkpt lat="56.3992" lon="12.78444">
				 <ele>134.3</ele>
			 </trkpt>
			 <trkpt lat="56.39901" lon="12.78453">
				 <ele>128.9</ele>
			 </trkpt>
			 <trkpt lat="56.39887" lon="12.78447">
				 <ele>123.1</ele>
			 </trkpt>
			 <trkpt lat="56.398137" lon="12.783813">
				 <ele>117.5</ele>
			 </trkpt>
			 <trkpt lat="56.397403" lon="12.783157">
				 <ele>112</ele>
			 </trkpt>
			 <trkpt lat="56.39667" lon="12.7825">
				 <ele>107</ele>
			 </trkpt>
			 <trkpt lat="56.39643" lon="12.78211">
				 <ele>103</ele>
			 </trkpt>
			 <trkpt lat="56.39608" lon="12.78149">
				 <ele>99.3</ele>
			 </trkpt>
			 <trkpt lat="56.39595" lon="12.78138">
				 <ele>95.7</ele>
			 </trkpt>
			 <trkpt lat="56.39566" lon="12.78143">
				 <ele>93</ele>
			 </trkpt>
			 <trkpt lat="56.39504" lon="12.78139">
				 <ele>91</ele>
			 </trkpt>
			 <trkpt lat="56.39437" lon="12.78125">
				 <ele>89.8</ele>
			 </trkpt>
			 <trkpt lat="56.39418" lon="12.78119">
				 <ele>88.9</ele>
			 </trkpt>
			 <trkpt lat="56.39411" lon="12.78078">
				 <ele>88.6</ele>
			 </trkpt>
			 <trkpt lat="56.39399" lon="12.78048">
				 <ele>88.9</ele>
			 </trkpt>
			 <trkpt lat="56.39393" lon="12.78038">
				 <ele>89.3</ele>
			 </trkpt>
			 <trkpt lat="56.39338" lon="12.77958">
				 <ele>89.5</ele>
			 </trkpt>
			 <trkpt lat="56.39329" lon="12.77951">
				 <ele>88.9</ele>
			 </trkpt>
			 <trkpt lat="56.39307" lon="12.77943">
				 <ele>88</ele>
			 </trkpt>
			 <trkpt lat="56.39234" lon="12.77941">
				 <ele>87</ele>
			 </trkpt>
			 <trkpt lat="56.39231" lon="12.77873">
				 <ele>85.8</ele>
			 </trkpt>
			 <trkpt lat="56.39225" lon="12.77826">
				 <ele>84.6</ele>
			 </trkpt>
			 <trkpt lat="56.392038" lon="12.77697">
				 <ele>83.5</ele>
			 </trkpt>
			 <trkpt lat="56.391825" lon="12.77568">
				 <ele>82.2</ele>
			 </trkpt>
			 <trkpt lat="56.391613" lon="12.77439">
				 <ele>80.7</ele>
			 </trkpt>
			 <trkpt lat="56.3914" lon="12.7731">
				 <ele>78.7</ele>
			 </trkpt>
			 <trkpt lat="56.3914" lon="12.77285">
				 <ele>76.9</ele>
			 </trkpt>
			 <trkpt lat="56.39134" lon="12.77238">
				 <ele>75.3</ele>
			 </trkpt>
			 <trkpt lat="56.39111" lon="12.77168">
				 <ele>74.1</ele>
			 </trkpt>
			 <trkpt lat="56.39087" lon="12.77109">
				 <ele>73.2</ele>
			 </trkpt>
			 <trkpt lat="56.390267" lon="12.769937">
				 <ele>72.4</ele>
			 </trkpt>
			 <trkpt lat="56.389663" lon="12.768783">
				 <ele>71.5</ele>
			 </trkpt>
			 <trkpt lat="56.38906" lon="12.76763">
				 <ele>70.5</ele>
			 </trkpt>
			 <trkpt lat="56.38889" lon="12.76718">
				 <ele>69.5</ele>
			 </trkpt>
			 <trkpt lat="56.38884" lon="12.76699">
				 <ele>68.6</ele>
			 </trkpt>
			 <trkpt lat="56.388725" lon="12.765995">
				 <ele>68.1</ele>
			 </trkpt>
			 <trkpt lat="56.38861" lon="12.765">
				 <ele>67.9</ele>
			 </trkpt>
			 <trkpt lat="56.3885" lon="12.76369">
				 <ele>67.8</ele>
			 </trkpt>
			 <trkpt lat="56.38844" lon="12.76267">
				 <ele>67.7</ele>
			 </trkpt>
			 <trkpt lat="56.38838" lon="12.76206">
				 <ele>67.6</ele>
			 </trkpt>
			 <trkpt lat="56.38828" lon="12.76152">
				 <ele>67.5</ele>
			 </trkpt>
			 <trkpt lat="56.38796" lon="12.76053">
				 <ele>67.5</ele>
			 </trkpt>
			 <trkpt lat="56.38783" lon="12.75998">
				 <ele>67.6</ele>
			 </trkpt>
			 <trkpt lat="56.38766" lon="12.7589">
				 <ele>68</ele>
			 </trkpt>
			 <trkpt lat="56.38749" lon="12.75782">
				 <ele>68.5</ele>
			 </trkpt>
			 <trkpt lat="56.38745" lon="12.75747">
				 <ele>68.8</ele>
			 </trkpt>
			 <trkpt lat="56.38745" lon="12.75691">
				 <ele>69</ele>
			 </trkpt>
			 <trkpt lat="56.38756" lon="12.75533">
				 <ele>68.5</ele>
			 </trkpt>
			 <trkpt lat="56.38762" lon="12.75393">
				 <ele>67.8</ele>
			 </trkpt>
			 <trkpt lat="56.3876" lon="12.75346">
				 <ele>66.9</ele>
			 </trkpt>
			 <trkpt lat="56.38758" lon="12.75332">
				 <ele>65.9</ele>
			 </trkpt>
			 <trkpt lat="56.38739" lon="12.75288">
				 <ele>64.9</ele>
			 </trkpt>
			 <trkpt lat="56.38675" lon="12.75195">
				 <ele>64.2</ele>
			 </trkpt>
			 <trkpt lat="56.38639" lon="12.751455">
				 <ele>63.5</ele>
			 </trkpt>
			 <trkpt lat="56.38603" lon="12.75096">
				 <ele>62.9</ele>
			 </trkpt>
			 <trkpt lat="56.385553" lon="12.75028">
				 <ele>61.9</ele>
			 </trkpt>
			 <trkpt lat="56.385077" lon="12.7496">
				 <ele>60.4</ele>
			 </trkpt>
			 <trkpt lat="56.3846" lon="12.74892">
				 <ele>58.8</ele>
			 </trkpt>
			 <trkpt lat="56.38416" lon="12.74827">
				 <ele>57.6</ele>
			 </trkpt>
			 <trkpt lat="56.38401" lon="12.74799">
				 <ele>56.5</ele>
			 </trkpt>
			 <trkpt lat="56.38368" lon="12.74727">
				 <ele>55.5</ele>
			 </trkpt>
			 <trkpt lat="56.38343" lon="12.7464">
				 <ele>54.6</ele>
			 </trkpt>
			 <trkpt lat="56.38363" lon="12.74614">
				 <ele>53.7</ele>
			 </trkpt>
			 <trkpt lat="56.38388" lon="12.74567">
				 <ele>52.5</ele>
			 </trkpt>
			 <trkpt lat="56.38397" lon="12.74537">
				 <ele>51.2</ele>
			 </trkpt>
			 <trkpt lat="56.38412" lon="12.7446">
				 <ele>49.8</ele>
			 </trkpt>
			 <trkpt lat="56.384393" lon="12.743083">
				 <ele>48.6</ele>
			 </trkpt>
			 <trkpt lat="56.384666" lon="12.741566">
				 <ele>47.9</ele>
			 </trkpt>
			 <trkpt lat="56.384939" lon="12.740049">
				 <ele>47.2</ele>
			 </trkpt>
			 <trkpt lat="56.385212" lon="12.738532">
				 <ele>46.5</ele>
			 </trkpt>
			 <trkpt lat="56.385485" lon="12.737015">
				 <ele>46</ele>
			 </trkpt>
			 <trkpt lat="56.385758" lon="12.735498">
				 <ele>45.5</ele>
			 </trkpt>
			 <trkpt lat="56.386031" lon="12.733981">
				 <ele>45.3</ele>
			 </trkpt>
			 <trkpt lat="56.386304" lon="12.732464">
				 <ele>45.1</ele>
			 </trkpt>
			 <trkpt lat="56.386577" lon="12.730947">
				 <ele>44.9</ele>
			 </trkpt>
			 <trkpt lat="56.38685" lon="12.72943">
				 <ele>44.9</ele>
			 </trkpt>
			 <trkpt lat="56.387098" lon="12.728032">
				 <ele>45.1</ele>
			 </trkpt>
			 <trkpt lat="56.387346" lon="12.726634">
				 <ele>45.4</ele>
			 </trkpt>
			 <trkpt lat="56.387594" lon="12.725236">
				 <ele>45.6</ele>
			 </trkpt>
			 <trkpt lat="56.387842" lon="12.723838">
				 <ele>45.9</ele>
			 </trkpt>
			 <trkpt lat="56.38809" lon="12.72244">
				 <ele>46.3</ele>
			 </trkpt>
			 <trkpt lat="56.38816" lon="12.7216">
				 <ele>46.6</ele>
			 </trkpt>
			 <trkpt lat="56.38818" lon="12.72095">
				 <ele>47</ele>
			 </trkpt>
			 <trkpt lat="56.38827" lon="12.71998">
				 <ele>47.4</ele>
			 </trkpt>
			 <trkpt lat="56.3884" lon="12.719145">
				 <ele>47.7</ele>
			 </trkpt>
			 <trkpt lat="56.38853" lon="12.71831">
				 <ele>47.8</ele>
			 </trkpt>
			 <trkpt lat="56.3887" lon="12.717085">
				 <ele>47.5</ele>
			 </trkpt>
			 <trkpt lat="56.38887" lon="12.71586">
				 <ele>47</ele>
			 </trkpt>
			 <trkpt lat="56.388937" lon="12.714637">
				 <ele>46.4</ele>
			 </trkpt>
			 <trkpt lat="56.389003" lon="12.713413">
				 <ele>45.6</ele>
			 </trkpt>
			 <trkpt lat="56.38907" lon="12.71219">
				 <ele>44.7</ele>
			 </trkpt>
			 <trkpt lat="56.38923" lon="12.71141">
				 <ele>43.7</ele>
			 </trkpt>
			 <trkpt lat="56.389485" lon="12.71055">
				 <ele>42.6</ele>
			 </trkpt>
			 <trkpt lat="56.38974" lon="12.70969">
				 <ele>41.5</ele>
			 </trkpt>
			 <trkpt lat="56.38997" lon="12.70902">
				 <ele>40.1</ele>
			 </trkpt>
			 <trkpt lat="56.39039" lon="12.707945">
				 <ele>38.6</ele>
			 </trkpt>
			 <trkpt lat="56.39081" lon="12.70687">
				 <ele>37.6</ele>
			 </trkpt>
			 <trkpt lat="56.39123" lon="12.705795">
				 <ele>36.7</ele>
			 </trkpt>
			 <trkpt lat="56.39165" lon="12.70472">
				 <ele>36</ele>
			 </trkpt>
			 <trkpt lat="56.39191" lon="12.70414">
				 <ele>35.3</ele>
			 </trkpt>
			 <trkpt lat="56.39211" lon="12.70374">
				 <ele>34.5</ele>
			 </trkpt>
			 <trkpt lat="56.39245" lon="12.70319">
				 <ele>34.2</ele>
			 </trkpt>
			 <trkpt lat="56.39286" lon="12.70269">
				 <ele>33.9</ele>
			 </trkpt>
			 <trkpt lat="56.3931" lon="12.70243">
				 <ele>33.8</ele>
			 </trkpt>
			 <trkpt lat="56.3935" lon="12.70211">
				 <ele>33.8</ele>
			 </trkpt>
			 <trkpt lat="56.39392" lon="12.70186">
				 <ele>34</ele>
			 </trkpt>
			 <trkpt lat="56.39426" lon="12.70174">
				 <ele>34.3</ele>
			 </trkpt>
			 <trkpt lat="56.39493" lon="12.70164">
				 <ele>34.5</ele>
			 </trkpt>
			 <trkpt lat="56.39522" lon="12.70166">
				 <ele>35</ele>
			 </trkpt>
			 <trkpt lat="56.39552" lon="12.7017">
				 <ele>35.5</ele>
			 </trkpt>
			 <trkpt lat="56.396163" lon="12.701843">
				 <ele>36.1</ele>
			 </trkpt>
			 <trkpt lat="56.396807" lon="12.701987">
				 <ele>36.9</ele>
			 </trkpt>
			 <trkpt lat="56.39745" lon="12.70213">
				 <ele>37.4</ele>
			 </trkpt>
			 <trkpt lat="56.39758" lon="12.70214">
				 <ele>37.7</ele>
			 </trkpt>
			 <trkpt lat="56.39772" lon="12.70212">
				 <ele>37.9</ele>
			 </trkpt>
			 <trkpt lat="56.39826" lon="12.702">
				 <ele>38.1</ele>
			 </trkpt>
			 <trkpt lat="56.398212" lon="12.70044">
				 <ele>38.2</ele>
			 </trkpt>
			 <trkpt lat="56.398164" lon="12.69888">
				 <ele>38.1</ele>
			 </trkpt>
			 <trkpt lat="56.398116" lon="12.69732">
				 <ele>37.8</ele>
			 </trkpt>
			 <trkpt lat="56.398068" lon="12.69576">
				 <ele>37.4</ele>
			 </trkpt>
			 <trkpt lat="56.39802" lon="12.6942">
				 <ele>36.9</ele>
			 </trkpt>
			 <trkpt lat="56.39797" lon="12.69358">
				 <ele>36</ele>
			 </trkpt>
			 <trkpt lat="56.39779" lon="12.69207">
				 <ele>35.1</ele>
			 </trkpt>
			 <trkpt lat="56.39761" lon="12.69056">
				 <ele>34.4</ele>
			 </trkpt>
			 <trkpt lat="56.39754" lon="12.69034">
				 <ele>33.6</ele>
			 </trkpt>
			 <trkpt lat="56.39745" lon="12.69014">
				 <ele>33</ele>
			 </trkpt>
			 <trkpt lat="56.39676" lon="12.68916">
				 <ele>32.4</ele>
			 </trkpt>
			 <trkpt lat="56.3967" lon="12.68893">
				 <ele>31.8</ele>
			 </trkpt>
			 <trkpt lat="56.39669" lon="12.68873">
				 <ele>31.3</ele>
			 </trkpt>
			 <trkpt lat="56.39677" lon="12.68727">
				 <ele>30.7</ele>
			 </trkpt>
			 <trkpt lat="56.39677" lon="12.68666">
				 <ele>30.3</ele>
			 </trkpt>
			 <trkpt lat="56.396695" lon="12.685295">
				 <ele>29.8</ele>
			 </trkpt>
			 <trkpt lat="56.39662" lon="12.68393">
				 <ele>29.6</ele>
			 </trkpt>
			 <trkpt lat="56.396583" lon="12.68281">
				 <ele>29.5</ele>
			 </trkpt>
			 <trkpt lat="56.396547" lon="12.68169">
				 <ele>29.2</ele>
			 </trkpt>
			 <trkpt lat="56.39651" lon="12.68057">
				 <ele>28.8</ele>
			 </trkpt>
			 <trkpt lat="56.39649" lon="12.67927">
				 <ele>28.5</ele>
			 </trkpt>
			 <trkpt lat="56.396493" lon="12.677813">
				 <ele>28.1</ele>
			 </trkpt>
			 <trkpt lat="56.396497" lon="12.676357">
				 <ele>27.6</ele>
			 </trkpt>
			 <trkpt lat="56.3965" lon="12.6749">
				 <ele>27.3</ele>
			 </trkpt>
			 <trkpt lat="56.39646" lon="12.6741">
				 <ele>27</ele>
			 </trkpt>
			 <trkpt lat="56.39632" lon="12.67287">
				 <ele>26.8</ele>
			 </trkpt>
			 <trkpt lat="56.39614" lon="12.67195">
				 <ele>26.6</ele>
			 </trkpt>
			 <trkpt lat="56.39608" lon="12.6715">
				 <ele>26.5</ele>
			 </trkpt>
			 <trkpt lat="56.39608" lon="12.67114">
				 <ele>26.4</ele>
			 </trkpt>
			 <trkpt lat="56.3961" lon="12.67097">
				 <ele>26.4</ele>
			 </trkpt>
			 <trkpt lat="56.39624" lon="12.67009">
				 <ele>26.5</ele>
			 </trkpt>
			 <trkpt lat="56.39638" lon="12.66921">
				 <ele>26.5</ele>
			 </trkpt>
			 <trkpt lat="56.39649" lon="12.66875">
				 <ele>26.6</ele>
			 </trkpt>
			 <trkpt lat="56.39657" lon="12.66855">
				 <ele>26.7</ele>
			 </trkpt>
			 <trkpt lat="56.39677" lon="12.66825">
				 <ele>26.8</ele>
			 </trkpt>
			 <trkpt lat="56.39691" lon="12.66815">
				 <ele>26.9</ele>
			 </trkpt>
			 <trkpt lat="56.39697" lon="12.66814">
				 <ele>26.9</ele>
			 </trkpt>
			 <trkpt lat="56.39714" lon="12.66818">
				 <ele>26.9</ele>
			 </trkpt>
			 <trkpt lat="56.39727" lon="12.66817">
				 <ele>27</ele>
			 </trkpt>
			 <trkpt lat="56.39739" lon="12.66811">
				 <ele>27</ele>
			 </trkpt>
			 <trkpt lat="56.39786" lon="12.667575">
				 <ele>27</ele>
			 </trkpt>
			 <trkpt lat="56.39833" lon="12.66704">
				 <ele>27</ele>
			 </trkpt>
			 <trkpt lat="56.39864" lon="12.66669">
				 <ele>27</ele>
			 </trkpt>
			 <trkpt lat="56.39923" lon="12.66608">
				 <ele>27.1</ele>
			 </trkpt>
			 <trkpt lat="56.39957" lon="12.66589">
				 <ele>27.1</ele>
			 </trkpt>
			 <trkpt lat="56.400213" lon="12.665643">
				 <ele>27.2</ele>
			 </trkpt>
			 <trkpt lat="56.400857" lon="12.665397">
				 <ele>27.3</ele>
			 </trkpt>
			 <trkpt lat="56.4015" lon="12.66515">
				 <ele>27.5</ele>
			 </trkpt>
			 <trkpt lat="56.40211" lon="12.66484">
				 <ele>27.7</ele>
			 </trkpt>
			 <trkpt lat="56.402837" lon="12.66417">
				 <ele>28.1</ele>
			 </trkpt>
			 <trkpt lat="56.403563" lon="12.6635">
				 <ele>28.5</ele>
			 </trkpt>
			 <trkpt lat="56.40429" lon="12.66283">
				 <ele>28.8</ele>
			 </trkpt>
			 <trkpt lat="56.40504" lon="12.66231">
				 <ele>29.4</ele>
			 </trkpt>
			 <trkpt lat="56.40579" lon="12.66179">
				 <ele>30.1</ele>
			 </trkpt>
			 <trkpt lat="56.40615" lon="12.66157">
				 <ele>30.8</ele>
			 </trkpt>
			 <trkpt lat="56.40637" lon="12.66235">
				 <ele>31.5</ele>
			 </trkpt>
			 <trkpt lat="56.40646" lon="12.66255">
				 <ele>32.2</ele>
			 </trkpt>
			 <trkpt lat="56.40691" lon="12.66325">
				 <ele>32.8</ele>
			 </trkpt>
			 <trkpt lat="56.40736" lon="12.66395">
				 <ele>33.4</ele>
			 </trkpt>
			 <trkpt lat="56.40747" lon="12.66409">
				 <ele>33.7</ele>
			 </trkpt>
			 <trkpt lat="56.40775" lon="12.66324">
				 <ele>33.9</ele>
			 </trkpt>
			 <trkpt lat="56.40781" lon="12.66301">
				 <ele>34.1</ele>
			 </trkpt>
			 <trkpt lat="56.40785" lon="12.66277">
				 <ele>34.3</ele>
			 </trkpt>
			 <trkpt lat="56.40786" lon="12.66255">
				 <ele>34.2</ele>
			 </trkpt>
			 <trkpt lat="56.40785" lon="12.6623">
				 <ele>33.9</ele>
			 </trkpt>
			 <trkpt lat="56.40769" lon="12.66091">
				 <ele>33.5</ele>
			 </trkpt>
			 <trkpt lat="56.40765" lon="12.66072">
				 <ele>33.3</ele>
			 </trkpt>
			 <trkpt lat="56.40757" lon="12.66054">
				 <ele>32.9</ele>
			 </trkpt>
			 <trkpt lat="56.40723" lon="12.66001">
				 <ele>32.5</ele>
			 </trkpt>
			 <trkpt lat="56.40687" lon="12.65963">
				 <ele>32.2</ele>
			 </trkpt>
			 <trkpt lat="56.40679" lon="12.65948">
				 <ele>31.9</ele>
			 </trkpt>
			 <trkpt lat="56.40673" lon="12.6593">
				 <ele>31.7</ele>
			 </trkpt>
			 <trkpt lat="56.40658" lon="12.65869">
				 <ele>31.5</ele>
			 </trkpt>
			 <trkpt lat="56.40631" lon="12.65727">
				 <ele>31.4</ele>
			 </trkpt>
			 <trkpt lat="56.40626" lon="12.65694">
				 <ele>31.3</ele>
			 </trkpt>
			 <trkpt lat="56.40624" lon="12.65669">
				 <ele>31.2</ele>
			 </trkpt>
			 <trkpt lat="56.40625" lon="12.65627">
				 <ele>31.1</ele>
			 </trkpt>
			 <trkpt lat="56.406325" lon="12.655445">
				 <ele>31</ele>
			 </trkpt>
			 <trkpt lat="56.4064" lon="12.65462">
				 <ele>31</ele>
			 </trkpt>
			 <trkpt lat="56.40654" lon="12.65362">
				 <ele>30.9</ele>
			 </trkpt>
			 <trkpt lat="56.4066" lon="12.65329">
				 <ele>30.8</ele>
			 </trkpt>
			 <trkpt lat="56.406847" lon="12.652207">
				 <ele>30.7</ele>
			 </trkpt>
			 <trkpt lat="56.407093" lon="12.651123">
				 <ele>30.6</ele>
			 </trkpt>
			 <trkpt lat="56.40734" lon="12.65004">
				 <ele>30.6</ele>
			 </trkpt>
			 <trkpt lat="56.40741" lon="12.64958">
				 <ele>30.6</ele>
			 </trkpt>
			 <trkpt lat="56.40757" lon="12.64899">
				 <ele>30.6</ele>
			 </trkpt>
			 <trkpt lat="56.407865" lon="12.648185">
				 <ele>30.6</ele>
			 </trkpt>
			 <trkpt lat="56.40816" lon="12.64738">
				 <ele>30.6</ele>
			 </trkpt>
			 <trkpt lat="56.40862" lon="12.64757">
				 <ele>30.6</ele>
			 </trkpt>
			 <trkpt lat="56.4088" lon="12.64778">
				 <ele>30.6</ele>
			 </trkpt>
			 <trkpt lat="56.40902" lon="12.64809">
				 <ele>30.7</ele>
			 </trkpt>
			 <trkpt lat="56.40939" lon="12.64843">
				 <ele>30.8</ele>
			 </trkpt>
			 <trkpt lat="56.40986" lon="12.648895">
				 <ele>30.9</ele>
			 </trkpt>
			 <trkpt lat="56.41033" lon="12.64936">
				 <ele>30.9</ele>
			 </trkpt>
			 <trkpt lat="56.4107" lon="12.64954">
				 <ele>30.9</ele>
			 </trkpt>
			 <trkpt lat="56.4109" lon="12.6496">
				 <ele>30.9</ele>
			 </trkpt>
			 <trkpt lat="56.41101" lon="12.64957">
				 <ele>30.9</ele>
			 </trkpt>
			 <trkpt lat="56.41111" lon="12.6494">
				 <ele>30.9</ele>
			 </trkpt>
			 <trkpt lat="56.41141" lon="12.648325">
				 <ele>30.9</ele>
			 </trkpt>
			 <trkpt lat="56.41171" lon="12.64725">
				 <ele>31</ele>
			 </trkpt>
			 <trkpt lat="56.41178" lon="12.64718">
				 <ele>31.2</ele>
			 </trkpt>
			 <trkpt lat="56.41202" lon="12.64641">
				 <ele>31.3</ele>
			 </trkpt>
			 <trkpt lat="56.4121" lon="12.64622">
				 <ele>31.3</ele>
			 </trkpt>
			 <trkpt lat="56.4122" lon="12.64614">
				 <ele>31.3</ele>
			 </trkpt>
			 <trkpt lat="56.41241" lon="12.64607">
				 <ele>31.3</ele>
			 </trkpt>
			 <trkpt lat="56.41271" lon="12.64617">
				 <ele>31.1</ele>
			 </trkpt>
			 <trkpt lat="56.41281" lon="12.64615">
				 <ele>30.8</ele>
			 </trkpt>
			 <trkpt lat="56.4134" lon="12.64535">
				 <ele>30.4</ele>
			 </trkpt>
			 <trkpt lat="56.41357" lon="12.64517">
				 <ele>29.9</ele>
			 </trkpt>
			 <trkpt lat="56.41364" lon="12.645">
				 <ele>29.5</ele>
			 </trkpt>
			 <trkpt lat="56.41428" lon="12.64413">
				 <ele>28.8</ele>
			 </trkpt>
			 <trkpt lat="56.41481" lon="12.6431">
				 <ele>28.1</ele>
			 </trkpt>
			 <trkpt lat="56.41534" lon="12.64207">
				 <ele>27.5</ele>
			 </trkpt>
			 <trkpt lat="56.41539" lon="12.64166">
				 <ele>27</ele>
			 </trkpt>
			 <trkpt lat="56.41554" lon="12.64113">
				 <ele>26.7</ele>
			 </trkpt>
			 <trkpt lat="56.41573" lon="12.64034">
				 <ele>26.5</ele>
			 </trkpt>
			 <trkpt lat="56.41576" lon="12.64012">
				 <ele>26.5</ele>
			 </trkpt>
			 <trkpt lat="56.41578" lon="12.63949">
				 <ele>26.7</ele>
			 </trkpt>
			 <trkpt lat="56.41555" lon="12.63939">
				 <ele>27.1</ele>
			 </trkpt>
			 <trkpt lat="56.41511" lon="12.63914">
				 <ele>27.5</ele>
			 </trkpt>
			 <trkpt lat="56.41478" lon="12.63882">
				 <ele>27.8</ele>
			 </trkpt>
			 <trkpt lat="56.41446" lon="12.63844">
				 <ele>28.3</ele>
			 </trkpt>
			 <trkpt lat="56.41382" lon="12.63752">
				 <ele>28.7</ele>
			 </trkpt>
			 <trkpt lat="56.41364" lon="12.63729">
				 <ele>29.2</ele>
			 </trkpt>
			 <trkpt lat="56.41343" lon="12.63709">
				 <ele>29.5</ele>
			 </trkpt>
			 <trkpt lat="56.41304" lon="12.63692">
				 <ele>29.6</ele>
			 </trkpt>
			 <trkpt lat="56.4128" lon="12.63689">
				 <ele>29.6</ele>
			 </trkpt>
			 <trkpt lat="56.41252" lon="12.63692">
				 <ele>29.5</ele>
			 </trkpt>
			 <trkpt lat="56.4125" lon="12.6368">
				 <ele>29.4</ele>
			 </trkpt>
			 <trkpt lat="56.41245" lon="12.63659">
				 <ele>29</ele>
			 </trkpt>
			 <trkpt lat="56.41212" lon="12.635955">
				 <ele>28.5</ele>
			 </trkpt>
			 <trkpt lat="56.41179" lon="12.63532">
				 <ele>27.9</ele>
			 </trkpt>
			 <trkpt lat="56.41171" lon="12.63515">
				 <ele>27.4</ele>
			 </trkpt>
			 <trkpt lat="56.41168" lon="12.63504">
				 <ele>26.5</ele>
			 </trkpt>
			 <trkpt lat="56.411545" lon="12.63418">
				 <ele>25.3</ele>
			 </trkpt>
			 <trkpt lat="56.41141" lon="12.63332">
				 <ele>23.6</ele>
			 </trkpt>
			 <trkpt lat="56.41135" lon="12.63284">
				 <ele>22</ele>
			 </trkpt>
			 <trkpt lat="56.41133" lon="12.63216">
				 <ele>20.5</ele>
			 </trkpt>
			 <trkpt lat="56.41136" lon="12.63054">
				 <ele>18.9</ele>
			 </trkpt>
			 <trkpt lat="56.411505" lon="12.62904">
				 <ele>17.4</ele>
			 </trkpt>
			 <trkpt lat="56.41165" lon="12.62754">
				 <ele>16</ele>
			 </trkpt>
			 <trkpt lat="56.41167" lon="12.62686">
				 <ele>14.8</ele>
			 </trkpt>
			 <trkpt lat="56.41169" lon="12.62669">
				 <ele>13.6</ele>
			 </trkpt>
			 <trkpt lat="56.41174" lon="12.62662">
				 <ele>12.5</ele>
			 </trkpt>
			 <trkpt lat="56.41229" lon="12.62685">
				 <ele>11.5</ele>
			 </trkpt>
			 <trkpt lat="56.412955" lon="12.627015">
				 <ele>11.1</ele>
			 </trkpt>
			 <trkpt lat="56.41362" lon="12.62718">
				 <ele>11</ele>
			 </trkpt>
			 <trkpt lat="56.41426" lon="12.62742">
				 <ele>11</ele>
			 </trkpt>
			 <trkpt lat="56.41503" lon="12.62763">
				 <ele>11</ele>
			 </trkpt>
			 <trkpt lat="56.4158" lon="12.62784">
				 <ele>11</ele>
			 </trkpt>
			 <trkpt lat="56.41611" lon="12.6279">
				 <ele>11.1</ele>
			 </trkpt>
			 <trkpt lat="56.41664" lon="12.62812">
				 <ele>11.1</ele>
			 </trkpt>
			 <trkpt lat="56.41688" lon="12.62815">
				 <ele>11.1</ele>
			 </trkpt>
			 <trkpt lat="56.4173" lon="12.62812">
				 <ele>11</ele>
			 </trkpt>
			 <trkpt lat="56.41756" lon="12.62818">
				 <ele>11</ele>
			 </trkpt>
			 <trkpt lat="56.41779" lon="12.62828">
				 <ele>10.9</ele>
			 </trkpt>
			 <trkpt lat="56.41796" lon="12.62838">
				 <ele>10.8</ele>
			 </trkpt>
			 <trkpt lat="56.41796" lon="12.62845">
				 <ele>10.7</ele>
			 </trkpt>
			 <trkpt lat="56.41828" lon="12.62859">
				 <ele>10.7</ele>
			 </trkpt>
			 <trkpt lat="56.41842" lon="12.62862">
				 <ele>10.6</ele>
			 </trkpt>
			 <trkpt lat="56.41859" lon="12.62863">
				 <ele>10.5</ele>
			 </trkpt>
			 <trkpt lat="56.41897" lon="12.6286">
				 <ele>10.4</ele>
			 </trkpt>
			 <trkpt lat="56.41956" lon="12.62848">
				 <ele>10.4</ele>
			 </trkpt>
			 <trkpt lat="56.41984" lon="12.62847">
				 <ele>10.3</ele>
			 </trkpt>
			 <trkpt lat="56.42019" lon="12.62838">
				 <ele>10.3</ele>
			 </trkpt>
			 <trkpt lat="56.4208" lon="12.6281">
				 <ele>10.2</ele>
			 </trkpt>
			 <trkpt lat="56.42092" lon="12.62808">
				 <ele>10.3</ele>
			 </trkpt>
			 <trkpt lat="56.42092" lon="12.62792">
				 <ele>10.4</ele>
			 </trkpt>
			 <trkpt lat="56.42115" lon="12.62789">
				 <ele>10.4</ele>
			 </trkpt>
			 <trkpt lat="56.4212" lon="12.62792">
				 <ele>10.2</ele>
			 </trkpt>
			 <trkpt lat="56.42136" lon="12.62808">
				 <ele>10</ele>
			 </trkpt>
			 <trkpt lat="56.42144" lon="12.6279">
				 <ele>9.8</ele>
			 </trkpt>
			 <trkpt lat="56.42152" lon="12.62784">
				 <ele>9.5</ele>
			 </trkpt>
			 <trkpt lat="56.42162" lon="12.6278">
				 <ele>9.1</ele>
			 </trkpt>
			 <trkpt lat="56.42229" lon="12.627627">
				 <ele>8.7</ele>
			 </trkpt>
			 <trkpt lat="56.42296" lon="12.627453">
				 <ele>8.3</ele>
			 </trkpt>
			 <trkpt lat="56.42363" lon="12.62728">
				 <ele>7.8</ele>
			 </trkpt>
			 <trkpt lat="56.42443" lon="12.62709">
				 <ele>7.1</ele>
			 </trkpt>
			 <trkpt lat="56.42511" lon="12.62701">
				 <ele>6.4</ele>
			 </trkpt>
			 <trkpt lat="56.42517" lon="12.62702">
				 <ele>5.7</ele>
			 </trkpt>
			 <trkpt lat="56.42529" lon="12.62604">
				 <ele>5.2</ele>
			 </trkpt>
			 <trkpt lat="56.42575" lon="12.626195">
				 <ele>4.7</ele>
			 </trkpt>
			 <trkpt lat="56.42621" lon="12.62635">
				 <ele>4.3</ele>
			 </trkpt>
			 <trkpt lat="56.42626" lon="12.6264">
				 <ele>3.9</ele>
			 </trkpt>
			 <trkpt lat="56.4262" lon="12.62658">
				 <ele>3.5</ele>
			 </trkpt>
			 <trkpt lat="56.42617" lon="12.62691">
				 <ele>3.2</ele>
			 </trkpt>
			 <trkpt lat="56.42619" lon="12.62712">
				 <ele>2.9</ele>
			 </trkpt>
			 <trkpt lat="56.42624" lon="12.62735">
				 <ele>2.6</ele>
			 </trkpt>
			 <trkpt lat="56.42639" lon="12.62737">
				 <ele>2.6</ele>
			 </trkpt>
			 <trkpt lat="56.42644" lon="12.62743">
				 <ele>2.6</ele>
			 </trkpt>
			 <trkpt lat="56.42652" lon="12.62737">
				 <ele>2.6</ele>
			 </trkpt>
			 <trkpt lat="56.42669" lon="12.62808">
				 <ele>2.7</ele>
			 </trkpt>
			 <trkpt lat="56.42675" lon="12.62842">
				 <ele>2.7</ele>
			 </trkpt>
			 <trkpt lat="56.42682" lon="12.62868">
				 <ele>2.7</ele>
			 </trkpt>
			 <trkpt lat="56.42727" lon="12.62996">
				 <ele>2.7</ele>
			 </trkpt>
			 <trkpt lat="56.4274" lon="12.63039">
				 <ele>2.8</ele>
			 </trkpt>
			 <trkpt lat="56.42748" lon="12.63057">
				 <ele>2.9</ele>
			 </trkpt>
			 <trkpt lat="56.42815" lon="12.63144">
				 <ele>3</ele>
			 </trkpt>
			 <trkpt lat="56.42836" lon="12.63178">
				 <ele>3.1</ele>
			 </trkpt>
			 <trkpt lat="56.42902" lon="12.63235">
				 <ele>3.1</ele>
			 </trkpt>
			 <trkpt lat="56.42925" lon="12.6326">
				 <ele>3.1</ele>
			 </trkpt>
			 <trkpt lat="56.42934" lon="12.63265">
				 <ele>3.1</ele>
			 </trkpt>
			 <trkpt lat="56.42976" lon="12.63282">
				 <ele>3</ele>
			 </trkpt>
			 <trkpt lat="56.42993" lon="12.63287">
				 <ele>3</ele>
			 </trkpt>
			 <trkpt lat="56.43015" lon="12.63298">
				 <ele>2.9</ele>
			 </trkpt>
			 <trkpt lat="56.43081" lon="12.6332">
				 <ele>2.8</ele>
			 </trkpt>
			 <trkpt lat="56.43135" lon="12.63316">
				 <ele>2.7</ele>
			 </trkpt>
			 <trkpt lat="56.43146" lon="12.63311">
				 <ele>2.6</ele>
			 </trkpt>
			 <trkpt lat="56.43164" lon="12.6329">
				 <ele>2.6</ele>
			 </trkpt>
			 <trkpt lat="56.43195" lon="12.6326">
				 <ele>2.6</ele>
			 </trkpt>
			 <trkpt lat="56.43202" lon="12.63256">
				 <ele>2.6</ele>
			 </trkpt>
			 <trkpt lat="56.43223" lon="12.6326">
				 <ele>2.7</ele>
			 </trkpt>
			 <trkpt lat="56.43233" lon="12.63267">
				 <ele>2.9</ele>
			 </trkpt>
			 <trkpt lat="56.43292" lon="12.63329">
				 <ele>3.2</ele>
			 </trkpt>
			 <trkpt lat="56.433385" lon="12.63392">
				 <ele>3.5</ele>
			 </trkpt>
			 <trkpt lat="56.43385" lon="12.63455">
				 <ele>3.8</ele>
			 </trkpt>
			 <trkpt lat="56.43424" lon="12.63539">
				 <ele>4.2</ele>
			 </trkpt>
			 <trkpt lat="56.43441" lon="12.6358">
				 <ele>4.5</ele>
			 </trkpt>
			 <trkpt lat="56.43455" lon="12.63644">
				 <ele>5</ele>
			 </trkpt>
			 <trkpt lat="56.43468" lon="12.63641">
				 <ele>5.4</ele>
			 </trkpt>
			 <trkpt lat="56.43482" lon="12.63642">
				 <ele>5.7</ele>
			 </trkpt>
			 <trkpt lat="56.43511" lon="12.63649">
				 <ele>6.1</ele>
			 </trkpt>
			 <trkpt lat="56.43522" lon="12.6365">
				 <ele>6.4</ele>
			 </trkpt>
			 <trkpt lat="56.43534" lon="12.63644">
				 <ele>6.6</ele>
			 </trkpt>
			 <trkpt lat="56.43541" lon="12.63645">
				 <ele>6.9</ele>
			 </trkpt>
			 <trkpt lat="56.43545" lon="12.63648">
				 <ele>7.3</ele>
			 </trkpt>
			 <trkpt lat="56.43549" lon="12.63649">
				 <ele>7.6</ele>
			 </trkpt>
			 <trkpt lat="56.43552" lon="12.63659">
				 <ele>8</ele>
			 </trkpt>
			 <trkpt lat="56.43546" lon="12.637">
				 <ele>8.4</ele>
			 </trkpt>
			 <trkpt lat="56.43523" lon="12.63832">
				 <ele>8.7</ele>
			 </trkpt>
			 <trkpt lat="56.43495" lon="12.63965">
				 <ele>9.1</ele>
			 </trkpt>
			 <trkpt lat="56.43549" lon="12.64064">
				 <ele>9.5</ele>
			 </trkpt>
			 <trkpt lat="56.43554" lon="12.6407">
				 <ele>9.8</ele>
			 </trkpt>
			 <trkpt lat="56.43621" lon="12.64125">
				 <ele>10.3</ele>
			 </trkpt>
			 <trkpt lat="56.43686" lon="12.64175">
				 <ele>10.6</ele>
			 </trkpt>
			 <trkpt lat="56.43751" lon="12.64225">
				 <ele>10.9</ele>
			 </trkpt>
			 <trkpt lat="56.43764" lon="12.64238">
				 <ele>11.1</ele>
			 </trkpt>
			 <trkpt lat="56.43774" lon="12.64251">
				 <ele>11.3</ele>
			 </trkpt>
			 <trkpt lat="56.43808" lon="12.64315">
				 <ele>11.5</ele>
			 </trkpt>
			 <trkpt lat="56.43862" lon="12.64433">
				 <ele>11.7</ele>
			 </trkpt>
			 <trkpt lat="56.43873" lon="12.64452">
				 <ele>11.9</ele>
			 </trkpt>
			 <trkpt lat="56.43884" lon="12.64465">
				 <ele>12.1</ele>
			 </trkpt>
			 <trkpt lat="56.43911" lon="12.64491">
				 <ele>12.1</ele>
			 </trkpt>
			 <trkpt lat="56.43917" lon="12.645">
				 <ele>12.2</ele>
			 </trkpt>
			 <trkpt lat="56.439475" lon="12.64601">
				 <ele>12.2</ele>
			 </trkpt>
			 <trkpt lat="56.43978" lon="12.64702">
				 <ele>12.2</ele>
			 </trkpt>
			 <trkpt lat="56.43977" lon="12.64708">
				 <ele>12.2</ele>
			 </trkpt>
			 <trkpt lat="56.44056" lon="12.64768">
				 <ele>12.3</ele>
			 </trkpt>
			 <trkpt lat="56.44135" lon="12.64828">
				 <ele>12.4</ele>
			 </trkpt>
			 <trkpt lat="56.44214" lon="12.64888">
				 <ele>12.4</ele>
			 </trkpt>
			 <trkpt lat="56.44222" lon="12.64903">
				 <ele>12.3</ele>
			 </trkpt>
			 <trkpt lat="56.442005" lon="12.64989">
				 <ele>12.2</ele>
			 </trkpt>
			 <trkpt lat="56.44179" lon="12.65075">
				 <ele>12.1</ele>
			 </trkpt>
			 <trkpt lat="56.44242" lon="12.651137">
				 <ele>12.2</ele>
			 </trkpt>
			 <trkpt lat="56.44305" lon="12.651523">
				 <ele>12.2</ele>
			 </trkpt>
			 <trkpt lat="56.44368" lon="12.65191">
				 <ele>12.3</ele>
			 </trkpt>
			 <trkpt lat="56.444333" lon="12.65233">
				 <ele>12.4</ele>
			 </trkpt>
			 <trkpt lat="56.444987" lon="12.65275">
				 <ele>12.5</ele>
			 </trkpt>
			 <trkpt lat="56.44564" lon="12.65317">
				 <ele>12.5</ele>
			 </trkpt>
			 <trkpt lat="56.4458" lon="12.65339">
				 <ele>12.5</ele>
			 </trkpt>
			 <trkpt lat="56.44588" lon="12.65364">
				 <ele>12.6</ele>
			 </trkpt>
			 <trkpt lat="56.446145" lon="12.655105">
				 <ele>12.7</ele>
			 </trkpt>
			 <trkpt lat="56.44641" lon="12.65657">
				 <ele>12.9</ele>
			 </trkpt>
			 <trkpt lat="56.44656" lon="12.65703">
				 <ele>13.1</ele>
			 </trkpt>
			 <trkpt lat="56.4468" lon="12.65755">
				 <ele>13.3</ele>
			 </trkpt>
			 <trkpt lat="56.44707" lon="12.65802">
				 <ele>13.5</ele>
			 </trkpt>
			 <trkpt lat="56.44712" lon="12.65819">
				 <ele>13.5</ele>
			 </trkpt>
			 <trkpt lat="56.44718" lon="12.65815">
				 <ele>13.5</ele>
			 </trkpt>
			 <trkpt lat="56.44724" lon="12.65806">
				 <ele>13.5</ele>
			 </trkpt>
			 <trkpt lat="56.44738" lon="12.65768">
				 <ele>13.3</ele>
			 </trkpt>
			 <trkpt lat="56.44758" lon="12.65754">
				 <ele>13</ele>
			 </trkpt>
			 <trkpt lat="56.44766" lon="12.65767">
				 <ele>12.9</ele>
			 </trkpt>
			 <trkpt lat="56.44819" lon="12.65897">
				 <ele>12.8</ele>
			 </trkpt>
			 <trkpt lat="56.44841" lon="12.65925">
				 <ele>12.6</ele>
			 </trkpt>
			 <trkpt lat="56.4485" lon="12.65943">
				 <ele>12.5</ele>
			 </trkpt>
			 <trkpt lat="56.4486" lon="12.66068">
				 <ele>12.3</ele>
			 </trkpt>
			 <trkpt lat="56.44861" lon="12.66129">
				 <ele>12.1</ele>
			 </trkpt>
			 <trkpt lat="56.44869" lon="12.66176">
				 <ele>11.9</ele>
			 </trkpt>
			 <trkpt lat="56.44896" lon="12.66276">
				 <ele>11.8</ele>
			 </trkpt>
			 <trkpt lat="56.44922" lon="12.66359">
				 <ele>11.9</ele>
			 </trkpt>
			 <trkpt lat="56.44953" lon="12.66436">
				 <ele>12.1</ele>
			 </trkpt>
			 <trkpt lat="56.449935" lon="12.665255">
				 <ele>12.4</ele>
			 </trkpt>
			 <trkpt lat="56.45034" lon="12.66615">
				 <ele>12.6</ele>
			 </trkpt>
			 <trkpt lat="56.45043" lon="12.66654">
				 <ele>12.9</ele>
			 </trkpt>
			 <trkpt lat="56.45055" lon="12.66763">
				 <ele>13.1</ele>
			 </trkpt>
			 <trkpt lat="56.45067" lon="12.66872">
				 <ele>13.2</ele>
			 </trkpt>
			 <trkpt lat="56.45086" lon="12.67016">
				 <ele>13.1</ele>
			 </trkpt>
			 <trkpt lat="56.45094" lon="12.67109">
				 <ele>12.9</ele>
			 </trkpt>
			 <trkpt lat="56.45118" lon="12.67228">
				 <ele>12.5</ele>
			 </trkpt>
			 <trkpt lat="56.45128" lon="12.67309">
				 <ele>11.9</ele>
			 </trkpt>
			 <trkpt lat="56.45129" lon="12.67348">
				 <ele>11.2</ele>
			 </trkpt>
			 <trkpt lat="56.45144" lon="12.67355">
				 <ele>10.4</ele>
			 </trkpt>
			 <trkpt lat="56.45158" lon="12.67422">
				 <ele>9.5</ele>
			 </trkpt>
			 <trkpt lat="56.45195" lon="12.67463">
				 <ele>8.5</ele>
			 </trkpt>
			 <trkpt lat="56.45237" lon="12.67542">
				 <ele>7.6</ele>
			 </trkpt>
			 <trkpt lat="56.4526" lon="12.67603">
				 <ele>6.8</ele>
			 </trkpt>
			 <trkpt lat="56.45278" lon="12.67709">
				 <ele>6.2</ele>
			 </trkpt>
			 <trkpt lat="56.45288" lon="12.67828">
				 <ele>5.7</ele>
			 </trkpt>
			 <trkpt lat="56.45299" lon="12.67887">
				 <ele>5.5</ele>
			 </trkpt>
			 <trkpt lat="56.453325" lon="12.67989">
				 <ele>5.6</ele>
			 </trkpt>
			 <trkpt lat="56.45366" lon="12.68091">
				 <ele>6.9</ele>
			 </trkpt>
			 <trkpt lat="56.45381" lon="12.68148">
				 <ele>8.3</ele>
			 </trkpt>
			 <trkpt lat="56.45401" lon="12.68202">
				 <ele>9.7</ele>
			 </trkpt>
			 <trkpt lat="56.45401" lon="12.68229">
				 <ele>11.3</ele>
			 </trkpt>
			 <trkpt lat="56.45406" lon="12.6828">
				 <ele>12.8</ele>
			 </trkpt>
			 <trkpt lat="56.45432" lon="12.68388">
				 <ele>14.5</ele>
			 </trkpt>
			 <trkpt lat="56.45435" lon="12.68412">
				 <ele>16.2</ele>
			 </trkpt>
			 <trkpt lat="56.45436" lon="12.68438">
				 <ele>17.8</ele>
			 </trkpt>
			 <trkpt lat="56.45431" lon="12.68492">
				 <ele>19.5</ele>
			 </trkpt>
			 <trkpt lat="56.45404" lon="12.686295">
				 <ele>21.2</ele>
			 </trkpt>
			 <trkpt lat="56.45377" lon="12.68767">
				 <ele>22.5</ele>
			 </trkpt>
			 <trkpt lat="56.45356" lon="12.68844">
				 <ele>23.2</ele>
			 </trkpt>
			 <trkpt lat="56.45336" lon="12.68898">
				 <ele>23.8</ele>
			 </trkpt>
			 <trkpt lat="56.45318" lon="12.6894">
				 <ele>24.5</ele>
			 </trkpt>
			 <trkpt lat="56.45305" lon="12.68962">
				 <ele>25</ele>
			 </trkpt>
			 <trkpt lat="56.45292" lon="12.68973">
				 <ele>25.5</ele>
			 </trkpt>
			 <trkpt lat="56.45242" lon="12.68977">
				 <ele>26.2</ele>
			 </trkpt>
			 <trkpt lat="56.45192" lon="12.68981">
				 <ele>26.9</ele>
			 </trkpt>
			 <trkpt lat="56.45176" lon="12.68992">
				 <ele>27.8</ele>
			 </trkpt>
			 <trkpt lat="56.45162" lon="12.69028">
				 <ele>28.6</ele>
			 </trkpt>
			 <trkpt lat="56.45127" lon="12.69148">
				 <ele>29.6</ele>
			 </trkpt>
			 <trkpt lat="56.45092" lon="12.69268">
				 <ele>30.7</ele>
			 </trkpt>
			 <trkpt lat="56.45057" lon="12.69388">
				 <ele>31.9</ele>
			 </trkpt>
			 <trkpt lat="56.45022" lon="12.69508">
				 <ele>33.2</ele>
			 </trkpt>
			 <trkpt lat="56.45006" lon="12.69536">
				 <ele>34.5</ele>
			 </trkpt>
			 <trkpt lat="56.449388" lon="12.696073">
				 <ele>35.8</ele>
			 </trkpt>
			 <trkpt lat="56.448715" lon="12.696785">
				 <ele>37.2</ele>
			 </trkpt>
			 <trkpt lat="56.448043" lon="12.697498">
				 <ele>38.5</ele>
			 </trkpt>
			 <trkpt lat="56.44737" lon="12.69821">
				 <ele>39.5</ele>
			 </trkpt>
			 <trkpt lat="56.447964" lon="12.69912">
				 <ele>40.5</ele>
			 </trkpt>
			 <trkpt lat="56.448558" lon="12.70003">
				 <ele>41.6</ele>
			 </trkpt>
			 <trkpt lat="56.449152" lon="12.70094">
				 <ele>42.7</ele>
			 </trkpt>
			 <trkpt lat="56.449746" lon="12.70185">
				 <ele>44.3</ele>
			 </trkpt>
			 <trkpt lat="56.45034" lon="12.70276">
				 <ele>45.7</ele>
			 </trkpt>
			 <trkpt lat="56.45058" lon="12.7031">
				 <ele>47</ele>
			 </trkpt>
			 <trkpt lat="56.45068" lon="12.70321">
				 <ele>48.4</ele>
			 </trkpt>
			 <trkpt lat="56.45087" lon="12.70335">
				 <ele>49.7</ele>
			 </trkpt>
			 <trkpt lat="56.45156" lon="12.70365">
				 <ele>50.9</ele>
			 </trkpt>
			 <trkpt lat="56.45173" lon="12.70374">
				 <ele>51.9</ele>
			 </trkpt>
			 <trkpt lat="56.45213" lon="12.70404">
				 <ele>52.8</ele>
			 </trkpt>
			 <trkpt lat="56.45234" lon="12.70417">
				 <ele>53.6</ele>
			 </trkpt>
			 <trkpt lat="56.45264" lon="12.70424">
				 <ele>54.4</ele>
			 </trkpt>
			 <trkpt lat="56.45346" lon="12.70427">
				 <ele>54.6</ele>
			 </trkpt>
			 <trkpt lat="56.45405" lon="12.7043">
				 <ele>54.1</ele>
			 </trkpt>
			 <trkpt lat="56.45473" lon="12.70431">
				 <ele>53.4</ele>
			 </trkpt>
			 <trkpt lat="56.45518" lon="12.70419">
				 <ele>52.5</ele>
			 </trkpt>
			 <trkpt lat="56.45537" lon="12.70415">
				 <ele>51.3</ele>
			 </trkpt>
			 <trkpt lat="56.455963" lon="12.703983">
				 <ele>49.6</ele>
			 </trkpt>
			 <trkpt lat="56.456557" lon="12.703817">
				 <ele>48.2</ele>
			 </trkpt>
			 <trkpt lat="56.45715" lon="12.70365">
				 <ele>47</ele>
			 </trkpt>
			 <trkpt lat="56.45762" lon="12.70349">
				 <ele>46.3</ele>
			 </trkpt>
			 <trkpt lat="56.45809" lon="12.70333">
				 <ele>46</ele>
			 </trkpt>
			 <trkpt lat="56.45894" lon="12.703385">
				 <ele>46.3</ele>
			 </trkpt>
			 <trkpt lat="56.45979" lon="12.70344">
				 <ele>47.2</ele>
			 </trkpt>
			 <trkpt lat="56.459763" lon="12.704583">
				 <ele>48.7</ele>
			 </trkpt>
			 <trkpt lat="56.459737" lon="12.705727">
				 <ele>50.5</ele>
			 </trkpt>
			 <trkpt lat="56.45971" lon="12.70687">
				 <ele>52.6</ele>
			 </trkpt>
			 <trkpt lat="56.45974" lon="12.7084">
				 <ele>55.3</ele>
			 </trkpt>
			 <trkpt lat="56.459825" lon="12.70965">
				 <ele>58.4</ele>
			 </trkpt>
			 <trkpt lat="56.45991" lon="12.7109">
				 <ele>61.5</ele>
			 </trkpt>
			 <trkpt lat="56.45993" lon="12.71164">
				 <ele>64.5</ele>
			 </trkpt>
			 <trkpt lat="56.459945" lon="12.71275">
				 <ele>67.2</ele>
			 </trkpt>
			 <trkpt lat="56.45996" lon="12.71386">
				 <ele>69.5</ele>
			 </trkpt>
			 <trkpt lat="56.45999" lon="12.71455">
				 <ele>71.6</ele>
			 </trkpt>
			 <trkpt lat="56.4602" lon="12.71605">
				 <ele>73.4</ele>
			 </trkpt>
			 <trkpt lat="56.46023" lon="12.71648">
				 <ele>74.8</ele>
			 </trkpt>
			 <trkpt lat="56.46021" lon="12.71689">
				 <ele>76.1</ele>
			 </trkpt>
			 <trkpt lat="56.46004" lon="12.717855">
				 <ele>77.4</ele>
			 </trkpt>
			 <trkpt lat="56.45987" lon="12.71882">
				 <ele>78.5</ele>
			 </trkpt>
			 <trkpt lat="56.4598" lon="12.71938">
				 <ele>79.5</ele>
			 </trkpt>
			 <trkpt lat="56.45978" lon="12.71974">
				 <ele>80.4</ele>
			 </trkpt>
			 <trkpt lat="56.4598" lon="12.72029">
				 <ele>81.7</ele>
			 </trkpt>
			 <trkpt lat="56.45994" lon="12.72174">
				 <ele>83.2</ele>
			 </trkpt>
			 <trkpt lat="56.45995" lon="12.72205">
				 <ele>84.5</ele>
			 </trkpt>
			 <trkpt lat="56.45992" lon="12.72226">
				 <ele>85.6</ele>
			 </trkpt>
			 <trkpt lat="56.45987" lon="12.72244">
				 <ele>86.5</ele>
			 </trkpt>
			 <trkpt lat="56.4594" lon="12.72354">
				 <ele>87.3</ele>
			 </trkpt>
			 <trkpt lat="56.45931" lon="12.72384">
				 <ele>88.2</ele>
			 </trkpt>
			 <trkpt lat="56.459145" lon="12.72482">
				 <ele>89.1</ele>
			 </trkpt>
			 <trkpt lat="56.45898" lon="12.7258">
				 <ele>90.1</ele>
			 </trkpt>
			 <trkpt lat="56.45873" lon="12.72709">
				 <ele>91.4</ele>
			 </trkpt>
			 <trkpt lat="56.45866" lon="12.72755">
				 <ele>92.9</ele>
			 </trkpt>
			 <trkpt lat="56.45864" lon="12.72787">
				 <ele>94.1</ele>
			 </trkpt>
			 <trkpt lat="56.458707" lon="12.729133">
				 <ele>95.4</ele>
			 </trkpt>
			 <trkpt lat="56.458773" lon="12.730397">
				 <ele>96.7</ele>
			 </trkpt>
			 <trkpt lat="56.45884" lon="12.73166">
				 <ele>98.3</ele>
			 </trkpt>
			 <trkpt lat="56.4588" lon="12.73216">
				 <ele>100</ele>
			 </trkpt>
			 <trkpt lat="56.45869" lon="12.73285">
				 <ele>101.5</ele>
			 </trkpt>
			 <trkpt lat="56.458575" lon="12.733655">
				 <ele>102.9</ele>
			 </trkpt>
			 <trkpt lat="56.45846" lon="12.73446">
				 <ele>104.3</ele>
			 </trkpt>
			 <trkpt lat="56.458365" lon="12.73574">
				 <ele>105.7</ele>
			 </trkpt>
			 <trkpt lat="56.45827" lon="12.73702">
				 <ele>107.2</ele>
			 </trkpt>
			 <trkpt lat="56.45889" lon="12.73729">
				 <ele>108.8</ele>
			 </trkpt>
			 <trkpt lat="56.45951" lon="12.73756">
				 <ele>110.3</ele>
			 </trkpt>
			 <trkpt lat="56.46025" lon="12.73793">
				 <ele>111.6</ele>
			 </trkpt>
			 <trkpt lat="56.4605" lon="12.73798">
				 <ele>112.9</ele>
			 </trkpt>
			 <trkpt lat="56.46068" lon="12.73814">
				 <ele>113.9</ele>
			 </trkpt>
			 <trkpt lat="56.46093" lon="12.7383">
				 <ele>114.3</ele>
			 </trkpt>
			 <trkpt lat="56.46095" lon="12.73851">
				 <ele>114.6</ele>
			 </trkpt>
			 <trkpt lat="56.46105" lon="12.73873">
				 <ele>114.9</ele>
			 </trkpt>
			 <trkpt lat="56.46118" lon="12.73935">
				 <ele>115.1</ele>
			 </trkpt>
			 <trkpt lat="56.46111" lon="12.73936">
				 <ele>115</ele>
			 </trkpt>
			 <trkpt lat="56.4606" lon="12.73902">
				 <ele>114.6</ele>
			 </trkpt>
			 <trkpt lat="56.46041" lon="12.73905">
				 <ele>113.7</ele>
			 </trkpt>
			 <trkpt lat="56.46038" lon="12.73927">
				 <ele>112.6</ele>
			 </trkpt>
			 <trkpt lat="56.46038" lon="12.73947">
				 <ele>111.3</ele>
			 </trkpt>
			 <trkpt lat="56.46055" lon="12.74025">
				 <ele>109.6</ele>
			 </trkpt>
			 <trkpt lat="56.46068" lon="12.74061">
				 <ele>107.6</ele>
			 </trkpt>
			 <trkpt lat="56.46086" lon="12.74127">
				 <ele>106.3</ele>
			 </trkpt>
			 <trkpt lat="56.46104" lon="12.74213">
				 <ele>104.9</ele>
			 </trkpt>
			 <trkpt lat="56.46117" lon="12.74257">
				 <ele>103.5</ele>
			 </trkpt>
			 <trkpt lat="56.46127" lon="12.74277">
				 <ele>101.7</ele>
			 </trkpt>
			 <trkpt lat="56.46152" lon="12.7434">
				 <ele>99.7</ele>
			 </trkpt>
			 <trkpt lat="56.4616" lon="12.74356">
				 <ele>97.7</ele>
			 </trkpt>
			 <trkpt lat="56.4618" lon="12.74385">
				 <ele>95.5</ele>
			 </trkpt>
			 <trkpt lat="56.46185" lon="12.74399">
				 <ele>92.5</ele>
			 </trkpt>
			 <trkpt lat="56.46201" lon="12.74465">
				 <ele>89</ele>
			 </trkpt>
			 <trkpt lat="56.46214" lon="12.74504">
				 <ele>84.9</ele>
			 </trkpt>
			 <trkpt lat="56.4622" lon="12.74511">
				 <ele>81.1</ele>
			 </trkpt>
			 <trkpt lat="56.46229" lon="12.74568">
				 <ele>77</ele>
			 </trkpt>
			 <trkpt lat="56.46227" lon="12.74691">
				 <ele>73</ele>
			 </trkpt>
			 <trkpt lat="56.46221" lon="12.74804">
				 <ele>68.7</ele>
			 </trkpt>
			 <trkpt lat="56.46196" lon="12.7493">
				 <ele>64.8</ele>
			 </trkpt>
			 <trkpt lat="56.46191" lon="12.74942">
				 <ele>60.9</ele>
			 </trkpt>
			 <trkpt lat="56.46142" lon="12.74984">
				 <ele>57</ele>
			 </trkpt>
			 <trkpt lat="56.46147" lon="12.74998">
				 <ele>53.3</ele>
			 </trkpt>
			 <trkpt lat="56.46161" lon="12.75025">
				 <ele>50.2</ele>
			 </trkpt>
			 <trkpt lat="56.46171" lon="12.75037">
				 <ele>47.3</ele>
			 </trkpt>
			 <trkpt lat="56.46188" lon="12.7505">
				 <ele>44.9</ele>
			 </trkpt>
			 <trkpt lat="56.46199" lon="12.75053">
				 <ele>42.6</ele>
			 </trkpt>
			 <trkpt lat="56.4624" lon="12.75053">
				 <ele>40.6</ele>
			 </trkpt>
			 <trkpt lat="56.46293" lon="12.750565">
				 <ele>38.6</ele>
			 </trkpt>
			 <trkpt lat="56.46346" lon="12.7506">
				 <ele>36.8</ele>
			 </trkpt>
			 <trkpt lat="56.46399" lon="12.75056">
				 <ele>35</ele>
			 </trkpt>
			 <trkpt lat="56.46409" lon="12.75059">
				 <ele>33.3</ele>
			 </trkpt>
			 <trkpt lat="56.46414" lon="12.75064">
				 <ele>31.5</ele>
			 </trkpt>
			 <trkpt lat="56.4642" lon="12.75074">
				 <ele>29.7</ele>
			 </trkpt>
			 <trkpt lat="56.46424" lon="12.75089">
				 <ele>28.2</ele>
			 </trkpt>
			 <trkpt lat="56.46425" lon="12.75104">
				 <ele>26.8</ele>
			 </trkpt>
			 <trkpt lat="56.46422" lon="12.75128">
				 <ele>25.5</ele>
			 </trkpt>
			 <trkpt lat="56.46387" lon="12.75168">
				 <ele>23.9</ele>
			 </trkpt>
			 <trkpt lat="56.46346" lon="12.75207">
				 <ele>22.3</ele>
			 </trkpt>
			 <trkpt lat="56.46333" lon="12.75229">
				 <ele>20.7</ele>
			 </trkpt>
			 <trkpt lat="56.46327" lon="12.75256">
				 <ele>19.2</ele>
			 </trkpt>
			 <trkpt lat="56.46328" lon="12.75288">
				 <ele>17.7</ele>
			 </trkpt>
			 <trkpt lat="56.46347" lon="12.75343">
				 <ele>16.5</ele>
			 </trkpt>
			 <trkpt lat="56.46347" lon="12.75356">
				 <ele>15.2</ele>
			 </trkpt>
			 <trkpt lat="56.46325" lon="12.75402">
				 <ele>13.9</ele>
			 </trkpt>
			 <trkpt lat="56.46308" lon="12.75431">
				 <ele>12.7</ele>
			 </trkpt>
			 <trkpt lat="56.46298" lon="12.75441">
				 <ele>11.7</ele>
			 </trkpt>
			 <trkpt lat="56.46279" lon="12.75439">
				 <ele>10.9</ele>
			 </trkpt>
			 <trkpt lat="56.4626" lon="12.75459">
				 <ele>10.4</ele>
			 </trkpt>
			 <trkpt lat="56.4624" lon="12.75469">
				 <ele>10</ele>
			 </trkpt>
			 <trkpt lat="56.46207" lon="12.75481">
				 <ele>9.5</ele>
			 </trkpt>
			 <trkpt lat="56.46197" lon="12.75488">
				 <ele>9.3</ele>
			 </trkpt>
			 <trkpt lat="56.46183" lon="12.7551">
				 <ele>8.9</ele>
			 </trkpt>
			 <trkpt lat="56.461447" lon="12.756093">
				 <ele>8.5</ele>
			 </trkpt>
			 <trkpt lat="56.461063" lon="12.757087">
				 <ele>8.1</ele>
			 </trkpt>
			 <trkpt lat="56.46068" lon="12.75808">
				 <ele>7.8</ele>
			 </trkpt>
			 <trkpt lat="56.4602" lon="12.75939">
				 <ele>7.5</ele>
			 </trkpt>
			 <trkpt lat="56.459973" lon="12.760503">
				 <ele>7.4</ele>
			 </trkpt>
			 <trkpt lat="56.459747" lon="12.761617">
				 <ele>7.1</ele>
			 </trkpt>
			 <trkpt lat="56.45952" lon="12.76273">
				 <ele>7.1</ele>
			 </trkpt>
			 <trkpt lat="56.459385" lon="12.763575">
				 <ele>7</ele>
			 </trkpt>
			 <trkpt lat="56.45925" lon="12.76442">
				 <ele>7</ele>
			 </trkpt>
			 <trkpt lat="56.4591" lon="12.765265">
				 <ele>7</ele>
			 </trkpt>
			 <trkpt lat="56.45895" lon="12.76611">
				 <ele>7.1</ele>
			 </trkpt>
			 <trkpt lat="56.45868" lon="12.76722">
				 <ele>7.2</ele>
			 </trkpt>
			 <trkpt lat="56.45841" lon="12.76833">
				 <ele>7.1</ele>
			 </trkpt>
			 <trkpt lat="56.45821" lon="12.769">
				 <ele>6.9</ele>
			 </trkpt>
			 <trkpt lat="56.457905" lon="12.7697">
				 <ele>6.7</ele>
			 </trkpt>
			 <trkpt lat="56.4576" lon="12.7704">
				 <ele>6.5</ele>
			 </trkpt>
			 <trkpt lat="56.45735" lon="12.77109">
				 <ele>6.5</ele>
			 </trkpt>
			 <trkpt lat="56.4571" lon="12.77207">
				 <ele>6.3</ele>
			 </trkpt>
			 <trkpt lat="56.45679" lon="12.77352">
				 <ele>6.1</ele>
			 </trkpt>
			 <trkpt lat="56.45659" lon="12.77437">
				 <ele>5.9</ele>
			 </trkpt>
			 <trkpt lat="56.45629" lon="12.77532">
				 <ele>5.6</ele>
			 </trkpt>
			 <trkpt lat="56.45599" lon="12.77608">
				 <ele>5.4</ele>
			 </trkpt>
			 <trkpt lat="56.45578" lon="12.77675">
				 <ele>5.1</ele>
			 </trkpt>
			 <trkpt lat="56.45558" lon="12.77759">
				 <ele>5</ele>
			 </trkpt>
			 <trkpt lat="56.45542" lon="12.77844">
				 <ele>4.9</ele>
			 </trkpt>
			 <trkpt lat="56.45521" lon="12.77934">
				 <ele>4.8</ele>
			 </trkpt>
			 <trkpt lat="56.4549" lon="12.78019">
				 <ele>4.7</ele>
			 </trkpt>
			 <trkpt lat="56.4545" lon="12.78116">
				 <ele>4.6</ele>
			 </trkpt>
			 <trkpt lat="56.45428" lon="12.78189">
				 <ele>4.5</ele>
			 </trkpt>
			 <trkpt lat="56.454055" lon="12.783085">
				 <ele>4.5</ele>
			 </trkpt>
			 <trkpt lat="56.45383" lon="12.78428">
				 <ele>4.4</ele>
			 </trkpt>
			 <trkpt lat="56.45364" lon="12.78518">
				 <ele>4.3</ele>
			 </trkpt>
			 <trkpt lat="56.45351" lon="12.78569">
				 <ele>4.2</ele>
			 </trkpt>
			 <trkpt lat="56.45334" lon="12.7863">
				 <ele>4.1</ele>
			 </trkpt>
			 <trkpt lat="56.45317" lon="12.78679">
				 <ele>4</ele>
			 </trkpt>
			 <trkpt lat="56.45294" lon="12.78742">
				 <ele>4</ele>
			 </trkpt>
			 <trkpt lat="56.45256" lon="12.788395">
				 <ele>4</ele>
			 </trkpt>
			 <trkpt lat="56.45218" lon="12.78937">
				 <ele>4</ele>
			 </trkpt>
			 <trkpt lat="56.45181" lon="12.79026">
				 <ele>4</ele>
			 </trkpt>
			 <trkpt lat="56.451285" lon="12.79124">
				 <ele>3.9</ele>
			 </trkpt>
			 <trkpt lat="56.45076" lon="12.79222">
				 <ele>3.8</ele>
			 </trkpt>
			 <trkpt lat="56.45053" lon="12.79281">
				 <ele>3.8</ele>
			 </trkpt>
			 <trkpt lat="56.45007" lon="12.79417">
				 <ele>3.9</ele>
			 </trkpt>
			 <trkpt lat="56.44993" lon="12.79481">
				 <ele>4.1</ele>
			 </trkpt>
			 <trkpt lat="56.4497" lon="12.79603">
				 <ele>4.5</ele>
			 </trkpt>
			 <trkpt lat="56.44957" lon="12.79652">
				 <ele>5</ele>
			 </trkpt>
			 <trkpt lat="56.4494" lon="12.79701">
				 <ele>5.7</ele>
			 </trkpt>
			 <trkpt lat="56.44917" lon="12.79749">
				 <ele>6</ele>
			 </trkpt>
			 <trkpt lat="56.4487" lon="12.798365">
				 <ele>6.2</ele>
			 </trkpt>
			 <trkpt lat="56.44823" lon="12.79924">
				 <ele>6.4</ele>
			 </trkpt>
			 <trkpt lat="56.44805" lon="12.79949">
				 <ele>6.7</ele>
			 </trkpt>
			 <trkpt lat="56.44781" lon="12.79967">
				 <ele>6.9</ele>
			 </trkpt>
			 <trkpt lat="56.44757" lon="12.80045">
				 <ele>7</ele>
			 </trkpt>
			 <trkpt lat="56.44713" lon="12.80164">
				 <ele>6.9</ele>
			 </trkpt>
			 <trkpt lat="56.44669" lon="12.80283">
				 <ele>6.7</ele>
			 </trkpt>
			 <trkpt lat="56.44628" lon="12.803545">
				 <ele>6.4</ele>
			 </trkpt>
			 <trkpt lat="56.44587" lon="12.80426">
				 <ele>5.9</ele>
			 </trkpt>
			 <trkpt lat="56.44564" lon="12.80475">
				 <ele>5.2</ele>
			 </trkpt>
			 <trkpt lat="56.44541" lon="12.80541">
				 <ele>5</ele>
			 </trkpt>
			 <trkpt lat="56.445135" lon="12.806125">
				 <ele>4.9</ele>
			 </trkpt>
			 <trkpt lat="56.44486" lon="12.80684">
				 <ele>4.8</ele>
			 </trkpt>
			 <trkpt lat="56.44459" lon="12.80764">
				 <ele>4.6</ele>
			 </trkpt>
			 <trkpt lat="56.44443" lon="12.80806">
				 <ele>4.7</ele>
			 </trkpt>
			 <trkpt lat="56.44416" lon="12.80902">
				 <ele>4.8</ele>
			 </trkpt>
			 <trkpt lat="56.44405" lon="12.81014">
				 <ele>4.9</ele>
			 </trkpt>
			 <trkpt lat="56.4438" lon="12.81131">
				 <ele>5.1</ele>
			 </trkpt>
			 <trkpt lat="56.44353" lon="12.81191">
				 <ele>5.1</ele>
			 </trkpt>
			 <trkpt lat="56.44327" lon="12.81235">
				 <ele>5.1</ele>
			 </trkpt>
			 <trkpt lat="56.44321" lon="12.81254">
				 <ele>5.2</ele>
			 </trkpt>
			 <trkpt lat="56.44308" lon="12.81334">
				 <ele>5.3</ele>
			 </trkpt>
			 <trkpt lat="56.44295" lon="12.8139">
				 <ele>5.5</ele>
			 </trkpt>
			 <trkpt lat="56.44282" lon="12.81466">
				 <ele>5.5</ele>
			 </trkpt>
			 <trkpt lat="56.44253" lon="12.81567">
				 <ele>5.5</ele>
			 </trkpt>
			 <trkpt lat="56.44232" lon="12.81629">
				 <ele>5.2</ele>
			 </trkpt>
			 <trkpt lat="56.442" lon="12.81754">
				 <ele>4.9</ele>
			 </trkpt>
			 <trkpt lat="56.44186" lon="12.8177">
				 <ele>4.8</ele>
			 </trkpt>
			 <trkpt lat="56.44161" lon="12.81851">
				 <ele>4.5</ele>
			 </trkpt>
			 <trkpt lat="56.44133" lon="12.81899">
				 <ele>4.4</ele>
			 </trkpt>
			 <trkpt lat="56.44125" lon="12.81909">
				 <ele>4.3</ele>
			 </trkpt>
			 <trkpt lat="56.44107" lon="12.81919">
				 <ele>4.2</ele>
			 </trkpt>
			 <trkpt lat="56.44093" lon="12.81933">
				 <ele>4.2</ele>
			 </trkpt>
			 <trkpt lat="56.4407" lon="12.81965">
				 <ele>4</ele>
			 </trkpt>
			 <trkpt lat="56.44047" lon="12.82002">
				 <ele>4</ele>
			 </trkpt>
			 <trkpt lat="56.44013" lon="12.82042">
				 <ele>4.2</ele>
			 </trkpt>
			 <trkpt lat="56.43989" lon="12.82065">
				 <ele>4.5</ele>
			 </trkpt>
			 <trkpt lat="56.43959" lon="12.82098">
				 <ele>4.7</ele>
			 </trkpt>
			 <trkpt lat="56.43926" lon="12.82164">
				 <ele>4.9</ele>
			 </trkpt>
			 <trkpt lat="56.43915" lon="12.8219">
				 <ele>5.1</ele>
			 </trkpt>
			 <trkpt lat="56.43891" lon="12.82297">
				 <ele>5.3</ele>
			 </trkpt>
			 <trkpt lat="56.43858" lon="12.82388">
				 <ele>5.5</ele>
			 </trkpt>
			 <trkpt lat="56.43846" lon="12.82432">
				 <ele>5.5</ele>
			 </trkpt>
			 <trkpt lat="56.438455" lon="12.825335">
				 <ele>5.5</ele>
			 </trkpt>
			 <trkpt lat="56.43845" lon="12.82635">
				 <ele>5.5</ele>
			 </trkpt>
			 <trkpt lat="56.4384" lon="12.82736">
				 <ele>5.3</ele>
			 </trkpt>
			 <trkpt lat="56.43834" lon="12.82778">
				 <ele>5.1</ele>
			 </trkpt>
			 <trkpt lat="56.438205" lon="12.828575">
				 <ele>4.9</ele>
			 </trkpt>
			 <trkpt lat="56.43807" lon="12.82937">
				 <ele>4.7</ele>
			 </trkpt>
			 <trkpt lat="56.43794" lon="12.82977">
				 <ele>4.5</ele>
			 </trkpt>
			 <trkpt lat="56.43746" lon="12.83066">
				 <ele>4.5</ele>
			 </trkpt>
			 <trkpt lat="56.43728" lon="12.83104">
				 <ele>4.5</ele>
			 </trkpt>
			 <trkpt lat="56.4372" lon="12.83132">
				 <ele>4.3</ele>
			 </trkpt>
			 <trkpt lat="56.43715" lon="12.83157">
				 <ele>4.1</ele>
			 </trkpt>
			 <trkpt lat="56.43699" lon="12.83273">
				 <ele>3.8</ele>
			 </trkpt>
			 <trkpt lat="56.43691" lon="12.83314">
				 <ele>3.6</ele>
			 </trkpt>
			 <trkpt lat="56.43675" lon="12.83367">
				 <ele>3.8</ele>
			 </trkpt>
			 <trkpt lat="56.43623" lon="12.83445">
				 <ele>3.7</ele>
			 </trkpt>
			 <trkpt lat="56.43607" lon="12.83476">
				 <ele>3.6</ele>
			 </trkpt>
			 <trkpt lat="56.43603" lon="12.83491">
				 <ele>3.5</ele>
			 </trkpt>
			 <trkpt lat="56.43587" lon="12.83573">
				 <ele>3.5</ele>
			 </trkpt>
			 <trkpt lat="56.43571" lon="12.83655">
				 <ele>3.3</ele>
			 </trkpt>
			 <trkpt lat="56.43547" lon="12.83795">
				 <ele>3.2</ele>
			 </trkpt>
			 <trkpt lat="56.43534" lon="12.83886">
				 <ele>3.1</ele>
			 </trkpt>
			 <trkpt lat="56.43521" lon="12.83977">
				 <ele>3</ele>
			 </trkpt>
			 <trkpt lat="56.4352" lon="12.84003">
				 <ele>2.9</ele>
			 </trkpt>
			 <trkpt lat="56.43523" lon="12.84038">
				 <ele>2.8</ele>
			 </trkpt>
			 <trkpt lat="56.43521" lon="12.84049">
				 <ele>2.5</ele>
			 </trkpt>
			 <trkpt lat="56.43497" lon="12.84093">
				 <ele>2.5</ele>
			 </trkpt>
			 <trkpt lat="56.43492" lon="12.8409">
				 <ele>2.4</ele>
			 </trkpt>
			 <trkpt lat="56.43491" lon="12.84097">
				 <ele>2.3</ele>
			 </trkpt>
			 <trkpt lat="56.43487" lon="12.841">
				 <ele>2.2</ele>
			 </trkpt>
			 <trkpt lat="56.43483" lon="12.84099">
				 <ele>2.1</ele>
			 </trkpt>
			 <trkpt lat="56.43467" lon="12.84109">
				 <ele>2</ele>
			 </trkpt>
			 <trkpt lat="56.43434" lon="12.84122">
				 <ele>2.1</ele>
			 </trkpt>
			 <trkpt lat="56.43378" lon="12.84143">
				 <ele>2.1</ele>
			 </trkpt>
			 <trkpt lat="56.43336" lon="12.84172">
				 <ele>2.2</ele>
			 </trkpt>
			 <trkpt lat="56.43294" lon="12.84201">
				 <ele>2.2</ele>
			 </trkpt>
			 <trkpt lat="56.43268" lon="12.84226">
				 <ele>2.2</ele>
			 </trkpt>
			 <trkpt lat="56.43254" lon="12.84244">
				 <ele>2.2</ele>
			 </trkpt>
			 <trkpt lat="56.4324" lon="12.8427">
				 <ele>2.2</ele>
			 </trkpt>
			 <trkpt lat="56.43188" lon="12.84397">
				 <ele>2.3</ele>
			 </trkpt>
			 <trkpt lat="56.43193" lon="12.84403">
				 <ele>2.4</ele>
			 </trkpt>
			 <trkpt lat="56.43182" lon="12.84429">
				 <ele>2.5</ele>
			 </trkpt>
			 <trkpt lat="56.43167" lon="12.84455">
				 <ele>2.5</ele>
			 </trkpt>
			 <trkpt lat="56.4316" lon="12.84464">
				 <ele>2.5</ele>
			 </trkpt>
			 <trkpt lat="56.43152" lon="12.84471">
				 <ele>2.6</ele>
			 </trkpt>
			 <trkpt lat="56.43143" lon="12.84482">
				 <ele>2.6</ele>
			 </trkpt>
			 <trkpt lat="56.43107" lon="12.84555">
				 <ele>2.7</ele>
			 </trkpt>
			 <trkpt lat="56.43114" lon="12.8458">
				 <ele>2.8</ele>
			 </trkpt>
			 <trkpt lat="56.43116" lon="12.8461">
				 <ele>2.9</ele>
			 </trkpt>
			 <trkpt lat="56.43113" lon="12.84626">
				 <ele>3</ele>
			 </trkpt>
		 </trkseg>
	 </trk>
</gpx>