<?xml version="1.0" encoding="UTF-8"?>
 <gpx creator="Garmin Connect" version="1.1"
	 xsi:schemaLocation="http://www.topografix.com/GPX/1/1 http://www.topografix.com/GPX/11.xsd"
	 xmlns:ns3="http://www.garmin.com/xmlschemas/TrackPointExtension/v1"
	 xmlns="http://www.topografix.com/GPX/1/1"
	 xmlns:xsi="http://www.w3.org/2001/XMLSchema-instance" xmlns:ns2="http://www.garmin.com/xmlschemas/GpxExtensions/v3">
	 <metadata>
		<name>BCS Marathon and Half Marathon 2023 - 42.195 km</name>
		 <link href="https://www.goandrace.com">
		 <text>Garmin Connect</text>
		 </link>
	 <time>2026-08-09T16:48:01</time>
	 </metadata>
	 <trk>
		 <name>BCS Marathon and Half Marathon 2023 - 42.195 km</name>
		 <trkseg>
			 <trkpt lat="30.619618" lon="-96.304608">
				 <ele>82</ele>
			 </trkpt>
			 <trkpt lat="30.61964" lon="-96.30464">
				 <ele>82</ele>
			 </trkpt>
			 <trkpt lat="30.61908" lon="-96.30534">
				 <ele>82</ele>
			 </trkpt>
			 <trkpt lat="30.61894" lon="-96.30561">
				 <ele>82</ele>
			 </trkpt>
			 <trkpt lat="30.61867" lon="-96.3064">
				 <ele>83</ele>
			 </trkpt>
			 <trkpt lat="30.61838" lon="-96.30852">
				 <ele>83</ele>
			 </trkpt>
			 <trkpt lat="30.61828" lon="-96.30915">
				 <ele>84</ele>
			 </trkpt>
			 <trkpt lat="30.61792" lon="-96.31011">
				 <ele>86</ele>
			 </trkpt>
			 <trkpt lat="30.6172" lon="-96.31101">
				 <ele>87</ele>
			 </trkpt>
			 <trkpt lat="30.61567" lon="-96.31272">
				 <ele>89</ele>
			 </trkpt>
			 <trkpt lat="30.61539" lon="-96.31304">
				 <ele>91</ele>
			 </trkpt>
			 <trkpt lat="30.61512" lon="-96.31391">
				 <ele>92</ele>
			 </trkpt>
			 <trkpt lat="30.61578" lon="-96.31471">
				 <ele>92</ele>
			 </trkpt>
			 <trkpt lat="30.61617" lon="-96.31515">
				 <ele>90</ele>
			 </trkpt>
			 <trkpt lat="30.61738" lon="-96.31641">
				 <ele>87</ele>
			 </trkpt>
			 <trkpt lat="30.61783" lon="-96.31701">
				 <ele>86</ele>
			 </trkpt>
			 <trkpt lat="30.61866" lon="-96.31808">
				 <ele>87</ele>
			 </trkpt>
			 <trkpt lat="30.61889" lon="-96.31838">
				 <ele>87</ele>
			 </trkpt>
			 <trkpt lat="30.61984" lon="-96.31961">
				 <ele>88</ele>
			 </trkpt>
			 <trkpt lat="30.62039" lon="-96.31932">
				 <ele>89</ele>
			 </trkpt>
			 <trkpt lat="30.62065" lon="-96.3196">
				 <ele>90</ele>
			 </trkpt>
			 <trkpt lat="30.62147" lon="-96.3206">
				 <ele>91</ele>
			 </trkpt>
			 <trkpt lat="30.62171" lon="-96.32109">
				 <ele>91</ele>
			 </trkpt>
			 <trkpt lat="30.62233" lon="-96.32214">
				 <ele>91</ele>
			 </trkpt>
			 <trkpt lat="30.62244" lon="-96.32238">
				 <ele>92</ele>
			 </trkpt>
			 <trkpt lat="30.62263" lon="-96.32272">
				 <ele>92</ele>
			 </trkpt>
			 <trkpt lat="30.62312" lon="-96.32284">
				 <ele>93</ele>
			 </trkpt>
			 <trkpt lat="30.62312" lon="-96.32284">
				 <ele>94</ele>
			 </trkpt>
			 <trkpt lat="30.62421" lon="-96.32306">
				 <ele>94</ele>
			 </trkpt>
			 <trkpt lat="30.62482" lon="-96.32356">
				 <ele>95</ele>
			 </trkpt>
			 <trkpt lat="30.62489" lon="-96.32365">
				 <ele>97</ele>
			 </trkpt>
			 <trkpt lat="30.62586" lon="-96.32498">
				 <ele>98</ele>
			 </trkpt>
			 <trkpt lat="30.6268" lon="-96.32625">
				 <ele>99</ele>
			 </trkpt>
			 <trkpt lat="30.62715" lon="-96.32676">
				 <ele>102</ele>
			 </trkpt>
			 <trkpt lat="30.62768" lon="-96.32649">
				 <ele>103</ele>
			 </trkpt>
			 <trkpt lat="30.62799" lon="-96.32706">
				 <ele>103</ele>
			 </trkpt>
			 <trkpt lat="30.62891" lon="-96.32604">
				 <ele>103</ele>
			 </trkpt>
			 <trkpt lat="30.62975" lon="-96.32511">
				 <ele>102</ele>
			 </trkpt>
			 <trkpt lat="30.63122" lon="-96.32689">
				 <ele>100</ele>
			 </trkpt>
			 <trkpt lat="30.63185" lon="-96.32766">
				 <ele>99</ele>
			 </trkpt>
			 <trkpt lat="30.633397" lon="-96.329525">
				 <ele>98</ele>
			 </trkpt>
			 <trkpt lat="30.634255" lon="-96.329718">
				 <ele>98</ele>
			 </trkpt>
			 <trkpt lat="30.634671" lon="-96.329503">
				 <ele>99</ele>
			 </trkpt>
			 <trkpt lat="30.635381" lon="-96.328859">
				 <ele>101</ele>
			 </trkpt>
			 <trkpt lat="30.639743" lon="-96.328173">
				 <ele>100</ele>
			 </trkpt>
			 <trkpt lat="30.640231" lon="-96.328311">
				 <ele>100</ele>
			 </trkpt>
			 <trkpt lat="30.641542" lon="-96.329953">
				 <ele>100</ele>
			 </trkpt>
			 <trkpt lat="30.641865" lon="-96.331154">
				 <ele>101</ele>
			 </trkpt>
			 <trkpt lat="30.642114" lon="-96.331734">
				 <ele>99</ele>
			 </trkpt>
			 <trkpt lat="30.64226" lon="-96.33192">
				 <ele>99</ele>
			 </trkpt>
			 <trkpt lat="30.6425" lon="-96.3321">
				 <ele>98</ele>
			 </trkpt>
			 <trkpt lat="30.64278" lon="-96.33222">
				 <ele>97</ele>
			 </trkpt>
			 <trkpt lat="30.64406" lon="-96.33264">
				 <ele>95</ele>
			 </trkpt>
			 <trkpt lat="30.64379" lon="-96.33319">
				 <ele>93</ele>
			 </trkpt>
			 <trkpt lat="30.64343" lon="-96.33367">
				 <ele>88</ele>
			 </trkpt>
			 <trkpt lat="30.64251" lon="-96.33467">
				 <ele>87</ele>
			 </trkpt>
			 <trkpt lat="30.64201" lon="-96.3353">
				 <ele>85</ele>
			 </trkpt>
			 <trkpt lat="30.64201" lon="-96.3353">
				 <ele>84</ele>
			 </trkpt>
			 <trkpt lat="30.64183" lon="-96.33595">
				 <ele>81</ele>
			 </trkpt>
			 <trkpt lat="30.6418" lon="-96.3366">
				 <ele>85</ele>
			 </trkpt>
			 <trkpt lat="30.64184" lon="-96.33684">
				 <ele>85</ele>
			 </trkpt>
			 <trkpt lat="30.64242" lon="-96.33835">
				 <ele>84</ele>
			 </trkpt>
			 <trkpt lat="30.64299" lon="-96.33979">
				 <ele>85</ele>
			 </trkpt>
			 <trkpt lat="30.64313" lon="-96.34004">
				 <ele>85</ele>
			 </trkpt>
			 <trkpt lat="30.64368" lon="-96.34068">
				 <ele>85</ele>
			 </trkpt>
			 <trkpt lat="30.64399" lon="-96.34127">
				 <ele>86</ele>
			 </trkpt>
			 <trkpt lat="30.64411" lon="-96.34141">
				 <ele>86</ele>
			 </trkpt>
			 <trkpt lat="30.64476" lon="-96.34221">
				 <ele>86</ele>
			 </trkpt>
			 <trkpt lat="30.64493" lon="-96.34246">
				 <ele>85</ele>
			 </trkpt>
			 <trkpt lat="30.64499" lon="-96.34259">
				 <ele>85</ele>
			 </trkpt>
			 <trkpt lat="30.64531" lon="-96.34405">
				 <ele>86</ele>
			 </trkpt>
			 <trkpt lat="30.64546" lon="-96.34476">
				 <ele>86</ele>
			 </trkpt>
			 <trkpt lat="30.64555" lon="-96.34503">
				 <ele>86</ele>
			 </trkpt>
			 <trkpt lat="30.64589" lon="-96.34563">
				 <ele>87</ele>
			 </trkpt>
			 <trkpt lat="30.64652" lon="-96.3462">
				 <ele>87</ele>
			 </trkpt>
			 <trkpt lat="30.64666" lon="-96.34628">
				 <ele>87</ele>
			 </trkpt>
			 <trkpt lat="30.64699" lon="-96.34658">
				 <ele>88</ele>
			 </trkpt>
			 <trkpt lat="30.64734" lon="-96.34702">
				 <ele>89</ele>
			 </trkpt>
			 <trkpt lat="30.64761" lon="-96.34743">
				 <ele>90</ele>
			 </trkpt>
			 <trkpt lat="30.64853" lon="-96.34878">
				 <ele>91</ele>
			 </trkpt>
			 <trkpt lat="30.65031" lon="-96.35089">
				 <ele>91</ele>
			 </trkpt>
			 <trkpt lat="30.65275" lon="-96.35385">
				 <ele>90</ele>
			 </trkpt>
			 <trkpt lat="30.6551" lon="-96.35664">
				 <ele>89</ele>
			 </trkpt>
			 <trkpt lat="30.65664" lon="-96.35818">
				 <ele>90</ele>
			 </trkpt>
			 <trkpt lat="30.65679" lon="-96.35839">
				 <ele>92</ele>
			 </trkpt>
			 <trkpt lat="30.65709" lon="-96.35933">
				 <ele>93</ele>
			 </trkpt>
			 <trkpt lat="30.65755" lon="-96.36009">
				 <ele>93</ele>
			 </trkpt>
			 <trkpt lat="30.65755" lon="-96.36009">
				 <ele>93</ele>
			 </trkpt>
			 <trkpt lat="30.66014" lon="-96.3632">
				 <ele>93</ele>
			 </trkpt>
			 <trkpt lat="30.66359" lon="-96.36739">
				 <ele>93</ele>
			 </trkpt>
			 <trkpt lat="30.66359" lon="-96.36739">
				 <ele>92</ele>
			 </trkpt>
			 <trkpt lat="30.66365" lon="-96.36764">
				 <ele>92</ele>
			 </trkpt>
			 <trkpt lat="30.66328" lon="-96.36806">
				 <ele>92</ele>
			 </trkpt>
			 <trkpt lat="30.66328" lon="-96.36806">
				 <ele>93</ele>
			 </trkpt>
			 <trkpt lat="30.6618" lon="-96.36949">
				 <ele>94</ele>
			 </trkpt>
			 <trkpt lat="30.66126" lon="-96.36886">
				 <ele>94</ele>
			 </trkpt>
			 <trkpt lat="30.66126" lon="-96.36886">
				 <ele>94</ele>
			 </trkpt>
			 <trkpt lat="30.66013" lon="-96.3675">
				 <ele>94</ele>
			 </trkpt>
			 <trkpt lat="30.6592" lon="-96.36852">
				 <ele>94</ele>
			 </trkpt>
			 <trkpt lat="30.65886" lon="-96.3689">
				 <ele>95</ele>
			 </trkpt>
			 <trkpt lat="30.65862" lon="-96.36916">
				 <ele>97</ele>
			 </trkpt>
			 <trkpt lat="30.65836" lon="-96.3694">
				 <ele>99</ele>
			 </trkpt>
			 <trkpt lat="30.65816" lon="-96.36961">
				 <ele>100</ele>
			 </trkpt>
			 <trkpt lat="30.65724" lon="-96.37062">
				 <ele>100</ele>
			 </trkpt>
			 <trkpt lat="30.657" lon="-96.37086">
				 <ele>101</ele>
			 </trkpt>
			 <trkpt lat="30.65642" lon="-96.37066">
				 <ele>101</ele>
			 </trkpt>
			 <trkpt lat="30.65632" lon="-96.37063">
				 <ele>101</ele>
			 </trkpt>
			 <trkpt lat="30.65574" lon="-96.37035">
				 <ele>100</ele>
			 </trkpt>
			 <trkpt lat="30.65539" lon="-96.3701">
				 <ele>100</ele>
			 </trkpt>
			 <trkpt lat="30.65337" lon="-96.36856">
				 <ele>100</ele>
			 </trkpt>
			 <trkpt lat="30.65164" lon="-96.36722">
				 <ele>101</ele>
			 </trkpt>
			 <trkpt lat="30.65017" lon="-96.36609">
				 <ele>102</ele>
			 </trkpt>
			 <trkpt lat="30.65012" lon="-96.36605">
				 <ele>103</ele>
			 </trkpt>
			 <trkpt lat="30.64263" lon="-96.36029">
				 <ele>106</ele>
			 </trkpt>
			 <trkpt lat="30.641" lon="-96.35906">
				 <ele>107</ele>
			 </trkpt>
			 <trkpt lat="30.64048" lon="-96.35868">
				 <ele>109</ele>
			 </trkpt>
			 <trkpt lat="30.63979" lon="-96.35817">
				 <ele>110</ele>
			 </trkpt>
			 <trkpt lat="30.63975" lon="-96.35824">
				 <ele>110</ele>
			 </trkpt>
			 <trkpt lat="30.63872" lon="-96.36059">
				 <ele>108</ele>
			 </trkpt>
			 <trkpt lat="30.63811" lon="-96.36179">
				 <ele>106</ele>
			 </trkpt>
			 <trkpt lat="30.63745" lon="-96.36251">
				 <ele>105</ele>
			 </trkpt>
			 <trkpt lat="30.6374" lon="-96.36264">
				 <ele>105</ele>
			 </trkpt>
			 <trkpt lat="30.63702" lon="-96.36306">
				 <ele>104</ele>
			 </trkpt>
			 <trkpt lat="30.63618" lon="-96.36399">
				 <ele>103</ele>
			 </trkpt>
			 <trkpt lat="30.63529" lon="-96.36505">
				 <ele>102</ele>
			 </trkpt>
			 <trkpt lat="30.63394" lon="-96.36693">
				 <ele>102</ele>
			 </trkpt>
			 <trkpt lat="30.63368" lon="-96.3674">
				 <ele>102</ele>
			 </trkpt>
			 <trkpt lat="30.63339" lon="-96.3681">
				 <ele>105</ele>
			 </trkpt>
			 <trkpt lat="30.6332" lon="-96.36883">
				 <ele>106</ele>
			 </trkpt>
			 <trkpt lat="30.63319" lon="-96.36893">
				 <ele>106</ele>
			 </trkpt>
			 <trkpt lat="30.6333" lon="-96.37051">
				 <ele>106</ele>
			 </trkpt>
			 <trkpt lat="30.63334" lon="-96.37156">
				 <ele>105</ele>
			 </trkpt>
			 <trkpt lat="30.63331" lon="-96.37179">
				 <ele>106</ele>
			 </trkpt>
			 <trkpt lat="30.63314" lon="-96.3725">
				 <ele>106</ele>
			 </trkpt>
			 <trkpt lat="30.6328" lon="-96.37317">
				 <ele>106</ele>
			 </trkpt>
			 <trkpt lat="30.63261" lon="-96.37341">
				 <ele>106</ele>
			 </trkpt>
			 <trkpt lat="30.6317" lon="-96.37448">
				 <ele>104</ele>
			 </trkpt>
			 <trkpt lat="30.6313" lon="-96.37527">
				 <ele>103</ele>
			 </trkpt>
			 <trkpt lat="30.63122" lon="-96.37552">
				 <ele>102</ele>
			 </trkpt>
			 <trkpt lat="30.63094" lon="-96.37713">
				 <ele>101</ele>
			 </trkpt>
			 <trkpt lat="30.6305" lon="-96.37958">
				 <ele>101</ele>
			 </trkpt>
			 <trkpt lat="30.6305" lon="-96.37958">
				 <ele>101</ele>
			 </trkpt>
			 <trkpt lat="30.63028" lon="-96.38067">
				 <ele>100</ele>
			 </trkpt>
			 <trkpt lat="30.62981" lon="-96.38196">
				 <ele>101</ele>
			 </trkpt>
			 <trkpt lat="30.62943" lon="-96.38264">
				 <ele>100</ele>
			 </trkpt>
			 <trkpt lat="30.6268" lon="-96.38667">
				 <ele>99</ele>
			 </trkpt>
			 <trkpt lat="30.62633" lon="-96.38732">
				 <ele>99</ele>
			 </trkpt>
			 <trkpt lat="30.6261" lon="-96.38757">
				 <ele>98</ele>
			 </trkpt>
			 <trkpt lat="30.6252" lon="-96.38832">
				 <ele>96</ele>
			 </trkpt>
			 <trkpt lat="30.62465" lon="-96.38868">
				 <ele>95</ele>
			 </trkpt>
			 <trkpt lat="30.6237" lon="-96.38928">
				 <ele>94</ele>
			 </trkpt>
			 <trkpt lat="30.62295" lon="-96.38984">
				 <ele>92</ele>
			 </trkpt>
			 <trkpt lat="30.62244" lon="-96.39038">
				 <ele>92</ele>
			 </trkpt>
			 <trkpt lat="30.62215" lon="-96.39075">
				 <ele>92</ele>
			 </trkpt>
			 <trkpt lat="30.62205" lon="-96.39076">
				 <ele>93</ele>
			 </trkpt>
			 <trkpt lat="30.62172" lon="-96.3913">
				 <ele>92</ele>
			 </trkpt>
			 <trkpt lat="30.62098" lon="-96.39285">
				 <ele>92</ele>
			 </trkpt>
			 <trkpt lat="30.61978" lon="-96.39517">
				 <ele>94</ele>
			 </trkpt>
			 <trkpt lat="30.61693" lon="-96.39844">
				 <ele>95</ele>
			 </trkpt>
			 <trkpt lat="30.61684" lon="-96.39854">
				 <ele>96</ele>
			 </trkpt>
			 <trkpt lat="30.61634" lon="-96.39795">
				 <ele>99</ele>
			 </trkpt>
			 <trkpt lat="30.61593" lon="-96.39771">
				 <ele>99</ele>
			 </trkpt>
			 <trkpt lat="30.61577" lon="-96.3977">
				 <ele>99</ele>
			 </trkpt>
			 <trkpt lat="30.61472" lon="-96.39796">
				 <ele>98</ele>
			 </trkpt>
			 <trkpt lat="30.61435" lon="-96.39806">
				 <ele>98</ele>
			 </trkpt>
			 <trkpt lat="30.61414" lon="-96.39811">
				 <ele>98</ele>
			 </trkpt>
			 <trkpt lat="30.61372" lon="-96.39804">
				 <ele>100</ele>
			 </trkpt>
			 <trkpt lat="30.61342" lon="-96.3978">
				 <ele>99</ele>
			 </trkpt>
			 <trkpt lat="30.6132" lon="-96.39747">
				 <ele>99</ele>
			 </trkpt>
			 <trkpt lat="30.61286" lon="-96.39767">
				 <ele>100</ele>
			 </trkpt>
			 <trkpt lat="30.61257" lon="-96.39782">
				 <ele>103</ele>
			 </trkpt>
			 <trkpt lat="30.61239" lon="-96.39786">
				 <ele>104</ele>
			 </trkpt>
			 <trkpt lat="30.61162" lon="-96.39772">
				 <ele>104</ele>
			 </trkpt>
			 <trkpt lat="30.61132" lon="-96.39747">
				 <ele>104</ele>
			 </trkpt>
			 <trkpt lat="30.61116" lon="-96.39728">
				 <ele>103</ele>
			 </trkpt>
			 <trkpt lat="30.6109" lon="-96.39656">
				 <ele>103</ele>
			 </trkpt>
			 <trkpt lat="30.61043" lon="-96.39437">
				 <ele>101</ele>
			 </trkpt>
			 <trkpt lat="30.61023" lon="-96.39414">
				 <ele>99</ele>
			 </trkpt>
			 <trkpt lat="30.60949" lon="-96.39389">
				 <ele>98</ele>
			 </trkpt>
			 <trkpt lat="30.60784" lon="-96.39386">
				 <ele>96</ele>
			 </trkpt>
			 <trkpt lat="30.60774" lon="-96.39391">
				 <ele>94</ele>
			 </trkpt>
			 <trkpt lat="30.6072" lon="-96.39411">
				 <ele>95</ele>
			 </trkpt>
			 <trkpt lat="30.60701" lon="-96.39416">
				 <ele>96</ele>
			 </trkpt>
			 <trkpt lat="30.60687" lon="-96.39418">
				 <ele>95</ele>
			 </trkpt>
			 <trkpt lat="30.60632" lon="-96.39401">
				 <ele>95</ele>
			 </trkpt>
			 <trkpt lat="30.60574" lon="-96.3933">
				 <ele>98</ele>
			 </trkpt>
			 <trkpt lat="30.60551" lon="-96.3927">
				 <ele>100</ele>
			 </trkpt>
			 <trkpt lat="30.60503" lon="-96.39184">
				 <ele>99</ele>
			 </trkpt>
			 <trkpt lat="30.60379" lon="-96.39037">
				 <ele>97</ele>
			 </trkpt>
			 <trkpt lat="30.60234" lon="-96.38863">
				 <ele>94</ele>
			 </trkpt>
			 <trkpt lat="30.60137" lon="-96.38787">
				 <ele>94</ele>
			 </trkpt>
			 <trkpt lat="30.60107" lon="-96.38764">
				 <ele>93</ele>
			 </trkpt>
			 <trkpt lat="30.6007" lon="-96.38732">
				 <ele>90</ele>
			 </trkpt>
			 <trkpt lat="30.60028" lon="-96.38687">
				 <ele>87</ele>
			 </trkpt>
			 <trkpt lat="30.60012" lon="-96.3867">
				 <ele>85</ele>
			 </trkpt>
			 <trkpt lat="30.60003" lon="-96.38652">
				 <ele>84</ele>
			 </trkpt>
			 <trkpt lat="30.59924" lon="-96.38541">
				 <ele>84</ele>
			 </trkpt>
			 <trkpt lat="30.59906" lon="-96.38479">
				 <ele>84</ele>
			 </trkpt>
			 <trkpt lat="30.59905" lon="-96.38434">
				 <ele>84</ele>
			 </trkpt>
			 <trkpt lat="30.59919" lon="-96.38383">
				 <ele>84</ele>
			 </trkpt>
			 <trkpt lat="30.59951" lon="-96.38312">
				 <ele>84</ele>
			 </trkpt>
			 <trkpt lat="30.59963" lon="-96.38295">
				 <ele>84</ele>
			 </trkpt>
			 <trkpt lat="30.60036" lon="-96.38211">
				 <ele>84</ele>
			 </trkpt>
			 <trkpt lat="30.60057" lon="-96.38164">
				 <ele>85</ele>
			 </trkpt>
			 <trkpt lat="30.6006" lon="-96.38139">
				 <ele>86</ele>
			 </trkpt>
			 <trkpt lat="30.60057" lon="-96.38101">
				 <ele>88</ele>
			 </trkpt>
			 <trkpt lat="30.59978" lon="-96.38108">
				 <ele>89</ele>
			 </trkpt>
			 <trkpt lat="30.59962" lon="-96.38118">
				 <ele>88</ele>
			 </trkpt>
			 <trkpt lat="30.6001" lon="-96.38089">
				 <ele>88</ele>
			 </trkpt>
			 <trkpt lat="30.60047" lon="-96.38052">
				 <ele>88</ele>
			 </trkpt>
			 <trkpt lat="30.60067" lon="-96.3804">
				 <ele>87</ele>
			 </trkpt>
			 <trkpt lat="30.60113" lon="-96.38013">
				 <ele>87</ele>
			 </trkpt>
			 <trkpt lat="30.60162" lon="-96.37984">
				 <ele>88</ele>
			 </trkpt>
			 <trkpt lat="30.60162" lon="-96.37984">
				 <ele>88</ele>
			 </trkpt>
			 <trkpt lat="30.60254" lon="-96.37926">
				 <ele>90</ele>
			 </trkpt>
			 <trkpt lat="30.60292" lon="-96.37889">
				 <ele>89</ele>
			 </trkpt>
			 <trkpt lat="30.60308" lon="-96.37865">
				 <ele>86</ele>
			 </trkpt>
			 <trkpt lat="30.60372" lon="-96.37724">
				 <ele>83</ele>
			 </trkpt>
			 <trkpt lat="30.60398" lon="-96.37677">
				 <ele>81</ele>
			 </trkpt>
			 <trkpt lat="30.60419" lon="-96.37651">
				 <ele>79</ele>
			 </trkpt>
			 <trkpt lat="30.60432" lon="-96.37632">
				 <ele>79</ele>
			 </trkpt>
			 <trkpt lat="30.60448" lon="-96.37627">
				 <ele>78</ele>
			 </trkpt>
			 <trkpt lat="30.60477" lon="-96.376">
				 <ele>76</ele>
			 </trkpt>
			 <trkpt lat="30.60504" lon="-96.37582">
				 <ele>77</ele>
			 </trkpt>
			 <trkpt lat="30.60611" lon="-96.3753">
				 <ele>78</ele>
			 </trkpt>
			 <trkpt lat="30.60781" lon="-96.37452">
				 <ele>80</ele>
			 </trkpt>
			 <trkpt lat="30.60818" lon="-96.37426">
				 <ele>84</ele>
			 </trkpt>
			 <trkpt lat="30.60862" lon="-96.3738">
				 <ele>88</ele>
			 </trkpt>
			 <trkpt lat="30.60886" lon="-96.37353">
				 <ele>89</ele>
			 </trkpt>
			 <trkpt lat="30.61006" lon="-96.37216">
				 <ele>92</ele>
			 </trkpt>
			 <trkpt lat="30.61031" lon="-96.37184">
				 <ele>94</ele>
			 </trkpt>
			 <trkpt lat="30.61037" lon="-96.37177">
				 <ele>92</ele>
			 </trkpt>
			 <trkpt lat="30.6106" lon="-96.37155">
				 <ele>91</ele>
			 </trkpt>
			 <trkpt lat="30.61149" lon="-96.37057">
				 <ele>91</ele>
			 </trkpt>
			 <trkpt lat="30.61245" lon="-96.36946">
				 <ele>89</ele>
			 </trkpt>
			 <trkpt lat="30.61531" lon="-96.36619">
				 <ele>91</ele>
			 </trkpt>
			 <trkpt lat="30.61545" lon="-96.36603">
				 <ele>93</ele>
			 </trkpt>
			 <trkpt lat="30.61594" lon="-96.36553">
				 <ele>92</ele>
			 </trkpt>
			 <trkpt lat="30.61798" lon="-96.36325">
				 <ele>90</ele>
			 </trkpt>
			 <trkpt lat="30.61963" lon="-96.3615">
				 <ele>95</ele>
			 </trkpt>
			 <trkpt lat="30.62028" lon="-96.36076">
				 <ele>98</ele>
			 </trkpt>
			 <trkpt lat="30.62198" lon="-96.35893">
				 <ele>101</ele>
			 </trkpt>
			 <trkpt lat="30.62205" lon="-96.35838">
				 <ele>104</ele>
			 </trkpt>
			 <trkpt lat="30.62174" lon="-96.35811">
				 <ele>104</ele>
			 </trkpt>
			 <trkpt lat="30.62067" lon="-96.35717">
				 <ele>105</ele>
			 </trkpt>
			 <trkpt lat="30.61834" lon="-96.35504">
				 <ele>104</ele>
			 </trkpt>
			 <trkpt lat="30.61762" lon="-96.35433">
				 <ele>103</ele>
			 </trkpt>
			 <trkpt lat="30.61604" lon="-96.3529">
				 <ele>103</ele>
			 </trkpt>
			 <trkpt lat="30.61408" lon="-96.35114">
				 <ele>102</ele>
			 </trkpt>
			 <trkpt lat="30.61408" lon="-96.35114">
				 <ele>101</ele>
			 </trkpt>
			 <trkpt lat="30.61396" lon="-96.35108">
				 <ele>102</ele>
			 </trkpt>
			 <trkpt lat="30.61374" lon="-96.35107">
				 <ele>103</ele>
			 </trkpt>
			 <trkpt lat="30.61365" lon="-96.35109">
				 <ele>101</ele>
			 </trkpt>
			 <trkpt lat="30.61208" lon="-96.35288">
				 <ele>101</ele>
			 </trkpt>
			 <trkpt lat="30.61061" lon="-96.35455">
				 <ele>101</ele>
			 </trkpt>
			 <trkpt lat="30.6105" lon="-96.35462">
				 <ele>101</ele>
			 </trkpt>
			 <trkpt lat="30.60995" lon="-96.35522">
				 <ele>102</ele>
			 </trkpt>
			 <trkpt lat="30.60814" lon="-96.35732">
				 <ele>102</ele>
			 </trkpt>
			 <trkpt lat="30.60801" lon="-96.35751">
				 <ele>102</ele>
			 </trkpt>
			 <trkpt lat="30.6077" lon="-96.35782">
				 <ele>102</ele>
			 </trkpt>
			 <trkpt lat="30.60764" lon="-96.35775">
				 <ele>102</ele>
			 </trkpt>
			 <trkpt lat="30.6076" lon="-96.35778">
				 <ele>103</ele>
			 </trkpt>
			 <trkpt lat="30.60679" lon="-96.35684">
				 <ele>103</ele>
			 </trkpt>
			 <trkpt lat="30.60633" lon="-96.3563">
				 <ele>103</ele>
			 </trkpt>
			 <trkpt lat="30.60626" lon="-96.35627">
				 <ele>103</ele>
			 </trkpt>
			 <trkpt lat="30.60617" lon="-96.35611">
				 <ele>103</ele>
			 </trkpt>
			 <trkpt lat="30.60547" lon="-96.35531">
				 <ele>104</ele>
			 </trkpt>
			 <trkpt lat="30.60472" lon="-96.35444">
				 <ele>105</ele>
			 </trkpt>
			 <trkpt lat="30.60356" lon="-96.35557">
				 <ele>106</ele>
			 </trkpt>
			 <trkpt lat="30.60305" lon="-96.35649">
				 <ele>106</ele>
			 </trkpt>
			 <trkpt lat="30.603" lon="-96.35647">
				 <ele>105</ele>
			 </trkpt>
			 <trkpt lat="30.60305" lon="-96.35649">
				 <ele>106</ele>
			 </trkpt>
			 <trkpt lat="30.60286" lon="-96.35698">
				 <ele>106</ele>
			 </trkpt>
			 <trkpt lat="30.60269" lon="-96.35773">
				 <ele>107</ele>
			 </trkpt>
			 <trkpt lat="30.60271" lon="-96.35788">
				 <ele>107</ele>
			 </trkpt>
			 <trkpt lat="30.60365" lon="-96.35813">
				 <ele>108</ele>
			 </trkpt>
			 <trkpt lat="30.60403" lon="-96.35834">
				 <ele>107</ele>
			 </trkpt>
			 <trkpt lat="30.60458" lon="-96.35884">
				 <ele>107</ele>
			 </trkpt>
			 <trkpt lat="30.60457" lon="-96.35906">
				 <ele>105</ele>
			 </trkpt>
			 <trkpt lat="30.60457" lon="-96.35906">
				 <ele>105</ele>
			 </trkpt>
			 <trkpt lat="30.60436" lon="-96.35936">
				 <ele>105</ele>
			 </trkpt>
			 <trkpt lat="30.60399" lon="-96.3598">
				 <ele>105</ele>
			 </trkpt>
			 <trkpt lat="30.60386" lon="-96.36001">
				 <ele>105</ele>
			 </trkpt>
			 <trkpt lat="30.60354" lon="-96.36082">
				 <ele>106</ele>
			 </trkpt>
			 <trkpt lat="30.60329" lon="-96.36103">
				 <ele>106</ele>
			 </trkpt>
			 <trkpt lat="30.60316" lon="-96.36106">
				 <ele>107</ele>
			 </trkpt>
			 <trkpt lat="30.60201" lon="-96.36112">
				 <ele>107</ele>
			 </trkpt>
			 <trkpt lat="30.60161" lon="-96.36098">
				 <ele>107</ele>
			 </trkpt>
			 <trkpt lat="30.60153" lon="-96.36092">
				 <ele>108</ele>
			 </trkpt>
			 <trkpt lat="30.60144" lon="-96.36082">
				 <ele>108</ele>
			 </trkpt>
			 <trkpt lat="30.60121" lon="-96.36029">
				 <ele>108</ele>
			 </trkpt>
			 <trkpt lat="30.60117" lon="-96.35986">
				 <ele>109</ele>
			 </trkpt>
			 <trkpt lat="30.60104" lon="-96.35878">
				 <ele>109</ele>
			 </trkpt>
			 <trkpt lat="30.6011" lon="-96.35826">
				 <ele>110</ele>
			 </trkpt>
			 <trkpt lat="30.60108" lon="-96.35816">
				 <ele>110</ele>
			 </trkpt>
			 <trkpt lat="30.60077" lon="-96.35797">
				 <ele>110</ele>
			 </trkpt>
			 <trkpt lat="30.60023" lon="-96.35754">
				 <ele>109</ele>
			 </trkpt>
			 <trkpt lat="30.60015" lon="-96.35752">
				 <ele>108</ele>
			 </trkpt>
			 <trkpt lat="30.5993" lon="-96.35682">
				 <ele>108</ele>
			 </trkpt>
			 <trkpt lat="30.59876" lon="-96.35637">
				 <ele>107</ele>
			 </trkpt>
			 <trkpt lat="30.59859" lon="-96.35621">
				 <ele>107</ele>
			 </trkpt>
			 <trkpt lat="30.59828" lon="-96.35575">
				 <ele>106</ele>
			 </trkpt>
			 <trkpt lat="30.59815" lon="-96.35532">
				 <ele>106</ele>
			 </trkpt>
			 <trkpt lat="30.59814" lon="-96.35528">
				 <ele>105</ele>
			 </trkpt>
			 <trkpt lat="30.59658" lon="-96.35526">
				 <ele>104</ele>
			 </trkpt>
			 <trkpt lat="30.59603" lon="-96.35523">
				 <ele>103</ele>
			 </trkpt>
			 <trkpt lat="30.596" lon="-96.35516">
				 <ele>103</ele>
			 </trkpt>
			 <trkpt lat="30.59599" lon="-96.35429">
				 <ele>101</ele>
			 </trkpt>
			 <trkpt lat="30.59588" lon="-96.35421">
				 <ele>102</ele>
			 </trkpt>
			 <trkpt lat="30.5958" lon="-96.35422">
				 <ele>103</ele>
			 </trkpt>
			 <trkpt lat="30.59547" lon="-96.35432">
				 <ele>103</ele>
			 </trkpt>
			 <trkpt lat="30.59502" lon="-96.35428">
				 <ele>104</ele>
			 </trkpt>
			 <trkpt lat="30.59485" lon="-96.35421">
				 <ele>104</ele>
			 </trkpt>
			 <trkpt lat="30.59449" lon="-96.35386">
				 <ele>104</ele>
			 </trkpt>
			 <trkpt lat="30.59432" lon="-96.35353">
				 <ele>104</ele>
			 </trkpt>
			 <trkpt lat="30.59428" lon="-96.35337">
				 <ele>104</ele>
			 </trkpt>
			 <trkpt lat="30.59427" lon="-96.35288">
				 <ele>103</ele>
			 </trkpt>
			 <trkpt lat="30.59462" lon="-96.35178">
				 <ele>103</ele>
			 </trkpt>
			 <trkpt lat="30.59471" lon="-96.3516">
				 <ele>102</ele>
			 </trkpt>
			 <trkpt lat="30.59503" lon="-96.35123">
				 <ele>102</ele>
			 </trkpt>
			 <trkpt lat="30.59542" lon="-96.35098">
				 <ele>102</ele>
			 </trkpt>
			 <trkpt lat="30.59645" lon="-96.3506">
				 <ele>101</ele>
			 </trkpt>
			 <trkpt lat="30.59676" lon="-96.35028">
				 <ele>101</ele>
			 </trkpt>
			 <trkpt lat="30.59685" lon="-96.34987">
				 <ele>100</ele>
			 </trkpt>
			 <trkpt lat="30.59685" lon="-96.34987">
				 <ele>99</ele>
			 </trkpt>
			 <trkpt lat="30.59677" lon="-96.34953">
				 <ele>99</ele>
			 </trkpt>
			 <trkpt lat="30.59662" lon="-96.34924">
				 <ele>100</ele>
			 </trkpt>
			 <trkpt lat="30.59661" lon="-96.34915">
				 <ele>100</ele>
			 </trkpt>
			 <trkpt lat="30.59651" lon="-96.34892">
				 <ele>100</ele>
			 </trkpt>
			 <trkpt lat="30.59653" lon="-96.34872">
				 <ele>99</ele>
			 </trkpt>
			 <trkpt lat="30.5966" lon="-96.34854">
				 <ele>99</ele>
			 </trkpt>
			 <trkpt lat="30.59786" lon="-96.34714">
				 <ele>98</ele>
			 </trkpt>
			 <trkpt lat="30.60147" lon="-96.34308">
				 <ele>96</ele>
			 </trkpt>
			 <trkpt lat="30.60217" lon="-96.3423">
				 <ele>96</ele>
			 </trkpt>
			 <trkpt lat="30.60333" lon="-96.34137">
				 <ele>97</ele>
			 </trkpt>
			 <trkpt lat="30.60349" lon="-96.34151">
				 <ele>97</ele>
			 </trkpt>
			 <trkpt lat="30.6042" lon="-96.34216">
				 <ele>95</ele>
			 </trkpt>
			 <trkpt lat="30.6058" lon="-96.34357">
				 <ele>94</ele>
			 </trkpt>
			 <trkpt lat="30.60737" lon="-96.34503">
				 <ele>94</ele>
			 </trkpt>
			 <trkpt lat="30.60832" lon="-96.34591">
				 <ele>96</ele>
			 </trkpt>
			 <trkpt lat="30.60844" lon="-96.34597">
				 <ele>98</ele>
			 </trkpt>
			 <trkpt lat="30.60917" lon="-96.34669">
				 <ele>98</ele>
			 </trkpt>
			 <trkpt lat="30.60956" lon="-96.34705">
				 <ele>98</ele>
			 </trkpt>
			 <trkpt lat="30.60983" lon="-96.3467">
				 <ele>98</ele>
			 </trkpt>
			 <trkpt lat="30.61011" lon="-96.34618">
				 <ele>97</ele>
			 </trkpt>
			 <trkpt lat="30.61019" lon="-96.34608">
				 <ele>97</ele>
			 </trkpt>
			 <trkpt lat="30.61033" lon="-96.34612">
				 <ele>96</ele>
			 </trkpt>
			 <trkpt lat="30.61055" lon="-96.34639">
				 <ele>96</ele>
			 </trkpt>
			 <trkpt lat="30.6109" lon="-96.3467">
				 <ele>95</ele>
			 </trkpt>
			 <trkpt lat="30.61133" lon="-96.34709">
				 <ele>95</ele>
			 </trkpt>
			 <trkpt lat="30.61148" lon="-96.34719">
				 <ele>95</ele>
			 </trkpt>
			 <trkpt lat="30.61149" lon="-96.34725">
				 <ele>95</ele>
			 </trkpt>
			 <trkpt lat="30.6118" lon="-96.34753">
				 <ele>93</ele>
			 </trkpt>
			 <trkpt lat="30.6123" lon="-96.34796">
				 <ele>91</ele>
			 </trkpt>
			 <trkpt lat="30.6125" lon="-96.34815">
				 <ele>90</ele>
			 </trkpt>
			 <trkpt lat="30.61248" lon="-96.34831">
				 <ele>93</ele>
			 </trkpt>
			 <trkpt lat="30.61248" lon="-96.34842">
				 <ele>94</ele>
			 </trkpt>
			 <trkpt lat="30.61231" lon="-96.34866">
				 <ele>94</ele>
			 </trkpt>
			 <trkpt lat="30.61193" lon="-96.34924">
				 <ele>96</ele>
			 </trkpt>
			 <trkpt lat="30.61193" lon="-96.3494">
				 <ele>95</ele>
			 </trkpt>
			 <trkpt lat="30.61202" lon="-96.34953">
				 <ele>94</ele>
			 </trkpt>
			 <trkpt lat="30.61277" lon="-96.35">
				 <ele>94</ele>
			 </trkpt>
			 <trkpt lat="30.61321" lon="-96.35026">
				 <ele>95</ele>
			 </trkpt>
			 <trkpt lat="30.61343" lon="-96.35045">
				 <ele>95</ele>
			 </trkpt>
			 <trkpt lat="30.61371" lon="-96.35065">
				 <ele>96</ele>
			 </trkpt>
			 <trkpt lat="30.61387" lon="-96.35084">
				 <ele>97</ele>
			 </trkpt>
			 <trkpt lat="30.61392" lon="-96.3508">
				 <ele>98</ele>
			 </trkpt>
			 <trkpt lat="30.61451" lon="-96.35026">
				 <ele>99</ele>
			 </trkpt>
			 <trkpt lat="30.61524" lon="-96.34945">
				 <ele>99</ele>
			 </trkpt>
			 <trkpt lat="30.61556" lon="-96.34905">
				 <ele>100</ele>
			 </trkpt>
			 <trkpt lat="30.61628" lon="-96.34802">
				 <ele>100</ele>
			 </trkpt>
			 <trkpt lat="30.61657" lon="-96.34769">
				 <ele>101</ele>
			 </trkpt>
			 <trkpt lat="30.61667" lon="-96.34787">
				 <ele>102</ele>
			 </trkpt>
			 <trkpt lat="30.61754" lon="-96.34827">
				 <ele>102</ele>
			 </trkpt>
			 <trkpt lat="30.61921" lon="-96.34644">
				 <ele>102</ele>
			 </trkpt>
			 <trkpt lat="30.61892" lon="-96.34614">
				 <ele>103</ele>
			 </trkpt>
			 <trkpt lat="30.61815" lon="-96.34536">
				 <ele>103</ele>
			 </trkpt>
			 <trkpt lat="30.61784" lon="-96.34508">
				 <ele>103</ele>
			 </trkpt>
			 <trkpt lat="30.61764" lon="-96.34494">
				 <ele>103</ele>
			 </trkpt>
			 <trkpt lat="30.6174" lon="-96.34481">
				 <ele>103</ele>
			 </trkpt>
			 <trkpt lat="30.61723" lon="-96.34463">
				 <ele>104</ele>
			 </trkpt>
			 <trkpt lat="30.6172" lon="-96.34467">
				 <ele>103</ele>
			 </trkpt>
			 <trkpt lat="30.61682" lon="-96.34414">
				 <ele>103</ele>
			 </trkpt>
			 <trkpt lat="30.61637" lon="-96.34342">
				 <ele>102</ele>
			 </trkpt>
			 <trkpt lat="30.61644" lon="-96.3431">
				 <ele>104</ele>
			 </trkpt>
			 <trkpt lat="30.61682" lon="-96.34252">
				 <ele>104</ele>
			 </trkpt>
			 <trkpt lat="30.61726" lon="-96.34183">
				 <ele>104</ele>
			 </trkpt>
			 <trkpt lat="30.61732" lon="-96.34173">
				 <ele>103</ele>
			 </trkpt>
			 <trkpt lat="30.61785" lon="-96.34105">
				 <ele>102</ele>
			 </trkpt>
			 <trkpt lat="30.61808" lon="-96.34073">
				 <ele>101</ele>
			 </trkpt>
			 <trkpt lat="30.6185" lon="-96.34012">
				 <ele>102</ele>
			 </trkpt>
			 <trkpt lat="30.6193" lon="-96.33895">
				 <ele>102</ele>
			 </trkpt>
			 <trkpt lat="30.6197" lon="-96.3383">
				 <ele>101</ele>
			 </trkpt>
			 <trkpt lat="30.61979" lon="-96.33815">
				 <ele>101</ele>
			 </trkpt>
			 <trkpt lat="30.62002" lon="-96.33781">
				 <ele>101</ele>
			 </trkpt>
			 <trkpt lat="30.6202" lon="-96.33752">
				 <ele>101</ele>
			 </trkpt>
			 <trkpt lat="30.62025" lon="-96.33742">
				 <ele>101</ele>
			 </trkpt>
			 <trkpt lat="30.62035" lon="-96.33696">
				 <ele>103</ele>
			 </trkpt>
			 <trkpt lat="30.62034" lon="-96.3363">
				 <ele>105</ele>
			 </trkpt>
			 <trkpt lat="30.62026" lon="-96.33596">
				 <ele>105</ele>
			 </trkpt>
			 <trkpt lat="30.62011" lon="-96.33561">
				 <ele>105</ele>
			 </trkpt>
			 <trkpt lat="30.61976" lon="-96.33512">
				 <ele>106</ele>
			 </trkpt>
			 <trkpt lat="30.6197" lon="-96.3351">
				 <ele>106</ele>
			 </trkpt>
			 <trkpt lat="30.61962" lon="-96.33498">
				 <ele>107</ele>
			 </trkpt>
			 <trkpt lat="30.61947" lon="-96.33488">
				 <ele>108</ele>
			 </trkpt>
			 <trkpt lat="30.61938" lon="-96.33482">
				 <ele>108</ele>
			 </trkpt>
			 <trkpt lat="30.61886" lon="-96.33463">
				 <ele>108</ele>
			 </trkpt>
			 <trkpt lat="30.61854" lon="-96.3346">
				 <ele>109</ele>
			 </trkpt>
			 <trkpt lat="30.61854" lon="-96.3346">
				 <ele>109</ele>
			 </trkpt>
			 <trkpt lat="30.61807" lon="-96.3347">
				 <ele>108</ele>
			 </trkpt>
			 <trkpt lat="30.61752" lon="-96.33504">
				 <ele>108</ele>
			 </trkpt>
			 <trkpt lat="30.61737" lon="-96.33518">
				 <ele>107</ele>
			 </trkpt>
			 <trkpt lat="30.61717" lon="-96.33527">
				 <ele>105</ele>
			 </trkpt>
			 <trkpt lat="30.61688" lon="-96.33527">
				 <ele>104</ele>
			 </trkpt>
			 <trkpt lat="30.61675" lon="-96.33519">
				 <ele>103</ele>
			 </trkpt>
			 <trkpt lat="30.61667" lon="-96.33525">
				 <ele>101</ele>
			 </trkpt>
			 <trkpt lat="30.61593" lon="-96.33639">
				 <ele>99</ele>
			 </trkpt>
			 <trkpt lat="30.61593" lon="-96.33639">
				 <ele>98</ele>
			 </trkpt>
			 <trkpt lat="30.61478" lon="-96.33807">
				 <ele>97</ele>
			 </trkpt>
			 <trkpt lat="30.61427" lon="-96.33881">
				 <ele>98</ele>
			 </trkpt>
			 <trkpt lat="30.61424" lon="-96.33878">
				 <ele>98</ele>
			 </trkpt>
			 <trkpt lat="30.6141" lon="-96.33865">
				 <ele>99</ele>
			 </trkpt>
			 <trkpt lat="30.61368" lon="-96.33834">
				 <ele>101</ele>
			 </trkpt>
			 <trkpt lat="30.61361" lon="-96.33831">
				 <ele>102</ele>
			 </trkpt>
			 <trkpt lat="30.6131" lon="-96.33895">
				 <ele>102</ele>
			 </trkpt>
			 <trkpt lat="30.61262" lon="-96.33966">
				 <ele>103</ele>
			 </trkpt>
			 <trkpt lat="30.61117" lon="-96.34176">
				 <ele>103</ele>
			 </trkpt>
			 <trkpt lat="30.6111" lon="-96.34176">
				 <ele>104</ele>
			 </trkpt>
			 <trkpt lat="30.61078" lon="-96.34217">
				 <ele>106</ele>
			 </trkpt>
			 <trkpt lat="30.61057" lon="-96.3425">
				 <ele>108</ele>
			 </trkpt>
			 <trkpt lat="30.61011" lon="-96.34317">
				 <ele>108</ele>
			 </trkpt>
			 <trkpt lat="30.60983" lon="-96.34293">
				 <ele>107</ele>
			 </trkpt>
			 <trkpt lat="30.60979" lon="-96.34291">
				 <ele>107</ele>
			 </trkpt>
			 <trkpt lat="30.60962" lon="-96.3428">
				 <ele>107</ele>
			 </trkpt>
			 <trkpt lat="30.60915" lon="-96.34248">
				 <ele>107</ele>
			 </trkpt>
			 <trkpt lat="30.60915" lon="-96.34248">
				 <ele>106</ele>
			 </trkpt>
			 <trkpt lat="30.60738" lon="-96.34088">
				 <ele>106</ele>
			 </trkpt>
			 <trkpt lat="30.60618" lon="-96.33998">
				 <ele>103</ele>
			 </trkpt>
			 <trkpt lat="30.60586" lon="-96.33978">
				 <ele>105</ele>
			 </trkpt>
			 <trkpt lat="30.60501" lon="-96.33929">
				 <ele>105</ele>
			 </trkpt>
			 <trkpt lat="30.60495" lon="-96.33908">
				 <ele>105</ele>
			 </trkpt>
			 <trkpt lat="30.60498" lon="-96.33902">
				 <ele>105</ele>
			 </trkpt>
			 <trkpt lat="30.60561" lon="-96.33828">
				 <ele>104</ele>
			 </trkpt>
			 <trkpt lat="30.60636" lon="-96.3374">
				 <ele>104</ele>
			 </trkpt>
			 <trkpt lat="30.60656" lon="-96.3372">
				 <ele>104</ele>
			 </trkpt>
			 <trkpt lat="30.60696" lon="-96.33687">
				 <ele>103</ele>
			 </trkpt>
			 <trkpt lat="30.60725" lon="-96.33663">
				 <ele>103</ele>
			 </trkpt>
			 <trkpt lat="30.60751" lon="-96.33637">
				 <ele>104</ele>
			 </trkpt>
			 <trkpt lat="30.60887" lon="-96.33477">
				 <ele>104</ele>
			 </trkpt>
			 <trkpt lat="30.60893" lon="-96.33449">
				 <ele>104</ele>
			 </trkpt>
			 <trkpt lat="30.60889" lon="-96.33441">
				 <ele>104</ele>
			 </trkpt>
			 <trkpt lat="30.60888" lon="-96.33417">
				 <ele>102</ele>
			 </trkpt>
			 <trkpt lat="30.60817" lon="-96.33333">
				 <ele>100</ele>
			 </trkpt>
			 <trkpt lat="30.60817" lon="-96.33333">
				 <ele>100</ele>
			 </trkpt>
			 <trkpt lat="30.60775" lon="-96.33288">
				 <ele>100</ele>
			 </trkpt>
			 <trkpt lat="30.60741" lon="-96.33178">
				 <ele>99</ele>
			 </trkpt>
			 <trkpt lat="30.60734" lon="-96.3316">
				 <ele>98</ele>
			 </trkpt>
			 <trkpt lat="30.6071" lon="-96.33129">
				 <ele>97</ele>
			 </trkpt>
			 <trkpt lat="30.60677" lon="-96.33093">
				 <ele>96</ele>
			 </trkpt>
			 <trkpt lat="30.60663" lon="-96.3306">
				 <ele>95</ele>
			 </trkpt>
			 <trkpt lat="30.60604" lon="-96.32989">
				 <ele>94</ele>
			 </trkpt>
			 <trkpt lat="30.60542" lon="-96.32913">
				 <ele>94</ele>
			 </trkpt>
			 <trkpt lat="30.60523" lon="-96.32896">
				 <ele>95</ele>
			 </trkpt>
			 <trkpt lat="30.60458" lon="-96.32874">
				 <ele>96</ele>
			 </trkpt>
			 <trkpt lat="30.60413" lon="-96.32861">
				 <ele>98</ele>
			 </trkpt>
			 <trkpt lat="30.60386" lon="-96.32849">
				 <ele>101</ele>
			 </trkpt>
			 <trkpt lat="30.60303" lon="-96.32792">
				 <ele>101</ele>
			 </trkpt>
			 <trkpt lat="30.6022" lon="-96.32627">
				 <ele>100</ele>
			 </trkpt>
			 <trkpt lat="30.6022" lon="-96.32627">
				 <ele>98</ele>
			 </trkpt>
			 <trkpt lat="30.60313" lon="-96.32529">
				 <ele>95</ele>
			 </trkpt>
			 <trkpt lat="30.60352" lon="-96.32517">
				 <ele>93</ele>
			 </trkpt>
			 <trkpt lat="30.60368" lon="-96.32512">
				 <ele>91</ele>
			 </trkpt>
			 <trkpt lat="30.60402" lon="-96.32488">
				 <ele>90</ele>
			 </trkpt>
			 <trkpt lat="30.60796" lon="-96.32053">
				 <ele>90</ele>
			 </trkpt>
			 <trkpt lat="30.60796" lon="-96.32053">
				 <ele>89</ele>
			 </trkpt>
			 <trkpt lat="30.60803" lon="-96.31945">
				 <ele>90</ele>
			 </trkpt>
			 <trkpt lat="30.60769" lon="-96.3189">
				 <ele>90</ele>
			 </trkpt>
			 <trkpt lat="30.60757" lon="-96.31864">
				 <ele>90</ele>
			 </trkpt>
			 <trkpt lat="30.60712" lon="-96.31769">
				 <ele>91</ele>
			 </trkpt>
			 <trkpt lat="30.60675" lon="-96.31721">
				 <ele>91</ele>
			 </trkpt>
			 <trkpt lat="30.6066" lon="-96.317">
				 <ele>90</ele>
			 </trkpt>
			 <trkpt lat="30.60646" lon="-96.3166">
				 <ele>90</ele>
			 </trkpt>
			 <trkpt lat="30.60624" lon="-96.31404">
				 <ele>89</ele>
			 </trkpt>
			 <trkpt lat="30.60624" lon="-96.31404">
				 <ele>89</ele>
			 </trkpt>
			 <trkpt lat="30.6063" lon="-96.31392">
				 <ele>88</ele>
			 </trkpt>
			 <trkpt lat="30.60683" lon="-96.31381">
				 <ele>88</ele>
			 </trkpt>
			 <trkpt lat="30.60698" lon="-96.31372">
				 <ele>88</ele>
			 </trkpt>
			 <trkpt lat="30.60782" lon="-96.31289">
				 <ele>89</ele>
			 </trkpt>
			 <trkpt lat="30.60876" lon="-96.31186">
				 <ele>89</ele>
			 </trkpt>
			 <trkpt lat="30.60876" lon="-96.31186">
				 <ele>91</ele>
			 </trkpt>
			 <trkpt lat="30.60912" lon="-96.31157">
				 <ele>90</ele>
			 </trkpt>
			 <trkpt lat="30.60916" lon="-96.31147">
				 <ele>89</ele>
			 </trkpt>
			 <trkpt lat="30.60926" lon="-96.31135">
				 <ele>89</ele>
			 </trkpt>
			 <trkpt lat="30.60955" lon="-96.31111">
				 <ele>90</ele>
			 </trkpt>
			 <trkpt lat="30.61041" lon="-96.31017">
				 <ele>92</ele>
			 </trkpt>
			 <trkpt lat="30.61127" lon="-96.30917">
				 <ele>89</ele>
			 </trkpt>
			 <trkpt lat="30.61152" lon="-96.30865">
				 <ele>89</ele>
			 </trkpt>
			 <trkpt lat="30.61216" lon="-96.30667">
				 <ele>88</ele>
			 </trkpt>
			 <trkpt lat="30.61263" lon="-96.30563">
				 <ele>89</ele>
			 </trkpt>
			 <trkpt lat="30.6128" lon="-96.30518">
				 <ele>89</ele>
			 </trkpt>
			 <trkpt lat="30.61358" lon="-96.30504">
				 <ele>90</ele>
			 </trkpt>
			 <trkpt lat="30.61467" lon="-96.30555">
				 <ele>91</ele>
			 </trkpt>
			 <trkpt lat="30.61511" lon="-96.3046">
				 <ele>92</ele>
			 </trkpt>
			 <trkpt lat="30.61566" lon="-96.3039">
				 <ele>92</ele>
			 </trkpt>
			 <trkpt lat="30.61566" lon="-96.3039">
				 <ele>92</ele>
			 </trkpt>
			 <trkpt lat="30.61623" lon="-96.30325">
				 <ele>90</ele>
			 </trkpt>
			 <trkpt lat="30.61696" lon="-96.30267">
				 <ele>86</ele>
			 </trkpt>
			 <trkpt lat="30.61741" lon="-96.30224">
				 <ele>84</ele>
			 </trkpt>
		 </trkseg>
	 </trk>
</gpx>