<?xml version="1.0" encoding="UTF-8"?>
 <gpx creator="Garmin Connect" version="1.1"
	 xsi:schemaLocation="http://www.topografix.com/GPX/1/1 http://www.topografix.com/GPX/11.xsd"
	 xmlns:ns3="http://www.garmin.com/xmlschemas/TrackPointExtension/v1"
	 xmlns="http://www.topografix.com/GPX/1/1"
	 xmlns:xsi="http://www.w3.org/2001/XMLSchema-instance" xmlns:ns2="http://www.garmin.com/xmlschemas/GpxExtensions/v3">
	 <metadata>
		<name>Big Sur International Marathon 2026 - 42.195 km</name>
		 <link href="https://www.goandrace.com">
		 <text>Garmin Connect</text>
		 </link>
	 <time>2026-08-09T16:46:16</time>
	 </metadata>
	 <trk>
		 <name>Big Sur International Marathon 2026 - 42.195 km</name>
		 <trkseg>
			 <trkpt lat="36.247496" lon="-121.781833">
				 <ele>100.7</ele>
			 </trkpt>
			 <trkpt lat="36.247755" lon="-121.782056">
				 <ele>100.3</ele>
			 </trkpt>
			 <trkpt lat="36.247908" lon="-121.782203">
				 <ele>99.5</ele>
			 </trkpt>
			 <trkpt lat="36.248054" lon="-121.782368">
				 <ele>98</ele>
			 </trkpt>
			 <trkpt lat="36.24823" lon="-121.782644">
				 <ele>96.5</ele>
			 </trkpt>
			 <trkpt lat="36.248428" lon="-121.783001">
				 <ele>95.2</ele>
			 </trkpt>
			 <trkpt lat="36.248692" lon="-121.783521">
				 <ele>93.5</ele>
			 </trkpt>
			 <trkpt lat="36.248856" lon="-121.783904">
				 <ele>91.8</ele>
			 </trkpt>
			 <trkpt lat="36.249224" lon="-121.78485">
				 <ele>89.8</ele>
			 </trkpt>
			 <trkpt lat="36.249487" lon="-121.785426">
				 <ele>88</ele>
			 </trkpt>
			 <trkpt lat="36.249622" lon="-121.785673">
				 <ele>85.4</ele>
			 </trkpt>
			 <trkpt lat="36.249713" lon="-121.785807">
				 <ele>82.6</ele>
			 </trkpt>
			 <trkpt lat="36.249799" lon="-121.785912">
				 <ele>80.7</ele>
			 </trkpt>
			 <trkpt lat="36.250321" lon="-121.786427">
				 <ele>79</ele>
			 </trkpt>
			 <trkpt lat="36.250766" lon="-121.78681">
				 <ele>79.2</ele>
			 </trkpt>
			 <trkpt lat="36.251304" lon="-121.787068">
				 <ele>78.8</ele>
			 </trkpt>
			 <trkpt lat="36.251588" lon="-121.787204">
				 <ele>78.3</ele>
			 </trkpt>
			 <trkpt lat="36.252191" lon="-121.787328">
				 <ele>77.8</ele>
			 </trkpt>
			 <trkpt lat="36.252555" lon="-121.787346">
				 <ele>77.5</ele>
			 </trkpt>
			 <trkpt lat="36.253276" lon="-121.787343">
				 <ele>77.5</ele>
			 </trkpt>
			 <trkpt lat="36.253761" lon="-121.787439">
				 <ele>76.5</ele>
			 </trkpt>
			 <trkpt lat="36.254114" lon="-121.787562">
				 <ele>75.7</ele>
			 </trkpt>
			 <trkpt lat="36.254515" lon="-121.78777">
				 <ele>74.8</ele>
			 </trkpt>
			 <trkpt lat="36.255141" lon="-121.788185">
				 <ele>74.6</ele>
			 </trkpt>
			 <trkpt lat="36.255483" lon="-121.788297">
				 <ele>74.6</ele>
			 </trkpt>
			 <trkpt lat="36.25582" lon="-121.788342">
				 <ele>73.5</ele>
			 </trkpt>
			 <trkpt lat="36.256707" lon="-121.788343">
				 <ele>73.8</ele>
			 </trkpt>
			 <trkpt lat="36.257768" lon="-121.78833">
				 <ele>74.4</ele>
			 </trkpt>
			 <trkpt lat="36.258356" lon="-121.788381">
				 <ele>74.6</ele>
			 </trkpt>
			 <trkpt lat="36.258733" lon="-121.788511">
				 <ele>74.7</ele>
			 </trkpt>
			 <trkpt lat="36.259068" lon="-121.78871">
				 <ele>74.8</ele>
			 </trkpt>
			 <trkpt lat="36.259332" lon="-121.788922">
				 <ele>75.5</ele>
			 </trkpt>
			 <trkpt lat="36.259704" lon="-121.789435">
				 <ele>77.1</ele>
			 </trkpt>
			 <trkpt lat="36.259836" lon="-121.789651">
				 <ele>78.7</ele>
			 </trkpt>
			 <trkpt lat="36.259898" lon="-121.789752">
				 <ele>79.4</ele>
			 </trkpt>
			 <trkpt lat="36.260082" lon="-121.790207">
				 <ele>79.9</ele>
			 </trkpt>
			 <trkpt lat="36.260207" lon="-121.790682">
				 <ele>80.5</ele>
			 </trkpt>
			 <trkpt lat="36.26039" lon="-121.791582">
				 <ele>80.5</ele>
			 </trkpt>
			 <trkpt lat="36.260578" lon="-121.79236">
				 <ele>80.3</ele>
			 </trkpt>
			 <trkpt lat="36.260846" lon="-121.792918">
				 <ele>80</ele>
			 </trkpt>
			 <trkpt lat="36.26111" lon="-121.793232">
				 <ele>79.5</ele>
			 </trkpt>
			 <trkpt lat="36.261383" lon="-121.793483">
				 <ele>78.8</ele>
			 </trkpt>
			 <trkpt lat="36.263293" lon="-121.794486">
				 <ele>77.8</ele>
			 </trkpt>
			 <trkpt lat="36.263543" lon="-121.794647">
				 <ele>76.7</ele>
			 </trkpt>
			 <trkpt lat="36.263708" lon="-121.794784">
				 <ele>75.7</ele>
			 </trkpt>
			 <trkpt lat="36.263898" lon="-121.794976">
				 <ele>74.6</ele>
			 </trkpt>
			 <trkpt lat="36.264041" lon="-121.795184">
				 <ele>74.4</ele>
			 </trkpt>
			 <trkpt lat="36.264235" lon="-121.795662">
				 <ele>73.7</ele>
			 </trkpt>
			 <trkpt lat="36.264308" lon="-121.795928">
				 <ele>73.2</ele>
			 </trkpt>
			 <trkpt lat="36.264328" lon="-121.796168">
				 <ele>72.6</ele>
			 </trkpt>
			 <trkpt lat="36.264321" lon="-121.796406">
				 <ele>72.2</ele>
			 </trkpt>
			 <trkpt lat="36.264124" lon="-121.799772">
				 <ele>72</ele>
			 </trkpt>
			 <trkpt lat="36.264146" lon="-121.800303">
				 <ele>72.1</ele>
			 </trkpt>
			 <trkpt lat="36.264239" lon="-121.80078">
				 <ele>72.5</ele>
			 </trkpt>
			 <trkpt lat="36.264302" lon="-121.801017">
				 <ele>73.3</ele>
			 </trkpt>
			 <trkpt lat="36.264439" lon="-121.801425">
				 <ele>73.1</ele>
			 </trkpt>
			 <trkpt lat="36.264648" lon="-121.801857">
				 <ele>72.5</ele>
			 </trkpt>
			 <trkpt lat="36.264734" lon="-121.802006">
				 <ele>71.3</ele>
			 </trkpt>
			 <trkpt lat="36.264935" lon="-121.802307">
				 <ele>70.7</ele>
			 </trkpt>
			 <trkpt lat="36.265708" lon="-121.803117">
				 <ele>69.8</ele>
			 </trkpt>
			 <trkpt lat="36.26739" lon="-121.804247">
				 <ele>68.9</ele>
			 </trkpt>
			 <trkpt lat="36.267741" lon="-121.804548">
				 <ele>68.2</ele>
			 </trkpt>
			 <trkpt lat="36.268152" lon="-121.80519">
				 <ele>66.9</ele>
			 </trkpt>
			 <trkpt lat="36.268519" lon="-121.806114">
				 <ele>64.5</ele>
			 </trkpt>
			 <trkpt lat="36.268742" lon="-121.80655">
				 <ele>62.2</ele>
			 </trkpt>
			 <trkpt lat="36.268976" lon="-121.806949">
				 <ele>59.5</ele>
			 </trkpt>
			 <trkpt lat="36.269197" lon="-121.807205">
				 <ele>57.5</ele>
			 </trkpt>
			 <trkpt lat="36.269521" lon="-121.807512">
				 <ele>55.8</ele>
			 </trkpt>
			 <trkpt lat="36.270393" lon="-121.807954">
				 <ele>54.5</ele>
			 </trkpt>
			 <trkpt lat="36.270849" lon="-121.808262">
				 <ele>52.5</ele>
			 </trkpt>
			 <trkpt lat="36.271401" lon="-121.808827">
				 <ele>50.6</ele>
			 </trkpt>
			 <trkpt lat="36.27184" lon="-121.809557">
				 <ele>49.2</ele>
			 </trkpt>
			 <trkpt lat="36.272092" lon="-121.810182">
				 <ele>47.5</ele>
			 </trkpt>
			 <trkpt lat="36.272657" lon="-121.811574">
				 <ele>46.4</ele>
			 </trkpt>
			 <trkpt lat="36.272792" lon="-121.812139">
				 <ele>46.2</ele>
			 </trkpt>
			 <trkpt lat="36.272837" lon="-121.812878">
				 <ele>45.8</ele>
			 </trkpt>
			 <trkpt lat="36.272807" lon="-121.813614">
				 <ele>45.6</ele>
			 </trkpt>
			 <trkpt lat="36.272612" lon="-121.814489">
				 <ele>46</ele>
			 </trkpt>
			 <trkpt lat="36.272555" lon="-121.814998">
				 <ele>46.5</ele>
			 </trkpt>
			 <trkpt lat="36.272546" lon="-121.815276">
				 <ele>46.7</ele>
			 </trkpt>
			 <trkpt lat="36.272596" lon="-121.815858">
				 <ele>46.4</ele>
			 </trkpt>
			 <trkpt lat="36.272755" lon="-121.816485">
				 <ele>46</ele>
			 </trkpt>
			 <trkpt lat="36.273013" lon="-121.817098">
				 <ele>45.5</ele>
			 </trkpt>
			 <trkpt lat="36.273484" lon="-121.817763">
				 <ele>45.1</ele>
			 </trkpt>
			 <trkpt lat="36.274771" lon="-121.818949">
				 <ele>44.5</ele>
			 </trkpt>
			 <trkpt lat="36.275086" lon="-121.819369">
				 <ele>44</ele>
			 </trkpt>
			 <trkpt lat="36.275245" lon="-121.819786">
				 <ele>43.3</ele>
			 </trkpt>
			 <trkpt lat="36.275438" lon="-121.820365">
				 <ele>42.2</ele>
			 </trkpt>
			 <trkpt lat="36.275481" lon="-121.820673">
				 <ele>40.5</ele>
			 </trkpt>
			 <trkpt lat="36.275519" lon="-121.820948">
				 <ele>39.1</ele>
			 </trkpt>
			 <trkpt lat="36.275469" lon="-121.822533">
				 <ele>37.3</ele>
			 </trkpt>
			 <trkpt lat="36.275533" lon="-121.823375">
				 <ele>37</ele>
			 </trkpt>
			 <trkpt lat="36.275737" lon="-121.824248">
				 <ele>37.6</ele>
			 </trkpt>
			 <trkpt lat="36.276079" lon="-121.825107">
				 <ele>38.8</ele>
			 </trkpt>
			 <trkpt lat="36.276199" lon="-121.825296">
				 <ele>37.7</ele>
			 </trkpt>
			 <trkpt lat="36.27645" lon="-121.825691">
				 <ele>37</ele>
			 </trkpt>
			 <trkpt lat="36.277453" lon="-121.827026">
				 <ele>36.5</ele>
			 </trkpt>
			 <trkpt lat="36.277948" lon="-121.827666">
				 <ele>37</ele>
			 </trkpt>
			 <trkpt lat="36.278323" lon="-121.828169">
				 <ele>37.2</ele>
			 </trkpt>
			 <trkpt lat="36.281661" lon="-121.832677">
				 <ele>37.1</ele>
			 </trkpt>
			 <trkpt lat="36.282209" lon="-121.833515">
				 <ele>37.1</ele>
			 </trkpt>
			 <trkpt lat="36.282509" lon="-121.834197">
				 <ele>37.2</ele>
			 </trkpt>
			 <trkpt lat="36.282765" lon="-121.83492">
				 <ele>36.9</ele>
			 </trkpt>
			 <trkpt lat="36.282909" lon="-121.835393">
				 <ele>36.5</ele>
			 </trkpt>
			 <trkpt lat="36.283009" lon="-121.835659">
				 <ele>35.3</ele>
			 </trkpt>
			 <trkpt lat="36.283439" lon="-121.837053">
				 <ele>36.4</ele>
			 </trkpt>
			 <trkpt lat="36.284058" lon="-121.83902">
				 <ele>36.8</ele>
			 </trkpt>
			 <trkpt lat="36.284252" lon="-121.839469">
				 <ele>37</ele>
			 </trkpt>
			 <trkpt lat="36.284487" lon="-121.839863">
				 <ele>36.7</ele>
			 </trkpt>
			 <trkpt lat="36.284755" lon="-121.84021">
				 <ele>36.9</ele>
			 </trkpt>
			 <trkpt lat="36.285052" lon="-121.840496">
				 <ele>37.1</ele>
			 </trkpt>
			 <trkpt lat="36.285435" lon="-121.840762">
				 <ele>36.7</ele>
			 </trkpt>
			 <trkpt lat="36.286334" lon="-121.841271">
				 <ele>36.3</ele>
			 </trkpt>
			 <trkpt lat="36.286812" lon="-121.841654">
				 <ele>35.3</ele>
			 </trkpt>
			 <trkpt lat="36.287174" lon="-121.842026">
				 <ele>33.9</ele>
			 </trkpt>
			 <trkpt lat="36.287596" lon="-121.842554">
				 <ele>32.5</ele>
			 </trkpt>
			 <trkpt lat="36.287903" lon="-121.843058">
				 <ele>31.8</ele>
			 </trkpt>
			 <trkpt lat="36.287943" lon="-121.843124">
				 <ele>31.5</ele>
			 </trkpt>
			 <trkpt lat="36.288267" lon="-121.843774">
				 <ele>31.1</ele>
			 </trkpt>
			 <trkpt lat="36.288531" lon="-121.844545">
				 <ele>30.1</ele>
			 </trkpt>
			 <trkpt lat="36.288619" lon="-121.844904">
				 <ele>29.5</ele>
			 </trkpt>
			 <trkpt lat="36.288759" lon="-121.845675">
				 <ele>29.3</ele>
			 </trkpt>
			 <trkpt lat="36.288857" lon="-121.846315">
				 <ele>29.5</ele>
			 </trkpt>
			 <trkpt lat="36.288889" lon="-121.846599">
				 <ele>29.7</ele>
			 </trkpt>
			 <trkpt lat="36.288931" lon="-121.847489">
				 <ele>30.1</ele>
			 </trkpt>
			 <trkpt lat="36.288925" lon="-121.848147">
				 <ele>30.5</ele>
			 </trkpt>
			 <trkpt lat="36.288906" lon="-121.848687">
				 <ele>30.9</ele>
			 </trkpt>
			 <trkpt lat="36.288782" lon="-121.851212">
				 <ele>30.7</ele>
			 </trkpt>
			 <trkpt lat="36.288776" lon="-121.851498">
				 <ele>30.6</ele>
			 </trkpt>
			 <trkpt lat="36.288785" lon="-121.852013">
				 <ele>31.9</ele>
			 </trkpt>
			 <trkpt lat="36.288865" lon="-121.852672">
				 <ele>33.5</ele>
			 </trkpt>
			 <trkpt lat="36.289166" lon="-121.853751">
				 <ele>34.5</ele>
			 </trkpt>
			 <trkpt lat="36.289217" lon="-121.853857">
				 <ele>35.1</ele>
			 </trkpt>
			 <trkpt lat="36.2923" lon="-121.860233">
				 <ele>35.5</ele>
			 </trkpt>
			 <trkpt lat="36.299833" lon="-121.875729">
				 <ele>36.5</ele>
			 </trkpt>
			 <trkpt lat="36.300387" lon="-121.876718">
				 <ele>37.8</ele>
			 </trkpt>
			 <trkpt lat="36.300641" lon="-121.877171">
				 <ele>39.4</ele>
			 </trkpt>
			 <trkpt lat="36.301353" lon="-121.87818">
				 <ele>40.7</ele>
			 </trkpt>
			 <trkpt lat="36.301609" lon="-121.878566">
				 <ele>41.9</ele>
			 </trkpt>
			 <trkpt lat="36.302545" lon="-121.879671">
				 <ele>43.2</ele>
			 </trkpt>
			 <trkpt lat="36.303213" lon="-121.880339">
				 <ele>43.8</ele>
			 </trkpt>
			 <trkpt lat="36.306634" lon="-121.883366">
				 <ele>44.7</ele>
			 </trkpt>
			 <trkpt lat="36.307034" lon="-121.883764">
				 <ele>45.8</ele>
			 </trkpt>
			 <trkpt lat="36.309724" lon="-121.886101">
				 <ele>47.4</ele>
			 </trkpt>
			 <trkpt lat="36.31483" lon="-121.89062">
				 <ele>49.8</ele>
			 </trkpt>
			 <trkpt lat="36.315492" lon="-121.891102">
				 <ele>52.1</ele>
			 </trkpt>
			 <trkpt lat="36.315639" lon="-121.891209">
				 <ele>54.5</ele>
			 </trkpt>
			 <trkpt lat="36.316147" lon="-121.891474">
				 <ele>56.9</ele>
			 </trkpt>
			 <trkpt lat="36.31664" lon="-121.891657">
				 <ele>59.5</ele>
			 </trkpt>
			 <trkpt lat="36.318896" lon="-121.892419">
				 <ele>62.4</ele>
			 </trkpt>
			 <trkpt lat="36.319577" lon="-121.892524">
				 <ele>65.5</ele>
			 </trkpt>
			 <trkpt lat="36.320241" lon="-121.892484">
				 <ele>68.4</ele>
			 </trkpt>
			 <trkpt lat="36.320716" lon="-121.892558">
				 <ele>70.9</ele>
			 </trkpt>
			 <trkpt lat="36.321016" lon="-121.892668">
				 <ele>72.9</ele>
			 </trkpt>
			 <trkpt lat="36.321697" lon="-121.893049">
				 <ele>74.5</ele>
			 </trkpt>
			 <trkpt lat="36.321962" lon="-121.893132">
				 <ele>75</ele>
			 </trkpt>
			 <trkpt lat="36.322231" lon="-121.893154">
				 <ele>75</ele>
			 </trkpt>
			 <trkpt lat="36.322897" lon="-121.892985">
				 <ele>74.5</ele>
			 </trkpt>
			 <trkpt lat="36.323152" lon="-121.892992">
				 <ele>73.5</ele>
			 </trkpt>
			 <trkpt lat="36.323356" lon="-121.893049">
				 <ele>72.5</ele>
			 </trkpt>
			 <trkpt lat="36.323522" lon="-121.893197">
				 <ele>71</ele>
			 </trkpt>
			 <trkpt lat="36.323919" lon="-121.893708">
				 <ele>69</ele>
			 </trkpt>
			 <trkpt lat="36.324139" lon="-121.893837">
				 <ele>66.6</ele>
			 </trkpt>
			 <trkpt lat="36.324504" lon="-121.893869">
				 <ele>64.2</ele>
			 </trkpt>
			 <trkpt lat="36.324828" lon="-121.893798">
				 <ele>62</ele>
			 </trkpt>
			 <trkpt lat="36.325183" lon="-121.893675">
				 <ele>59.9</ele>
			 </trkpt>
			 <trkpt lat="36.32542" lon="-121.893662">
				 <ele>57.4</ele>
			 </trkpt>
			 <trkpt lat="36.325753" lon="-121.893786">
				 <ele>55.1</ele>
			 </trkpt>
			 <trkpt lat="36.326382" lon="-121.894226">
				 <ele>52.4</ele>
			 </trkpt>
			 <trkpt lat="36.326772" lon="-121.894298">
				 <ele>50.1</ele>
			 </trkpt>
			 <trkpt lat="36.327129" lon="-121.894249">
				 <ele>47.8</ele>
			 </trkpt>
			 <trkpt lat="36.327493" lon="-121.894043">
				 <ele>45.5</ele>
			 </trkpt>
			 <trkpt lat="36.328045" lon="-121.893646">
				 <ele>42.6</ele>
			 </trkpt>
			 <trkpt lat="36.331359" lon="-121.891261">
				 <ele>39.6</ele>
			 </trkpt>
			 <trkpt lat="36.33186" lon="-121.890799">
				 <ele>36.5</ele>
			 </trkpt>
			 <trkpt lat="36.332035" lon="-121.890378">
				 <ele>33.3</ele>
			 </trkpt>
			 <trkpt lat="36.33206" lon="-121.889913">
				 <ele>30.1</ele>
			 </trkpt>
			 <trkpt lat="36.33176" lon="-121.88844">
				 <ele>27.4</ele>
			 </trkpt>
			 <trkpt lat="36.3317" lon="-121.887522">
				 <ele>24.5</ele>
			 </trkpt>
			 <trkpt lat="36.331682" lon="-121.886768">
				 <ele>22.1</ele>
			 </trkpt>
			 <trkpt lat="36.331718" lon="-121.886375">
				 <ele>19.6</ele>
			 </trkpt>
			 <trkpt lat="36.331837" lon="-121.886034">
				 <ele>17.5</ele>
			 </trkpt>
			 <trkpt lat="36.332035" lon="-121.885734">
				 <ele>15.6</ele>
			 </trkpt>
			 <trkpt lat="36.332166" lon="-121.885609">
				 <ele>14.7</ele>
			 </trkpt>
			 <trkpt lat="36.332499" lon="-121.885395">
				 <ele>14.4</ele>
			 </trkpt>
			 <trkpt lat="36.332875" lon="-121.885312">
				 <ele>14.5</ele>
			 </trkpt>
			 <trkpt lat="36.333137" lon="-121.885344">
				 <ele>15.8</ele>
			 </trkpt>
			 <trkpt lat="36.333402" lon="-121.885458">
				 <ele>17.6</ele>
			 </trkpt>
			 <trkpt lat="36.333486" lon="-121.885525">
				 <ele>20.1</ele>
			 </trkpt>
			 <trkpt lat="36.333641" lon="-121.88565">
				 <ele>22.7</ele>
			 </trkpt>
			 <trkpt lat="36.333907" lon="-121.886052">
				 <ele>25.6</ele>
			 </trkpt>
			 <trkpt lat="36.334484" lon="-121.887342">
				 <ele>29</ele>
			 </trkpt>
			 <trkpt lat="36.334776" lon="-121.888024">
				 <ele>32.5</ele>
			 </trkpt>
			 <trkpt lat="36.335072" lon="-121.889056">
				 <ele>36</ele>
			 </trkpt>
			 <trkpt lat="36.335204" lon="-121.889398">
				 <ele>39.5</ele>
			 </trkpt>
			 <trkpt lat="36.335371" lon="-121.88974">
				 <ele>43</ele>
			 </trkpt>
			 <trkpt lat="36.336378" lon="-121.891242">
				 <ele>46.7</ele>
			 </trkpt>
			 <trkpt lat="36.336642" lon="-121.891468">
				 <ele>49.9</ele>
			 </trkpt>
			 <trkpt lat="36.336827" lon="-121.891555">
				 <ele>53</ele>
			 </trkpt>
			 <trkpt lat="36.337174" lon="-121.891596">
				 <ele>55.5</ele>
			 </trkpt>
			 <trkpt lat="36.337475" lon="-121.891553">
				 <ele>58.1</ele>
			 </trkpt>
			 <trkpt lat="36.337871" lon="-121.891414">
				 <ele>60.8</ele>
			 </trkpt>
			 <trkpt lat="36.33796" lon="-121.89137">
				 <ele>63.3</ele>
			 </trkpt>
			 <trkpt lat="36.338256" lon="-121.891225">
				 <ele>65.5</ele>
			 </trkpt>
			 <trkpt lat="36.338462" lon="-121.891217">
				 <ele>68.1</ele>
			 </trkpt>
			 <trkpt lat="36.338636" lon="-121.891237">
				 <ele>70.7</ele>
			 </trkpt>
			 <trkpt lat="36.338995" lon="-121.891217">
				 <ele>73.5</ele>
			 </trkpt>
			 <trkpt lat="36.33937" lon="-121.891129">
				 <ele>75.8</ele>
			 </trkpt>
			 <trkpt lat="36.339743" lon="-121.891019">
				 <ele>77.9</ele>
			 </trkpt>
			 <trkpt lat="36.340386" lon="-121.890738">
				 <ele>79.7</ele>
			 </trkpt>
			 <trkpt lat="36.340755" lon="-121.890699">
				 <ele>81.5</ele>
			 </trkpt>
			 <trkpt lat="36.340956" lon="-121.890714">
				 <ele>83.7</ele>
			 </trkpt>
			 <trkpt lat="36.341149" lon="-121.890804">
				 <ele>85.9</ele>
			 </trkpt>
			 <trkpt lat="36.341284" lon="-121.890973">
				 <ele>87.7</ele>
			 </trkpt>
			 <trkpt lat="36.341464" lon="-121.891121">
				 <ele>89.5</ele>
			 </trkpt>
			 <trkpt lat="36.341694" lon="-121.891255">
				 <ele>91.1</ele>
			 </trkpt>
			 <trkpt lat="36.342149" lon="-121.891355">
				 <ele>93</ele>
			 </trkpt>
			 <trkpt lat="36.342385" lon="-121.891509">
				 <ele>94.6</ele>
			 </trkpt>
			 <trkpt lat="36.34266" lon="-121.891781">
				 <ele>96.1</ele>
			 </trkpt>
			 <trkpt lat="36.342864" lon="-121.891895">
				 <ele>98.1</ele>
			 </trkpt>
			 <trkpt lat="36.343133" lon="-121.891929">
				 <ele>100.3</ele>
			 </trkpt>
			 <trkpt lat="36.343702" lon="-121.891816">
				 <ele>102.6</ele>
			 </trkpt>
			 <trkpt lat="36.344115" lon="-121.891938">
				 <ele>105</ele>
			 </trkpt>
			 <trkpt lat="36.344318" lon="-121.892156">
				 <ele>107</ele>
			 </trkpt>
			 <trkpt lat="36.344553" lon="-121.892677">
				 <ele>109.3</ele>
			 </trkpt>
			 <trkpt lat="36.344762" lon="-121.893029">
				 <ele>111.5</ele>
			 </trkpt>
			 <trkpt lat="36.344987" lon="-121.893293">
				 <ele>113.3</ele>
			 </trkpt>
			 <trkpt lat="36.345259" lon="-121.89345">
				 <ele>114.8</ele>
			 </trkpt>
			 <trkpt lat="36.345451" lon="-121.893615">
				 <ele>117.3</ele>
			 </trkpt>
			 <trkpt lat="36.345561" lon="-121.893828">
				 <ele>119.9</ele>
			 </trkpt>
			 <trkpt lat="36.345672" lon="-121.894131">
				 <ele>121.8</ele>
			 </trkpt>
			 <trkpt lat="36.345881" lon="-121.894541">
				 <ele>123.5</ele>
			 </trkpt>
			 <trkpt lat="36.346201" lon="-121.894798">
				 <ele>125.7</ele>
			 </trkpt>
			 <trkpt lat="36.346697" lon="-121.894935">
				 <ele>127.7</ele>
			 </trkpt>
			 <trkpt lat="36.346902" lon="-121.895067">
				 <ele>130.2</ele>
			 </trkpt>
			 <trkpt lat="36.347289" lon="-121.895742">
				 <ele>132.1</ele>
			 </trkpt>
			 <trkpt lat="36.347629" lon="-121.896081">
				 <ele>133.8</ele>
			 </trkpt>
			 <trkpt lat="36.348358" lon="-121.896512">
				 <ele>135.9</ele>
			 </trkpt>
			 <trkpt lat="36.349749" lon="-121.896977">
				 <ele>137.8</ele>
			 </trkpt>
			 <trkpt lat="36.350184" lon="-121.897229">
				 <ele>138.5</ele>
			 </trkpt>
			 <trkpt lat="36.350729" lon="-121.897674">
				 <ele>139</ele>
			 </trkpt>
			 <trkpt lat="36.350922" lon="-121.897783">
				 <ele>140.1</ele>
			 </trkpt>
			 <trkpt lat="36.351158" lon="-121.897802">
				 <ele>141.5</ele>
			 </trkpt>
			 <trkpt lat="36.351665" lon="-121.897725">
				 <ele>142.4</ele>
			 </trkpt>
			 <trkpt lat="36.351899" lon="-121.897822">
				 <ele>143.3</ele>
			 </trkpt>
			 <trkpt lat="36.352061" lon="-121.89803">
				 <ele>144.3</ele>
			 </trkpt>
			 <trkpt lat="36.352163" lon="-121.898295">
				 <ele>145.6</ele>
			 </trkpt>
			 <trkpt lat="36.352261" lon="-121.899538">
				 <ele>147.1</ele>
			 </trkpt>
			 <trkpt lat="36.352376" lon="-121.89985">
				 <ele>148.5</ele>
			 </trkpt>
			 <trkpt lat="36.352512" lon="-121.900003">
				 <ele>149.8</ele>
			 </trkpt>
			 <trkpt lat="36.35296" lon="-121.900419">
				 <ele>151.4</ele>
			 </trkpt>
			 <trkpt lat="36.353116" lon="-121.900664">
				 <ele>153.2</ele>
			 </trkpt>
			 <trkpt lat="36.353284" lon="-121.901037">
				 <ele>154.9</ele>
			 </trkpt>
			 <trkpt lat="36.353422" lon="-121.901241">
				 <ele>156.5</ele>
			 </trkpt>
			 <trkpt lat="36.353609" lon="-121.901389">
				 <ele>158.2</ele>
			 </trkpt>
			 <trkpt lat="36.353858" lon="-121.901493">
				 <ele>159.7</ele>
			 </trkpt>
			 <trkpt lat="36.354105" lon="-121.901537">
				 <ele>160.8</ele>
			 </trkpt>
			 <trkpt lat="36.35456" lon="-121.901599">
				 <ele>162</ele>
			 </trkpt>
			 <trkpt lat="36.354831" lon="-121.901709">
				 <ele>163.3</ele>
			 </trkpt>
			 <trkpt lat="36.355215" lon="-121.901953">
				 <ele>164.5</ele>
			 </trkpt>
			 <trkpt lat="36.355365" lon="-121.902016">
				 <ele>165.7</ele>
			 </trkpt>
			 <trkpt lat="36.35552" lon="-121.902053">
				 <ele>167.2</ele>
			 </trkpt>
			 <trkpt lat="36.355824" lon="-121.902091">
				 <ele>168.5</ele>
			 </trkpt>
			 <trkpt lat="36.356022" lon="-121.902165">
				 <ele>169.6</ele>
			 </trkpt>
			 <trkpt lat="36.356467" lon="-121.902427">
				 <ele>170.4</ele>
			 </trkpt>
			 <trkpt lat="36.356964" lon="-121.902701">
				 <ele>170.8</ele>
			 </trkpt>
			 <trkpt lat="36.357112" lon="-121.902724">
				 <ele>170.9</ele>
			 </trkpt>
			 <trkpt lat="36.357255" lon="-121.902714">
				 <ele>170.6</ele>
			 </trkpt>
			 <trkpt lat="36.357369" lon="-121.902656">
				 <ele>169.6</ele>
			 </trkpt>
			 <trkpt lat="36.357502" lon="-121.90253">
				 <ele>168.4</ele>
			 </trkpt>
			 <trkpt lat="36.357594" lon="-121.902369">
				 <ele>167.4</ele>
			 </trkpt>
			 <trkpt lat="36.357831" lon="-121.901354">
				 <ele>166.5</ele>
			 </trkpt>
			 <trkpt lat="36.358049" lon="-121.900846">
				 <ele>164.8</ele>
			 </trkpt>
			 <trkpt lat="36.358255" lon="-121.900556">
				 <ele>162.5</ele>
			 </trkpt>
			 <trkpt lat="36.35845" lon="-121.900389">
				 <ele>160.1</ele>
			 </trkpt>
			 <trkpt lat="36.358665" lon="-121.900279">
				 <ele>157.5</ele>
			 </trkpt>
			 <trkpt lat="36.358968" lon="-121.90019">
				 <ele>154.7</ele>
			 </trkpt>
			 <trkpt lat="36.359284" lon="-121.900183">
				 <ele>151.2</ele>
			 </trkpt>
			 <trkpt lat="36.359598" lon="-121.900275">
				 <ele>147.5</ele>
			 </trkpt>
			 <trkpt lat="36.36023" lon="-121.900572">
				 <ele>144</ele>
			 </trkpt>
			 <trkpt lat="36.360589" lon="-121.900611">
				 <ele>140.5</ele>
			 </trkpt>
			 <trkpt lat="36.36115" lon="-121.900552">
				 <ele>136.5</ele>
			 </trkpt>
			 <trkpt lat="36.362668" lon="-121.90026">
				 <ele>132.2</ele>
			 </trkpt>
			 <trkpt lat="36.363204" lon="-121.900037">
				 <ele>128.4</ele>
			 </trkpt>
			 <trkpt lat="36.363888" lon="-121.899643">
				 <ele>125.2</ele>
			 </trkpt>
			 <trkpt lat="36.364197" lon="-121.899457">
				 <ele>120.5</ele>
			 </trkpt>
			 <trkpt lat="36.364448" lon="-121.899392">
				 <ele>116.2</ele>
			 </trkpt>
			 <trkpt lat="36.364695" lon="-121.899368">
				 <ele>112.1</ele>
			 </trkpt>
			 <trkpt lat="36.364948" lon="-121.899392">
				 <ele>108.7</ele>
			 </trkpt>
			 <trkpt lat="36.365196" lon="-121.899461">
				 <ele>105.5</ele>
			 </trkpt>
			 <trkpt lat="36.367231" lon="-121.900102">
				 <ele>102.4</ele>
			 </trkpt>
			 <trkpt lat="36.367445" lon="-121.900211">
				 <ele>99.4</ele>
			 </trkpt>
			 <trkpt lat="36.367767" lon="-121.900409">
				 <ele>96.5</ele>
			 </trkpt>
			 <trkpt lat="36.368088" lon="-121.900657">
				 <ele>93.8</ele>
			 </trkpt>
			 <trkpt lat="36.368283" lon="-121.900845">
				 <ele>91.4</ele>
			 </trkpt>
			 <trkpt lat="36.368549" lon="-121.901145">
				 <ele>88.9</ele>
			 </trkpt>
			 <trkpt lat="36.368821" lon="-121.901479">
				 <ele>87.8</ele>
			 </trkpt>
			 <trkpt lat="36.368983" lon="-121.901652">
				 <ele>86.8</ele>
			 </trkpt>
			 <trkpt lat="36.369152" lon="-121.901789">
				 <ele>85.7</ele>
			 </trkpt>
			 <trkpt lat="36.369303" lon="-121.901856">
				 <ele>84.7</ele>
			 </trkpt>
			 <trkpt lat="36.369575" lon="-121.901888">
				 <ele>83.7</ele>
			 </trkpt>
			 <trkpt lat="36.369762" lon="-121.901862">
				 <ele>82.6</ele>
			 </trkpt>
			 <trkpt lat="36.369855" lon="-121.901836">
				 <ele>76.9</ele>
			 </trkpt>
			 <trkpt lat="36.370486" lon="-121.901602">
				 <ele>73</ele>
			 </trkpt>
			 <trkpt lat="36.370537" lon="-121.901587">
				 <ele>71</ele>
			 </trkpt>
			 <trkpt lat="36.370614" lon="-121.90159">
				 <ele>69.7</ele>
			 </trkpt>
			 <trkpt lat="36.370679" lon="-121.901605">
				 <ele>69.2</ele>
			 </trkpt>
			 <trkpt lat="36.371726" lon="-121.901981">
				 <ele>69.3</ele>
			 </trkpt>
			 <trkpt lat="36.371971" lon="-121.902093">
				 <ele>69.8</ele>
			 </trkpt>
			 <trkpt lat="36.372183" lon="-121.902221">
				 <ele>70</ele>
			 </trkpt>
			 <trkpt lat="36.372295" lon="-121.902309">
				 <ele>70.3</ele>
			 </trkpt>
			 <trkpt lat="36.372397" lon="-121.902422">
				 <ele>70.7</ele>
			 </trkpt>
			 <trkpt lat="36.372502" lon="-121.902594">
				 <ele>71.5</ele>
			 </trkpt>
			 <trkpt lat="36.372657" lon="-121.903005">
				 <ele>77.1</ele>
			 </trkpt>
			 <trkpt lat="36.373133" lon="-121.904377">
				 <ele>80.7</ele>
			 </trkpt>
			 <trkpt lat="36.373224" lon="-121.904562">
				 <ele>82.3</ele>
			 </trkpt>
			 <trkpt lat="36.373364" lon="-121.904737">
				 <ele>82.8</ele>
			 </trkpt>
			 <trkpt lat="36.373492" lon="-121.904836">
				 <ele>82.7</ele>
			 </trkpt>
			 <trkpt lat="36.373647" lon="-121.904914">
				 <ele>82.2</ele>
			 </trkpt>
			 <trkpt lat="36.373844" lon="-121.904973">
				 <ele>81.3</ele>
			 </trkpt>
			 <trkpt lat="36.37414" lon="-121.904951">
				 <ele>80.9</ele>
			 </trkpt>
			 <trkpt lat="36.374319" lon="-121.904916">
				 <ele>80.4</ele>
			 </trkpt>
			 <trkpt lat="36.374563" lon="-121.904822">
				 <ele>79.8</ele>
			 </trkpt>
			 <trkpt lat="36.374645" lon="-121.90479">
				 <ele>79.2</ele>
			 </trkpt>
			 <trkpt lat="36.37482" lon="-121.904761">
				 <ele>78.5</ele>
			 </trkpt>
			 <trkpt lat="36.374952" lon="-121.904774">
				 <ele>77.8</ele>
			 </trkpt>
			 <trkpt lat="36.375194" lon="-121.904817">
				 <ele>77.2</ele>
			 </trkpt>
			 <trkpt lat="36.375361" lon="-121.904833">
				 <ele>76.5</ele>
			 </trkpt>
			 <trkpt lat="36.375562" lon="-121.904794">
				 <ele>75.5</ele>
			 </trkpt>
			 <trkpt lat="36.375664" lon="-121.904762">
				 <ele>74.1</ele>
			 </trkpt>
			 <trkpt lat="36.375819" lon="-121.904682">
				 <ele>72.5</ele>
			 </trkpt>
			 <trkpt lat="36.375973" lon="-121.904576">
				 <ele>70.9</ele>
			 </trkpt>
			 <trkpt lat="36.37645" lon="-121.904211">
				 <ele>69.5</ele>
			 </trkpt>
			 <trkpt lat="36.376719" lon="-121.90407">
				 <ele>67.7</ele>
			 </trkpt>
			 <trkpt lat="36.377038" lon="-121.904029">
				 <ele>65.3</ele>
			 </trkpt>
			 <trkpt lat="36.377247" lon="-121.904045">
				 <ele>61.5</ele>
			 </trkpt>
			 <trkpt lat="36.377531" lon="-121.904025">
				 <ele>56.9</ele>
			 </trkpt>
			 <trkpt lat="36.377837" lon="-121.903917">
				 <ele>53.8</ele>
			 </trkpt>
			 <trkpt lat="36.37807" lon="-121.903775">
				 <ele>51.2</ele>
			 </trkpt>
			 <trkpt lat="36.378398" lon="-121.903455">
				 <ele>49</ele>
			 </trkpt>
			 <trkpt lat="36.378742" lon="-121.903138">
				 <ele>47.6</ele>
			 </trkpt>
			 <trkpt lat="36.37904" lon="-121.902843">
				 <ele>46.3</ele>
			 </trkpt>
			 <trkpt lat="36.379947" lon="-121.901916">
				 <ele>45.7</ele>
			 </trkpt>
			 <trkpt lat="36.380372" lon="-121.901424">
				 <ele>45.5</ele>
			 </trkpt>
			 <trkpt lat="36.38063" lon="-121.901219">
				 <ele>45.6</ele>
			 </trkpt>
			 <trkpt lat="36.381302" lon="-121.900801">
				 <ele>46.6</ele>
			 </trkpt>
			 <trkpt lat="36.381697" lon="-121.900602">
				 <ele>48.7</ele>
			 </trkpt>
			 <trkpt lat="36.382325" lon="-121.900351">
				 <ele>52.2</ele>
			 </trkpt>
			 <trkpt lat="36.382795" lon="-121.900234">
				 <ele>54.8</ele>
			 </trkpt>
			 <trkpt lat="36.383241" lon="-121.900169">
				 <ele>57.1</ele>
			 </trkpt>
			 <trkpt lat="36.383596" lon="-121.900149">
				 <ele>59.6</ele>
			 </trkpt>
			 <trkpt lat="36.383918" lon="-121.90016">
				 <ele>60.4</ele>
			 </trkpt>
			 <trkpt lat="36.384691" lon="-121.900294">
				 <ele>59.5</ele>
			 </trkpt>
			 <trkpt lat="36.385991" lon="-121.900647">
				 <ele>57.4</ele>
			 </trkpt>
			 <trkpt lat="36.387729" lon="-121.901029">
				 <ele>55</ele>
			 </trkpt>
			 <trkpt lat="36.389668" lon="-121.901475">
				 <ele>52.7</ele>
			 </trkpt>
			 <trkpt lat="36.393939" lon="-121.902515">
				 <ele>50.8</ele>
			 </trkpt>
			 <trkpt lat="36.397121" lon="-121.90329">
				 <ele>49.6</ele>
			 </trkpt>
			 <trkpt lat="36.397638" lon="-121.90348">
				 <ele>48.5</ele>
			 </trkpt>
			 <trkpt lat="36.397681" lon="-121.903496">
				 <ele>47.1</ele>
			 </trkpt>
			 <trkpt lat="36.398408" lon="-121.903875">
				 <ele>46</ele>
			 </trkpt>
			 <trkpt lat="36.399295" lon="-121.904573">
				 <ele>45.4</ele>
			 </trkpt>
			 <trkpt lat="36.400199" lon="-121.905511">
				 <ele>46.6</ele>
			 </trkpt>
			 <trkpt lat="36.400939" lon="-121.906327">
				 <ele>49</ele>
			 </trkpt>
			 <trkpt lat="36.401702" lon="-121.907184">
				 <ele>50.4</ele>
			 </trkpt>
			 <trkpt lat="36.402161" lon="-121.907868">
				 <ele>51.6</ele>
			 </trkpt>
			 <trkpt lat="36.402983" lon="-121.909196">
				 <ele>52.8</ele>
			 </trkpt>
			 <trkpt lat="36.403327" lon="-121.909531">
				 <ele>53.4</ele>
			 </trkpt>
			 <trkpt lat="36.403789" lon="-121.909842">
				 <ele>52.7</ele>
			 </trkpt>
			 <trkpt lat="36.405657" lon="-121.910645">
				 <ele>51.7</ele>
			 </trkpt>
			 <trkpt lat="36.406033" lon="-121.910839">
				 <ele>50.6</ele>
			 </trkpt>
			 <trkpt lat="36.40662" lon="-121.911195">
				 <ele>49.4</ele>
			 </trkpt>
			 <trkpt lat="36.407578" lon="-121.912031">
				 <ele>47.1</ele>
			 </trkpt>
			 <trkpt lat="36.409139" lon="-121.913699">
				 <ele>44.4</ele>
			 </trkpt>
			 <trkpt lat="36.409622" lon="-121.914257">
				 <ele>42.2</ele>
			 </trkpt>
			 <trkpt lat="36.409876" lon="-121.914468">
				 <ele>41.2</ele>
			 </trkpt>
			 <trkpt lat="36.410153" lon="-121.914603">
				 <ele>40.2</ele>
			 </trkpt>
			 <trkpt lat="36.410444" lon="-121.914667">
				 <ele>39</ele>
			 </trkpt>
			 <trkpt lat="36.410657" lon="-121.914635">
				 <ele>37.9</ele>
			 </trkpt>
			 <trkpt lat="36.41087" lon="-121.914603">
				 <ele>37.5</ele>
			 </trkpt>
			 <trkpt lat="36.411245" lon="-121.914432">
				 <ele>37.2</ele>
			 </trkpt>
			 <trkpt lat="36.41188" lon="-121.91403">
				 <ele>36.3</ele>
			 </trkpt>
			 <trkpt lat="36.412339" lon="-121.913935">
				 <ele>34.7</ele>
			 </trkpt>
			 <trkpt lat="36.41491" lon="-121.914369">
				 <ele>32.4</ele>
			 </trkpt>
			 <trkpt lat="36.415624" lon="-121.91436">
				 <ele>31.1</ele>
			 </trkpt>
			 <trkpt lat="36.416138" lon="-121.914219">
				 <ele>30.3</ele>
			 </trkpt>
			 <trkpt lat="36.416471" lon="-121.914109">
				 <ele>29.5</ele>
			 </trkpt>
			 <trkpt lat="36.416768" lon="-121.914035">
				 <ele>28.9</ele>
			 </trkpt>
			 <trkpt lat="36.417258" lon="-121.913882">
				 <ele>28.8</ele>
			 </trkpt>
			 <trkpt lat="36.417672" lon="-121.913706">
				 <ele>28.1</ele>
			 </trkpt>
			 <trkpt lat="36.418149" lon="-121.913479">
				 <ele>27.9</ele>
			 </trkpt>
			 <trkpt lat="36.418882" lon="-121.913215">
				 <ele>27.9</ele>
			 </trkpt>
			 <trkpt lat="36.420012" lon="-121.912794">
				 <ele>28.7</ele>
			 </trkpt>
			 <trkpt lat="36.420807" lon="-121.912567">
				 <ele>30.9</ele>
			 </trkpt>
			 <trkpt lat="36.421656" lon="-121.912396">
				 <ele>33.8</ele>
			 </trkpt>
			 <trkpt lat="36.422715" lon="-121.912315">
				 <ele>35.2</ele>
			 </trkpt>
			 <trkpt lat="36.422864" lon="-121.912311">
				 <ele>37.2</ele>
			 </trkpt>
			 <trkpt lat="36.423337" lon="-121.912327">
				 <ele>39.4</ele>
			 </trkpt>
			 <trkpt lat="36.424359" lon="-121.912435">
				 <ele>41.8</ele>
			 </trkpt>
			 <trkpt lat="36.425357" lon="-121.912649">
				 <ele>43.8</ele>
			 </trkpt>
			 <trkpt lat="36.425776" lon="-121.912802">
				 <ele>46.3</ele>
			 </trkpt>
			 <trkpt lat="36.426918" lon="-121.913221">
				 <ele>47.3</ele>
			 </trkpt>
			 <trkpt lat="36.427692" lon="-121.91363">
				 <ele>48.1</ele>
			 </trkpt>
			 <trkpt lat="36.428433" lon="-121.914108">
				 <ele>48.4</ele>
			 </trkpt>
			 <trkpt lat="36.429592" lon="-121.915029">
				 <ele>46.9</ele>
			 </trkpt>
			 <trkpt lat="36.43177" lon="-121.917088">
				 <ele>44.5</ele>
			 </trkpt>
			 <trkpt lat="36.432205" lon="-121.917428">
				 <ele>43.5</ele>
			 </trkpt>
			 <trkpt lat="36.433003" lon="-121.917937">
				 <ele>42.5</ele>
			 </trkpt>
			 <trkpt lat="36.433817" lon="-121.918356">
				 <ele>41.6</ele>
			 </trkpt>
			 <trkpt lat="36.435314" lon="-121.91883">
				 <ele>40.2</ele>
			 </trkpt>
			 <trkpt lat="36.435752" lon="-121.918998">
				 <ele>38.9</ele>
			 </trkpt>
			 <trkpt lat="36.436202" lon="-121.919206">
				 <ele>37.9</ele>
			 </trkpt>
			 <trkpt lat="36.445537" lon="-121.924531">
				 <ele>37.7</ele>
			 </trkpt>
			 <trkpt lat="36.448505" lon="-121.926225">
				 <ele>37.7</ele>
			 </trkpt>
			 <trkpt lat="36.448826" lon="-121.926375">
				 <ele>38</ele>
			 </trkpt>
			 <trkpt lat="36.449207" lon="-121.926505">
				 <ele>39.4</ele>
			 </trkpt>
			 <trkpt lat="36.449565" lon="-121.92658">
				 <ele>42.3</ele>
			 </trkpt>
			 <trkpt lat="36.449823" lon="-121.9266">
				 <ele>44.4</ele>
			 </trkpt>
			 <trkpt lat="36.450072" lon="-121.926593">
				 <ele>45.5</ele>
			 </trkpt>
			 <trkpt lat="36.450331" lon="-121.926548">
				 <ele>46.8</ele>
			 </trkpt>
			 <trkpt lat="36.450614" lon="-121.926478">
				 <ele>47.8</ele>
			 </trkpt>
			 <trkpt lat="36.450937" lon="-121.926359">
				 <ele>48.5</ele>
			 </trkpt>
			 <trkpt lat="36.451222" lon="-121.926229">
				 <ele>48.5</ele>
			 </trkpt>
			 <trkpt lat="36.451406" lon="-121.926118">
				 <ele>48.5</ele>
			 </trkpt>
			 <trkpt lat="36.451608" lon="-121.92597">
				 <ele>47.8</ele>
			 </trkpt>
			 <trkpt lat="36.451876" lon="-121.925742">
				 <ele>46.5</ele>
			 </trkpt>
			 <trkpt lat="36.452038" lon="-121.925594">
				 <ele>44.7</ele>
			 </trkpt>
			 <trkpt lat="36.45263" lon="-121.925">
				 <ele>43.6</ele>
			 </trkpt>
			 <trkpt lat="36.453139" lon="-121.924592">
				 <ele>42.8</ele>
			 </trkpt>
			 <trkpt lat="36.453776" lon="-121.924243">
				 <ele>42</ele>
			 </trkpt>
			 <trkpt lat="36.454425" lon="-121.924026">
				 <ele>40.7</ele>
			 </trkpt>
			 <trkpt lat="36.45545" lon="-121.923892">
				 <ele>40.1</ele>
			 </trkpt>
			 <trkpt lat="36.458213" lon="-121.924139">
				 <ele>39.9</ele>
			 </trkpt>
			 <trkpt lat="36.459154" lon="-121.924349">
				 <ele>39.8</ele>
			 </trkpt>
			 <trkpt lat="36.459788" lon="-121.924565">
				 <ele>38.5</ele>
			 </trkpt>
			 <trkpt lat="36.460155" lon="-121.92469">
				 <ele>37.5</ele>
			 </trkpt>
			 <trkpt lat="36.460959" lon="-121.92505">
				 <ele>37.2</ele>
			 </trkpt>
			 <trkpt lat="36.461719" lon="-121.925482">
				 <ele>37.7</ele>
			 </trkpt>
			 <trkpt lat="36.464369" lon="-121.927309">
				 <ele>37.2</ele>
			 </trkpt>
			 <trkpt lat="36.466747" lon="-121.92902">
				 <ele>35.8</ele>
			 </trkpt>
			 <trkpt lat="36.467283" lon="-121.929494">
				 <ele>34.3</ele>
			 </trkpt>
			 <trkpt lat="36.467477" lon="-121.929702">
				 <ele>33.4</ele>
			 </trkpt>
			 <trkpt lat="36.467731" lon="-121.929998">
				 <ele>32.3</ele>
			 </trkpt>
			 <trkpt lat="36.468" lon="-121.930453">
				 <ele>30.8</ele>
			 </trkpt>
			 <trkpt lat="36.468219" lon="-121.93088">
				 <ele>29.8</ele>
			 </trkpt>
			 <trkpt lat="36.468467" lon="-121.931322">
				 <ele>30.7</ele>
			 </trkpt>
			 <trkpt lat="36.469016" lon="-121.932156">
				 <ele>32</ele>
			 </trkpt>
			 <trkpt lat="36.469199" lon="-121.932392">
				 <ele>32.5</ele>
			 </trkpt>
			 <trkpt lat="36.469948" lon="-121.933195">
				 <ele>32.4</ele>
			 </trkpt>
			 <trkpt lat="36.471072" lon="-121.934328">
				 <ele>32.1</ele>
			 </trkpt>
			 <trkpt lat="36.47175" lon="-121.934813">
				 <ele>32.5</ele>
			 </trkpt>
			 <trkpt lat="36.471993" lon="-121.934945">
				 <ele>33.2</ele>
			 </trkpt>
			 <trkpt lat="36.47242" lon="-121.935148">
				 <ele>33.6</ele>
			 </trkpt>
			 <trkpt lat="36.472691" lon="-121.935255">
				 <ele>33.7</ele>
			 </trkpt>
			 <trkpt lat="36.473016" lon="-121.935344">
				 <ele>34.1</ele>
			 </trkpt>
			 <trkpt lat="36.475079" lon="-121.93573">
				 <ele>34.3</ele>
			 </trkpt>
			 <trkpt lat="36.475992" lon="-121.935882">
				 <ele>33.7</ele>
			 </trkpt>
			 <trkpt lat="36.476774" lon="-121.936024">
				 <ele>32.9</ele>
			 </trkpt>
			 <trkpt lat="36.477377" lon="-121.936147">
				 <ele>32.5</ele>
			 </trkpt>
			 <trkpt lat="36.477619" lon="-121.936173">
				 <ele>32.7</ele>
			 </trkpt>
			 <trkpt lat="36.478109" lon="-121.936268">
				 <ele>33.2</ele>
			 </trkpt>
			 <trkpt lat="36.478544" lon="-121.936392">
				 <ele>33.3</ele>
			 </trkpt>
			 <trkpt lat="36.478785" lon="-121.936483">
				 <ele>32.5</ele>
			 </trkpt>
			 <trkpt lat="36.479322" lon="-121.936769">
				 <ele>31.3</ele>
			 </trkpt>
			 <trkpt lat="36.480061" lon="-121.937071">
				 <ele>30.8</ele>
			 </trkpt>
			 <trkpt lat="36.480255" lon="-121.93712">
				 <ele>30.5</ele>
			 </trkpt>
			 <trkpt lat="36.480657" lon="-121.937166">
				 <ele>30.5</ele>
			 </trkpt>
			 <trkpt lat="36.481339" lon="-121.937171">
				 <ele>30.8</ele>
			 </trkpt>
			 <trkpt lat="36.482061" lon="-121.937142">
				 <ele>31.4</ele>
			 </trkpt>
			 <trkpt lat="36.482529" lon="-121.937109">
				 <ele>32.3</ele>
			 </trkpt>
			 <trkpt lat="36.482836" lon="-121.93712">
				 <ele>32.9</ele>
			 </trkpt>
			 <trkpt lat="36.483054" lon="-121.937145">
				 <ele>33.8</ele>
			 </trkpt>
			 <trkpt lat="36.483325" lon="-121.937209">
				 <ele>34.8</ele>
			 </trkpt>
			 <trkpt lat="36.483631" lon="-121.937322">
				 <ele>36.5</ele>
			 </trkpt>
			 <trkpt lat="36.484284" lon="-121.937629">
				 <ele>38.7</ele>
			 </trkpt>
			 <trkpt lat="36.48456" lon="-121.937731">
				 <ele>40.5</ele>
			 </trkpt>
			 <trkpt lat="36.484822" lon="-121.937798">
				 <ele>42.3</ele>
			 </trkpt>
			 <trkpt lat="36.485057" lon="-121.937829">
				 <ele>43.9</ele>
			 </trkpt>
			 <trkpt lat="36.485322" lon="-121.937839">
				 <ele>45.5</ele>
			 </trkpt>
			 <trkpt lat="36.485582" lon="-121.937826">
				 <ele>47.4</ele>
			 </trkpt>
			 <trkpt lat="36.487525" lon="-121.937725">
				 <ele>49.2</ele>
			 </trkpt>
			 <trkpt lat="36.487815" lon="-121.937722">
				 <ele>51</ele>
			 </trkpt>
			 <trkpt lat="36.488055" lon="-121.937744">
				 <ele>52.6</ele>
			 </trkpt>
			 <trkpt lat="36.488397" lon="-121.937791">
				 <ele>54.5</ele>
			 </trkpt>
			 <trkpt lat="36.489077" lon="-121.937962">
				 <ele>56.5</ele>
			 </trkpt>
			 <trkpt lat="36.489694" lon="-121.938147">
				 <ele>58.6</ele>
			 </trkpt>
			 <trkpt lat="36.489976" lon="-121.938209">
				 <ele>60.8</ele>
			 </trkpt>
			 <trkpt lat="36.490263" lon="-121.938243">
				 <ele>62.7</ele>
			 </trkpt>
			 <trkpt lat="36.490819" lon="-121.938241">
				 <ele>64.5</ele>
			 </trkpt>
			 <trkpt lat="36.490996" lon="-121.938256">
				 <ele>66.4</ele>
			 </trkpt>
			 <trkpt lat="36.491343" lon="-121.938284">
				 <ele>67.8</ele>
			 </trkpt>
			 <trkpt lat="36.491609" lon="-121.938249">
				 <ele>68.8</ele>
			 </trkpt>
			 <trkpt lat="36.491909" lon="-121.938169">
				 <ele>69.7</ele>
			 </trkpt>
			 <trkpt lat="36.492109" lon="-121.938073">
				 <ele>70.6</ele>
			 </trkpt>
			 <trkpt lat="36.492408" lon="-121.937879">
				 <ele>71.2</ele>
			 </trkpt>
			 <trkpt lat="36.492577" lon="-121.937784">
				 <ele>70.8</ele>
			 </trkpt>
			 <trkpt lat="36.492802" lon="-121.937684">
				 <ele>69.9</ele>
			 </trkpt>
			 <trkpt lat="36.492927" lon="-121.937655">
				 <ele>68.8</ele>
			 </trkpt>
			 <trkpt lat="36.493052" lon="-121.937643">
				 <ele>67.8</ele>
			 </trkpt>
			 <trkpt lat="36.493248" lon="-121.937654">
				 <ele>66.6</ele>
			 </trkpt>
			 <trkpt lat="36.493672" lon="-121.937725">
				 <ele>65</ele>
			 </trkpt>
			 <trkpt lat="36.493796" lon="-121.937733">
				 <ele>62.9</ele>
			 </trkpt>
			 <trkpt lat="36.493911" lon="-121.93773">
				 <ele>60.5</ele>
			 </trkpt>
			 <trkpt lat="36.494073" lon="-121.93771">
				 <ele>58.1</ele>
			 </trkpt>
			 <trkpt lat="36.494233" lon="-121.937674">
				 <ele>55.5</ele>
			 </trkpt>
			 <trkpt lat="36.495253" lon="-121.937284">
				 <ele>52.2</ele>
			 </trkpt>
			 <trkpt lat="36.496389" lon="-121.936815">
				 <ele>48.7</ele>
			 </trkpt>
			 <trkpt lat="36.496765" lon="-121.936633">
				 <ele>45.7</ele>
			 </trkpt>
			 <trkpt lat="36.497149" lon="-121.936431">
				 <ele>43.1</ele>
			 </trkpt>
			 <trkpt lat="36.497229" lon="-121.936378">
				 <ele>40.8</ele>
			 </trkpt>
			 <trkpt lat="36.497441" lon="-121.936211">
				 <ele>38.7</ele>
			 </trkpt>
			 <trkpt lat="36.497714" lon="-121.935968">
				 <ele>36.9</ele>
			 </trkpt>
			 <trkpt lat="36.497893" lon="-121.935821">
				 <ele>35.4</ele>
			 </trkpt>
			 <trkpt lat="36.497993" lon="-121.935751">
				 <ele>34.1</ele>
			 </trkpt>
			 <trkpt lat="36.498165" lon="-121.935667">
				 <ele>32.8</ele>
			 </trkpt>
			 <trkpt lat="36.498333" lon="-121.935655">
				 <ele>31.7</ele>
			 </trkpt>
			 <trkpt lat="36.498386" lon="-121.935655">
				 <ele>31.6</ele>
			 </trkpt>
			 <trkpt lat="36.498533" lon="-121.935679">
				 <ele>32.5</ele>
			 </trkpt>
			 <trkpt lat="36.49866" lon="-121.935731">
				 <ele>33.1</ele>
			 </trkpt>
			 <trkpt lat="36.498881" lon="-121.935895">
				 <ele>33.7</ele>
			 </trkpt>
			 <trkpt lat="36.49908" lon="-121.936115">
				 <ele>34.1</ele>
			 </trkpt>
			 <trkpt lat="36.499589" lon="-121.936852">
				 <ele>34.4</ele>
			 </trkpt>
			 <trkpt lat="36.49975" lon="-121.937032">
				 <ele>34.6</ele>
			 </trkpt>
			 <trkpt lat="36.499899" lon="-121.937133">
				 <ele>35.2</ele>
			 </trkpt>
			 <trkpt lat="36.500065" lon="-121.937214">
				 <ele>35.9</ele>
			 </trkpt>
			 <trkpt lat="36.500188" lon="-121.937321">
				 <ele>37</ele>
			 </trkpt>
			 <trkpt lat="36.500538" lon="-121.937508">
				 <ele>38.2</ele>
			 </trkpt>
			 <trkpt lat="36.501349" lon="-121.938041">
				 <ele>38.9</ele>
			 </trkpt>
			 <trkpt lat="36.501524" lon="-121.938114">
				 <ele>39.3</ele>
			 </trkpt>
			 <trkpt lat="36.501661" lon="-121.938138">
				 <ele>39.2</ele>
			 </trkpt>
			 <trkpt lat="36.501884" lon="-121.938119">
				 <ele>38.7</ele>
			 </trkpt>
			 <trkpt lat="36.501991" lon="-121.938069">
				 <ele>38.3</ele>
			 </trkpt>
			 <trkpt lat="36.502254" lon="-121.937947">
				 <ele>37.9</ele>
			 </trkpt>
			 <trkpt lat="36.502509" lon="-121.93779">
				 <ele>37.6</ele>
			 </trkpt>
			 <trkpt lat="36.502685" lon="-121.937698">
				 <ele>37.4</ele>
			 </trkpt>
			 <trkpt lat="36.502798" lon="-121.937651">
				 <ele>36.9</ele>
			 </trkpt>
			 <trkpt lat="36.502962" lon="-121.937639">
				 <ele>36</ele>
			 </trkpt>
			 <trkpt lat="36.503161" lon="-121.937691">
				 <ele>34.8</ele>
			 </trkpt>
			 <trkpt lat="36.503347" lon="-121.937767">
				 <ele>33.8</ele>
			 </trkpt>
			 <trkpt lat="36.503504" lon="-121.937847">
				 <ele>33.2</ele>
			 </trkpt>
			 <trkpt lat="36.503692" lon="-121.937861">
				 <ele>33.5</ele>
			 </trkpt>
			 <trkpt lat="36.503838" lon="-121.937825">
				 <ele>34</ele>
			 </trkpt>
			 <trkpt lat="36.504027" lon="-121.937765">
				 <ele>34.8</ele>
			 </trkpt>
			 <trkpt lat="36.504229" lon="-121.937644">
				 <ele>35.9</ele>
			 </trkpt>
			 <trkpt lat="36.504334" lon="-121.93755">
				 <ele>37.5</ele>
			 </trkpt>
			 <trkpt lat="36.505269" lon="-121.936536">
				 <ele>39.1</ele>
			 </trkpt>
			 <trkpt lat="36.505516" lon="-121.936314">
				 <ele>40.3</ele>
			 </trkpt>
			 <trkpt lat="36.505683" lon="-121.936205">
				 <ele>41.2</ele>
			 </trkpt>
			 <trkpt lat="36.505937" lon="-121.936095">
				 <ele>42</ele>
			 </trkpt>
			 <trkpt lat="36.507149" lon="-121.93595">
				 <ele>42.8</ele>
			 </trkpt>
			 <trkpt lat="36.507273" lon="-121.935935">
				 <ele>43.5</ele>
			 </trkpt>
			 <trkpt lat="36.507552" lon="-121.935954">
				 <ele>43.7</ele>
			 </trkpt>
			 <trkpt lat="36.507727" lon="-121.935991">
				 <ele>43.8</ele>
			 </trkpt>
			 <trkpt lat="36.507817" lon="-121.93604">
				 <ele>43.9</ele>
			 </trkpt>
			 <trkpt lat="36.508141" lon="-121.936279">
				 <ele>43.5</ele>
			 </trkpt>
			 <trkpt lat="36.508633" lon="-121.936998">
				 <ele>42.2</ele>
			 </trkpt>
			 <trkpt lat="36.508898" lon="-121.937302">
				 <ele>40.8</ele>
			 </trkpt>
			 <trkpt lat="36.509106" lon="-121.937504">
				 <ele>40</ele>
			 </trkpt>
			 <trkpt lat="36.509379" lon="-121.937706">
				 <ele>39.5</ele>
			 </trkpt>
			 <trkpt lat="36.509661" lon="-121.937877">
				 <ele>38.8</ele>
			 </trkpt>
			 <trkpt lat="36.510009" lon="-121.938015">
				 <ele>37.9</ele>
			 </trkpt>
			 <trkpt lat="36.510278" lon="-121.938085">
				 <ele>37.5</ele>
			 </trkpt>
			 <trkpt lat="36.510742" lon="-121.938097">
				 <ele>37.5</ele>
			 </trkpt>
			 <trkpt lat="36.51092" lon="-121.938089">
				 <ele>36.3</ele>
			 </trkpt>
			 <trkpt lat="36.511819" lon="-121.938049">
				 <ele>35</ele>
			 </trkpt>
			 <trkpt lat="36.512897" lon="-121.937949">
				 <ele>34.2</ele>
			 </trkpt>
			 <trkpt lat="36.513484" lon="-121.937832">
				 <ele>33.6</ele>
			 </trkpt>
			 <trkpt lat="36.513911" lon="-121.937707">
				 <ele>33</ele>
			 </trkpt>
			 <trkpt lat="36.515085" lon="-121.937228">
				 <ele>32.1</ele>
			 </trkpt>
			 <trkpt lat="36.515314" lon="-121.937096">
				 <ele>31.1</ele>
			 </trkpt>
			 <trkpt lat="36.516022" lon="-121.936687">
				 <ele>30.3</ele>
			 </trkpt>
			 <trkpt lat="36.517118" lon="-121.935847">
				 <ele>29.6</ele>
			 </trkpt>
			 <trkpt lat="36.517795" lon="-121.935199">
				 <ele>28.5</ele>
			 </trkpt>
			 <trkpt lat="36.517975" lon="-121.935001">
				 <ele>27.1</ele>
			 </trkpt>
			 <trkpt lat="36.5183" lon="-121.9346">
				 <ele>25.5</ele>
			 </trkpt>
			 <trkpt lat="36.518626" lon="-121.934154">
				 <ele>23.5</ele>
			 </trkpt>
			 <trkpt lat="36.518969" lon="-121.933636">
				 <ele>21.4</ele>
			 </trkpt>
			 <trkpt lat="36.519158" lon="-121.93331">
				 <ele>19</ele>
			 </trkpt>
			 <trkpt lat="36.519399" lon="-121.932853">
				 <ele>16.9</ele>
			 </trkpt>
			 <trkpt lat="36.521403" lon="-121.928797">
				 <ele>15.9</ele>
			 </trkpt>
			 <trkpt lat="36.521769" lon="-121.928146">
				 <ele>15</ele>
			 </trkpt>
			 <trkpt lat="36.52247" lon="-121.927117">
				 <ele>15.6</ele>
			 </trkpt>
			 <trkpt lat="36.523162" lon="-121.926287">
				 <ele>16.9</ele>
			 </trkpt>
			 <trkpt lat="36.523407" lon="-121.925973">
				 <ele>18.1</ele>
			 </trkpt>
			 <trkpt lat="36.525132" lon="-121.923833">
				 <ele>18.9</ele>
			 </trkpt>
			 <trkpt lat="36.525472" lon="-121.92338">
				 <ele>20.5</ele>
			 </trkpt>
			 <trkpt lat="36.526944" lon="-121.921578">
				 <ele>22.2</ele>
			 </trkpt>
			 <trkpt lat="36.527757" lon="-121.92057">
				 <ele>23.5</ele>
			 </trkpt>
			 <trkpt lat="36.528251" lon="-121.919984">
				 <ele>24</ele>
			 </trkpt>
			 <trkpt lat="36.528626" lon="-121.91956">
				 <ele>24.5</ele>
			 </trkpt>
			 <trkpt lat="36.52897" lon="-121.919199">
				 <ele>24.4</ele>
			 </trkpt>
			 <trkpt lat="36.529149" lon="-121.918973">
				 <ele>24</ele>
			 </trkpt>
			 <trkpt lat="36.529471" lon="-121.918625">
				 <ele>21.7</ele>
			 </trkpt>
			 <trkpt lat="36.53045" lon="-121.917717">
				 <ele>18.9</ele>
			 </trkpt>
			 <trkpt lat="36.530799" lon="-121.917404">
				 <ele>16.2</ele>
			 </trkpt>
			 <trkpt lat="36.531989" lon="-121.916416">
				 <ele>13.9</ele>
			 </trkpt>
			 <trkpt lat="36.532325" lon="-121.916118">
				 <ele>12.3</ele>
			 </trkpt>
			 <trkpt lat="36.532949" lon="-121.91559">
				 <ele>10.7</ele>
			 </trkpt>
			 <trkpt lat="36.534368" lon="-121.914415">
				 <ele>9.7</ele>
			 </trkpt>
			 <trkpt lat="36.534851" lon="-121.913957">
				 <ele>9.6</ele>
			 </trkpt>
			 <trkpt lat="36.535321" lon="-121.913461">
				 <ele>9.2</ele>
			 </trkpt>
			 <trkpt lat="36.53658" lon="-121.912144">
				 <ele>8.5</ele>
			 </trkpt>
			 <trkpt lat="36.536774" lon="-121.911961">
				 <ele>8.2</ele>
			 </trkpt>
			 <trkpt lat="36.537001" lon="-121.911792">
				 <ele>8.3</ele>
			 </trkpt>
			 <trkpt lat="36.537313" lon="-121.911591">
				 <ele>8.4</ele>
			 </trkpt>
			 <trkpt lat="36.538132" lon="-121.911178">
				 <ele>8.6</ele>
			 </trkpt>
			 <trkpt lat="36.538316" lon="-121.911065">
				 <ele>8.6</ele>
			 </trkpt>
			 <trkpt lat="36.538559" lon="-121.910891">
				 <ele>8.3</ele>
			 </trkpt>
			 <trkpt lat="36.539299" lon="-121.910274">
				 <ele>8</ele>
			 </trkpt>
		 </trkseg>
	 </trk>
</gpx>