<?xml version="1.0" encoding="UTF-8"?>
 <gpx creator="Garmin Connect" version="1.1"
	 xsi:schemaLocation="http://www.topografix.com/GPX/1/1 http://www.topografix.com/GPX/11.xsd"
	 xmlns:ns3="http://www.garmin.com/xmlschemas/TrackPointExtension/v1"
	 xmlns="http://www.topografix.com/GPX/1/1"
	 xmlns:xsi="http://www.w3.org/2001/XMLSchema-instance" xmlns:ns2="http://www.garmin.com/xmlschemas/GpxExtensions/v3">
	 <metadata>
		<name>TotalEnergies Bilbao Night Marathon 2024 - 42.195 km</name>
		 <link href="https://www.goandrace.com">
		 <text>Garmin Connect</text>
		 </link>
	 <time>2026-08-09T15:53:14</time>
	 </metadata>
	 <trk>
		 <name>TotalEnergies Bilbao Night Marathon 2024 - 42.195 km</name>
		 <trkseg>
			 <trkpt lat="43.26311" lon="-2.94936">
				 <ele>27.8</ele>
			 </trkpt>
			 <trkpt lat="43.26347" lon="-2.950045">
				 <ele>25.9</ele>
			 </trkpt>
			 <trkpt lat="43.26383" lon="-2.95073">
				 <ele>24.9</ele>
			 </trkpt>
			 <trkpt lat="43.2642" lon="-2.95097">
				 <ele>25</ele>
			 </trkpt>
			 <trkpt lat="43.26461" lon="-2.95083">
				 <ele>25.5</ele>
			 </trkpt>
			 <trkpt lat="43.26511" lon="-2.95021">
				 <ele>25.6</ele>
			 </trkpt>
			 <trkpt lat="43.26523" lon="-2.94974">
				 <ele>24.8</ele>
			 </trkpt>
			 <trkpt lat="43.26513" lon="-2.94927">
				 <ele>23.7</ele>
			 </trkpt>
			 <trkpt lat="43.26481" lon="-2.94855">
				 <ele>22.6</ele>
			 </trkpt>
			 <trkpt lat="43.26451" lon="-2.94803">
				 <ele>22.2</ele>
			 </trkpt>
			 <trkpt lat="43.26417" lon="-2.94732">
				 <ele>22.3</ele>
			 </trkpt>
			 <trkpt lat="43.264015" lon="-2.94662">
				 <ele>22.5</ele>
			 </trkpt>
			 <trkpt lat="43.26386" lon="-2.94592">
				 <ele>22.7</ele>
			 </trkpt>
			 <trkpt lat="43.26392" lon="-2.94584">
				 <ele>22.6</ele>
			 </trkpt>
			 <trkpt lat="43.26443" lon="-2.94565">
				 <ele>21.9</ele>
			 </trkpt>
			 <trkpt lat="43.26494" lon="-2.94546">
				 <ele>21.2</ele>
			 </trkpt>
			 <trkpt lat="43.26527" lon="-2.94545">
				 <ele>20.8</ele>
			 </trkpt>
			 <trkpt lat="43.26536" lon="-2.94538">
				 <ele>20.3</ele>
			 </trkpt>
			 <trkpt lat="43.26541" lon="-2.94526">
				 <ele>19.6</ele>
			 </trkpt>
			 <trkpt lat="43.26541" lon="-2.94513">
				 <ele>19.1</ele>
			 </trkpt>
			 <trkpt lat="43.26511" lon="-2.94468">
				 <ele>19</ele>
			 </trkpt>
			 <trkpt lat="43.264871" lon="-2.943582">
				 <ele>19.4</ele>
			 </trkpt>
			 <trkpt lat="43.264633" lon="-2.942485">
				 <ele>20.1</ele>
			 </trkpt>
			 <trkpt lat="43.264394" lon="-2.941387">
				 <ele>20.5</ele>
			 </trkpt>
			 <trkpt lat="43.264155" lon="-2.94029">
				 <ele>20.9</ele>
			 </trkpt>
			 <trkpt lat="43.263916" lon="-2.939192">
				 <ele>21.1</ele>
			 </trkpt>
			 <trkpt lat="43.263678" lon="-2.938095">
				 <ele>20.9</ele>
			 </trkpt>
			 <trkpt lat="43.263439" lon="-2.936997">
				 <ele>20.7</ele>
			 </trkpt>
			 <trkpt lat="43.2632" lon="-2.9359">
				 <ele>21.1</ele>
			 </trkpt>
			 <trkpt lat="43.26297" lon="-2.93559">
				 <ele>21.5</ele>
			 </trkpt>
			 <trkpt lat="43.26286" lon="-2.93551">
				 <ele>21.9</ele>
			 </trkpt>
			 <trkpt lat="43.26274" lon="-2.9353">
				 <ele>21.9</ele>
			 </trkpt>
			 <trkpt lat="43.26267" lon="-2.93506">
				 <ele>21.6</ele>
			 </trkpt>
			 <trkpt lat="43.26266" lon="-2.93485">
				 <ele>21.4</ele>
			 </trkpt>
			 <trkpt lat="43.26272" lon="-2.93462">
				 <ele>21.5</ele>
			 </trkpt>
			 <trkpt lat="43.26282" lon="-2.93448">
				 <ele>21.5</ele>
			 </trkpt>
			 <trkpt lat="43.26293" lon="-2.93441">
				 <ele>21.7</ele>
			 </trkpt>
			 <trkpt lat="43.26305" lon="-2.93444">
				 <ele>22.1</ele>
			 </trkpt>
			 <trkpt lat="43.26316" lon="-2.93453">
				 <ele>22.5</ele>
			 </trkpt>
			 <trkpt lat="43.26326" lon="-2.93467">
				 <ele>22.9</ele>
			 </trkpt>
			 <trkpt lat="43.26333" lon="-2.93484">
				 <ele>22.7</ele>
			 </trkpt>
			 <trkpt lat="43.26346" lon="-2.93525">
				 <ele>22</ele>
			 </trkpt>
			 <trkpt lat="43.26405" lon="-2.93571">
				 <ele>21.1</ele>
			 </trkpt>
			 <trkpt lat="43.264525" lon="-2.93606">
				 <ele>20.2</ele>
			 </trkpt>
			 <trkpt lat="43.265" lon="-2.93641">
				 <ele>19.1</ele>
			 </trkpt>
			 <trkpt lat="43.26576" lon="-2.93697">
				 <ele>17.8</ele>
			 </trkpt>
			 <trkpt lat="43.26639" lon="-2.93746">
				 <ele>16.3</ele>
			 </trkpt>
			 <trkpt lat="43.26667" lon="-2.93756">
				 <ele>14.7</ele>
			 </trkpt>
			 <trkpt lat="43.2669" lon="-2.93746">
				 <ele>13</ele>
			 </trkpt>
			 <trkpt lat="43.2671" lon="-2.93744">
				 <ele>11.2</ele>
			 </trkpt>
			 <trkpt lat="43.26726" lon="-2.93756">
				 <ele>9.4</ele>
			 </trkpt>
			 <trkpt lat="43.26736" lon="-2.93778">
				 <ele>8</ele>
			 </trkpt>
			 <trkpt lat="43.26737" lon="-2.93798">
				 <ele>7.1</ele>
			 </trkpt>
			 <trkpt lat="43.26733" lon="-2.93814">
				 <ele>6.3</ele>
			 </trkpt>
			 <trkpt lat="43.26707" lon="-2.93858">
				 <ele>5.4</ele>
			 </trkpt>
			 <trkpt lat="43.26705" lon="-2.93871">
				 <ele>4.5</ele>
			 </trkpt>
			 <trkpt lat="43.26711" lon="-2.93885">
				 <ele>4</ele>
			 </trkpt>
			 <trkpt lat="43.26745" lon="-2.93929">
				 <ele>3.6</ele>
			 </trkpt>
			 <trkpt lat="43.26774" lon="-2.93957">
				 <ele>4.5</ele>
			 </trkpt>
			 <trkpt lat="43.26797" lon="-2.93972">
				 <ele>5.4</ele>
			 </trkpt>
			 <trkpt lat="43.268555" lon="-2.940055">
				 <ele>6.3</ele>
			 </trkpt>
			 <trkpt lat="43.26914" lon="-2.94039">
				 <ele>7.3</ele>
			 </trkpt>
			 <trkpt lat="43.26993" lon="-2.94081">
				 <ele>8.6</ele>
			 </trkpt>
			 <trkpt lat="43.27062" lon="-2.9412">
				 <ele>10.3</ele>
			 </trkpt>
			 <trkpt lat="43.27111" lon="-2.94145">
				 <ele>12.1</ele>
			 </trkpt>
			 <trkpt lat="43.27117" lon="-2.94159">
				 <ele>14.1</ele>
			 </trkpt>
			 <trkpt lat="43.27123" lon="-2.94171">
				 <ele>16</ele>
			 </trkpt>
			 <trkpt lat="43.27143" lon="-2.9419">
				 <ele>18.1</ele>
			 </trkpt>
			 <trkpt lat="43.27151" lon="-2.94253">
				 <ele>20.7</ele>
			 </trkpt>
			 <trkpt lat="43.271655" lon="-2.94355">
				 <ele>22.2</ele>
			 </trkpt>
			 <trkpt lat="43.2718" lon="-2.94457">
				 <ele>23.5</ele>
			 </trkpt>
			 <trkpt lat="43.271825" lon="-2.94531">
				 <ele>24.4</ele>
			 </trkpt>
			 <trkpt lat="43.27185" lon="-2.94605">
				 <ele>25.1</ele>
			 </trkpt>
			 <trkpt lat="43.27189" lon="-2.947185">
				 <ele>25.5</ele>
			 </trkpt>
			 <trkpt lat="43.27193" lon="-2.94832">
				 <ele>25.8</ele>
			 </trkpt>
			 <trkpt lat="43.271963" lon="-2.94916">
				 <ele>26.5</ele>
			 </trkpt>
			 <trkpt lat="43.271997" lon="-2.95">
				 <ele>27.2</ele>
			 </trkpt>
			 <trkpt lat="43.27203" lon="-2.95084">
				 <ele>28.1</ele>
			 </trkpt>
			 <trkpt lat="43.27215" lon="-2.95176">
				 <ele>28.7</ele>
			 </trkpt>
			 <trkpt lat="43.27227" lon="-2.95268">
				 <ele>29</ele>
			 </trkpt>
			 <trkpt lat="43.272465" lon="-2.95358">
				 <ele>29.4</ele>
			 </trkpt>
			 <trkpt lat="43.27266" lon="-2.95448">
				 <ele>29.6</ele>
			 </trkpt>
			 <trkpt lat="43.27277" lon="-2.955">
				 <ele>30</ele>
			 </trkpt>
			 <trkpt lat="43.27275" lon="-2.95527">
				 <ele>30.3</ele>
			 </trkpt>
			 <trkpt lat="43.27286" lon="-2.95574">
				 <ele>30.4</ele>
			 </trkpt>
			 <trkpt lat="43.27322" lon="-2.95621">
				 <ele>30.4</ele>
			 </trkpt>
			 <trkpt lat="43.27344" lon="-2.95682">
				 <ele>29.8</ele>
			 </trkpt>
			 <trkpt lat="43.27366" lon="-2.95731">
				 <ele>28.9</ele>
			 </trkpt>
			 <trkpt lat="43.27397" lon="-2.95778">
				 <ele>27.9</ele>
			 </trkpt>
			 <trkpt lat="43.27428" lon="-2.95825">
				 <ele>26.8</ele>
			 </trkpt>
			 <trkpt lat="43.27472" lon="-2.9588">
				 <ele>25.4</ele>
			 </trkpt>
			 <trkpt lat="43.27531" lon="-2.95937">
				 <ele>23.6</ele>
			 </trkpt>
			 <trkpt lat="43.27591" lon="-2.95973">
				 <ele>21.9</ele>
			 </trkpt>
			 <trkpt lat="43.27618" lon="-2.95988">
				 <ele>20.4</ele>
			 </trkpt>
			 <trkpt lat="43.2766" lon="-2.96011">
				 <ele>19</ele>
			 </trkpt>
			 <trkpt lat="43.27702" lon="-2.96034">
				 <ele>17.8</ele>
			 </trkpt>
			 <trkpt lat="43.277505" lon="-2.960625">
				 <ele>17.1</ele>
			 </trkpt>
			 <trkpt lat="43.27799" lon="-2.96091">
				 <ele>16.6</ele>
			 </trkpt>
			 <trkpt lat="43.27803" lon="-2.96107">
				 <ele>16.4</ele>
			 </trkpt>
			 <trkpt lat="43.2778" lon="-2.96187">
				 <ele>16.3</ele>
			 </trkpt>
			 <trkpt lat="43.27775" lon="-2.9619">
				 <ele>16.2</ele>
			 </trkpt>
			 <trkpt lat="43.27693" lon="-2.96145">
				 <ele>15.8</ele>
			 </trkpt>
			 <trkpt lat="43.276495" lon="-2.961195">
				 <ele>15.6</ele>
			 </trkpt>
			 <trkpt lat="43.27606" lon="-2.96094">
				 <ele>15.7</ele>
			 </trkpt>
			 <trkpt lat="43.27526" lon="-2.96051">
				 <ele>15.8</ele>
			 </trkpt>
			 <trkpt lat="43.27521" lon="-2.96055">
				 <ele>16</ele>
			 </trkpt>
			 <trkpt lat="43.27498" lon="-2.96116">
				 <ele>15.9</ele>
			 </trkpt>
			 <trkpt lat="43.27493" lon="-2.96118">
				 <ele>15.1</ele>
			 </trkpt>
			 <trkpt lat="43.27416" lon="-2.9608">
				 <ele>14.1</ele>
			 </trkpt>
			 <trkpt lat="43.27389" lon="-2.96067">
				 <ele>13.2</ele>
			 </trkpt>
			 <trkpt lat="43.27377" lon="-2.96062">
				 <ele>12.1</ele>
			 </trkpt>
			 <trkpt lat="43.27335" lon="-2.9608">
				 <ele>11.1</ele>
			 </trkpt>
			 <trkpt lat="43.27295" lon="-2.96086">
				 <ele>10.6</ele>
			 </trkpt>
			 <trkpt lat="43.27243" lon="-2.9605">
				 <ele>10.4</ele>
			 </trkpt>
			 <trkpt lat="43.27201" lon="-2.96023">
				 <ele>10.3</ele>
			 </trkpt>
			 <trkpt lat="43.27155" lon="-2.96001">
				 <ele>10.3</ele>
			 </trkpt>
			 <trkpt lat="43.27107" lon="-2.95967">
				 <ele>10.2</ele>
			 </trkpt>
			 <trkpt lat="43.2708" lon="-2.95922">
				 <ele>10.3</ele>
			 </trkpt>
			 <trkpt lat="43.27064" lon="-2.95857">
				 <ele>10.8</ele>
			 </trkpt>
			 <trkpt lat="43.27063" lon="-2.95763">
				 <ele>11.6</ele>
			 </trkpt>
			 <trkpt lat="43.270685" lon="-2.95692">
				 <ele>12.5</ele>
			 </trkpt>
			 <trkpt lat="43.27074" lon="-2.95621">
				 <ele>13.6</ele>
			 </trkpt>
			 <trkpt lat="43.27076" lon="-2.955265">
				 <ele>15.1</ele>
			 </trkpt>
			 <trkpt lat="43.27078" lon="-2.95432">
				 <ele>16.4</ele>
			 </trkpt>
			 <trkpt lat="43.27082" lon="-2.95372">
				 <ele>17.3</ele>
			 </trkpt>
			 <trkpt lat="43.27095" lon="-2.95307">
				 <ele>18</ele>
			 </trkpt>
			 <trkpt lat="43.27098" lon="-2.95271">
				 <ele>18.6</ele>
			 </trkpt>
			 <trkpt lat="43.270985" lon="-2.951735">
				 <ele>19.4</ele>
			 </trkpt>
			 <trkpt lat="43.27099" lon="-2.95076">
				 <ele>20.3</ele>
			 </trkpt>
			 <trkpt lat="43.27101" lon="-2.949565">
				 <ele>21</ele>
			 </trkpt>
			 <trkpt lat="43.27103" lon="-2.94837">
				 <ele>21.4</ele>
			 </trkpt>
			 <trkpt lat="43.271043" lon="-2.94754">
				 <ele>21.7</ele>
			 </trkpt>
			 <trkpt lat="43.271057" lon="-2.94671">
				 <ele>22</ele>
			 </trkpt>
			 <trkpt lat="43.27107" lon="-2.94588">
				 <ele>21.8</ele>
			 </trkpt>
			 <trkpt lat="43.2711" lon="-2.94504">
				 <ele>21.6</ele>
			 </trkpt>
			 <trkpt lat="43.27113" lon="-2.9442">
				 <ele>21.5</ele>
			 </trkpt>
			 <trkpt lat="43.2715" lon="-2.94353">
				 <ele>21.2</ele>
			 </trkpt>
			 <trkpt lat="43.27155" lon="-2.94333">
				 <ele>20.6</ele>
			 </trkpt>
			 <trkpt lat="43.27146" lon="-2.94267">
				 <ele>19.8</ele>
			 </trkpt>
			 <trkpt lat="43.27137" lon="-2.94201">
				 <ele>17.5</ele>
			 </trkpt>
			 <trkpt lat="43.27131" lon="-2.94191">
				 <ele>15.5</ele>
			 </trkpt>
			 <trkpt lat="43.27111" lon="-2.9417">
				 <ele>13.7</ele>
			 </trkpt>
			 <trkpt lat="43.27083" lon="-2.94145">
				 <ele>11.8</ele>
			 </trkpt>
			 <trkpt lat="43.27025" lon="-2.94112">
				 <ele>10</ele>
			 </trkpt>
			 <trkpt lat="43.269755" lon="-2.940835">
				 <ele>8.4</ele>
			 </trkpt>
			 <trkpt lat="43.26926" lon="-2.94055">
				 <ele>7.1</ele>
			 </trkpt>
			 <trkpt lat="43.268595" lon="-2.9402">
				 <ele>6</ele>
			 </trkpt>
			 <trkpt lat="43.26793" lon="-2.93985">
				 <ele>5.2</ele>
			 </trkpt>
			 <trkpt lat="43.26766" lon="-2.93968">
				 <ele>4.8</ele>
			 </trkpt>
			 <trkpt lat="43.26737" lon="-2.93936">
				 <ele>4.8</ele>
			 </trkpt>
			 <trkpt lat="43.26696" lon="-2.93878">
				 <ele>6.5</ele>
			 </trkpt>
			 <trkpt lat="43.26687" lon="-2.9386">
				 <ele>8.3</ele>
			 </trkpt>
			 <trkpt lat="43.26654" lon="-2.9384">
				 <ele>10.1</ele>
			 </trkpt>
			 <trkpt lat="43.26634" lon="-2.93778">
				 <ele>11.9</ele>
			 </trkpt>
			 <trkpt lat="43.26624" lon="-2.93757">
				 <ele>13.7</ele>
			 </trkpt>
			 <trkpt lat="43.26598" lon="-2.93728">
				 <ele>15.5</ele>
			 </trkpt>
			 <trkpt lat="43.26566" lon="-2.93704">
				 <ele>17.2</ele>
			 </trkpt>
			 <trkpt lat="43.26549" lon="-2.93703">
				 <ele>18.8</ele>
			 </trkpt>
			 <trkpt lat="43.26524" lon="-2.93708">
				 <ele>20.3</ele>
			 </trkpt>
			 <trkpt lat="43.264725" lon="-2.937285">
				 <ele>21.1</ele>
			 </trkpt>
			 <trkpt lat="43.26421" lon="-2.93749">
				 <ele>21.4</ele>
			 </trkpt>
			 <trkpt lat="43.26377" lon="-2.93768">
				 <ele>21.5</ele>
			 </trkpt>
			 <trkpt lat="43.26368" lon="-2.93781">
				 <ele>21.3</ele>
			 </trkpt>
			 <trkpt lat="43.26382" lon="-2.93851">
				 <ele>21.5</ele>
			 </trkpt>
			 <trkpt lat="43.264055" lon="-2.93954">
				 <ele>21.5</ele>
			 </trkpt>
			 <trkpt lat="43.26429" lon="-2.94057">
				 <ele>21.2</ele>
			 </trkpt>
			 <trkpt lat="43.264518" lon="-2.941592">
				 <ele>20.8</ele>
			 </trkpt>
			 <trkpt lat="43.264745" lon="-2.942615">
				 <ele>20.2</ele>
			 </trkpt>
			 <trkpt lat="43.264973" lon="-2.943637">
				 <ele>19.5</ele>
			 </trkpt>
			 <trkpt lat="43.2652" lon="-2.94466">
				 <ele>19.2</ele>
			 </trkpt>
			 <trkpt lat="43.26531" lon="-2.94479">
				 <ele>19.3</ele>
			 </trkpt>
			 <trkpt lat="43.26552" lon="-2.94489">
				 <ele>19.5</ele>
			 </trkpt>
			 <trkpt lat="43.26586" lon="-2.94484">
				 <ele>19.4</ele>
			 </trkpt>
			 <trkpt lat="43.26595" lon="-2.94476">
				 <ele>18.5</ele>
			 </trkpt>
			 <trkpt lat="43.26607" lon="-2.94448">
				 <ele>16.8</ele>
			 </trkpt>
			 <trkpt lat="43.26627" lon="-2.94354">
				 <ele>15</ele>
			 </trkpt>
			 <trkpt lat="43.26641" lon="-2.9432">
				 <ele>13.3</ele>
			 </trkpt>
			 <trkpt lat="43.26652" lon="-2.94305">
				 <ele>11.6</ele>
			 </trkpt>
			 <trkpt lat="43.26716" lon="-2.94254">
				 <ele>10.2</ele>
			 </trkpt>
			 <trkpt lat="43.26765" lon="-2.94216">
				 <ele>8.7</ele>
			 </trkpt>
			 <trkpt lat="43.26797" lon="-2.94203">
				 <ele>6.9</ele>
			 </trkpt>
			 <trkpt lat="43.26843" lon="-2.94125">
				 <ele>5.2</ele>
			 </trkpt>
			 <trkpt lat="43.26871" lon="-2.94049">
				 <ele>3.9</ele>
			 </trkpt>
			 <trkpt lat="43.26884" lon="-2.94002">
				 <ele>2.9</ele>
			 </trkpt>
			 <trkpt lat="43.26896" lon="-2.93945">
				 <ele>2.5</ele>
			 </trkpt>
			 <trkpt lat="43.26901" lon="-2.93883">
				 <ele>2.3</ele>
			 </trkpt>
			 <trkpt lat="43.26902" lon="-2.93819">
				 <ele>2.5</ele>
			 </trkpt>
			 <trkpt lat="43.26895" lon="-2.93759">
				 <ele>2.9</ele>
			 </trkpt>
			 <trkpt lat="43.26891" lon="-2.93734">
				 <ele>3.6</ele>
			 </trkpt>
			 <trkpt lat="43.2687" lon="-2.93704">
				 <ele>4.3</ele>
			 </trkpt>
			 <trkpt lat="43.26857" lon="-2.93661">
				 <ele>5</ele>
			 </trkpt>
			 <trkpt lat="43.26838" lon="-2.93616">
				 <ele>5.9</ele>
			 </trkpt>
			 <trkpt lat="43.26821" lon="-2.93581">
				 <ele>7</ele>
			 </trkpt>
			 <trkpt lat="43.26796" lon="-2.93543">
				 <ele>8</ele>
			 </trkpt>
			 <trkpt lat="43.26789" lon="-2.93528">
				 <ele>8.9</ele>
			 </trkpt>
			 <trkpt lat="43.26784" lon="-2.93509">
				 <ele>9.5</ele>
			 </trkpt>
			 <trkpt lat="43.26783" lon="-2.93474">
				 <ele>10.3</ele>
			 </trkpt>
			 <trkpt lat="43.26797" lon="-2.93379">
				 <ele>10.6</ele>
			 </trkpt>
			 <trkpt lat="43.26801" lon="-2.93345">
				 <ele>10.7</ele>
			 </trkpt>
			 <trkpt lat="43.26809" lon="-2.93268">
				 <ele>10.5</ele>
			 </trkpt>
			 <trkpt lat="43.26811" lon="-2.93185">
				 <ele>10.1</ele>
			 </trkpt>
			 <trkpt lat="43.26804" lon="-2.93164">
				 <ele>9.8</ele>
			 </trkpt>
			 <trkpt lat="43.26807" lon="-2.93138">
				 <ele>9.6</ele>
			 </trkpt>
			 <trkpt lat="43.26803" lon="-2.93107">
				 <ele>9.2</ele>
			 </trkpt>
			 <trkpt lat="43.26793" lon="-2.93075">
				 <ele>8.8</ele>
			 </trkpt>
			 <trkpt lat="43.26776" lon="-2.93048">
				 <ele>8.7</ele>
			 </trkpt>
			 <trkpt lat="43.26756" lon="-2.93025">
				 <ele>9</ele>
			 </trkpt>
			 <trkpt lat="43.26737" lon="-2.93004">
				 <ele>9.4</ele>
			 </trkpt>
			 <trkpt lat="43.26716" lon="-2.92994">
				 <ele>9.9</ele>
			 </trkpt>
			 <trkpt lat="43.26685" lon="-2.92987">
				 <ele>10.8</ele>
			 </trkpt>
			 <trkpt lat="43.26632" lon="-2.9297">
				 <ele>11.9</ele>
			 </trkpt>
			 <trkpt lat="43.26604" lon="-2.92958">
				 <ele>12.9</ele>
			 </trkpt>
			 <trkpt lat="43.26535" lon="-2.9291">
				 <ele>13.6</ele>
			 </trkpt>
			 <trkpt lat="43.26498" lon="-2.92876">
				 <ele>14.1</ele>
			 </trkpt>
			 <trkpt lat="43.26447" lon="-2.92813">
				 <ele>14.1</ele>
			 </trkpt>
			 <trkpt lat="43.26417" lon="-2.92772">
				 <ele>13.6</ele>
			 </trkpt>
			 <trkpt lat="43.26396" lon="-2.92732">
				 <ele>13.3</ele>
			 </trkpt>
			 <trkpt lat="43.26383" lon="-2.92692">
				 <ele>13.2</ele>
			 </trkpt>
			 <trkpt lat="43.26378" lon="-2.9266">
				 <ele>13</ele>
			 </trkpt>
			 <trkpt lat="43.26379" lon="-2.9255">
				 <ele>12.8</ele>
			 </trkpt>
			 <trkpt lat="43.26365" lon="-2.92513">
				 <ele>12.4</ele>
			 </trkpt>
			 <trkpt lat="43.2635" lon="-2.92508">
				 <ele>12.5</ele>
			 </trkpt>
			 <trkpt lat="43.26296" lon="-2.92509">
				 <ele>12.9</ele>
			 </trkpt>
			 <trkpt lat="43.2629" lon="-2.92475">
				 <ele>14</ele>
			 </trkpt>
			 <trkpt lat="43.26279" lon="-2.92474">
				 <ele>15.2</ele>
			 </trkpt>
			 <trkpt lat="43.26271" lon="-2.92482">
				 <ele>16.7</ele>
			 </trkpt>
			 <trkpt lat="43.262283" lon="-2.925507">
				 <ele>17.9</ele>
			 </trkpt>
			 <trkpt lat="43.261857" lon="-2.926193">
				 <ele>17.9</ele>
			 </trkpt>
			 <trkpt lat="43.26143" lon="-2.92688">
				 <ele>17.5</ele>
			 </trkpt>
			 <trkpt lat="43.26132" lon="-2.92694">
				 <ele>17.5</ele>
			 </trkpt>
			 <trkpt lat="43.26119" lon="-2.92691">
				 <ele>17.9</ele>
			 </trkpt>
			 <trkpt lat="43.26085" lon="-2.926295">
				 <ele>18.1</ele>
			 </trkpt>
			 <trkpt lat="43.26051" lon="-2.92568">
				 <ele>17.6</ele>
			 </trkpt>
			 <trkpt lat="43.260145" lon="-2.924955">
				 <ele>17.5</ele>
			 </trkpt>
			 <trkpt lat="43.25978" lon="-2.92423">
				 <ele>16.9</ele>
			 </trkpt>
			 <trkpt lat="43.25955" lon="-2.92383">
				 <ele>16</ele>
			 </trkpt>
			 <trkpt lat="43.25982" lon="-2.92318">
				 <ele>15.2</ele>
			 </trkpt>
			 <trkpt lat="43.26003" lon="-2.92299">
				 <ele>14.8</ele>
			 </trkpt>
			 <trkpt lat="43.2606" lon="-2.92276">
				 <ele>14.8</ele>
			 </trkpt>
			 <trkpt lat="43.26142" lon="-2.92291">
				 <ele>15.2</ele>
			 </trkpt>
			 <trkpt lat="43.26182" lon="-2.92298">
				 <ele>15.1</ele>
			 </trkpt>
			 <trkpt lat="43.26223" lon="-2.92286">
				 <ele>14.7</ele>
			 </trkpt>
			 <trkpt lat="43.26263" lon="-2.92287">
				 <ele>14.5</ele>
			 </trkpt>
			 <trkpt lat="43.26336" lon="-2.92308">
				 <ele>14.2</ele>
			 </trkpt>
			 <trkpt lat="43.26369" lon="-2.92308">
				 <ele>13.1</ele>
			 </trkpt>
			 <trkpt lat="43.26382" lon="-2.9234">
				 <ele>12.3</ele>
			 </trkpt>
			 <trkpt lat="43.26399" lon="-2.92377">
				 <ele>12.1</ele>
			 </trkpt>
			 <trkpt lat="43.26434" lon="-2.92431">
				 <ele>11.9</ele>
			 </trkpt>
			 <trkpt lat="43.264685" lon="-2.924715">
				 <ele>11.7</ele>
			 </trkpt>
			 <trkpt lat="43.26503" lon="-2.92512">
				 <ele>11.9</ele>
			 </trkpt>
			 <trkpt lat="43.26542" lon="-2.925575">
				 <ele>11.7</ele>
			 </trkpt>
			 <trkpt lat="43.26581" lon="-2.92603">
				 <ele>11.5</ele>
			 </trkpt>
			 <trkpt lat="43.266384" lon="-2.92676">
				 <ele>11.3</ele>
			 </trkpt>
			 <trkpt lat="43.266958" lon="-2.92749">
				 <ele>11.2</ele>
			 </trkpt>
			 <trkpt lat="43.267532" lon="-2.92822">
				 <ele>11.5</ele>
			 </trkpt>
			 <trkpt lat="43.268106" lon="-2.92895">
				 <ele>12.4</ele>
			 </trkpt>
			 <trkpt lat="43.26868" lon="-2.92968">
				 <ele>12.8</ele>
			 </trkpt>
			 <trkpt lat="43.26895" lon="-2.93">
				 <ele>12.3</ele>
			 </trkpt>
			 <trkpt lat="43.26923" lon="-2.93041">
				 <ele>11.9</ele>
			 </trkpt>
			 <trkpt lat="43.26944" lon="-2.93076">
				 <ele>12.2</ele>
			 </trkpt>
			 <trkpt lat="43.26963" lon="-2.93111">
				 <ele>12.2</ele>
			 </trkpt>
			 <trkpt lat="43.26983" lon="-2.93163">
				 <ele>11.5</ele>
			 </trkpt>
			 <trkpt lat="43.26992" lon="-2.93202">
				 <ele>11.1</ele>
			 </trkpt>
			 <trkpt lat="43.27001" lon="-2.93257">
				 <ele>10.5</ele>
			 </trkpt>
			 <trkpt lat="43.27008" lon="-2.93327">
				 <ele>9.9</ele>
			 </trkpt>
			 <trkpt lat="43.27012" lon="-2.93407">
				 <ele>8.7</ele>
			 </trkpt>
			 <trkpt lat="43.27018" lon="-2.93525">
				 <ele>7.2</ele>
			 </trkpt>
			 <trkpt lat="43.270205" lon="-2.93587">
				 <ele>5.8</ele>
			 </trkpt>
			 <trkpt lat="43.27023" lon="-2.93649">
				 <ele>5.2</ele>
			 </trkpt>
			 <trkpt lat="43.27024" lon="-2.93726">
				 <ele>4.5</ele>
			 </trkpt>
			 <trkpt lat="43.2702" lon="-2.93849">
				 <ele>2.8</ele>
			 </trkpt>
			 <trkpt lat="43.27013" lon="-2.93914">
				 <ele>1.9</ele>
			 </trkpt>
			 <trkpt lat="43.26999" lon="-2.94009">
				 <ele>2.1</ele>
			 </trkpt>
			 <trkpt lat="43.26989" lon="-2.94066">
				 <ele>2.4</ele>
			 </trkpt>
			 <trkpt lat="43.26965" lon="-2.94153">
				 <ele>2.6</ele>
			 </trkpt>
			 <trkpt lat="43.26952" lon="-2.94196">
				 <ele>2.7</ele>
			 </trkpt>
			 <trkpt lat="43.26935" lon="-2.94248">
				 <ele>3.2</ele>
			 </trkpt>
			 <trkpt lat="43.26922" lon="-2.94366">
				 <ele>3.7</ele>
			 </trkpt>
			 <trkpt lat="43.26913" lon="-2.94418">
				 <ele>3.6</ele>
			 </trkpt>
			 <trkpt lat="43.26893" lon="-2.94501">
				 <ele>3.5</ele>
			 </trkpt>
			 <trkpt lat="43.26874" lon="-2.94578">
				 <ele>3.2</ele>
			 </trkpt>
			 <trkpt lat="43.26851" lon="-2.94655">
				 <ele>3.4</ele>
			 </trkpt>
			 <trkpt lat="43.26841" lon="-2.94691">
				 <ele>3.2</ele>
			 </trkpt>
			 <trkpt lat="43.26797" lon="-2.94695">
				 <ele>2.7</ele>
			 </trkpt>
			 <trkpt lat="43.26787" lon="-2.94694">
				 <ele>2.3</ele>
			 </trkpt>
			 <trkpt lat="43.26769" lon="-2.9474">
				 <ele>1.8</ele>
			 </trkpt>
			 <trkpt lat="43.26764" lon="-2.94759">
				 <ele>1.4</ele>
			 </trkpt>
			 <trkpt lat="43.26736" lon="-2.948475">
				 <ele>1</ele>
			 </trkpt>
			 <trkpt lat="43.26708" lon="-2.94936">
				 <ele>0.6</ele>
			 </trkpt>
			 <trkpt lat="43.26711" lon="-2.950005">
				 <ele>0.8</ele>
			 </trkpt>
			 <trkpt lat="43.26714" lon="-2.95065">
				 <ele>1.2</ele>
			 </trkpt>
			 <trkpt lat="43.26722" lon="-2.95134">
				 <ele>1.5</ele>
			 </trkpt>
			 <trkpt lat="43.26742" lon="-2.95134">
				 <ele>1.6</ele>
			 </trkpt>
			 <trkpt lat="43.26745" lon="-2.95199">
				 <ele>1.7</ele>
			 </trkpt>
			 <trkpt lat="43.26756" lon="-2.95274">
				 <ele>1.7</ele>
			 </trkpt>
			 <trkpt lat="43.26775" lon="-2.95346">
				 <ele>1.6</ele>
			 </trkpt>
			 <trkpt lat="43.26795" lon="-2.95417">
				 <ele>1.9</ele>
			 </trkpt>
			 <trkpt lat="43.2675" lon="-2.95444">
				 <ele>2.2</ele>
			 </trkpt>
			 <trkpt lat="43.26705" lon="-2.95471">
				 <ele>2.2</ele>
			 </trkpt>
			 <trkpt lat="43.26685" lon="-2.95486">
				 <ele>2</ele>
			 </trkpt>
			 <trkpt lat="43.266995" lon="-2.95553">
				 <ele>1.9</ele>
			 </trkpt>
			 <trkpt lat="43.26714" lon="-2.9562">
				 <ele>1.9</ele>
			 </trkpt>
			 <trkpt lat="43.26715" lon="-2.95626">
				 <ele>2</ele>
			 </trkpt>
			 <trkpt lat="43.26743" lon="-2.95725">
				 <ele>2.1</ele>
			 </trkpt>
			 <trkpt lat="43.2678" lon="-2.95798">
				 <ele>2.1</ele>
			 </trkpt>
			 <trkpt lat="43.2677" lon="-2.95812">
				 <ele>2.1</ele>
			 </trkpt>
			 <trkpt lat="43.26732" lon="-2.95731">
				 <ele>2.1</ele>
			 </trkpt>
			 <trkpt lat="43.26728" lon="-2.95703">
				 <ele>2</ele>
			 </trkpt>
			 <trkpt lat="43.26705" lon="-2.95632">
				 <ele>1.9</ele>
			 </trkpt>
			 <trkpt lat="43.26682" lon="-2.95538">
				 <ele>1.9</ele>
			 </trkpt>
			 <trkpt lat="43.26674" lon="-2.95477">
				 <ele>2.1</ele>
			 </trkpt>
			 <trkpt lat="43.267295" lon="-2.95443">
				 <ele>2.2</ele>
			 </trkpt>
			 <trkpt lat="43.26785" lon="-2.95409">
				 <ele>2.1</ele>
			 </trkpt>
			 <trkpt lat="43.26789" lon="-2.95406">
				 <ele>1.8</ele>
			 </trkpt>
			 <trkpt lat="43.26758" lon="-2.95299">
				 <ele>1.6</ele>
			 </trkpt>
			 <trkpt lat="43.26749" lon="-2.95246">
				 <ele>1.7</ele>
			 </trkpt>
			 <trkpt lat="43.26742" lon="-2.95202">
				 <ele>1.7</ele>
			 </trkpt>
			 <trkpt lat="43.2674" lon="-2.95165">
				 <ele>1.7</ele>
			 </trkpt>
			 <trkpt lat="43.26721" lon="-2.95171">
				 <ele>1.5</ele>
			 </trkpt>
			 <trkpt lat="43.2671" lon="-2.95116">
				 <ele>1.1</ele>
			 </trkpt>
			 <trkpt lat="43.266975" lon="-2.950515">
				 <ele>0.9</ele>
			 </trkpt>
			 <trkpt lat="43.26685" lon="-2.94987">
				 <ele>0.7</ele>
			 </trkpt>
			 <trkpt lat="43.26719" lon="-2.94882">
				 <ele>0.5</ele>
			 </trkpt>
			 <trkpt lat="43.26753" lon="-2.94777">
				 <ele>0.4</ele>
			 </trkpt>
			 <trkpt lat="43.267777" lon="-2.947003">
				 <ele>0.3</ele>
			 </trkpt>
			 <trkpt lat="43.268023" lon="-2.946237">
				 <ele>0.1</ele>
			 </trkpt>
			 <trkpt lat="43.26827" lon="-2.94547">
				 <ele>-0.3</ele>
			 </trkpt>
			 <trkpt lat="43.268527" lon="-2.94468">
				 <ele>-0.5</ele>
			 </trkpt>
			 <trkpt lat="43.268783" lon="-2.94389">
				 <ele>-0.4</ele>
			 </trkpt>
			 <trkpt lat="43.26904" lon="-2.9431">
				 <ele>-0.3</ele>
			 </trkpt>
			 <trkpt lat="43.26922" lon="-2.94252">
				 <ele>-0.1</ele>
			 </trkpt>
			 <trkpt lat="43.2694" lon="-2.94194">
				 <ele>-0.2</ele>
			 </trkpt>
			 <trkpt lat="43.2695" lon="-2.94184">
				 <ele>-0.2</ele>
			 </trkpt>
			 <trkpt lat="43.26962" lon="-2.94141">
				 <ele>-0.2</ele>
			 </trkpt>
			 <trkpt lat="43.26986" lon="-2.94057">
				 <ele>0</ele>
			 </trkpt>
			 <trkpt lat="43.26994" lon="-2.9401">
				 <ele>0.3</ele>
			 </trkpt>
			 <trkpt lat="43.27002" lon="-2.93959">
				 <ele>0.5</ele>
			 </trkpt>
			 <trkpt lat="43.27012" lon="-2.93893">
				 <ele>0.9</ele>
			 </trkpt>
			 <trkpt lat="43.27016" lon="-2.93842">
				 <ele>1.2</ele>
			 </trkpt>
			 <trkpt lat="43.27019" lon="-2.93745">
				 <ele>0.9</ele>
			 </trkpt>
			 <trkpt lat="43.2702" lon="-2.93694">
				 <ele>1.9</ele>
			 </trkpt>
			 <trkpt lat="43.2702" lon="-2.93649">
				 <ele>2.6</ele>
			 </trkpt>
			 <trkpt lat="43.27016" lon="-2.93561">
				 <ele>3.5</ele>
			 </trkpt>
			 <trkpt lat="43.27013" lon="-2.934985">
				 <ele>4.6</ele>
			 </trkpt>
			 <trkpt lat="43.2701" lon="-2.93436">
				 <ele>6</ele>
			 </trkpt>
			 <trkpt lat="43.27004" lon="-2.93339">
				 <ele>7.2</ele>
			 </trkpt>
			 <trkpt lat="43.26997" lon="-2.93254">
				 <ele>8</ele>
			 </trkpt>
			 <trkpt lat="43.26985" lon="-2.93196">
				 <ele>8.7</ele>
			 </trkpt>
			 <trkpt lat="43.26979" lon="-2.93166">
				 <ele>9.2</ele>
			 </trkpt>
			 <trkpt lat="43.26966" lon="-2.93129">
				 <ele>9.9</ele>
			 </trkpt>
			 <trkpt lat="43.26957" lon="-2.93109">
				 <ele>11</ele>
			 </trkpt>
			 <trkpt lat="43.26942" lon="-2.93081">
				 <ele>11</ele>
			 </trkpt>
			 <trkpt lat="43.26903" lon="-2.93021">
				 <ele>11.4</ele>
			 </trkpt>
			 <trkpt lat="43.26867" lon="-2.92975">
				 <ele>12</ele>
			 </trkpt>
			 <trkpt lat="43.26812" lon="-2.92905">
				 <ele>12.1</ele>
			 </trkpt>
			 <trkpt lat="43.267685" lon="-2.928495">
				 <ele>11.8</ele>
			 </trkpt>
			 <trkpt lat="43.26725" lon="-2.92794">
				 <ele>11.3</ele>
			 </trkpt>
			 <trkpt lat="43.26678" lon="-2.927335">
				 <ele>11.2</ele>
			 </trkpt>
			 <trkpt lat="43.26631" lon="-2.92673">
				 <ele>11.5</ele>
			 </trkpt>
			 <trkpt lat="43.26594" lon="-2.92627">
				 <ele>11.8</ele>
			 </trkpt>
			 <trkpt lat="43.26557" lon="-2.92581">
				 <ele>11.9</ele>
			 </trkpt>
			 <trkpt lat="43.26507" lon="-2.92522">
				 <ele>11.7</ele>
			 </trkpt>
			 <trkpt lat="43.26439" lon="-2.92442">
				 <ele>11.6</ele>
			 </trkpt>
			 <trkpt lat="43.2641" lon="-2.92399">
				 <ele>11.7</ele>
			 </trkpt>
			 <trkpt lat="43.26377" lon="-2.92352">
				 <ele>11.7</ele>
			 </trkpt>
			 <trkpt lat="43.2635" lon="-2.92328">
				 <ele>11.8</ele>
			 </trkpt>
			 <trkpt lat="43.26334" lon="-2.9232">
				 <ele>12.3</ele>
			 </trkpt>
			 <trkpt lat="43.26297" lon="-2.92311">
				 <ele>13.3</ele>
			 </trkpt>
			 <trkpt lat="43.26263" lon="-2.92303">
				 <ele>14.1</ele>
			 </trkpt>
			 <trkpt lat="43.2623" lon="-2.92303">
				 <ele>14.7</ele>
			 </trkpt>
			 <trkpt lat="43.26185" lon="-2.92308">
				 <ele>15.5</ele>
			 </trkpt>
			 <trkpt lat="43.26161" lon="-2.92303">
				 <ele>16.1</ele>
			 </trkpt>
			 <trkpt lat="43.26133" lon="-2.92295">
				 <ele>16.5</ele>
			 </trkpt>
			 <trkpt lat="43.26121" lon="-2.92292">
				 <ele>16.8</ele>
			 </trkpt>
			 <trkpt lat="43.26095" lon="-2.92286">
				 <ele>16.7</ele>
			 </trkpt>
			 <trkpt lat="43.26064" lon="-2.92282">
				 <ele>16.7</ele>
			 </trkpt>
			 <trkpt lat="43.2604" lon="-2.92291">
				 <ele>16.7</ele>
			 </trkpt>
			 <trkpt lat="43.26017" lon="-2.92305">
				 <ele>16.4</ele>
			 </trkpt>
			 <trkpt lat="43.26003" lon="-2.92314">
				 <ele>15.3</ele>
			 </trkpt>
			 <trkpt lat="43.25987" lon="-2.9233">
				 <ele>14.2</ele>
			 </trkpt>
			 <trkpt lat="43.25972" lon="-2.92364">
				 <ele>13</ele>
			 </trkpt>
			 <trkpt lat="43.25967" lon="-2.92382">
				 <ele>11.9</ele>
			 </trkpt>
			 <trkpt lat="43.25978" lon="-2.92412">
				 <ele>11</ele>
			 </trkpt>
			 <trkpt lat="43.260045" lon="-2.92466">
				 <ele>10.5</ele>
			 </trkpt>
			 <trkpt lat="43.26031" lon="-2.9252">
				 <ele>9.9</ele>
			 </trkpt>
			 <trkpt lat="43.26049" lon="-2.92552">
				 <ele>9.3</ele>
			 </trkpt>
			 <trkpt lat="43.26055" lon="-2.92549">
				 <ele>8.5</ele>
			 </trkpt>
			 <trkpt lat="43.26083" lon="-2.92523">
				 <ele>7.9</ele>
			 </trkpt>
			 <trkpt lat="43.26109" lon="-2.92504">
				 <ele>7.5</ele>
			 </trkpt>
			 <trkpt lat="43.26132" lon="-2.92485">
				 <ele>7.5</ele>
			 </trkpt>
			 <trkpt lat="43.26175" lon="-2.92453">
				 <ele>7.5</ele>
			 </trkpt>
			 <trkpt lat="43.2619" lon="-2.92446">
				 <ele>7.7</ele>
			 </trkpt>
			 <trkpt lat="43.26218" lon="-2.92441">
				 <ele>7.9</ele>
			 </trkpt>
			 <trkpt lat="43.26245" lon="-2.92439">
				 <ele>7.9</ele>
			 </trkpt>
			 <trkpt lat="43.26271" lon="-2.92443">
				 <ele>7.6</ele>
			 </trkpt>
			 <trkpt lat="43.26301" lon="-2.92453">
				 <ele>7.5</ele>
			 </trkpt>
			 <trkpt lat="43.26322" lon="-2.92464">
				 <ele>7.5</ele>
			 </trkpt>
			 <trkpt lat="43.26342" lon="-2.92481">
				 <ele>7.5</ele>
			 </trkpt>
			 <trkpt lat="43.26361" lon="-2.925">
				 <ele>7.5</ele>
			 </trkpt>
			 <trkpt lat="43.26374" lon="-2.92513">
				 <ele>7.5</ele>
			 </trkpt>
			 <trkpt lat="43.26382" lon="-2.92525">
				 <ele>7.5</ele>
			 </trkpt>
			 <trkpt lat="43.26399" lon="-2.92558">
				 <ele>7.3</ele>
			 </trkpt>
			 <trkpt lat="43.26419" lon="-2.92601">
				 <ele>7.2</ele>
			 </trkpt>
			 <trkpt lat="43.26441" lon="-2.92642">
				 <ele>7.1</ele>
			 </trkpt>
			 <trkpt lat="43.26494" lon="-2.92717">
				 <ele>7.3</ele>
			 </trkpt>
			 <trkpt lat="43.26542" lon="-2.92784">
				 <ele>7.5</ele>
			 </trkpt>
			 <trkpt lat="43.26584" lon="-2.92837">
				 <ele>7.7</ele>
			 </trkpt>
			 <trkpt lat="43.26608" lon="-2.92866">
				 <ele>7.8</ele>
			 </trkpt>
			 <trkpt lat="43.26629" lon="-2.92889">
				 <ele>7.6</ele>
			 </trkpt>
			 <trkpt lat="43.26651" lon="-2.92914">
				 <ele>7.3</ele>
			 </trkpt>
			 <trkpt lat="43.26707" lon="-2.9297">
				 <ele>7.2</ele>
			 </trkpt>
			 <trkpt lat="43.2673" lon="-2.92988">
				 <ele>7.1</ele>
			 </trkpt>
			 <trkpt lat="43.26747" lon="-2.93007">
				 <ele>7.2</ele>
			 </trkpt>
			 <trkpt lat="43.2677" lon="-2.93035">
				 <ele>7.2</ele>
			 </trkpt>
			 <trkpt lat="43.26785" lon="-2.93051">
				 <ele>7.2</ele>
			 </trkpt>
			 <trkpt lat="43.26796" lon="-2.93072">
				 <ele>7.1</ele>
			 </trkpt>
			 <trkpt lat="43.26805" lon="-2.93102">
				 <ele>7.2</ele>
			 </trkpt>
			 <trkpt lat="43.26811" lon="-2.93126">
				 <ele>7.5</ele>
			 </trkpt>
			 <trkpt lat="43.26819" lon="-2.93141">
				 <ele>8.2</ele>
			 </trkpt>
			 <trkpt lat="43.26829" lon="-2.93149">
				 <ele>8.9</ele>
			 </trkpt>
			 <trkpt lat="43.26831" lon="-2.93162">
				 <ele>9.6</ele>
			 </trkpt>
			 <trkpt lat="43.26822" lon="-2.9318">
				 <ele>10</ele>
			 </trkpt>
			 <trkpt lat="43.26815" lon="-2.93204">
				 <ele>10.2</ele>
			 </trkpt>
			 <trkpt lat="43.26814" lon="-2.93257">
				 <ele>10.3</ele>
			 </trkpt>
			 <trkpt lat="43.26813" lon="-2.93324">
				 <ele>10.3</ele>
			 </trkpt>
			 <trkpt lat="43.26808" lon="-2.93378">
				 <ele>10.1</ele>
			 </trkpt>
			 <trkpt lat="43.26802" lon="-2.93419">
				 <ele>9.8</ele>
			 </trkpt>
			 <trkpt lat="43.26797" lon="-2.93455">
				 <ele>9.4</ele>
			 </trkpt>
			 <trkpt lat="43.26797" lon="-2.9348">
				 <ele>8.5</ele>
			 </trkpt>
			 <trkpt lat="43.26813" lon="-2.93488">
				 <ele>7.5</ele>
			 </trkpt>
			 <trkpt lat="43.268675" lon="-2.93514">
				 <ele>6.3</ele>
			 </trkpt>
			 <trkpt lat="43.26922" lon="-2.9354">
				 <ele>5.5</ele>
			 </trkpt>
			 <trkpt lat="43.26936" lon="-2.93571">
				 <ele>4.5</ele>
			 </trkpt>
			 <trkpt lat="43.26944" lon="-2.93626">
				 <ele>3.9</ele>
			 </trkpt>
			 <trkpt lat="43.26946" lon="-2.93681">
				 <ele>3.4</ele>
			 </trkpt>
			 <trkpt lat="43.26948" lon="-2.9377">
				 <ele>2.7</ele>
			 </trkpt>
			 <trkpt lat="43.26941" lon="-2.93882">
				 <ele>2.5</ele>
			 </trkpt>
			 <trkpt lat="43.26921" lon="-2.93992">
				 <ele>2.2</ele>
			 </trkpt>
			 <trkpt lat="43.26896" lon="-2.94089">
				 <ele>2</ele>
			 </trkpt>
			 <trkpt lat="43.26881" lon="-2.94141">
				 <ele>2.2</ele>
			 </trkpt>
			 <trkpt lat="43.26864" lon="-2.94193">
				 <ele>2.7</ele>
			 </trkpt>
			 <trkpt lat="43.2685" lon="-2.94223">
				 <ele>3.6</ele>
			 </trkpt>
			 <trkpt lat="43.26826" lon="-2.94245">
				 <ele>4.6</ele>
			 </trkpt>
			 <trkpt lat="43.2679" lon="-2.94258">
				 <ele>6.1</ele>
			 </trkpt>
			 <trkpt lat="43.26747" lon="-2.94279">
				 <ele>7.5</ele>
			 </trkpt>
			 <trkpt lat="43.26722" lon="-2.94272">
				 <ele>9</ele>
			 </trkpt>
			 <trkpt lat="43.26697" lon="-2.94292">
				 <ele>10.7</ele>
			 </trkpt>
			 <trkpt lat="43.26672" lon="-2.9431">
				 <ele>11.9</ele>
			 </trkpt>
			 <trkpt lat="43.26657" lon="-2.94329">
				 <ele>13.4</ele>
			 </trkpt>
			 <trkpt lat="43.26647" lon="-2.94347">
				 <ele>14.9</ele>
			 </trkpt>
			 <trkpt lat="43.26641" lon="-2.94365">
				 <ele>16.3</ele>
			 </trkpt>
			 <trkpt lat="43.26624" lon="-2.94443">
				 <ele>17.5</ele>
			 </trkpt>
			 <trkpt lat="43.26611" lon="-2.94496">
				 <ele>18.7</ele>
			 </trkpt>
			 <trkpt lat="43.26585" lon="-2.94489">
				 <ele>19.4</ele>
			 </trkpt>
			 <trkpt lat="43.26552" lon="-2.94492">
				 <ele>19.5</ele>
			 </trkpt>
			 <trkpt lat="43.26529" lon="-2.94485">
				 <ele>19.4</ele>
			 </trkpt>
			 <trkpt lat="43.26516" lon="-2.94468">
				 <ele>19.4</ele>
			 </trkpt>
			 <trkpt lat="43.264995" lon="-2.943935">
				 <ele>19.6</ele>
			 </trkpt>
			 <trkpt lat="43.26483" lon="-2.94319">
				 <ele>20.5</ele>
			 </trkpt>
			 <trkpt lat="43.264597" lon="-2.942144">
				 <ele>21.1</ele>
			 </trkpt>
			 <trkpt lat="43.264364" lon="-2.941099">
				 <ele>21.3</ele>
			 </trkpt>
			 <trkpt lat="43.264131" lon="-2.940053">
				 <ele>21.4</ele>
			 </trkpt>
			 <trkpt lat="43.263899" lon="-2.939007">
				 <ele>21.2</ele>
			 </trkpt>
			 <trkpt lat="43.263666" lon="-2.937961">
				 <ele>20.8</ele>
			 </trkpt>
			 <trkpt lat="43.263433" lon="-2.936916">
				 <ele>20.8</ele>
			 </trkpt>
			 <trkpt lat="43.2632" lon="-2.93587">
				 <ele>21.2</ele>
			 </trkpt>
			 <trkpt lat="43.26299" lon="-2.93559">
				 <ele>21.7</ele>
			 </trkpt>
			 <trkpt lat="43.26284" lon="-2.93552">
				 <ele>22</ele>
			 </trkpt>
			 <trkpt lat="43.26271" lon="-2.93527">
				 <ele>21.9</ele>
			 </trkpt>
			 <trkpt lat="43.26266" lon="-2.93501">
				 <ele>21.6</ele>
			 </trkpt>
			 <trkpt lat="43.26267" lon="-2.93478">
				 <ele>21.4</ele>
			 </trkpt>
			 <trkpt lat="43.26274" lon="-2.93459">
				 <ele>21.5</ele>
			 </trkpt>
			 <trkpt lat="43.26286" lon="-2.93446">
				 <ele>21.5</ele>
			 </trkpt>
			 <trkpt lat="43.263" lon="-2.93443">
				 <ele>21.8</ele>
			 </trkpt>
			 <trkpt lat="43.26312" lon="-2.93451">
				 <ele>22.4</ele>
			 </trkpt>
			 <trkpt lat="43.26323" lon="-2.93462">
				 <ele>22.7</ele>
			 </trkpt>
			 <trkpt lat="43.26331" lon="-2.93479">
				 <ele>22.5</ele>
			 </trkpt>
			 <trkpt lat="43.26346" lon="-2.93525">
				 <ele>21.8</ele>
			 </trkpt>
			 <trkpt lat="43.263995" lon="-2.93566">
				 <ele>20.9</ele>
			 </trkpt>
			 <trkpt lat="43.26453" lon="-2.93607">
				 <ele>20</ele>
			 </trkpt>
			 <trkpt lat="43.26512" lon="-2.936513">
				 <ele>18.9</ele>
			 </trkpt>
			 <trkpt lat="43.26571" lon="-2.936957">
				 <ele>17.6</ele>
			 </trkpt>
			 <trkpt lat="43.2663" lon="-2.9374">
				 <ele>16.1</ele>
			 </trkpt>
			 <trkpt lat="43.26664" lon="-2.93756">
				 <ele>14.5</ele>
			 </trkpt>
			 <trkpt lat="43.26694" lon="-2.93746">
				 <ele>12.9</ele>
			 </trkpt>
			 <trkpt lat="43.26711" lon="-2.93746">
				 <ele>11</ele>
			 </trkpt>
			 <trkpt lat="43.26723" lon="-2.93755">
				 <ele>9.3</ele>
			 </trkpt>
			 <trkpt lat="43.26734" lon="-2.93775">
				 <ele>7.9</ele>
			 </trkpt>
			 <trkpt lat="43.26736" lon="-2.93794">
				 <ele>7</ele>
			 </trkpt>
			 <trkpt lat="43.26734" lon="-2.9381">
				 <ele>6.2</ele>
			 </trkpt>
			 <trkpt lat="43.26709" lon="-2.93853">
				 <ele>5.3</ele>
			 </trkpt>
			 <trkpt lat="43.26706" lon="-2.93866">
				 <ele>4.5</ele>
			 </trkpt>
			 <trkpt lat="43.26709" lon="-2.93883">
				 <ele>3.7</ele>
			 </trkpt>
			 <trkpt lat="43.26742" lon="-2.93926">
				 <ele>3.6</ele>
			 </trkpt>
			 <trkpt lat="43.2677" lon="-2.93954">
				 <ele>4.5</ele>
			 </trkpt>
			 <trkpt lat="43.26799" lon="-2.93974">
				 <ele>5.4</ele>
			 </trkpt>
			 <trkpt lat="43.26869" lon="-2.940135">
				 <ele>6.5</ele>
			 </trkpt>
			 <trkpt lat="43.26939" lon="-2.94053">
				 <ele>7.7</ele>
			 </trkpt>
			 <trkpt lat="43.269985" lon="-2.94086">
				 <ele>9.4</ele>
			 </trkpt>
			 <trkpt lat="43.27058" lon="-2.94119">
				 <ele>11.1</ele>
			 </trkpt>
			 <trkpt lat="43.27108" lon="-2.94144">
				 <ele>13</ele>
			 </trkpt>
			 <trkpt lat="43.27122" lon="-2.94169">
				 <ele>15</ele>
			 </trkpt>
			 <trkpt lat="43.27143" lon="-2.94192">
				 <ele>17</ele>
			 </trkpt>
			 <trkpt lat="43.27152" lon="-2.942575">
				 <ele>19.4</ele>
			 </trkpt>
			 <trkpt lat="43.27161" lon="-2.94323">
				 <ele>21.7</ele>
			 </trkpt>
			 <trkpt lat="43.271705" lon="-2.9439">
				 <ele>23.2</ele>
			 </trkpt>
			 <trkpt lat="43.2718" lon="-2.94457">
				 <ele>24.4</ele>
			 </trkpt>
			 <trkpt lat="43.27183" lon="-2.945453">
				 <ele>25.2</ele>
			 </trkpt>
			 <trkpt lat="43.27186" lon="-2.946337">
				 <ele>25.6</ele>
			 </trkpt>
			 <trkpt lat="43.27189" lon="-2.94722">
				 <ele>25.8</ele>
			 </trkpt>
			 <trkpt lat="43.27193" lon="-2.948237">
				 <ele>26</ele>
			 </trkpt>
			 <trkpt lat="43.27197" lon="-2.949253">
				 <ele>26.5</ele>
			 </trkpt>
			 <trkpt lat="43.27201" lon="-2.95027">
				 <ele>27.3</ele>
			 </trkpt>
			 <trkpt lat="43.27203" lon="-2.95085">
				 <ele>28.1</ele>
			 </trkpt>
			 <trkpt lat="43.272145" lon="-2.951745">
				 <ele>28.6</ele>
			 </trkpt>
			 <trkpt lat="43.27226" lon="-2.95264">
				 <ele>28.9</ele>
			 </trkpt>
			 <trkpt lat="43.27248" lon="-2.95366">
				 <ele>29.2</ele>
			 </trkpt>
			 <trkpt lat="43.2727" lon="-2.95468">
				 <ele>29.7</ele>
			 </trkpt>
			 <trkpt lat="43.27277" lon="-2.95503">
				 <ele>30.3</ele>
			 </trkpt>
			 <trkpt lat="43.27275" lon="-2.9553">
				 <ele>30.7</ele>
			 </trkpt>
			 <trkpt lat="43.27285" lon="-2.95572">
				 <ele>30.9</ele>
			 </trkpt>
			 <trkpt lat="43.27294" lon="-2.95586">
				 <ele>30.9</ele>
			 </trkpt>
			 <trkpt lat="43.2732" lon="-2.95618">
				 <ele>30.4</ele>
			 </trkpt>
			 <trkpt lat="43.27346" lon="-2.95688">
				 <ele>29.5</ele>
			 </trkpt>
			 <trkpt lat="43.27368" lon="-2.95735">
				 <ele>28.5</ele>
			 </trkpt>
			 <trkpt lat="43.27426" lon="-2.95823">
				 <ele>27.4</ele>
			 </trkpt>
			 <trkpt lat="43.2747" lon="-2.95878">
				 <ele>25.9</ele>
			 </trkpt>
			 <trkpt lat="43.27523" lon="-2.9593">
				 <ele>24.1</ele>
			 </trkpt>
			 <trkpt lat="43.2757" lon="-2.95964">
				 <ele>22.2</ele>
			 </trkpt>
			 <trkpt lat="43.27591" lon="-2.95977">
				 <ele>20.5</ele>
			 </trkpt>
			 <trkpt lat="43.27645" lon="-2.96007">
				 <ele>18.9</ele>
			 </trkpt>
			 <trkpt lat="43.27722" lon="-2.960505">
				 <ele>18</ele>
			 </trkpt>
			 <trkpt lat="43.27799" lon="-2.96094">
				 <ele>17.5</ele>
			 </trkpt>
			 <trkpt lat="43.27803" lon="-2.96107">
				 <ele>17.1</ele>
			 </trkpt>
			 <trkpt lat="43.2778" lon="-2.96187">
				 <ele>16.8</ele>
			 </trkpt>
			 <trkpt lat="43.27775" lon="-2.9619">
				 <ele>16.1</ele>
			 </trkpt>
			 <trkpt lat="43.27692" lon="-2.961437">
				 <ele>15.5</ele>
			 </trkpt>
			 <trkpt lat="43.27609" lon="-2.960973">
				 <ele>15.2</ele>
			 </trkpt>
			 <trkpt lat="43.27526" lon="-2.96051">
				 <ele>15.4</ele>
			 </trkpt>
			 <trkpt lat="43.27521" lon="-2.96055">
				 <ele>15.3</ele>
			 </trkpt>
			 <trkpt lat="43.27497" lon="-2.96116">
				 <ele>14.8</ele>
			 </trkpt>
			 <trkpt lat="43.27492" lon="-2.96118">
				 <ele>14.4</ele>
			 </trkpt>
			 <trkpt lat="43.27434" lon="-2.9609">
				 <ele>13.6</ele>
			 </trkpt>
			 <trkpt lat="43.27376" lon="-2.96062">
				 <ele>12.6</ele>
			 </trkpt>
			 <trkpt lat="43.27335" lon="-2.96079">
				 <ele>11.5</ele>
			 </trkpt>
			 <trkpt lat="43.27296" lon="-2.96086">
				 <ele>10.5</ele>
			 </trkpt>
			 <trkpt lat="43.272485" lon="-2.96055">
				 <ele>10.2</ele>
			 </trkpt>
			 <trkpt lat="43.27201" lon="-2.96024">
				 <ele>10.2</ele>
			 </trkpt>
			 <trkpt lat="43.27155" lon="-2.96001">
				 <ele>10.2</ele>
			 </trkpt>
			 <trkpt lat="43.27108" lon="-2.95966">
				 <ele>10</ele>
			 </trkpt>
			 <trkpt lat="43.27081" lon="-2.95918">
				 <ele>10.2</ele>
			 </trkpt>
			 <trkpt lat="43.27064" lon="-2.95857">
				 <ele>10.9</ele>
			 </trkpt>
			 <trkpt lat="43.27063" lon="-2.95761">
				 <ele>11.9</ele>
			 </trkpt>
			 <trkpt lat="43.27073" lon="-2.95639">
				 <ele>12.9</ele>
			 </trkpt>
			 <trkpt lat="43.270755" lon="-2.955355">
				 <ele>14.4</ele>
			 </trkpt>
			 <trkpt lat="43.27078" lon="-2.95432">
				 <ele>15.6</ele>
			 </trkpt>
			 <trkpt lat="43.27082" lon="-2.95374">
				 <ele>16.7</ele>
			 </trkpt>
			 <trkpt lat="43.27094" lon="-2.9531">
				 <ele>17.8</ele>
			 </trkpt>
			 <trkpt lat="43.27098" lon="-2.95272">
				 <ele>18.6</ele>
			 </trkpt>
			 <trkpt lat="43.270985" lon="-2.95173">
				 <ele>19.4</ele>
			 </trkpt>
			 <trkpt lat="43.27099" lon="-2.95074">
				 <ele>20.3</ele>
			 </trkpt>
			 <trkpt lat="43.271013" lon="-2.949652">
				 <ele>20.9</ele>
			 </trkpt>
			 <trkpt lat="43.271037" lon="-2.948563">
				 <ele>21.5</ele>
			 </trkpt>
			 <trkpt lat="43.27106" lon="-2.947475">
				 <ele>21.9</ele>
			 </trkpt>
			 <trkpt lat="43.271083" lon="-2.946387">
				 <ele>22.1</ele>
			 </trkpt>
			 <trkpt lat="43.271107" lon="-2.945298">
				 <ele>21.7</ele>
			 </trkpt>
			 <trkpt lat="43.27113" lon="-2.94421">
				 <ele>21.5</ele>
			 </trkpt>
			 <trkpt lat="43.27149" lon="-2.94354">
				 <ele>21.1</ele>
			 </trkpt>
			 <trkpt lat="43.27154" lon="-2.94333">
				 <ele>20.5</ele>
			 </trkpt>
			 <trkpt lat="43.27145" lon="-2.942675">
				 <ele>18.9</ele>
			 </trkpt>
			 <trkpt lat="43.27136" lon="-2.94202">
				 <ele>16.9</ele>
			 </trkpt>
			 <trkpt lat="43.2713" lon="-2.94191">
				 <ele>14.9</ele>
			 </trkpt>
			 <trkpt lat="43.27111" lon="-2.9417">
				 <ele>13.3</ele>
			 </trkpt>
			 <trkpt lat="43.27083" lon="-2.94146">
				 <ele>11.5</ele>
			 </trkpt>
			 <trkpt lat="43.270038" lon="-2.941012">
				 <ele>10</ele>
			 </trkpt>
			 <trkpt lat="43.269245" lon="-2.940565">
				 <ele>8.6</ele>
			 </trkpt>
			 <trkpt lat="43.268453" lon="-2.940117">
				 <ele>7.5</ele>
			 </trkpt>
			 <trkpt lat="43.26766" lon="-2.93967">
				 <ele>6.6</ele>
			 </trkpt>
			 <trkpt lat="43.26737" lon="-2.93937">
				 <ele>6.3</ele>
			 </trkpt>
			 <trkpt lat="43.26698" lon="-2.93881">
				 <ele>6.1</ele>
			 </trkpt>
			 <trkpt lat="43.26687" lon="-2.9386">
				 <ele>7.2</ele>
			 </trkpt>
			 <trkpt lat="43.26654" lon="-2.9384">
				 <ele>9</ele>
			 </trkpt>
			 <trkpt lat="43.26645" lon="-2.93814">
				 <ele>10.8</ele>
			 </trkpt>
			 <trkpt lat="43.26634" lon="-2.93776">
				 <ele>12.5</ele>
			 </trkpt>
			 <trkpt lat="43.26624" lon="-2.93755">
				 <ele>14.3</ele>
			 </trkpt>
			 <trkpt lat="43.26598" lon="-2.93729">
				 <ele>15.8</ele>
			 </trkpt>
			 <trkpt lat="43.26566" lon="-2.93704">
				 <ele>17.5</ele>
			 </trkpt>
			 <trkpt lat="43.26549" lon="-2.93703">
				 <ele>19</ele>
			 </trkpt>
			 <trkpt lat="43.26523" lon="-2.93709">
				 <ele>20.3</ele>
			 </trkpt>
			 <trkpt lat="43.26484" lon="-2.93724">
				 <ele>20.7</ele>
			 </trkpt>
			 <trkpt lat="43.26431" lon="-2.93746">
				 <ele>21</ele>
			 </trkpt>
			 <trkpt lat="43.26378" lon="-2.93768">
				 <ele>21.2</ele>
			 </trkpt>
			 <trkpt lat="43.26368" lon="-2.93781">
				 <ele>21.4</ele>
			 </trkpt>
			 <trkpt lat="43.263933" lon="-2.938952">
				 <ele>21.5</ele>
			 </trkpt>
			 <trkpt lat="43.264187" lon="-2.940093">
				 <ele>21.3</ele>
			 </trkpt>
			 <trkpt lat="43.26444" lon="-2.941235">
				 <ele>20.9</ele>
			 </trkpt>
			 <trkpt lat="43.264693" lon="-2.942377">
				 <ele>20.5</ele>
			 </trkpt>
			 <trkpt lat="43.264947" lon="-2.943518">
				 <ele>19.8</ele>
			 </trkpt>
			 <trkpt lat="43.2652" lon="-2.94466">
				 <ele>19.4</ele>
			 </trkpt>
			 <trkpt lat="43.26531" lon="-2.94479">
				 <ele>19.4</ele>
			 </trkpt>
			 <trkpt lat="43.26552" lon="-2.94489">
				 <ele>19.7</ele>
			 </trkpt>
			 <trkpt lat="43.26585" lon="-2.94485">
				 <ele>19.9</ele>
			 </trkpt>
			 <trkpt lat="43.26594" lon="-2.94477">
				 <ele>19.7</ele>
			 </trkpt>
			 <trkpt lat="43.26606" lon="-2.94448">
				 <ele>18.9</ele>
			 </trkpt>
			 <trkpt lat="43.26619" lon="-2.94395">
				 <ele>17.6</ele>
			 </trkpt>
			 <trkpt lat="43.26627" lon="-2.94355">
				 <ele>16.2</ele>
			 </trkpt>
			 <trkpt lat="43.26641" lon="-2.94322">
				 <ele>14.6</ele>
			 </trkpt>
			 <trkpt lat="43.26655" lon="-2.94304">
				 <ele>13.1</ele>
			 </trkpt>
			 <trkpt lat="43.26678" lon="-2.94283">
				 <ele>11.5</ele>
			 </trkpt>
			 <trkpt lat="43.267215" lon="-2.942495">
				 <ele>9.9</ele>
			 </trkpt>
			 <trkpt lat="43.26765" lon="-2.94216">
				 <ele>7.9</ele>
			 </trkpt>
			 <trkpt lat="43.26796" lon="-2.94202">
				 <ele>6.2</ele>
			 </trkpt>
			 <trkpt lat="43.26817" lon="-2.94167">
				 <ele>4.7</ele>
			 </trkpt>
			 <trkpt lat="43.26842" lon="-2.94123">
				 <ele>3.4</ele>
			 </trkpt>
			 <trkpt lat="43.26859" lon="-2.94079">
				 <ele>2.2</ele>
			 </trkpt>
			 <trkpt lat="43.26873" lon="-2.94041">
				 <ele>1.5</ele>
			 </trkpt>
			 <trkpt lat="43.26883" lon="-2.94004">
				 <ele>1.2</ele>
			 </trkpt>
			 <trkpt lat="43.26891" lon="-2.93967">
				 <ele>1.3</ele>
			 </trkpt>
			 <trkpt lat="43.26896" lon="-2.93944">
				 <ele>1.6</ele>
			 </trkpt>
			 <trkpt lat="43.269" lon="-2.93906">
				 <ele>1.9</ele>
			 </trkpt>
			 <trkpt lat="43.26901" lon="-2.93879">
				 <ele>1.9</ele>
			 </trkpt>
			 <trkpt lat="43.26902" lon="-2.93834">
				 <ele>2.2</ele>
			 </trkpt>
			 <trkpt lat="43.26899" lon="-2.93794">
				 <ele>2.5</ele>
			 </trkpt>
			 <trkpt lat="43.26891" lon="-2.93734">
				 <ele>3.2</ele>
			 </trkpt>
			 <trkpt lat="43.2687" lon="-2.93704">
				 <ele>3.9</ele>
			 </trkpt>
			 <trkpt lat="43.26857" lon="-2.93661">
				 <ele>4.8</ele>
			 </trkpt>
			 <trkpt lat="43.26838" lon="-2.93615">
				 <ele>5.7</ele>
			 </trkpt>
			 <trkpt lat="43.26821" lon="-2.93581">
				 <ele>6.5</ele>
			 </trkpt>
			 <trkpt lat="43.26795" lon="-2.93542">
				 <ele>7.5</ele>
			 </trkpt>
			 <trkpt lat="43.2679" lon="-2.9353">
				 <ele>8.5</ele>
			 </trkpt>
			 <trkpt lat="43.26785" lon="-2.93511">
				 <ele>9.5</ele>
			 </trkpt>
			 <trkpt lat="43.26783" lon="-2.93483">
				 <ele>10.3</ele>
			 </trkpt>
			 <trkpt lat="43.26783" lon="-2.93473">
				 <ele>10.9</ele>
			 </trkpt>
			 <trkpt lat="43.26797" lon="-2.93381">
				 <ele>11.1</ele>
			 </trkpt>
			 <trkpt lat="43.26801" lon="-2.93347">
				 <ele>10.9</ele>
			 </trkpt>
			 <trkpt lat="43.26809" lon="-2.93271">
				 <ele>10.6</ele>
			 </trkpt>
			 <trkpt lat="43.26811" lon="-2.93185">
				 <ele>10.2</ele>
			 </trkpt>
			 <trkpt lat="43.26804" lon="-2.93164">
				 <ele>9.9</ele>
			 </trkpt>
			 <trkpt lat="43.26807" lon="-2.93137">
				 <ele>9.7</ele>
			 </trkpt>
			 <trkpt lat="43.26803" lon="-2.93105">
				 <ele>9.3</ele>
			 </trkpt>
			 <trkpt lat="43.26793" lon="-2.93074">
				 <ele>8.9</ele>
			 </trkpt>
			 <trkpt lat="43.26776" lon="-2.93048">
				 <ele>8.8</ele>
			 </trkpt>
			 <trkpt lat="43.2674" lon="-2.93007">
				 <ele>9.2</ele>
			 </trkpt>
			 <trkpt lat="43.26732" lon="-2.93001">
				 <ele>9.5</ele>
			 </trkpt>
			 <trkpt lat="43.26715" lon="-2.92994">
				 <ele>10</ele>
			 </trkpt>
			 <trkpt lat="43.26686" lon="-2.92988">
				 <ele>10.9</ele>
			 </trkpt>
			 <trkpt lat="43.26632" lon="-2.9297">
				 <ele>11.9</ele>
			 </trkpt>
			 <trkpt lat="43.26604" lon="-2.92958">
				 <ele>12.9</ele>
			 </trkpt>
			 <trkpt lat="43.26536" lon="-2.92911">
				 <ele>13.5</ele>
			 </trkpt>
			 <trkpt lat="43.26497" lon="-2.92876">
				 <ele>13.9</ele>
			 </trkpt>
			 <trkpt lat="43.26448" lon="-2.92814">
				 <ele>13.9</ele>
			 </trkpt>
			 <trkpt lat="43.26421" lon="-2.92776">
				 <ele>13.7</ele>
			 </trkpt>
			 <trkpt lat="43.26397" lon="-2.92733">
				 <ele>13</ele>
			 </trkpt>
			 <trkpt lat="43.26383" lon="-2.9269">
				 <ele>12.5</ele>
			 </trkpt>
			 <trkpt lat="43.26378" lon="-2.92645">
				 <ele>12.5</ele>
			 </trkpt>
			 <trkpt lat="43.26379" lon="-2.9257">
				 <ele>12.3</ele>
			 </trkpt>
			 <trkpt lat="43.26379" lon="-2.9255">
				 <ele>11.8</ele>
			 </trkpt>
			 <trkpt lat="43.26365" lon="-2.92513">
				 <ele>11.4</ele>
			 </trkpt>
			 <trkpt lat="43.26348" lon="-2.92508">
				 <ele>11.6</ele>
			 </trkpt>
			 <trkpt lat="43.26296" lon="-2.92509">
				 <ele>12.3</ele>
			 </trkpt>
			 <trkpt lat="43.2629" lon="-2.92475">
				 <ele>13.6</ele>
			 </trkpt>
			 <trkpt lat="43.26279" lon="-2.92474">
				 <ele>15.2</ele>
			 </trkpt>
			 <trkpt lat="43.26271" lon="-2.92482">
				 <ele>16.7</ele>
			 </trkpt>
			 <trkpt lat="43.262283" lon="-2.925507">
				 <ele>17.9</ele>
			 </trkpt>
			 <trkpt lat="43.261857" lon="-2.926193">
				 <ele>17.9</ele>
			 </trkpt>
			 <trkpt lat="43.26143" lon="-2.92688">
				 <ele>17.5</ele>
			 </trkpt>
			 <trkpt lat="43.26132" lon="-2.92694">
				 <ele>17.5</ele>
			 </trkpt>
			 <trkpt lat="43.26119" lon="-2.92691">
				 <ele>17.9</ele>
			 </trkpt>
			 <trkpt lat="43.26085" lon="-2.926295">
				 <ele>18.1</ele>
			 </trkpt>
			 <trkpt lat="43.26051" lon="-2.92568">
				 <ele>17.6</ele>
			 </trkpt>
			 <trkpt lat="43.260145" lon="-2.924955">
				 <ele>17.5</ele>
			 </trkpt>
			 <trkpt lat="43.25978" lon="-2.92423">
				 <ele>17</ele>
			 </trkpt>
			 <trkpt lat="43.25955" lon="-2.92383">
				 <ele>16.1</ele>
			 </trkpt>
			 <trkpt lat="43.25982" lon="-2.92318">
				 <ele>15.3</ele>
			 </trkpt>
			 <trkpt lat="43.26003" lon="-2.92299">
				 <ele>14.9</ele>
			 </trkpt>
			 <trkpt lat="43.2606" lon="-2.92276">
				 <ele>15.2</ele>
			 </trkpt>
			 <trkpt lat="43.26121" lon="-2.92287">
				 <ele>15.4</ele>
			 </trkpt>
			 <trkpt lat="43.26182" lon="-2.92298">
				 <ele>15.2</ele>
			 </trkpt>
			 <trkpt lat="43.26223" lon="-2.92286">
				 <ele>14.8</ele>
			 </trkpt>
			 <trkpt lat="43.26262" lon="-2.92289">
				 <ele>14.6</ele>
			 </trkpt>
			 <trkpt lat="43.26277" lon="-2.92293">
				 <ele>14.5</ele>
			 </trkpt>
			 <trkpt lat="43.2633" lon="-2.92308">
				 <ele>13.7</ele>
			 </trkpt>
			 <trkpt lat="43.26367" lon="-2.92309">
				 <ele>12.8</ele>
			 </trkpt>
			 <trkpt lat="43.26371" lon="-2.92312">
				 <ele>12.1</ele>
			 </trkpt>
			 <trkpt lat="43.26373" lon="-2.92318">
				 <ele>11.6</ele>
			 </trkpt>
			 <trkpt lat="43.2638" lon="-2.92338">
				 <ele>11.6</ele>
			 </trkpt>
			 <trkpt lat="43.26401" lon="-2.9238">
				 <ele>11.7</ele>
			 </trkpt>
			 <trkpt lat="43.26437" lon="-2.92434">
				 <ele>11.9</ele>
			 </trkpt>
			 <trkpt lat="43.26489" lon="-2.92496">
				 <ele>11.9</ele>
			 </trkpt>
			 <trkpt lat="43.2655" lon="-2.92568">
				 <ele>11.5</ele>
			 </trkpt>
			 <trkpt lat="43.266095" lon="-2.926415">
				 <ele>11.5</ele>
			 </trkpt>
			 <trkpt lat="43.26669" lon="-2.92715">
				 <ele>11.7</ele>
			 </trkpt>
			 <trkpt lat="43.26726" lon="-2.927872">
				 <ele>12.2</ele>
			 </trkpt>
			 <trkpt lat="43.26783" lon="-2.928595">
				 <ele>12.6</ele>
			 </trkpt>
			 <trkpt lat="43.2684" lon="-2.929317">
				 <ele>12.6</ele>
			 </trkpt>
			 <trkpt lat="43.26897" lon="-2.93004">
				 <ele>12.7</ele>
			 </trkpt>
			 <trkpt lat="43.26942" lon="-2.93073">
				 <ele>12.6</ele>
			 </trkpt>
			 <trkpt lat="43.26961" lon="-2.93109">
				 <ele>11.6</ele>
			 </trkpt>
			 <trkpt lat="43.26983" lon="-2.93164">
				 <ele>10.8</ele>
			 </trkpt>
			 <trkpt lat="43.26993" lon="-2.93206">
				 <ele>10.1</ele>
			 </trkpt>
			 <trkpt lat="43.27004" lon="-2.93277">
				 <ele>9.8</ele>
			 </trkpt>
			 <trkpt lat="43.2701" lon="-2.93353">
				 <ele>9.1</ele>
			 </trkpt>
			 <trkpt lat="43.27014" lon="-2.93449">
				 <ele>7.9</ele>
			 </trkpt>
			 <trkpt lat="43.27018" lon="-2.93545">
				 <ele>6.4</ele>
			 </trkpt>
			 <trkpt lat="43.27023" lon="-2.93656">
				 <ele>5</ele>
			 </trkpt>
			 <trkpt lat="43.27024" lon="-2.93726">
				 <ele>4.4</ele>
			 </trkpt>
			 <trkpt lat="43.27022" lon="-2.9379">
				 <ele>3.5</ele>
			 </trkpt>
			 <trkpt lat="43.2702" lon="-2.93854">
				 <ele>2.5</ele>
			 </trkpt>
			 <trkpt lat="43.27013" lon="-2.93912">
				 <ele>2.7</ele>
			 </trkpt>
			 <trkpt lat="43.26999" lon="-2.94006">
				 <ele>3.1</ele>
			 </trkpt>
			 <trkpt lat="43.26989" lon="-2.94063">
				 <ele>3.4</ele>
			 </trkpt>
			 <trkpt lat="43.26965" lon="-2.94151">
				 <ele>3.5</ele>
			 </trkpt>
			 <trkpt lat="43.26936" lon="-2.94247">
				 <ele>3.7</ele>
			 </trkpt>
			 <trkpt lat="43.26922" lon="-2.94363">
				 <ele>4.1</ele>
			 </trkpt>
			 <trkpt lat="43.26913" lon="-2.94416">
				 <ele>4.1</ele>
			 </trkpt>
			 <trkpt lat="43.26894" lon="-2.945">
				 <ele>3.9</ele>
			 </trkpt>
			 <trkpt lat="43.26874" lon="-2.94576">
				 <ele>3.8</ele>
			 </trkpt>
			 <trkpt lat="43.26852" lon="-2.94653">
				 <ele>3.5</ele>
			 </trkpt>
			 <trkpt lat="43.26841" lon="-2.94691">
				 <ele>3.3</ele>
			 </trkpt>
			 <trkpt lat="43.26796" lon="-2.94695">
				 <ele>2.8</ele>
			 </trkpt>
			 <trkpt lat="43.26787" lon="-2.94695">
				 <ele>2.4</ele>
			 </trkpt>
			 <trkpt lat="43.26769" lon="-2.9474">
				 <ele>1.9</ele>
			 </trkpt>
			 <trkpt lat="43.26764" lon="-2.9476">
				 <ele>1.5</ele>
			 </trkpt>
			 <trkpt lat="43.26736" lon="-2.94848">
				 <ele>1.1</ele>
			 </trkpt>
			 <trkpt lat="43.26708" lon="-2.94936">
				 <ele>0.7</ele>
			 </trkpt>
			 <trkpt lat="43.26711" lon="-2.950005">
				 <ele>0.9</ele>
			 </trkpt>
			 <trkpt lat="43.26714" lon="-2.95065">
				 <ele>1.3</ele>
			 </trkpt>
			 <trkpt lat="43.26722" lon="-2.95135">
				 <ele>1.5</ele>
			 </trkpt>
			 <trkpt lat="43.26742" lon="-2.95135">
				 <ele>1.7</ele>
			 </trkpt>
			 <trkpt lat="43.26745" lon="-2.95199">
				 <ele>1.7</ele>
			 </trkpt>
			 <trkpt lat="43.26755" lon="-2.95274">
				 <ele>1.7</ele>
			 </trkpt>
			 <trkpt lat="43.26775" lon="-2.95348">
				 <ele>1.7</ele>
			 </trkpt>
			 <trkpt lat="43.26794" lon="-2.95418">
				 <ele>1.9</ele>
			 </trkpt>
			 <trkpt lat="43.267495" lon="-2.954445">
				 <ele>2.2</ele>
			 </trkpt>
			 <trkpt lat="43.26705" lon="-2.95471">
				 <ele>2.3</ele>
			 </trkpt>
			 <trkpt lat="43.26687" lon="-2.95489">
				 <ele>2.4</ele>
			 </trkpt>
			 <trkpt lat="43.267005" lon="-2.95552">
				 <ele>2.5</ele>
			 </trkpt>
			 <trkpt lat="43.26714" lon="-2.95615">
				 <ele>2.5</ele>
			 </trkpt>
			 <trkpt lat="43.26718" lon="-2.95633">
				 <ele>2.4</ele>
			 </trkpt>
			 <trkpt lat="43.2674" lon="-2.95722">
				 <ele>2.2</ele>
			 </trkpt>
			 <trkpt lat="43.2673" lon="-2.95726">
				 <ele>2.2</ele>
			 </trkpt>
			 <trkpt lat="43.26726" lon="-2.957">
				 <ele>2.5</ele>
			 </trkpt>
			 <trkpt lat="43.26703" lon="-2.95629">
				 <ele>2.5</ele>
			 </trkpt>
			 <trkpt lat="43.26682" lon="-2.95542">
				 <ele>2.4</ele>
			 </trkpt>
			 <trkpt lat="43.26674" lon="-2.95478">
				 <ele>2.2</ele>
			 </trkpt>
			 <trkpt lat="43.26731" lon="-2.954425">
				 <ele>2.1</ele>
			 </trkpt>
			 <trkpt lat="43.26788" lon="-2.95407">
				 <ele>1.9</ele>
			 </trkpt>
			 <trkpt lat="43.26758" lon="-2.95299">
				 <ele>1.6</ele>
			 </trkpt>
			 <trkpt lat="43.26749" lon="-2.95247">
				 <ele>1.4</ele>
			 </trkpt>
			 <trkpt lat="43.26742" lon="-2.95203">
				 <ele>1.4</ele>
			 </trkpt>
			 <trkpt lat="43.2674" lon="-2.95165">
				 <ele>1.5</ele>
			 </trkpt>
			 <trkpt lat="43.26721" lon="-2.95171">
				 <ele>1.3</ele>
			 </trkpt>
			 <trkpt lat="43.26703" lon="-2.950795">
				 <ele>1</ele>
			 </trkpt>
			 <trkpt lat="43.26685" lon="-2.94988">
				 <ele>0.8</ele>
			 </trkpt>
			 <trkpt lat="43.26719" lon="-2.94883">
				 <ele>0.6</ele>
			 </trkpt>
			 <trkpt lat="43.26753" lon="-2.94778">
				 <ele>0.5</ele>
			 </trkpt>
			 <trkpt lat="43.267777" lon="-2.947013">
				 <ele>0.3</ele>
			 </trkpt>
			 <trkpt lat="43.268023" lon="-2.946247">
				 <ele>0.1</ele>
			 </trkpt>
			 <trkpt lat="43.26827" lon="-2.94548">
				 <ele>-0.2</ele>
			 </trkpt>
			 <trkpt lat="43.268527" lon="-2.94469">
				 <ele>-0.4</ele>
			 </trkpt>
			 <trkpt lat="43.268783" lon="-2.9439">
				 <ele>-0.3</ele>
			 </trkpt>
			 <trkpt lat="43.26904" lon="-2.94311">
				 <ele>-0.4</ele>
			 </trkpt>
			 <trkpt lat="43.26922" lon="-2.942525">
				 <ele>-0.2</ele>
			 </trkpt>
			 <trkpt lat="43.2694" lon="-2.94194">
				 <ele>-0.2</ele>
			 </trkpt>
			 <trkpt lat="43.2695" lon="-2.94184">
				 <ele>-0.2</ele>
			 </trkpt>
			 <trkpt lat="43.26962" lon="-2.94141">
				 <ele>-0.2</ele>
			 </trkpt>
			 <trkpt lat="43.26985" lon="-2.94059">
				 <ele>0</ele>
			 </trkpt>
			 <trkpt lat="43.26994" lon="-2.94007">
				 <ele>0.2</ele>
			 </trkpt>
			 <trkpt lat="43.27003" lon="-2.93948">
				 <ele>0.5</ele>
			 </trkpt>
			 <trkpt lat="43.27011" lon="-2.93896">
				 <ele>0.8</ele>
			 </trkpt>
			 <trkpt lat="43.27016" lon="-2.93841">
				 <ele>1.5</ele>
			 </trkpt>
			 <trkpt lat="43.27018" lon="-2.93769">
				 <ele>2.4</ele>
			 </trkpt>
			 <trkpt lat="43.27019" lon="-2.9369">
				 <ele>3.2</ele>
			 </trkpt>
			 <trkpt lat="43.2702" lon="-2.93647">
				 <ele>4</ele>
			 </trkpt>
			 <trkpt lat="43.27014" lon="-2.93528">
				 <ele>5.2</ele>
			 </trkpt>
			 <trkpt lat="43.27009" lon="-2.93419">
				 <ele>6.5</ele>
			 </trkpt>
			 <trkpt lat="43.27003" lon="-2.93334">
				 <ele>7.9</ele>
			 </trkpt>
			 <trkpt lat="43.26997" lon="-2.93254">
				 <ele>8.8</ele>
			 </trkpt>
			 <trkpt lat="43.26984" lon="-2.93192">
				 <ele>9.5</ele>
			 </trkpt>
			 <trkpt lat="43.26979" lon="-2.93166">
				 <ele>9.9</ele>
			 </trkpt>
			 <trkpt lat="43.26966" lon="-2.93129">
				 <ele>10.7</ele>
			 </trkpt>
			 <trkpt lat="43.26956" lon="-2.93108">
				 <ele>11.4</ele>
			 </trkpt>
			 <trkpt lat="43.26941" lon="-2.9308">
				 <ele>11.5</ele>
			 </trkpt>
			 <trkpt lat="43.26904" lon="-2.93022">
				 <ele>11.9</ele>
			 </trkpt>
			 <trkpt lat="43.26845" lon="-2.92948">
				 <ele>12.1</ele>
			 </trkpt>
			 <trkpt lat="43.2679" lon="-2.92876">
				 <ele>11.9</ele>
			 </trkpt>
			 <trkpt lat="43.26732" lon="-2.92802">
				 <ele>11.4</ele>
			 </trkpt>
			 <trkpt lat="43.26674" lon="-2.92728">
				 <ele>11</ele>
			 </trkpt>
			 <trkpt lat="43.26612" lon="-2.9265">
				 <ele>11.1</ele>
			 </trkpt>
			 <trkpt lat="43.26565" lon="-2.925925">
				 <ele>11.2</ele>
			 </trkpt>
			 <trkpt lat="43.26518" lon="-2.92535">
				 <ele>11.5</ele>
			 </trkpt>
			 <trkpt lat="43.26459" lon="-2.92465">
				 <ele>11.4</ele>
			 </trkpt>
			 <trkpt lat="43.26439" lon="-2.92442">
				 <ele>11.3</ele>
			 </trkpt>
			 <trkpt lat="43.26409" lon="-2.92399">
				 <ele>11.1</ele>
			 </trkpt>
			 <trkpt lat="43.26377" lon="-2.92353">
				 <ele>11.1</ele>
			 </trkpt>
			 <trkpt lat="43.2635" lon="-2.92328">
				 <ele>11.4</ele>
			 </trkpt>
			 <trkpt lat="43.26333" lon="-2.9232">
				 <ele>11.7</ele>
			 </trkpt>
			 <trkpt lat="43.26296" lon="-2.92312">
				 <ele>12.5</ele>
			 </trkpt>
			 <trkpt lat="43.26292" lon="-2.92311">
				 <ele>13.3</ele>
			 </trkpt>
			 <trkpt lat="43.26263" lon="-2.92304">
				 <ele>13.8</ele>
			 </trkpt>
			 <trkpt lat="43.2623" lon="-2.92304">
				 <ele>14.4</ele>
			 </trkpt>
			 <trkpt lat="43.26185" lon="-2.92308">
				 <ele>14.7</ele>
			 </trkpt>
			 <trkpt lat="43.2616" lon="-2.92303">
				 <ele>15.2</ele>
			 </trkpt>
			 <trkpt lat="43.26095" lon="-2.92286">
				 <ele>15.4</ele>
			 </trkpt>
			 <trkpt lat="43.26064" lon="-2.92282">
				 <ele>15.7</ele>
			 </trkpt>
			 <trkpt lat="43.2604" lon="-2.92291">
				 <ele>15.8</ele>
			 </trkpt>
			 <trkpt lat="43.26016" lon="-2.92305">
				 <ele>15.6</ele>
			 </trkpt>
			 <trkpt lat="43.26002" lon="-2.92314">
				 <ele>15</ele>
			 </trkpt>
			 <trkpt lat="43.25987" lon="-2.9233">
				 <ele>14.1</ele>
			 </trkpt>
			 <trkpt lat="43.25972" lon="-2.92365">
				 <ele>12.9</ele>
			 </trkpt>
			 <trkpt lat="43.25966" lon="-2.92383">
				 <ele>11.9</ele>
			 </trkpt>
			 <trkpt lat="43.25978" lon="-2.92413">
				 <ele>10.9</ele>
			 </trkpt>
			 <trkpt lat="43.260135" lon="-2.92483">
				 <ele>10.3</ele>
			 </trkpt>
			 <trkpt lat="43.26049" lon="-2.92553">
				 <ele>9.7</ele>
			 </trkpt>
			 <trkpt lat="43.26083" lon="-2.92524">
				 <ele>9.2</ele>
			 </trkpt>
			 <trkpt lat="43.26132" lon="-2.92486">
				 <ele>8.5</ele>
			 </trkpt>
			 <trkpt lat="43.26175" lon="-2.92453">
				 <ele>8</ele>
			 </trkpt>
			 <trkpt lat="43.26189" lon="-2.92446">
				 <ele>7.6</ele>
			 </trkpt>
			 <trkpt lat="43.26217" lon="-2.92441">
				 <ele>7.7</ele>
			 </trkpt>
			 <trkpt lat="43.26247" lon="-2.92439">
				 <ele>7.5</ele>
			 </trkpt>
			 <trkpt lat="43.26273" lon="-2.92444">
				 <ele>7.6</ele>
			 </trkpt>
			 <trkpt lat="43.26301" lon="-2.92454">
				 <ele>7.7</ele>
			 </trkpt>
			 <trkpt lat="43.26322" lon="-2.92465">
				 <ele>7.9</ele>
			 </trkpt>
			 <trkpt lat="43.26342" lon="-2.92481">
				 <ele>7.9</ele>
			 </trkpt>
			 <trkpt lat="43.26377" lon="-2.92517">
				 <ele>8</ele>
			 </trkpt>
			 <trkpt lat="43.26422" lon="-2.92605">
				 <ele>8.1</ele>
			 </trkpt>
			 <trkpt lat="43.26473" lon="-2.92687">
				 <ele>8.1</ele>
			 </trkpt>
			 <trkpt lat="43.26526" lon="-2.92761">
				 <ele>7.9</ele>
			 </trkpt>
			 <trkpt lat="43.26584" lon="-2.92837">
				 <ele>7.5</ele>
			 </trkpt>
			 <trkpt lat="43.26651" lon="-2.92914">
				 <ele>7.2</ele>
			 </trkpt>
			 <trkpt lat="43.267" lon="-2.92964">
				 <ele>7.4</ele>
			 </trkpt>
			 <trkpt lat="43.2673" lon="-2.92989">
				 <ele>7.4</ele>
			 </trkpt>
			 <trkpt lat="43.26747" lon="-2.93007">
				 <ele>7.3</ele>
			 </trkpt>
			 <trkpt lat="43.26785" lon="-2.93052">
				 <ele>7.3</ele>
			 </trkpt>
			 <trkpt lat="43.26796" lon="-2.93072">
				 <ele>7.4</ele>
			 </trkpt>
			 <trkpt lat="43.26805" lon="-2.93102">
				 <ele>7.4</ele>
			 </trkpt>
			 <trkpt lat="43.26811" lon="-2.93127">
				 <ele>7.7</ele>
			 </trkpt>
			 <trkpt lat="43.26819" lon="-2.93141">
				 <ele>8.3</ele>
			 </trkpt>
			 <trkpt lat="43.26829" lon="-2.9315">
				 <ele>8.8</ele>
			 </trkpt>
			 <trkpt lat="43.26831" lon="-2.93162">
				 <ele>9.3</ele>
			 </trkpt>
			 <trkpt lat="43.26822" lon="-2.93181">
				 <ele>9.5</ele>
			 </trkpt>
			 <trkpt lat="43.26815" lon="-2.93205">
				 <ele>9.5</ele>
			 </trkpt>
			 <trkpt lat="43.26813" lon="-2.93312">
				 <ele>9.3</ele>
			 </trkpt>
			 <trkpt lat="43.26808" lon="-2.93377">
				 <ele>9.4</ele>
			 </trkpt>
			 <trkpt lat="43.26797" lon="-2.93453">
				 <ele>9.6</ele>
			 </trkpt>
			 <trkpt lat="43.26797" lon="-2.9348">
				 <ele>9.8</ele>
			 </trkpt>
			 <trkpt lat="43.268435" lon="-2.935065">
				 <ele>9.9</ele>
			 </trkpt>
			 <trkpt lat="43.2689" lon="-2.93533">
				 <ele>9.5</ele>
			 </trkpt>
		 </trkseg>
	 </trk>
</gpx>