<?xml version="1.0" encoding="UTF-8"?>
 <gpx creator="Garmin Connect" version="1.1"
	 xsi:schemaLocation="http://www.topografix.com/GPX/1/1 http://www.topografix.com/GPX/11.xsd"
	 xmlns:ns3="http://www.garmin.com/xmlschemas/TrackPointExtension/v1"
	 xmlns="http://www.topografix.com/GPX/1/1"
	 xmlns:xsi="http://www.w3.org/2001/XMLSchema-instance" xmlns:ns2="http://www.garmin.com/xmlschemas/GpxExtensions/v3">
	 <metadata>
		<name>Borneo International Marathon 2025 - 42.195 km</name>
		 <link href="https://www.goandrace.com">
		 <text>Garmin Connect</text>
		 </link>
	 <time>2026-08-10T02:53:19</time>
	 </metadata>
	 <trk>
		 <name>Borneo International Marathon 2025 - 42.195 km</name>
		 <trkseg>
			 <trkpt lat="5.981836" lon="116.094128">
				 <ele>8.2</ele>
			 </trkpt>
			 <trkpt lat="5.98238" lon="116.09416">
				 <ele>8.6</ele>
			 </trkpt>
			 <trkpt lat="5.98254" lon="116.09418">
				 <ele>8.8</ele>
			 </trkpt>
			 <trkpt lat="5.98258" lon="116.09418">
				 <ele>8.8</ele>
			 </trkpt>
			 <trkpt lat="5.98262" lon="116.09419">
				 <ele>8.7</ele>
			 </trkpt>
			 <trkpt lat="5.98288" lon="116.0943">
				 <ele>8.5</ele>
			 </trkpt>
			 <trkpt lat="5.98308" lon="116.09435">
				 <ele>8.5</ele>
			 </trkpt>
			 <trkpt lat="5.98326" lon="116.09435">
				 <ele>8.5</ele>
			 </trkpt>
			 <trkpt lat="5.98381" lon="116.09436">
				 <ele>8.6</ele>
			 </trkpt>
			 <trkpt lat="5.98423" lon="116.09431">
				 <ele>8.7</ele>
			 </trkpt>
			 <trkpt lat="5.98445" lon="116.09425">
				 <ele>8.7</ele>
			 </trkpt>
			 <trkpt lat="5.98458" lon="116.09419">
				 <ele>8.5</ele>
			 </trkpt>
			 <trkpt lat="5.98475" lon="116.0941">
				 <ele>8.2</ele>
			 </trkpt>
			 <trkpt lat="5.98493" lon="116.09394">
				 <ele>8</ele>
			 </trkpt>
			 <trkpt lat="5.98509" lon="116.09374">
				 <ele>8.1</ele>
			 </trkpt>
			 <trkpt lat="5.98521" lon="116.09354">
				 <ele>8.2</ele>
			 </trkpt>
			 <trkpt lat="5.9853" lon="116.09332">
				 <ele>8.4</ele>
			 </trkpt>
			 <trkpt lat="5.98534" lon="116.0931">
				 <ele>8.5</ele>
			 </trkpt>
			 <trkpt lat="5.98534" lon="116.09259">
				 <ele>8.5</ele>
			 </trkpt>
			 <trkpt lat="5.98538" lon="116.09218">
				 <ele>8.3</ele>
			 </trkpt>
			 <trkpt lat="5.98546" lon="116.09187">
				 <ele>8.1</ele>
			 </trkpt>
			 <trkpt lat="5.98547" lon="116.09178">
				 <ele>8.1</ele>
			 </trkpt>
			 <trkpt lat="5.98547" lon="116.09162">
				 <ele>8.1</ele>
			 </trkpt>
			 <trkpt lat="5.98546" lon="116.09146">
				 <ele>8.2</ele>
			 </trkpt>
			 <trkpt lat="5.98548" lon="116.09138">
				 <ele>8.4</ele>
			 </trkpt>
			 <trkpt lat="5.98555" lon="116.09131">
				 <ele>8.4</ele>
			 </trkpt>
			 <trkpt lat="5.98566" lon="116.09127">
				 <ele>8.5</ele>
			 </trkpt>
			 <trkpt lat="5.98578" lon="116.09126">
				 <ele>8.5</ele>
			 </trkpt>
			 <trkpt lat="5.98586" lon="116.09128">
				 <ele>8.6</ele>
			 </trkpt>
			 <trkpt lat="5.98598" lon="116.09139">
				 <ele>8.9</ele>
			 </trkpt>
			 <trkpt lat="5.98601" lon="116.09145">
				 <ele>9.2</ele>
			 </trkpt>
			 <trkpt lat="5.98602" lon="116.0915">
				 <ele>9.9</ele>
			 </trkpt>
			 <trkpt lat="5.98612" lon="116.09153">
				 <ele>10.1</ele>
			 </trkpt>
			 <trkpt lat="5.98712" lon="116.09185">
				 <ele>10.3</ele>
			 </trkpt>
			 <trkpt lat="5.98799" lon="116.09214">
				 <ele>10.5</ele>
			 </trkpt>
			 <trkpt lat="5.98869" lon="116.09236">
				 <ele>10.7</ele>
			 </trkpt>
			 <trkpt lat="5.98999" lon="116.09271">
				 <ele>10.5</ele>
			 </trkpt>
			 <trkpt lat="5.99138" lon="116.09319">
				 <ele>9.5</ele>
			 </trkpt>
			 <trkpt lat="5.99231" lon="116.09347">
				 <ele>8.6</ele>
			 </trkpt>
			 <trkpt lat="5.99246" lon="116.0935">
				 <ele>7.8</ele>
			 </trkpt>
			 <trkpt lat="5.99266" lon="116.09353">
				 <ele>7.2</ele>
			 </trkpt>
			 <trkpt lat="5.99272" lon="116.09339">
				 <ele>6.7</ele>
			 </trkpt>
			 <trkpt lat="5.99295" lon="116.09291">
				 <ele>6.2</ele>
			 </trkpt>
			 <trkpt lat="5.99314" lon="116.09255">
				 <ele>5.9</ele>
			 </trkpt>
			 <trkpt lat="5.99343" lon="116.09217">
				 <ele>5.9</ele>
			 </trkpt>
			 <trkpt lat="5.99363" lon="116.09196">
				 <ele>6</ele>
			 </trkpt>
			 <trkpt lat="5.99397" lon="116.09172">
				 <ele>6.3</ele>
			 </trkpt>
			 <trkpt lat="5.9942" lon="116.09159">
				 <ele>6.6</ele>
			 </trkpt>
			 <trkpt lat="5.99513" lon="116.09111">
				 <ele>7.5</ele>
			 </trkpt>
			 <trkpt lat="5.99573" lon="116.09077">
				 <ele>8.6</ele>
			 </trkpt>
			 <trkpt lat="5.99621" lon="116.09051">
				 <ele>9.3</ele>
			 </trkpt>
			 <trkpt lat="5.99659" lon="116.09033">
				 <ele>9.3</ele>
			 </trkpt>
			 <trkpt lat="5.99708" lon="116.09007">
				 <ele>8.9</ele>
			 </trkpt>
			 <trkpt lat="5.99743" lon="116.08985">
				 <ele>8.1</ele>
			 </trkpt>
			 <trkpt lat="5.9977" lon="116.0896">
				 <ele>7.5</ele>
			 </trkpt>
			 <trkpt lat="5.99802" lon="116.08917">
				 <ele>7</ele>
			 </trkpt>
			 <trkpt lat="5.99812" lon="116.08895">
				 <ele>6.8</ele>
			 </trkpt>
			 <trkpt lat="5.99818" lon="116.08875">
				 <ele>6.7</ele>
			 </trkpt>
			 <trkpt lat="5.99823" lon="116.08845">
				 <ele>5.9</ele>
			 </trkpt>
			 <trkpt lat="5.99822" lon="116.08809">
				 <ele>5.1</ele>
			 </trkpt>
			 <trkpt lat="5.99817" lon="116.08778">
				 <ele>3.9</ele>
			 </trkpt>
			 <trkpt lat="5.99793" lon="116.08713">
				 <ele>3.3</ele>
			 </trkpt>
			 <trkpt lat="5.9977" lon="116.08669">
				 <ele>3.1</ele>
			 </trkpt>
			 <trkpt lat="5.99741" lon="116.08627">
				 <ele>4.1</ele>
			 </trkpt>
			 <trkpt lat="5.99709" lon="116.0859">
				 <ele>5.3</ele>
			 </trkpt>
			 <trkpt lat="5.99685" lon="116.08565">
				 <ele>6.7</ele>
			 </trkpt>
			 <trkpt lat="5.99641" lon="116.08528">
				 <ele>8.4</ele>
			 </trkpt>
			 <trkpt lat="5.99579" lon="116.08485">
				 <ele>9.1</ele>
			 </trkpt>
			 <trkpt lat="5.9952" lon="116.08442">
				 <ele>9.8</ele>
			 </trkpt>
			 <trkpt lat="5.99406" lon="116.08361">
				 <ele>12</ele>
			 </trkpt>
			 <trkpt lat="5.99347" lon="116.08322">
				 <ele>13.8</ele>
			 </trkpt>
			 <trkpt lat="5.9928" lon="116.08283">
				 <ele>15.8</ele>
			 </trkpt>
			 <trkpt lat="5.99253" lon="116.08267">
				 <ele>17.9</ele>
			 </trkpt>
			 <trkpt lat="5.9899" lon="116.0812">
				 <ele>20</ele>
			 </trkpt>
			 <trkpt lat="5.9895" lon="116.08095">
				 <ele>21.2</ele>
			 </trkpt>
			 <trkpt lat="5.98921" lon="116.08064">
				 <ele>22.3</ele>
			 </trkpt>
			 <trkpt lat="5.98888" lon="116.0802">
				 <ele>23.2</ele>
			 </trkpt>
			 <trkpt lat="5.98885" lon="116.0802">
				 <ele>22.8</ele>
			 </trkpt>
			 <trkpt lat="5.98882" lon="116.08019">
				 <ele>23.3</ele>
			 </trkpt>
			 <trkpt lat="5.98879" lon="116.08017">
				 <ele>23.9</ele>
			 </trkpt>
			 <trkpt lat="5.98874" lon="116.0801">
				 <ele>24.4</ele>
			 </trkpt>
			 <trkpt lat="5.98858" lon="116.07999">
				 <ele>25.5</ele>
			 </trkpt>
			 <trkpt lat="5.98788" lon="116.07962">
				 <ele>26.2</ele>
			 </trkpt>
			 <trkpt lat="5.9866" lon="116.07892">
				 <ele>26.5</ele>
			 </trkpt>
			 <trkpt lat="5.98624" lon="116.07871">
				 <ele>26.3</ele>
			 </trkpt>
			 <trkpt lat="5.98602" lon="116.07862">
				 <ele>25.7</ele>
			 </trkpt>
			 <trkpt lat="5.9858" lon="116.07857">
				 <ele>24.6</ele>
			 </trkpt>
			 <trkpt lat="5.98557" lon="116.07853">
				 <ele>23.4</ele>
			 </trkpt>
			 <trkpt lat="5.98533" lon="116.07849">
				 <ele>22.9</ele>
			 </trkpt>
			 <trkpt lat="5.98509" lon="116.07841">
				 <ele>21.9</ele>
			 </trkpt>
			 <trkpt lat="5.98483" lon="116.07829">
				 <ele>20.4</ele>
			 </trkpt>
			 <trkpt lat="5.98406" lon="116.07789">
				 <ele>18.6</ele>
			 </trkpt>
			 <trkpt lat="5.98342" lon="116.07756">
				 <ele>16.9</ele>
			 </trkpt>
			 <trkpt lat="5.98336" lon="116.07755">
				 <ele>15.1</ele>
			 </trkpt>
			 <trkpt lat="5.98333" lon="116.07753">
				 <ele>13.8</ele>
			 </trkpt>
			 <trkpt lat="5.9833" lon="116.0775">
				 <ele>13.2</ele>
			 </trkpt>
			 <trkpt lat="5.9832" lon="116.07742">
				 <ele>12.8</ele>
			 </trkpt>
			 <trkpt lat="5.98194" lon="116.07671">
				 <ele>13.1</ele>
			 </trkpt>
			 <trkpt lat="5.98094" lon="116.07618">
				 <ele>13.1</ele>
			 </trkpt>
			 <trkpt lat="5.98049" lon="116.076">
				 <ele>12.9</ele>
			 </trkpt>
			 <trkpt lat="5.98007" lon="116.0759">
				 <ele>12.6</ele>
			 </trkpt>
			 <trkpt lat="5.97907" lon="116.07578">
				 <ele>12.5</ele>
			 </trkpt>
			 <trkpt lat="5.97781" lon="116.07563">
				 <ele>12.3</ele>
			 </trkpt>
			 <trkpt lat="5.97765" lon="116.07563">
				 <ele>11.9</ele>
			 </trkpt>
			 <trkpt lat="5.97752" lon="116.07565">
				 <ele>11.9</ele>
			 </trkpt>
			 <trkpt lat="5.97739" lon="116.07567">
				 <ele>11.9</ele>
			 </trkpt>
			 <trkpt lat="5.9772" lon="116.07563">
				 <ele>12</ele>
			 </trkpt>
			 <trkpt lat="5.97714" lon="116.07559">
				 <ele>11.9</ele>
			 </trkpt>
			 <trkpt lat="5.9771" lon="116.07555">
				 <ele>11.5</ele>
			 </trkpt>
			 <trkpt lat="5.97701" lon="116.07548">
				 <ele>11.5</ele>
			 </trkpt>
			 <trkpt lat="5.97637" lon="116.07509">
				 <ele>11.5</ele>
			 </trkpt>
			 <trkpt lat="5.97363" lon="116.07342">
				 <ele>11.2</ele>
			 </trkpt>
			 <trkpt lat="5.97308" lon="116.0731">
				 <ele>10.7</ele>
			 </trkpt>
			 <trkpt lat="5.97296" lon="116.07305">
				 <ele>11.3</ele>
			 </trkpt>
			 <trkpt lat="5.97269" lon="116.07303">
				 <ele>11.2</ele>
			 </trkpt>
			 <trkpt lat="5.97246" lon="116.07304">
				 <ele>10.6</ele>
			 </trkpt>
			 <trkpt lat="5.97162" lon="116.07319">
				 <ele>9.9</ele>
			 </trkpt>
			 <trkpt lat="5.9714" lon="116.07324">
				 <ele>9.4</ele>
			 </trkpt>
			 <trkpt lat="5.97027" lon="116.07339">
				 <ele>9</ele>
			 </trkpt>
			 <trkpt lat="5.96982" lon="116.07342">
				 <ele>8.9</ele>
			 </trkpt>
			 <trkpt lat="5.96928" lon="116.0735">
				 <ele>8.6</ele>
			 </trkpt>
			 <trkpt lat="5.96886" lon="116.07352">
				 <ele>8.2</ele>
			 </trkpt>
			 <trkpt lat="5.96781" lon="116.07344">
				 <ele>8.2</ele>
			 </trkpt>
			 <trkpt lat="5.96744" lon="116.07338">
				 <ele>8.4</ele>
			 </trkpt>
			 <trkpt lat="5.96716" lon="116.07331">
				 <ele>7.5</ele>
			 </trkpt>
			 <trkpt lat="5.96678" lon="116.07316">
				 <ele>7.5</ele>
			 </trkpt>
			 <trkpt lat="5.96647" lon="116.07297">
				 <ele>7.9</ele>
			 </trkpt>
			 <trkpt lat="5.96622" lon="116.07277">
				 <ele>8.8</ele>
			 </trkpt>
			 <trkpt lat="5.96596" lon="116.07249">
				 <ele>9.6</ele>
			 </trkpt>
			 <trkpt lat="5.96496" lon="116.07148">
				 <ele>10.7</ele>
			 </trkpt>
			 <trkpt lat="5.96449" lon="116.07107">
				 <ele>11.3</ele>
			 </trkpt>
			 <trkpt lat="5.96438" lon="116.07094">
				 <ele>11.7</ele>
			 </trkpt>
			 <trkpt lat="5.96412" lon="116.07072">
				 <ele>12.3</ele>
			 </trkpt>
			 <trkpt lat="5.96388" lon="116.07058">
				 <ele>12.5</ele>
			 </trkpt>
			 <trkpt lat="5.96358" lon="116.07047">
				 <ele>12.7</ele>
			 </trkpt>
			 <trkpt lat="5.96277" lon="116.07025">
				 <ele>13</ele>
			 </trkpt>
			 <trkpt lat="5.96189" lon="116.07006">
				 <ele>13</ele>
			 </trkpt>
			 <trkpt lat="5.96144" lon="116.06993">
				 <ele>12.8</ele>
			 </trkpt>
			 <trkpt lat="5.96098" lon="116.06973">
				 <ele>12.3</ele>
			 </trkpt>
			 <trkpt lat="5.96072" lon="116.06955">
				 <ele>11.3</ele>
			 </trkpt>
			 <trkpt lat="5.95982" lon="116.06909">
				 <ele>10</ele>
			 </trkpt>
			 <trkpt lat="5.95958" lon="116.06889">
				 <ele>9.1</ele>
			 </trkpt>
			 <trkpt lat="5.95949" lon="116.06878">
				 <ele>8.5</ele>
			 </trkpt>
			 <trkpt lat="5.95879" lon="116.06799">
				 <ele>7.9</ele>
			 </trkpt>
			 <trkpt lat="5.9586" lon="116.06774">
				 <ele>7.6</ele>
			 </trkpt>
			 <trkpt lat="5.95851" lon="116.06767">
				 <ele>7.4</ele>
			 </trkpt>
			 <trkpt lat="5.9584" lon="116.06755">
				 <ele>7.1</ele>
			 </trkpt>
			 <trkpt lat="5.95835" lon="116.06756">
				 <ele>7</ele>
			 </trkpt>
			 <trkpt lat="5.95828" lon="116.06757">
				 <ele>7.1</ele>
			 </trkpt>
			 <trkpt lat="5.95825" lon="116.06756">
				 <ele>9.2</ele>
			 </trkpt>
			 <trkpt lat="5.95805" lon="116.06763">
				 <ele>11.2</ele>
			 </trkpt>
			 <trkpt lat="5.95795" lon="116.06769">
				 <ele>12.5</ele>
			 </trkpt>
			 <trkpt lat="5.95773" lon="116.0679">
				 <ele>13.5</ele>
			 </trkpt>
			 <trkpt lat="5.95745" lon="116.06818">
				 <ele>13.5</ele>
			 </trkpt>
			 <trkpt lat="5.9565" lon="116.06921">
				 <ele>13.3</ele>
			 </trkpt>
			 <trkpt lat="5.95596" lon="116.06974">
				 <ele>13.4</ele>
			 </trkpt>
			 <trkpt lat="5.95577" lon="116.0699">
				 <ele>13.5</ele>
			 </trkpt>
			 <trkpt lat="5.95557" lon="116.07">
				 <ele>13.5</ele>
			 </trkpt>
			 <trkpt lat="5.95507" lon="116.07022">
				 <ele>13.5</ele>
			 </trkpt>
			 <trkpt lat="5.95465" lon="116.07033">
				 <ele>13.5</ele>
			 </trkpt>
			 <trkpt lat="5.9543" lon="116.07038">
				 <ele>11.3</ele>
			 </trkpt>
			 <trkpt lat="5.95425" lon="116.07043">
				 <ele>9.5</ele>
			 </trkpt>
			 <trkpt lat="5.95418" lon="116.07044">
				 <ele>8.5</ele>
			 </trkpt>
			 <trkpt lat="5.95412" lon="116.07043">
				 <ele>8.6</ele>
			 </trkpt>
			 <trkpt lat="5.95407" lon="116.07038">
				 <ele>10.3</ele>
			 </trkpt>
			 <trkpt lat="5.9538" lon="116.07036">
				 <ele>12.5</ele>
			 </trkpt>
			 <trkpt lat="5.95341" lon="116.07029">
				 <ele>14.1</ele>
			 </trkpt>
			 <trkpt lat="5.95309" lon="116.0702">
				 <ele>15.1</ele>
			 </trkpt>
			 <trkpt lat="5.95286" lon="116.0701">
				 <ele>16.5</ele>
			 </trkpt>
			 <trkpt lat="5.95265" lon="116.06997">
				 <ele>17.6</ele>
			 </trkpt>
			 <trkpt lat="5.95219" lon="116.06965">
				 <ele>18.5</ele>
			 </trkpt>
			 <trkpt lat="5.95195" lon="116.06943">
				 <ele>19.3</ele>
			 </trkpt>
			 <trkpt lat="5.95175" lon="116.06919">
				 <ele>19.7</ele>
			 </trkpt>
			 <trkpt lat="5.95068" lon="116.06756">
				 <ele>19.5</ele>
			 </trkpt>
			 <trkpt lat="5.95044" lon="116.06726">
				 <ele>19</ele>
			 </trkpt>
			 <trkpt lat="5.95017" lon="116.06701">
				 <ele>18.8</ele>
			 </trkpt>
			 <trkpt lat="5.94976" lon="116.06673">
				 <ele>18.6</ele>
			 </trkpt>
			 <trkpt lat="5.94948" lon="116.06659">
				 <ele>19.2</ele>
			 </trkpt>
			 <trkpt lat="5.94896" lon="116.06644">
				 <ele>20.4</ele>
			 </trkpt>
			 <trkpt lat="5.94861" lon="116.06638">
				 <ele>22.7</ele>
			 </trkpt>
			 <trkpt lat="5.94744" lon="116.06621">
				 <ele>25.5</ele>
			 </trkpt>
			 <trkpt lat="5.94682" lon="116.06614">
				 <ele>27.8</ele>
			 </trkpt>
			 <trkpt lat="5.94617" lon="116.06609">
				 <ele>30</ele>
			 </trkpt>
			 <trkpt lat="5.94571" lon="116.06612">
				 <ele>32.4</ele>
			 </trkpt>
			 <trkpt lat="5.94481" lon="116.06624">
				 <ele>34.8</ele>
			 </trkpt>
			 <trkpt lat="5.94434" lon="116.06627">
				 <ele>37</ele>
			 </trkpt>
			 <trkpt lat="5.9439" lon="116.06625">
				 <ele>38</ele>
			 </trkpt>
			 <trkpt lat="5.94365" lon="116.06621">
				 <ele>38.5</ele>
			 </trkpt>
			 <trkpt lat="5.94324" lon="116.06614">
				 <ele>38.7</ele>
			 </trkpt>
			 <trkpt lat="5.94225" lon="116.06587">
				 <ele>38.9</ele>
			 </trkpt>
			 <trkpt lat="5.94191" lon="116.06582">
				 <ele>37.6</ele>
			 </trkpt>
			 <trkpt lat="5.94148" lon="116.06582">
				 <ele>36.2</ele>
			 </trkpt>
			 <trkpt lat="5.94131" lon="116.06584">
				 <ele>35.5</ele>
			 </trkpt>
			 <trkpt lat="5.94079" lon="116.06594">
				 <ele>34.9</ele>
			 </trkpt>
			 <trkpt lat="5.94058" lon="116.06602">
				 <ele>33.5</ele>
			 </trkpt>
			 <trkpt lat="5.94047" lon="116.06608">
				 <ele>31.5</ele>
			 </trkpt>
			 <trkpt lat="5.94045" lon="116.06612">
				 <ele>29.5</ele>
			 </trkpt>
			 <trkpt lat="5.94041" lon="116.06616">
				 <ele>27.1</ele>
			 </trkpt>
			 <trkpt lat="5.94031" lon="116.06642">
				 <ele>25.2</ele>
			 </trkpt>
			 <trkpt lat="5.94025" lon="116.0669">
				 <ele>23.3</ele>
			 </trkpt>
			 <trkpt lat="5.94008" lon="116.06834">
				 <ele>21.3</ele>
			 </trkpt>
			 <trkpt lat="5.93998" lon="116.06905">
				 <ele>19</ele>
			 </trkpt>
			 <trkpt lat="5.93965" lon="116.07219">
				 <ele>16.6</ele>
			 </trkpt>
			 <trkpt lat="5.93944" lon="116.07394">
				 <ele>14.6</ele>
			 </trkpt>
			 <trkpt lat="5.93936" lon="116.07419">
				 <ele>12.7</ele>
			 </trkpt>
			 <trkpt lat="5.93929" lon="116.07435">
				 <ele>11.5</ele>
			 </trkpt>
			 <trkpt lat="5.93917" lon="116.0745">
				 <ele>11.3</ele>
			 </trkpt>
			 <trkpt lat="5.93883" lon="116.07488">
				 <ele>11.2</ele>
			 </trkpt>
			 <trkpt lat="5.93847" lon="116.07519">
				 <ele>11.5</ele>
			 </trkpt>
			 <trkpt lat="5.93842" lon="116.0754">
				 <ele>11.3</ele>
			 </trkpt>
			 <trkpt lat="5.93839" lon="116.07552">
				 <ele>11.1</ele>
			 </trkpt>
			 <trkpt lat="5.93838" lon="116.07565">
				 <ele>10.9</ele>
			 </trkpt>
			 <trkpt lat="5.93841" lon="116.07576">
				 <ele>10.9</ele>
			 </trkpt>
			 <trkpt lat="5.93844" lon="116.07585">
				 <ele>11</ele>
			 </trkpt>
			 <trkpt lat="5.93927" lon="116.07682">
				 <ele>10.5</ele>
			 </trkpt>
			 <trkpt lat="5.93959" lon="116.0772">
				 <ele>9.6</ele>
			 </trkpt>
			 <trkpt lat="5.93998" lon="116.07768">
				 <ele>9.1</ele>
			 </trkpt>
			 <trkpt lat="5.94011" lon="116.07788">
				 <ele>8.7</ele>
			 </trkpt>
			 <trkpt lat="5.94014" lon="116.07796">
				 <ele>8.4</ele>
			 </trkpt>
			 <trkpt lat="5.94058" lon="116.07847">
				 <ele>8.1</ele>
			 </trkpt>
			 <trkpt lat="5.94108" lon="116.07906">
				 <ele>8.1</ele>
			 </trkpt>
			 <trkpt lat="5.94141" lon="116.07949">
				 <ele>8.1</ele>
			 </trkpt>
			 <trkpt lat="5.9417" lon="116.07988">
				 <ele>8.1</ele>
			 </trkpt>
			 <trkpt lat="5.94195" lon="116.0803">
				 <ele>8.2</ele>
			 </trkpt>
			 <trkpt lat="5.94206" lon="116.08052">
				 <ele>8.2</ele>
			 </trkpt>
			 <trkpt lat="5.94232" lon="116.08128">
				 <ele>8.2</ele>
			 </trkpt>
			 <trkpt lat="5.94262" lon="116.08229">
				 <ele>8.5</ele>
			 </trkpt>
			 <trkpt lat="5.94278" lon="116.08279">
				 <ele>8.5</ele>
			 </trkpt>
			 <trkpt lat="5.94303" lon="116.08358">
				 <ele>8.1</ele>
			 </trkpt>
			 <trkpt lat="5.94362" lon="116.08548">
				 <ele>7.6</ele>
			 </trkpt>
			 <trkpt lat="5.9439" lon="116.08634">
				 <ele>7.5</ele>
			 </trkpt>
			 <trkpt lat="5.94408" lon="116.08688">
				 <ele>7.3</ele>
			 </trkpt>
			 <trkpt lat="5.94434" lon="116.08745">
				 <ele>7</ele>
			 </trkpt>
			 <trkpt lat="5.94458" lon="116.08791">
				 <ele>7.1</ele>
			 </trkpt>
			 <trkpt lat="5.94494" lon="116.08847">
				 <ele>7.2</ele>
			 </trkpt>
			 <trkpt lat="5.94524" lon="116.08886">
				 <ele>7.5</ele>
			 </trkpt>
			 <trkpt lat="5.94532" lon="116.08898">
				 <ele>7.8</ele>
			 </trkpt>
			 <trkpt lat="5.94561" lon="116.08931">
				 <ele>8.3</ele>
			 </trkpt>
			 <trkpt lat="5.94598" lon="116.08965">
				 <ele>8.5</ele>
			 </trkpt>
			 <trkpt lat="5.94616" lon="116.08978">
				 <ele>9.1</ele>
			 </trkpt>
			 <trkpt lat="5.94698" lon="116.09026">
				 <ele>9.8</ele>
			 </trkpt>
			 <trkpt lat="5.94754" lon="116.09055">
				 <ele>10.2</ele>
			 </trkpt>
			 <trkpt lat="5.94806" lon="116.09076">
				 <ele>10.1</ele>
			 </trkpt>
			 <trkpt lat="5.94945" lon="116.09133">
				 <ele>10</ele>
			 </trkpt>
			 <trkpt lat="5.9503" lon="116.0917">
				 <ele>9.7</ele>
			 </trkpt>
			 <trkpt lat="5.95036" lon="116.09168">
				 <ele>9.4</ele>
			 </trkpt>
			 <trkpt lat="5.95045" lon="116.09169">
				 <ele>9</ele>
			 </trkpt>
			 <trkpt lat="5.95139" lon="116.09202">
				 <ele>8.7</ele>
			 </trkpt>
			 <trkpt lat="5.95263" lon="116.09236">
				 <ele>8.1</ele>
			 </trkpt>
			 <trkpt lat="5.95297" lon="116.09249">
				 <ele>7.9</ele>
			 </trkpt>
			 <trkpt lat="5.95318" lon="116.09264">
				 <ele>7.8</ele>
			 </trkpt>
			 <trkpt lat="5.95363" lon="116.09306">
				 <ele>7.9</ele>
			 </trkpt>
			 <trkpt lat="5.95407" lon="116.09349">
				 <ele>7.9</ele>
			 </trkpt>
			 <trkpt lat="5.95435" lon="116.09381">
				 <ele>8.3</ele>
			 </trkpt>
			 <trkpt lat="5.95467" lon="116.09422">
				 <ele>8.7</ele>
			 </trkpt>
			 <trkpt lat="5.95485" lon="116.09441">
				 <ele>9.6</ele>
			 </trkpt>
			 <trkpt lat="5.95523" lon="116.09478">
				 <ele>10.5</ele>
			 </trkpt>
			 <trkpt lat="5.95542" lon="116.09497">
				 <ele>11.5</ele>
			 </trkpt>
			 <trkpt lat="5.9557" lon="116.09509">
				 <ele>12.5</ele>
			 </trkpt>
			 <trkpt lat="5.95652" lon="116.09547">
				 <ele>14.3</ele>
			 </trkpt>
			 <trkpt lat="5.9576" lon="116.09599">
				 <ele>16</ele>
			 </trkpt>
			 <trkpt lat="5.95765" lon="116.09603">
				 <ele>17.5</ele>
			 </trkpt>
			 <trkpt lat="5.95767" lon="116.09606">
				 <ele>18.3</ele>
			 </trkpt>
			 <trkpt lat="5.95768" lon="116.09611">
				 <ele>19</ele>
			 </trkpt>
			 <trkpt lat="5.95839" lon="116.09639">
				 <ele>19.8</ele>
			 </trkpt>
			 <trkpt lat="5.95862" lon="116.09648">
				 <ele>20</ele>
			 </trkpt>
			 <trkpt lat="5.9596" lon="116.09692">
				 <ele>19.7</ele>
			 </trkpt>
			 <trkpt lat="5.96089" lon="116.09749">
				 <ele>19.7</ele>
			 </trkpt>
			 <trkpt lat="5.96246" lon="116.09815">
				 <ele>19.5</ele>
			 </trkpt>
			 <trkpt lat="5.96333" lon="116.09858">
				 <ele>19.3</ele>
			 </trkpt>
			 <trkpt lat="5.96391" lon="116.09893">
				 <ele>18.3</ele>
			 </trkpt>
			 <trkpt lat="5.96415" lon="116.09912">
				 <ele>17.2</ele>
			 </trkpt>
			 <trkpt lat="5.96459" lon="116.09949">
				 <ele>16.1</ele>
			 </trkpt>
			 <trkpt lat="5.9649" lon="116.09982">
				 <ele>15.4</ele>
			 </trkpt>
			 <trkpt lat="5.96515" lon="116.10011">
				 <ele>14.6</ele>
			 </trkpt>
			 <trkpt lat="5.96538" lon="116.10044">
				 <ele>14</ele>
			 </trkpt>
			 <trkpt lat="5.96559" lon="116.10079">
				 <ele>13.8</ele>
			 </trkpt>
			 <trkpt lat="5.96578" lon="116.10117">
				 <ele>13.6</ele>
			 </trkpt>
			 <trkpt lat="5.96593" lon="116.10156">
				 <ele>13.2</ele>
			 </trkpt>
			 <trkpt lat="5.96606" lon="116.10196">
				 <ele>12.7</ele>
			 </trkpt>
			 <trkpt lat="5.96613" lon="116.10223">
				 <ele>12.1</ele>
			 </trkpt>
			 <trkpt lat="5.96619" lon="116.10257">
				 <ele>11.6</ele>
			 </trkpt>
			 <trkpt lat="5.96626" lon="116.10315">
				 <ele>11</ele>
			 </trkpt>
			 <trkpt lat="5.96634" lon="116.10385">
				 <ele>10.4</ele>
			 </trkpt>
			 <trkpt lat="5.96637" lon="116.10427">
				 <ele>10</ele>
			 </trkpt>
			 <trkpt lat="5.96644" lon="116.10466">
				 <ele>9.6</ele>
			 </trkpt>
			 <trkpt lat="5.96654" lon="116.10505">
				 <ele>9.4</ele>
			 </trkpt>
			 <trkpt lat="5.96673" lon="116.1058">
				 <ele>9.5</ele>
			 </trkpt>
			 <trkpt lat="5.96699" lon="116.10664">
				 <ele>9.6</ele>
			 </trkpt>
			 <trkpt lat="5.96722" lon="116.10724">
				 <ele>9.5</ele>
			 </trkpt>
			 <trkpt lat="5.96764" lon="116.10813">
				 <ele>9.3</ele>
			 </trkpt>
			 <trkpt lat="5.96788" lon="116.10856">
				 <ele>9.4</ele>
			 </trkpt>
			 <trkpt lat="5.96825" lon="116.10912">
				 <ele>9.4</ele>
			 </trkpt>
			 <trkpt lat="5.96878" lon="116.10989">
				 <ele>9.3</ele>
			 </trkpt>
			 <trkpt lat="5.96916" lon="116.11039">
				 <ele>9.3</ele>
			 </trkpt>
			 <trkpt lat="5.96945" lon="116.1107">
				 <ele>9.3</ele>
			 </trkpt>
			 <trkpt lat="5.96964" lon="116.11086">
				 <ele>9.5</ele>
			 </trkpt>
			 <trkpt lat="5.96978" lon="116.11102">
				 <ele>9.5</ele>
			 </trkpt>
			 <trkpt lat="5.97014" lon="116.11134">
				 <ele>9</ele>
			 </trkpt>
			 <trkpt lat="5.97055" lon="116.1117">
				 <ele>8.5</ele>
			 </trkpt>
			 <trkpt lat="5.97125" lon="116.1122">
				 <ele>7.7</ele>
			 </trkpt>
			 <trkpt lat="5.97135" lon="116.11231">
				 <ele>7.5</ele>
			 </trkpt>
			 <trkpt lat="5.97195" lon="116.11272">
				 <ele>7</ele>
			 </trkpt>
			 <trkpt lat="5.97226" lon="116.11289">
				 <ele>6.6</ele>
			 </trkpt>
			 <trkpt lat="5.97313" lon="116.11331">
				 <ele>6.9</ele>
			 </trkpt>
			 <trkpt lat="5.97408" lon="116.11369">
				 <ele>7.1</ele>
			 </trkpt>
			 <trkpt lat="5.97467" lon="116.11387">
				 <ele>7.3</ele>
			 </trkpt>
			 <trkpt lat="5.97511" lon="116.11399">
				 <ele>6.7</ele>
			 </trkpt>
			 <trkpt lat="5.97575" lon="116.11412">
				 <ele>6.3</ele>
			 </trkpt>
			 <trkpt lat="5.97619" lon="116.11419">
				 <ele>5.8</ele>
			 </trkpt>
			 <trkpt lat="5.97703" lon="116.11429">
				 <ele>5.6</ele>
			 </trkpt>
			 <trkpt lat="5.97732" lon="116.1143">
				 <ele>6</ele>
			 </trkpt>
			 <trkpt lat="5.97875" lon="116.11449">
				 <ele>6</ele>
			 </trkpt>
			 <trkpt lat="5.98032" lon="116.11465">
				 <ele>6.2</ele>
			 </trkpt>
			 <trkpt lat="5.98143" lon="116.11481">
				 <ele>6.4</ele>
			 </trkpt>
			 <trkpt lat="5.98296" lon="116.11513">
				 <ele>6.4</ele>
			 </trkpt>
			 <trkpt lat="5.98424" lon="116.11547">
				 <ele>6.1</ele>
			 </trkpt>
			 <trkpt lat="5.98477" lon="116.11564">
				 <ele>5.6</ele>
			 </trkpt>
			 <trkpt lat="5.98526" lon="116.11583">
				 <ele>6</ele>
			 </trkpt>
			 <trkpt lat="5.98557" lon="116.11593">
				 <ele>6.4</ele>
			 </trkpt>
			 <trkpt lat="5.98673" lon="116.11639">
				 <ele>6.9</ele>
			 </trkpt>
			 <trkpt lat="5.98744" lon="116.11668">
				 <ele>7.2</ele>
			 </trkpt>
			 <trkpt lat="5.98799" lon="116.11695">
				 <ele>7.5</ele>
			 </trkpt>
			 <trkpt lat="5.98887" lon="116.1173">
				 <ele>7.4</ele>
			 </trkpt>
			 <trkpt lat="5.99035" lon="116.1179">
				 <ele>7.5</ele>
			 </trkpt>
			 <trkpt lat="5.99093" lon="116.11811">
				 <ele>7.6</ele>
			 </trkpt>
			 <trkpt lat="5.99222" lon="116.11855">
				 <ele>7.3</ele>
			 </trkpt>
			 <trkpt lat="5.99259" lon="116.11869">
				 <ele>7.2</ele>
			 </trkpt>
			 <trkpt lat="5.99323" lon="116.11898">
				 <ele>7.3</ele>
			 </trkpt>
			 <trkpt lat="5.99465" lon="116.1198">
				 <ele>7.1</ele>
			 </trkpt>
			 <trkpt lat="5.996" lon="116.12068">
				 <ele>6.9</ele>
			 </trkpt>
			 <trkpt lat="5.99745" lon="116.12156">
				 <ele>6.5</ele>
			 </trkpt>
			 <trkpt lat="5.99798" lon="116.12192">
				 <ele>5.8</ele>
			 </trkpt>
			 <trkpt lat="5.99809" lon="116.12201">
				 <ele>5.3</ele>
			 </trkpt>
			 <trkpt lat="5.99845" lon="116.12233">
				 <ele>5.1</ele>
			 </trkpt>
			 <trkpt lat="5.99879" lon="116.1227">
				 <ele>4.7</ele>
			 </trkpt>
			 <trkpt lat="5.99895" lon="116.1229">
				 <ele>4.5</ele>
			 </trkpt>
			 <trkpt lat="5.99926" lon="116.12341">
				 <ele>4.8</ele>
			 </trkpt>
			 <trkpt lat="5.99946" lon="116.12381">
				 <ele>4.9</ele>
			 </trkpt>
			 <trkpt lat="5.9996" lon="116.12419">
				 <ele>5</ele>
			 </trkpt>
			 <trkpt lat="5.99967" lon="116.1244">
				 <ele>5.1</ele>
			 </trkpt>
			 <trkpt lat="5.99984" lon="116.12516">
				 <ele>5</ele>
			 </trkpt>
			 <trkpt lat="6.00002" lon="116.12603">
				 <ele>5.5</ele>
			 </trkpt>
			 <trkpt lat="6.00019" lon="116.12688">
				 <ele>6.5</ele>
			 </trkpt>
			 <trkpt lat="6.00041" lon="116.12758">
				 <ele>7.5</ele>
			 </trkpt>
			 <trkpt lat="6.00071" lon="116.12822">
				 <ele>7.9</ele>
			 </trkpt>
			 <trkpt lat="6.00101" lon="116.12882">
				 <ele>8.2</ele>
			 </trkpt>
			 <trkpt lat="6.00134" lon="116.12931">
				 <ele>8.3</ele>
			 </trkpt>
			 <trkpt lat="6.00159" lon="116.12962">
				 <ele>8.1</ele>
			 </trkpt>
			 <trkpt lat="6.00205" lon="116.13012">
				 <ele>8.6</ele>
			 </trkpt>
			 <trkpt lat="6.0025" lon="116.13052">
				 <ele>9</ele>
			 </trkpt>
			 <trkpt lat="6.00278" lon="116.13073">
				 <ele>9.1</ele>
			 </trkpt>
			 <trkpt lat="6.0037" lon="116.13134">
				 <ele>9.7</ele>
			 </trkpt>
			 <trkpt lat="6.00552" lon="116.13265">
				 <ele>9.6</ele>
			 </trkpt>
			 <trkpt lat="6.00649" lon="116.13336">
				 <ele>9.5</ele>
			 </trkpt>
			 <trkpt lat="6.00703" lon="116.13375">
				 <ele>8.5</ele>
			 </trkpt>
			 <trkpt lat="6.00794" lon="116.13438">
				 <ele>8.4</ele>
			 </trkpt>
			 <trkpt lat="6.00903" lon="116.1351">
				 <ele>8.6</ele>
			 </trkpt>
			 <trkpt lat="6.00968" lon="116.13548">
				 <ele>8.7</ele>
			 </trkpt>
			 <trkpt lat="6.01043" lon="116.13584">
				 <ele>9</ele>
			 </trkpt>
			 <trkpt lat="6.01128" lon="116.13611">
				 <ele>8.8</ele>
			 </trkpt>
			 <trkpt lat="6.01192" lon="116.13628">
				 <ele>9</ele>
			 </trkpt>
			 <trkpt lat="6.0137" lon="116.13671">
				 <ele>9.5</ele>
			 </trkpt>
			 <trkpt lat="6.01491" lon="116.13703">
				 <ele>9.2</ele>
			 </trkpt>
			 <trkpt lat="6.01513" lon="116.1371">
				 <ele>9</ele>
			 </trkpt>
			 <trkpt lat="6.01532" lon="116.13717">
				 <ele>8.8</ele>
			 </trkpt>
			 <trkpt lat="6.01614" lon="116.13754">
				 <ele>8.9</ele>
			 </trkpt>
			 <trkpt lat="6.01659" lon="116.13775">
				 <ele>9</ele>
			 </trkpt>
			 <trkpt lat="6.01678" lon="116.13787">
				 <ele>8.9</ele>
			 </trkpt>
			 <trkpt lat="6.0173" lon="116.13818">
				 <ele>8.5</ele>
			 </trkpt>
			 <trkpt lat="6.01775" lon="116.13847">
				 <ele>8.3</ele>
			 </trkpt>
			 <trkpt lat="6.01813" lon="116.13873">
				 <ele>8</ele>
			 </trkpt>
			 <trkpt lat="6.01865" lon="116.13914">
				 <ele>7.5</ele>
			 </trkpt>
			 <trkpt lat="6.01883" lon="116.13933">
				 <ele>6.9</ele>
			 </trkpt>
			 <trkpt lat="6.01936" lon="116.13977">
				 <ele>6.6</ele>
			 </trkpt>
			 <trkpt lat="6.01974" lon="116.14003">
				 <ele>6.7</ele>
			 </trkpt>
			 <trkpt lat="6.01993" lon="116.14019">
				 <ele>6.5</ele>
			 </trkpt>
			 <trkpt lat="6.02036" lon="116.14062">
				 <ele>6.5</ele>
			 </trkpt>
			 <trkpt lat="6.02127" lon="116.14137">
				 <ele>6.2</ele>
			 </trkpt>
			 <trkpt lat="6.02214" lon="116.1421">
				 <ele>5.8</ele>
			 </trkpt>
			 <trkpt lat="6.02339" lon="116.14314">
				 <ele>6</ele>
			 </trkpt>
			 <trkpt lat="6.02414" lon="116.14379">
				 <ele>6.1</ele>
			 </trkpt>
			 <trkpt lat="6.02478" lon="116.14433">
				 <ele>6</ele>
			 </trkpt>
			 <trkpt lat="6.02598" lon="116.14517">
				 <ele>6</ele>
			 </trkpt>
			 <trkpt lat="6.02617" lon="116.14529">
				 <ele>5.9</ele>
			 </trkpt>
			 <trkpt lat="6.02664" lon="116.14555">
				 <ele>5.7</ele>
			 </trkpt>
			 <trkpt lat="6.02724" lon="116.14584">
				 <ele>5.5</ele>
			 </trkpt>
			 <trkpt lat="6.02828" lon="116.1462">
				 <ele>5.8</ele>
			 </trkpt>
			 <trkpt lat="6.02858" lon="116.14631">
				 <ele>5.9</ele>
			 </trkpt>
			 <trkpt lat="6.02873" lon="116.14635">
				 <ele>6.5</ele>
			 </trkpt>
			 <trkpt lat="6.02886" lon="116.14643">
				 <ele>7</ele>
			 </trkpt>
			 <trkpt lat="6.02983" lon="116.1467">
				 <ele>7.2</ele>
			 </trkpt>
			 <trkpt lat="6.03077" lon="116.14693">
				 <ele>7.5</ele>
			 </trkpt>
			 <trkpt lat="6.03211" lon="116.14732">
				 <ele>7.8</ele>
			 </trkpt>
			 <trkpt lat="6.03349" lon="116.14775">
				 <ele>8.1</ele>
			 </trkpt>
			 <trkpt lat="6.03364" lon="116.14778">
				 <ele>8.6</ele>
			 </trkpt>
			 <trkpt lat="6.03419" lon="116.14797">
				 <ele>9.4</ele>
			 </trkpt>
			 <trkpt lat="6.03462" lon="116.14811">
				 <ele>10.1</ele>
			 </trkpt>
			 <trkpt lat="6.03535" lon="116.14845">
				 <ele>10.4</ele>
			 </trkpt>
			 <trkpt lat="6.03618" lon="116.14886">
				 <ele>10.8</ele>
			 </trkpt>
			 <trkpt lat="6.03695" lon="116.14938">
				 <ele>11</ele>
			 </trkpt>
			 <trkpt lat="6.03878" lon="116.15069">
				 <ele>11.4</ele>
			 </trkpt>
			 <trkpt lat="6.03929" lon="116.15109">
				 <ele>12.3</ele>
			 </trkpt>
			 <trkpt lat="6.03971" lon="116.15141">
				 <ele>12.7</ele>
			 </trkpt>
			 <trkpt lat="6.04021" lon="116.15181">
				 <ele>13</ele>
			 </trkpt>
			 <trkpt lat="6.04068" lon="116.15223">
				 <ele>13.5</ele>
			 </trkpt>
			 <trkpt lat="6.04115" lon="116.15271">
				 <ele>13.6</ele>
			 </trkpt>
			 <trkpt lat="6.04201" lon="116.15368">
				 <ele>13.6</ele>
			 </trkpt>
			 <trkpt lat="6.0425" lon="116.15433">
				 <ele>13.7</ele>
			 </trkpt>
			 <trkpt lat="6.04286" lon="116.15485">
				 <ele>13.5</ele>
			 </trkpt>
			 <trkpt lat="6.04326" lon="116.15549">
				 <ele>13.2</ele>
			 </trkpt>
			 <trkpt lat="6.04388" lon="116.15666">
				 <ele>12.8</ele>
			 </trkpt>
			 <trkpt lat="6.04425" lon="116.15751">
				 <ele>12.5</ele>
			 </trkpt>
			 <trkpt lat="6.04481" lon="116.15897">
				 <ele>11.7</ele>
			 </trkpt>
			 <trkpt lat="6.04507" lon="116.15965">
				 <ele>11.2</ele>
			 </trkpt>
			 <trkpt lat="6.0452" lon="116.15995">
				 <ele>10.9</ele>
			 </trkpt>
			 <trkpt lat="6.04555" lon="116.16087">
				 <ele>10.5</ele>
			 </trkpt>
			 <trkpt lat="6.04597" lon="116.16192">
				 <ele>10.3</ele>
			 </trkpt>
			 <trkpt lat="6.04627" lon="116.16267">
				 <ele>10.1</ele>
			 </trkpt>
			 <trkpt lat="6.04646" lon="116.16306">
				 <ele>9.7</ele>
			 </trkpt>
			 <trkpt lat="6.04673" lon="116.16342">
				 <ele>9.7</ele>
			 </trkpt>
			 <trkpt lat="6.04687" lon="116.1636">
				 <ele>9.7</ele>
			 </trkpt>
			 <trkpt lat="6.04716" lon="116.16379">
				 <ele>9.8</ele>
			 </trkpt>
			 <trkpt lat="6.04727" lon="116.16386">
				 <ele>9.7</ele>
			 </trkpt>
			 <trkpt lat="6.04734" lon="116.16388">
				 <ele>9.8</ele>
			 </trkpt>
			 <trkpt lat="6.04743" lon="116.16387">
				 <ele>9.9</ele>
			 </trkpt>
			 <trkpt lat="6.04757" lon="116.16382">
				 <ele>10.7</ele>
			 </trkpt>
			 <trkpt lat="6.04772" lon="116.16369">
				 <ele>11.6</ele>
			 </trkpt>
			 <trkpt lat="6.04835" lon="116.16284">
				 <ele>12.6</ele>
			 </trkpt>
			 <trkpt lat="6.04853" lon="116.16258">
				 <ele>13.7</ele>
			 </trkpt>
			 <trkpt lat="6.04867" lon="116.16228">
				 <ele>14.6</ele>
			 </trkpt>
			 <trkpt lat="6.04911" lon="116.16147">
				 <ele>15</ele>
			 </trkpt>
			 <trkpt lat="6.04916" lon="116.16144">
				 <ele>15.2</ele>
			 </trkpt>
			 <trkpt lat="6.04922" lon="116.16142">
				 <ele>15.3</ele>
			 </trkpt>
			 <trkpt lat="6.04941" lon="116.16119">
				 <ele>15.2</ele>
			 </trkpt>
			 <trkpt lat="6.04974" lon="116.1609">
				 <ele>15.1</ele>
			 </trkpt>
			 <trkpt lat="6.05013" lon="116.16065">
				 <ele>15.5</ele>
			 </trkpt>
			 <trkpt lat="6.05061" lon="116.1603">
				 <ele>15</ele>
			 </trkpt>
			 <trkpt lat="6.05098" lon="116.15995">
				 <ele>14.5</ele>
			 </trkpt>
			 <trkpt lat="6.05125" lon="116.15966">
				 <ele>14.2</ele>
			 </trkpt>
			 <trkpt lat="6.05157" lon="116.15932">
				 <ele>14</ele>
			 </trkpt>
			 <trkpt lat="6.05212" lon="116.15884">
				 <ele>14</ele>
			 </trkpt>
			 <trkpt lat="6.0524" lon="116.15864">
				 <ele>14.4</ele>
			 </trkpt>
			 <trkpt lat="6.05271" lon="116.15849">
				 <ele>14.9</ele>
			 </trkpt>
			 <trkpt lat="6.05311" lon="116.15834">
				 <ele>15.7</ele>
			 </trkpt>
			 <trkpt lat="6.05374" lon="116.15817">
				 <ele>16.8</ele>
			 </trkpt>
			 <trkpt lat="6.05417" lon="116.15803">
				 <ele>18</ele>
			 </trkpt>
			 <trkpt lat="6.05458" lon="116.15787">
				 <ele>18.7</ele>
			 </trkpt>
			 <trkpt lat="6.05495" lon="116.15769">
				 <ele>19.3</ele>
			 </trkpt>
			 <trkpt lat="6.05543" lon="116.15742">
				 <ele>19.5</ele>
			 </trkpt>
			 <trkpt lat="6.05564" lon="116.15727">
				 <ele>19.3</ele>
			 </trkpt>
			 <trkpt lat="6.05593" lon="116.15703">
				 <ele>18.9</ele>
			 </trkpt>
			 <trkpt lat="6.05608" lon="116.15688">
				 <ele>18.7</ele>
			 </trkpt>
			 <trkpt lat="6.05628" lon="116.15666">
				 <ele>18.7</ele>
			 </trkpt>
			 <trkpt lat="6.05656" lon="116.15632">
				 <ele>18.7</ele>
			 </trkpt>
			 <trkpt lat="6.05687" lon="116.15588">
				 <ele>18.5</ele>
			 </trkpt>
			 <trkpt lat="6.05728" lon="116.15518">
				 <ele>18.3</ele>
			 </trkpt>
			 <trkpt lat="6.05729" lon="116.15484">
				 <ele>18.2</ele>
			 </trkpt>
			 <trkpt lat="6.05717" lon="116.15465">
				 <ele>18.3</ele>
			 </trkpt>
			 <trkpt lat="6.05673" lon="116.15442">
				 <ele>18.5</ele>
			 </trkpt>
			 <trkpt lat="6.05657" lon="116.15431">
				 <ele>19.1</ele>
			 </trkpt>
			 <trkpt lat="6.05638" lon="116.15414">
				 <ele>19.9</ele>
			 </trkpt>
			 <trkpt lat="6.05554" lon="116.15299">
				 <ele>20.6</ele>
			 </trkpt>
			 <trkpt lat="6.05525" lon="116.15264">
				 <ele>21.5</ele>
			 </trkpt>
			 <trkpt lat="6.05507" lon="116.15243">
				 <ele>22.7</ele>
			 </trkpt>
			 <trkpt lat="6.0549" lon="116.15226">
				 <ele>23.7</ele>
			 </trkpt>
			 <trkpt lat="6.05466" lon="116.15211">
				 <ele>23.8</ele>
			 </trkpt>
			 <trkpt lat="6.05442" lon="116.15202">
				 <ele>24</ele>
			 </trkpt>
			 <trkpt lat="6.05403" lon="116.15193">
				 <ele>24</ele>
			 </trkpt>
			 <trkpt lat="6.0537" lon="116.15191">
				 <ele>23.9</ele>
			 </trkpt>
			 <trkpt lat="6.05341" lon="116.15192">
				 <ele>23.7</ele>
			 </trkpt>
			 <trkpt lat="6.05275" lon="116.15197">
				 <ele>23.3</ele>
			 </trkpt>
			 <trkpt lat="6.05187" lon="116.15199">
				 <ele>22.6</ele>
			 </trkpt>
			 <trkpt lat="6.05145" lon="116.15202">
				 <ele>22.5</ele>
			 </trkpt>
			 <trkpt lat="6.05116" lon="116.15203">
				 <ele>22.2</ele>
			 </trkpt>
			 <trkpt lat="6.05071" lon="116.15202">
				 <ele>21.7</ele>
			 </trkpt>
			 <trkpt lat="6.05048" lon="116.15201">
				 <ele>21.5</ele>
			 </trkpt>
			 <trkpt lat="6.05005" lon="116.1519">
				 <ele>21.6</ele>
			 </trkpt>
			 <trkpt lat="6.04955" lon="116.15177">
				 <ele>21.4</ele>
			 </trkpt>
			 <trkpt lat="6.04937" lon="116.15167">
				 <ele>21.1</ele>
			 </trkpt>
			 <trkpt lat="6.04931" lon="116.15164">
				 <ele>20.7</ele>
			 </trkpt>
			 <trkpt lat="6.04907" lon="116.15146">
				 <ele>19.9</ele>
			 </trkpt>
			 <trkpt lat="6.04854" lon="116.15099">
				 <ele>19.5</ele>
			 </trkpt>
			 <trkpt lat="6.0483" lon="116.15077">
				 <ele>19.2</ele>
			 </trkpt>
			 <trkpt lat="6.04745" lon="116.15">
				 <ele>18.6</ele>
			 </trkpt>
			 <trkpt lat="6.04668" lon="116.14942">
				 <ele>17.9</ele>
			 </trkpt>
			 <trkpt lat="6.04598" lon="116.14899">
				 <ele>17.1</ele>
			 </trkpt>
			 <trkpt lat="6.04564" lon="116.14879">
				 <ele>16.2</ele>
			 </trkpt>
			 <trkpt lat="6.04513" lon="116.14845">
				 <ele>15.6</ele>
			 </trkpt>
			 <trkpt lat="6.04432" lon="116.14806">
				 <ele>15.5</ele>
			 </trkpt>
			 <trkpt lat="6.0441" lon="116.14792">
				 <ele>15.1</ele>
			 </trkpt>
			 <trkpt lat="6.04404" lon="116.14786">
				 <ele>14.6</ele>
			 </trkpt>
			 <trkpt lat="6.04385" lon="116.14772">
				 <ele>15</ele>
			 </trkpt>
			 <trkpt lat="6.04373" lon="116.14762">
				 <ele>14.9</ele>
			 </trkpt>
			 <trkpt lat="6.04372" lon="116.14759">
				 <ele>14.6</ele>
			 </trkpt>
			 <trkpt lat="6.04335" lon="116.14738">
				 <ele>14</ele>
			 </trkpt>
			 <trkpt lat="6.04285" lon="116.14708">
				 <ele>13.5</ele>
			 </trkpt>
			 <trkpt lat="6.0421" lon="116.1466">
				 <ele>13.3</ele>
			 </trkpt>
			 <trkpt lat="6.04146" lon="116.14616">
				 <ele>13.1</ele>
			 </trkpt>
			 <trkpt lat="6.04056" lon="116.14547">
				 <ele>12.5</ele>
			 </trkpt>
			 <trkpt lat="6.04024" lon="116.14523">
				 <ele>12</ele>
			 </trkpt>
			 <trkpt lat="6.03974" lon="116.1448">
				 <ele>11.9</ele>
			 </trkpt>
			 <trkpt lat="6.03885" lon="116.14397">
				 <ele>11.6</ele>
			 </trkpt>
			 <trkpt lat="6.03848" lon="116.14361">
				 <ele>11.3</ele>
			 </trkpt>
			 <trkpt lat="6.03802" lon="116.1431">
				 <ele>11.2</ele>
			 </trkpt>
			 <trkpt lat="6.03782" lon="116.14289">
				 <ele>11.2</ele>
			 </trkpt>
			 <trkpt lat="6.03734" lon="116.14234">
				 <ele>11.1</ele>
			 </trkpt>
			 <trkpt lat="6.03655" lon="116.14133">
				 <ele>11</ele>
			 </trkpt>
			 <trkpt lat="6.03612" lon="116.14079">
				 <ele>10.5</ele>
			 </trkpt>
			 <trkpt lat="6.03554" lon="116.14005">
				 <ele>10.1</ele>
			 </trkpt>
			 <trkpt lat="6.0348" lon="116.13921">
				 <ele>10.3</ele>
			 </trkpt>
			 <trkpt lat="6.03442" lon="116.13874">
				 <ele>10.1</ele>
			 </trkpt>
			 <trkpt lat="6.03414" lon="116.13834">
				 <ele>9.5</ele>
			 </trkpt>
			 <trkpt lat="6.03373" lon="116.1378">
				 <ele>9.3</ele>
			 </trkpt>
			 <trkpt lat="6.03311" lon="116.13699">
				 <ele>8.5</ele>
			 </trkpt>
			 <trkpt lat="6.03274" lon="116.13638">
				 <ele>7.6</ele>
			 </trkpt>
			 <trkpt lat="6.03257" lon="116.13601">
				 <ele>6.9</ele>
			 </trkpt>
			 <trkpt lat="6.03234" lon="116.13517">
				 <ele>6.5</ele>
			 </trkpt>
			 <trkpt lat="6.03227" lon="116.13475">
				 <ele>6.2</ele>
			 </trkpt>
			 <trkpt lat="6.03226" lon="116.13405">
				 <ele>6</ele>
			 </trkpt>
			 <trkpt lat="6.03234" lon="116.13347">
				 <ele>6.1</ele>
			 </trkpt>
			 <trkpt lat="6.0324" lon="116.13321">
				 <ele>6.1</ele>
			 </trkpt>
			 <trkpt lat="6.03241" lon="116.13317">
				 <ele>6.4</ele>
			 </trkpt>
			 <trkpt lat="6.03251" lon="116.13285">
				 <ele>6.7</ele>
			 </trkpt>
			 <trkpt lat="6.03267" lon="116.13248">
				 <ele>6.9</ele>
			 </trkpt>
			 <trkpt lat="6.03289" lon="116.13206">
				 <ele>7.3</ele>
			 </trkpt>
			 <trkpt lat="6.03363" lon="116.13092">
				 <ele>7.7</ele>
			 </trkpt>
			 <trkpt lat="6.03402" lon="116.13032">
				 <ele>8.3</ele>
			 </trkpt>
			 <trkpt lat="6.0342" lon="116.12997">
				 <ele>8.7</ele>
			 </trkpt>
			 <trkpt lat="6.03435" lon="116.12961">
				 <ele>9</ele>
			 </trkpt>
			 <trkpt lat="6.03445" lon="116.12928">
				 <ele>9.4</ele>
			 </trkpt>
			 <trkpt lat="6.03449" lon="116.12915">
				 <ele>9.4</ele>
			 </trkpt>
			 <trkpt lat="6.03455" lon="116.12893">
				 <ele>8.8</ele>
			 </trkpt>
			 <trkpt lat="6.03458" lon="116.12867">
				 <ele>8.2</ele>
			 </trkpt>
			 <trkpt lat="6.03459" lon="116.12814">
				 <ele>7.6</ele>
			 </trkpt>
			 <trkpt lat="6.03455" lon="116.12745">
				 <ele>7.5</ele>
			 </trkpt>
			 <trkpt lat="6.03445" lon="116.12691">
				 <ele>7.6</ele>
			 </trkpt>
			 <trkpt lat="6.03432" lon="116.1265">
				 <ele>7.9</ele>
			 </trkpt>
			 <trkpt lat="6.03413" lon="116.12609">
				 <ele>7.8</ele>
			 </trkpt>
			 <trkpt lat="6.034" lon="116.12581">
				 <ele>7.6</ele>
			 </trkpt>
			 <trkpt lat="6.03344" lon="116.12505">
				 <ele>7.5</ele>
			 </trkpt>
			 <trkpt lat="6.0326" lon="116.12418">
				 <ele>7.1</ele>
			 </trkpt>
			 <trkpt lat="6.03184" lon="116.12339">
				 <ele>6.9</ele>
			 </trkpt>
			 <trkpt lat="6.03095" lon="116.12246">
				 <ele>7.1</ele>
			 </trkpt>
			 <trkpt lat="6.03042" lon="116.12192">
				 <ele>7.3</ele>
			 </trkpt>
			 <trkpt lat="6.02965" lon="116.1213">
				 <ele>7.2</ele>
			 </trkpt>
			 <trkpt lat="6.02935" lon="116.12103">
				 <ele>7.1</ele>
			 </trkpt>
			 <trkpt lat="6.02796" lon="116.12001">
				 <ele>6.9</ele>
			 </trkpt>
			 <trkpt lat="6.02743" lon="116.11971">
				 <ele>6.6</ele>
			 </trkpt>
			 <trkpt lat="6.02698" lon="116.11942">
				 <ele>6.6</ele>
			 </trkpt>
			 <trkpt lat="6.02652" lon="116.11904">
				 <ele>6.7</ele>
			 </trkpt>
			 <trkpt lat="6.02578" lon="116.11847">
				 <ele>6.8</ele>
			 </trkpt>
			 <trkpt lat="6.02564" lon="116.11838">
				 <ele>7.1</ele>
			 </trkpt>
			 <trkpt lat="6.02515" lon="116.11809">
				 <ele>7.4</ele>
			 </trkpt>
			 <trkpt lat="6.02468" lon="116.11789">
				 <ele>7.7</ele>
			 </trkpt>
			 <trkpt lat="6.02421" lon="116.11776">
				 <ele>8.1</ele>
			 </trkpt>
			 <trkpt lat="6.02397" lon="116.11772">
				 <ele>8.5</ele>
			 </trkpt>
			 <trkpt lat="6.0231" lon="116.11756">
				 <ele>8.8</ele>
			 </trkpt>
			 <trkpt lat="6.02245" lon="116.11745">
				 <ele>9.2</ele>
			 </trkpt>
			 <trkpt lat="6.02208" lon="116.11736">
				 <ele>9.5</ele>
			 </trkpt>
			 <trkpt lat="6.02179" lon="116.11729">
				 <ele>9.5</ele>
			 </trkpt>
			 <trkpt lat="6.02112" lon="116.11706">
				 <ele>9.5</ele>
			 </trkpt>
			 <trkpt lat="6.02075" lon="116.11691">
				 <ele>9.6</ele>
			 </trkpt>
			 <trkpt lat="6.02041" lon="116.11675">
				 <ele>9.5</ele>
			 </trkpt>
			 <trkpt lat="6.01897" lon="116.116">
				 <ele>9.5</ele>
			 </trkpt>
			 <trkpt lat="6.01793" lon="116.11548">
				 <ele>9.1</ele>
			 </trkpt>
			 <trkpt lat="6.01711" lon="116.11507">
				 <ele>8.5</ele>
			 </trkpt>
			 <trkpt lat="6.01674" lon="116.11488">
				 <ele>8</ele>
			 </trkpt>
			 <trkpt lat="6.01659" lon="116.11477">
				 <ele>7.3</ele>
			 </trkpt>
			 <trkpt lat="6.01639" lon="116.11461">
				 <ele>6.5</ele>
			 </trkpt>
			 <trkpt lat="6.01592" lon="116.11415">
				 <ele>5.8</ele>
			 </trkpt>
			 <trkpt lat="6.01545" lon="116.11355">
				 <ele>5.5</ele>
			 </trkpt>
			 <trkpt lat="6.01512" lon="116.11326">
				 <ele>5</ele>
			 </trkpt>
			 <trkpt lat="6.01494" lon="116.11316">
				 <ele>4.5</ele>
			 </trkpt>
			 <trkpt lat="6.01482" lon="116.11311">
				 <ele>3.6</ele>
			 </trkpt>
			 <trkpt lat="6.01452" lon="116.11302">
				 <ele>3</ele>
			 </trkpt>
			 <trkpt lat="6.01422" lon="116.113">
				 <ele>3.3</ele>
			 </trkpt>
			 <trkpt lat="6.0138" lon="116.11297">
				 <ele>3.6</ele>
			 </trkpt>
			 <trkpt lat="6.01364" lon="116.11298">
				 <ele>4</ele>
			 </trkpt>
			 <trkpt lat="6.01292" lon="116.113">
				 <ele>4.3</ele>
			 </trkpt>
			 <trkpt lat="6.01238" lon="116.11301">
				 <ele>4.5</ele>
			 </trkpt>
			 <trkpt lat="6.01184" lon="116.11303">
				 <ele>4.6</ele>
			 </trkpt>
			 <trkpt lat="6.0117" lon="116.11301">
				 <ele>4.8</ele>
			 </trkpt>
			 <trkpt lat="6.01152" lon="116.11299">
				 <ele>5.3</ele>
			 </trkpt>
			 <trkpt lat="6.01135" lon="116.11295">
				 <ele>5.9</ele>
			 </trkpt>
			 <trkpt lat="6.01109" lon="116.11289">
				 <ele>6.5</ele>
			 </trkpt>
			 <trkpt lat="6.01083" lon="116.11279">
				 <ele>6.7</ele>
			 </trkpt>
			 <trkpt lat="6.01028" lon="116.11253">
				 <ele>6.1</ele>
			 </trkpt>
			 <trkpt lat="6.01005" lon="116.11236">
				 <ele>5.8</ele>
			 </trkpt>
			 <trkpt lat="6.00981" lon="116.11215">
				 <ele>6</ele>
			 </trkpt>
			 <trkpt lat="6.00927" lon="116.11175">
				 <ele>6.3</ele>
			 </trkpt>
			 <trkpt lat="6.00896" lon="116.11149">
				 <ele>7</ele>
			 </trkpt>
			 <trkpt lat="6.00844" lon="116.11109">
				 <ele>7.4</ele>
			 </trkpt>
			 <trkpt lat="6.00803" lon="116.11085">
				 <ele>7.2</ele>
			 </trkpt>
			 <trkpt lat="6.00751" lon="116.11065">
				 <ele>6.9</ele>
			 </trkpt>
			 <trkpt lat="6.00694" lon="116.11059">
				 <ele>6.3</ele>
			 </trkpt>
			 <trkpt lat="6.00655" lon="116.11054">
				 <ele>6.5</ele>
			 </trkpt>
			 <trkpt lat="6.00603" lon="116.11053">
				 <ele>6.6</ele>
			 </trkpt>
			 <trkpt lat="6.00553" lon="116.11053">
				 <ele>7.4</ele>
			 </trkpt>
			 <trkpt lat="6.00515" lon="116.1105">
				 <ele>7.2</ele>
			 </trkpt>
			 <trkpt lat="6.0046" lon="116.11044">
				 <ele>6.5</ele>
			 </trkpt>
			 <trkpt lat="6.00374" lon="116.11029">
				 <ele>6.3</ele>
			 </trkpt>
			 <trkpt lat="6.00336" lon="116.11021">
				 <ele>5.5</ele>
			 </trkpt>
			 <trkpt lat="6.00279" lon="116.11005">
				 <ele>4.7</ele>
			 </trkpt>
			 <trkpt lat="6.00197" lon="116.10982">
				 <ele>4.3</ele>
			 </trkpt>
			 <trkpt lat="6.00168" lon="116.10971">
				 <ele>3.8</ele>
			 </trkpt>
			 <trkpt lat="6.0008" lon="116.10936">
				 <ele>3.6</ele>
			 </trkpt>
			 <trkpt lat="6.00076" lon="116.10934">
				 <ele>2.9</ele>
			 </trkpt>
			 <trkpt lat="5.99998" lon="116.10898">
				 <ele>2.7</ele>
			 </trkpt>
			 <trkpt lat="5.99957" lon="116.10875">
				 <ele>2.3</ele>
			 </trkpt>
			 <trkpt lat="5.999" lon="116.1084">
				 <ele>2.4</ele>
			 </trkpt>
			 <trkpt lat="5.99837" lon="116.10797">
				 <ele>2.5</ele>
			 </trkpt>
			 <trkpt lat="5.99796" lon="116.10766">
				 <ele>2.5</ele>
			 </trkpt>
			 <trkpt lat="5.99742" lon="116.1072">
				 <ele>2.4</ele>
			 </trkpt>
			 <trkpt lat="5.99665" lon="116.10649">
				 <ele>2.7</ele>
			 </trkpt>
			 <trkpt lat="5.99636" lon="116.1062">
				 <ele>3.1</ele>
			 </trkpt>
			 <trkpt lat="5.99616" lon="116.10598">
				 <ele>3.5</ele>
			 </trkpt>
			 <trkpt lat="5.99608" lon="116.10594">
				 <ele>3.9</ele>
			 </trkpt>
			 <trkpt lat="5.99594" lon="116.10588">
				 <ele>4.4</ele>
			 </trkpt>
			 <trkpt lat="5.99589" lon="116.10588">
				 <ele>4.4</ele>
			 </trkpt>
			 <trkpt lat="5.99576" lon="116.10584">
				 <ele>4.3</ele>
			 </trkpt>
			 <trkpt lat="5.99569" lon="116.10579">
				 <ele>4.3</ele>
			 </trkpt>
			 <trkpt lat="5.99563" lon="116.1057">
				 <ele>4.1</ele>
			 </trkpt>
			 <trkpt lat="5.9956" lon="116.10562">
				 <ele>3.9</ele>
			 </trkpt>
			 <trkpt lat="5.99554" lon="116.10542">
				 <ele>3.7</ele>
			 </trkpt>
			 <trkpt lat="5.99545" lon="116.10525">
				 <ele>4.1</ele>
			 </trkpt>
			 <trkpt lat="5.99529" lon="116.10507">
				 <ele>4.4</ele>
			 </trkpt>
			 <trkpt lat="5.99437" lon="116.10405">
				 <ele>4.6</ele>
			 </trkpt>
			 <trkpt lat="5.99354" lon="116.1031">
				 <ele>4.5</ele>
			 </trkpt>
			 <trkpt lat="5.99319" lon="116.10264">
				 <ele>4.5</ele>
			 </trkpt>
			 <trkpt lat="5.99256" lon="116.10173">
				 <ele>4.5</ele>
			 </trkpt>
			 <trkpt lat="5.99172" lon="116.10041">
				 <ele>4.4</ele>
			 </trkpt>
			 <trkpt lat="5.99152" lon="116.09996">
				 <ele>4</ele>
			 </trkpt>
			 <trkpt lat="5.99139" lon="116.09932">
				 <ele>3.8</ele>
			 </trkpt>
			 <trkpt lat="5.9914" lon="116.09881">
				 <ele>3.6</ele>
			 </trkpt>
			 <trkpt lat="5.991409" lon="116.098697">
				 <ele>3.6</ele>
			 </trkpt>
			 <trkpt lat="5.991478" lon="116.09837">
				 <ele>3.2</ele>
			 </trkpt>
			 <trkpt lat="5.991614" lon="116.097847">
				 <ele>2.8</ele>
			 </trkpt>
			 <trkpt lat="5.991686" lon="116.097579">
				 <ele>2.6</ele>
			 </trkpt>
			 <trkpt lat="5.991939" lon="116.096647">
				 <ele>2.6</ele>
			 </trkpt>
			 <trkpt lat="5.992028" lon="116.096271">
				 <ele>2.7</ele>
			 </trkpt>
			 <trkpt lat="5.992218" lon="116.095561">
				 <ele>3.5</ele>
			 </trkpt>
			 <trkpt lat="5.992262" lon="116.095404">
				 <ele>4.5</ele>
			 </trkpt>
			 <trkpt lat="5.992568" lon="116.094325">
				 <ele>5.4</ele>
			 </trkpt>
			 <trkpt lat="5.992616" lon="116.094119">
				 <ele>6.5</ele>
			 </trkpt>
			 <trkpt lat="5.992631" lon="116.094009">
				 <ele>7.5</ele>
			 </trkpt>
			 <trkpt lat="5.992633" lon="116.093818">
				 <ele>8.2</ele>
			 </trkpt>
			 <trkpt lat="5.992584" lon="116.093789">
				 <ele>8.8</ele>
			 </trkpt>
			 <trkpt lat="5.99194" lon="116.09357">
				 <ele>9.3</ele>
			 </trkpt>
			 <trkpt lat="5.99018" lon="116.09299">
				 <ele>9.7</ele>
			 </trkpt>
			 <trkpt lat="5.98973" lon="116.09288">
				 <ele>10.3</ele>
			 </trkpt>
			 <trkpt lat="5.98957" lon="116.09283">
				 <ele>10.5</ele>
			 </trkpt>
			 <trkpt lat="5.98839" lon="116.09245">
				 <ele>10.2</ele>
			 </trkpt>
			 <trkpt lat="5.98681" lon="116.09198">
				 <ele>9.7</ele>
			 </trkpt>
			 <trkpt lat="5.98616" lon="116.09178">
				 <ele>9.7</ele>
			 </trkpt>
			 <trkpt lat="5.98605" lon="116.09178">
				 <ele>9.5</ele>
			 </trkpt>
			 <trkpt lat="5.98587" lon="116.09179">
				 <ele>9.3</ele>
			 </trkpt>
			 <trkpt lat="5.98578" lon="116.09182">
				 <ele>9.1</ele>
			 </trkpt>
			 <trkpt lat="5.98574" lon="116.09183">
				 <ele>8.9</ele>
			 </trkpt>
			 <trkpt lat="5.98563" lon="116.0919">
				 <ele>8.8</ele>
			 </trkpt>
			 <trkpt lat="5.98551" lon="116.09203">
				 <ele>8.5</ele>
			 </trkpt>
			 <trkpt lat="5.98544" lon="116.09219">
				 <ele>8.5</ele>
			 </trkpt>
			 <trkpt lat="5.9854" lon="116.09252">
				 <ele>8.5</ele>
			 </trkpt>
			 <trkpt lat="5.98539" lon="116.0932">
				 <ele>8.5</ele>
			 </trkpt>
			 <trkpt lat="5.98535" lon="116.09335">
				 <ele>8.3</ele>
			 </trkpt>
			 <trkpt lat="5.98527" lon="116.09359">
				 <ele>8.1</ele>
			 </trkpt>
			 <trkpt lat="5.98515" lon="116.09379">
				 <ele>7.9</ele>
			 </trkpt>
			 <trkpt lat="5.98506" lon="116.0939">
				 <ele>7.8</ele>
			 </trkpt>
			 <trkpt lat="5.9849" lon="116.09407">
				 <ele>7.9</ele>
			 </trkpt>
			 <trkpt lat="5.98474" lon="116.09419">
				 <ele>8.1</ele>
			 </trkpt>
			 <trkpt lat="5.98469" lon="116.09423">
				 <ele>8.3</ele>
			 </trkpt>
			 <trkpt lat="5.98444" lon="116.09435">
				 <ele>8.5</ele>
			 </trkpt>
			 <trkpt lat="5.98417" lon="116.09441">
				 <ele>8.5</ele>
			 </trkpt>
			 <trkpt lat="5.9838" lon="116.09445">
				 <ele>8.4</ele>
			 </trkpt>
			 <trkpt lat="5.98329" lon="116.09444">
				 <ele>8.2</ele>
			 </trkpt>
			 <trkpt lat="5.98261" lon="116.0944">
				 <ele>8.2</ele>
			 </trkpt>
			 <trkpt lat="5.98248" lon="116.09457">
				 <ele>8.2</ele>
			 </trkpt>
			 <trkpt lat="5.98241" lon="116.0947">
				 <ele>8.2</ele>
			 </trkpt>
			 <trkpt lat="5.982724" lon="116.095141">
				 <ele>8.2</ele>
			 </trkpt>
			 <trkpt lat="5.982695" lon="116.095283">
				 <ele>8.2</ele>
			 </trkpt>
			 <trkpt lat="5.982628" lon="116.095377">
				 <ele>8.2</ele>
			 </trkpt>
			 <trkpt lat="5.982607" lon="116.095493">
				 <ele>8.2</ele>
			 </trkpt>
			 <trkpt lat="5.982642" lon="116.095667">
				 <ele>8</ele>
			 </trkpt>
			 <trkpt lat="5.98269" lon="116.095747">
				 <ele>7.9</ele>
			 </trkpt>
			 <trkpt lat="5.982802" lon="116.095871">
				 <ele>8</ele>
			 </trkpt>
			 <trkpt lat="5.982994" lon="116.095908">
				 <ele>8.3</ele>
			 </trkpt>
			 <trkpt lat="5.98341" lon="116.095898">
				 <ele>8.5</ele>
			 </trkpt>
			 <trkpt lat="5.983837" lon="116.095916">
				 <ele>8.8</ele>
			 </trkpt>
			 <trkpt lat="5.983965" lon="116.095803">
				 <ele>9</ele>
			 </trkpt>
			 <trkpt lat="5.984053" lon="116.095661">
				 <ele>8.8</ele>
			 </trkpt>
			 <trkpt lat="5.984053" lon="116.095473">
				 <ele>8.8</ele>
			 </trkpt>
			 <trkpt lat="5.98401" lon="116.095325">
				 <ele>8.7</ele>
			 </trkpt>
			 <trkpt lat="5.983941" lon="116.095224">
				 <ele>8.6</ele>
			 </trkpt>
			 <trkpt lat="5.983802" lon="116.095159">
				 <ele>8.9</ele>
			 </trkpt>
			 <trkpt lat="5.983236" lon="116.09514">
				 <ele>9</ele>
			 </trkpt>
		 </trkseg>
	 </trk>
</gpx>