<?xml version="1.0" encoding="UTF-8"?>
 <gpx creator="Garmin Connect" version="1.1"
	 xsi:schemaLocation="http://www.topografix.com/GPX/1/1 http://www.topografix.com/GPX/11.xsd"
	 xmlns:ns3="http://www.garmin.com/xmlschemas/TrackPointExtension/v1"
	 xmlns="http://www.topografix.com/GPX/1/1"
	 xmlns:xsi="http://www.w3.org/2001/XMLSchema-instance" xmlns:ns2="http://www.garmin.com/xmlschemas/GpxExtensions/v3">
	 <metadata>
		<name>SPAR Budapest Marathon 2025 - 42.195 km</name>
		 <link href="https://www.goandrace.com">
		 <text>Garmin Connect</text>
		 </link>
	 <time>2026-08-08T21:15:55</time>
	 </metadata>
	 <trk>
		 <name>SPAR Budapest Marathon 2025 - 42.195 km</name>
		 <trkseg>
			 <trkpt lat="47.47353" lon="19.06365">
				 <ele>98.7</ele>
			 </trkpt>
			 <trkpt lat="47.47279" lon="19.06382">
				 <ele>98.4</ele>
			 </trkpt>
			 <trkpt lat="47.47229" lon="19.06397">
				 <ele>98.3</ele>
			 </trkpt>
			 <trkpt lat="47.47179" lon="19.06411">
				 <ele>98.1</ele>
			 </trkpt>
			 <trkpt lat="47.47101" lon="19.06426">
				 <ele>98</ele>
			 </trkpt>
			 <trkpt lat="47.47055" lon="19.06435">
				 <ele>97.9</ele>
			 </trkpt>
			 <trkpt lat="47.47008" lon="19.06443">
				 <ele>97.6</ele>
			 </trkpt>
			 <trkpt lat="47.46984" lon="19.06451">
				 <ele>97.2</ele>
			 </trkpt>
			 <trkpt lat="47.46981" lon="19.06452">
				 <ele>96.9</ele>
			 </trkpt>
			 <trkpt lat="47.46981" lon="19.06457">
				 <ele>96.6</ele>
			 </trkpt>
			 <trkpt lat="47.46986" lon="19.06459">
				 <ele>96.6</ele>
			 </trkpt>
			 <trkpt lat="47.47008" lon="19.06458">
				 <ele>96.5</ele>
			 </trkpt>
			 <trkpt lat="47.4705" lon="19.06456">
				 <ele>96.5</ele>
			 </trkpt>
			 <trkpt lat="47.47095" lon="19.06453">
				 <ele>96.5</ele>
			 </trkpt>
			 <trkpt lat="47.47143" lon="19.06445">
				 <ele>96.4</ele>
			 </trkpt>
			 <trkpt lat="47.47182" lon="19.06436">
				 <ele>96.5</ele>
			 </trkpt>
			 <trkpt lat="47.47223" lon="19.06425">
				 <ele>96.5</ele>
			 </trkpt>
			 <trkpt lat="47.47264" lon="19.06412">
				 <ele>96.6</ele>
			 </trkpt>
			 <trkpt lat="47.47302" lon="19.06399">
				 <ele>96.7</ele>
			 </trkpt>
			 <trkpt lat="47.47353" lon="19.06383">
				 <ele>97</ele>
			 </trkpt>
			 <trkpt lat="47.47403" lon="19.06365">
				 <ele>97.5</ele>
			 </trkpt>
			 <trkpt lat="47.47457" lon="19.06343">
				 <ele>97.9</ele>
			 </trkpt>
			 <trkpt lat="47.47525" lon="19.0631">
				 <ele>98.2</ele>
			 </trkpt>
			 <trkpt lat="47.47571" lon="19.06285">
				 <ele>98.2</ele>
			 </trkpt>
			 <trkpt lat="47.47611" lon="19.0626">
				 <ele>98.5</ele>
			 </trkpt>
			 <trkpt lat="47.47655" lon="19.06227">
				 <ele>98.9</ele>
			 </trkpt>
			 <trkpt lat="47.47711" lon="19.06182">
				 <ele>99.3</ele>
			 </trkpt>
			 <trkpt lat="47.47757" lon="19.06133">
				 <ele>100.2</ele>
			 </trkpt>
			 <trkpt lat="47.47814" lon="19.06074">
				 <ele>100.2</ele>
			 </trkpt>
			 <trkpt lat="47.47867" lon="19.06019">
				 <ele>100.4</ele>
			 </trkpt>
			 <trkpt lat="47.47892" lon="19.05994">
				 <ele>100.7</ele>
			 </trkpt>
			 <trkpt lat="47.47952" lon="19.05933">
				 <ele>101</ele>
			 </trkpt>
			 <trkpt lat="47.47982" lon="19.05899">
				 <ele>101.2</ele>
			 </trkpt>
			 <trkpt lat="47.48046" lon="19.05827">
				 <ele>101.7</ele>
			 </trkpt>
			 <trkpt lat="47.48091" lon="19.05774">
				 <ele>102.3</ele>
			 </trkpt>
			 <trkpt lat="47.48115" lon="19.0574">
				 <ele>102.5</ele>
			 </trkpt>
			 <trkpt lat="47.48137" lon="19.05715">
				 <ele>102.6</ele>
			 </trkpt>
			 <trkpt lat="47.48177" lon="19.0567">
				 <ele>102.5</ele>
			 </trkpt>
			 <trkpt lat="47.48238" lon="19.056">
				 <ele>101.6</ele>
			 </trkpt>
			 <trkpt lat="47.48272" lon="19.05563">
				 <ele>102</ele>
			 </trkpt>
			 <trkpt lat="47.48329" lon="19.05498">
				 <ele>102.4</ele>
			 </trkpt>
			 <trkpt lat="47.48386" lon="19.05429">
				 <ele>102</ele>
			 </trkpt>
			 <trkpt lat="47.48437" lon="19.05372">
				 <ele>101.8</ele>
			 </trkpt>
			 <trkpt lat="47.48501" lon="19.053">
				 <ele>101.5</ele>
			 </trkpt>
			 <trkpt lat="47.4856" lon="19.05232">
				 <ele>101.2</ele>
			 </trkpt>
			 <trkpt lat="47.48632" lon="19.05156">
				 <ele>101.3</ele>
			 </trkpt>
			 <trkpt lat="47.48685" lon="19.05096">
				 <ele>101.1</ele>
			 </trkpt>
			 <trkpt lat="47.48742" lon="19.05036">
				 <ele>101.3</ele>
			 </trkpt>
			 <trkpt lat="47.48811" lon="19.04962">
				 <ele>101.4</ele>
			 </trkpt>
			 <trkpt lat="47.48872" lon="19.04898">
				 <ele>101.5</ele>
			 </trkpt>
			 <trkpt lat="47.48909" lon="19.04859">
				 <ele>101.4</ele>
			 </trkpt>
			 <trkpt lat="47.48946" lon="19.0482">
				 <ele>101.1</ele>
			 </trkpt>
			 <trkpt lat="47.48993" lon="19.04767">
				 <ele>101.2</ele>
			 </trkpt>
			 <trkpt lat="47.49039" lon="19.04714">
				 <ele>101.1</ele>
			 </trkpt>
			 <trkpt lat="47.49079" lon="19.04674">
				 <ele>101.2</ele>
			 </trkpt>
			 <trkpt lat="47.49119" lon="19.04634">
				 <ele>101</ele>
			 </trkpt>
			 <trkpt lat="47.49136" lon="19.04618">
				 <ele>100.9</ele>
			 </trkpt>
			 <trkpt lat="47.49141" lon="19.04609">
				 <ele>101.4</ele>
			 </trkpt>
			 <trkpt lat="47.49141" lon="19.04596">
				 <ele>101.6</ele>
			 </trkpt>
			 <trkpt lat="47.49144" lon="19.04587">
				 <ele>102.2</ele>
			 </trkpt>
			 <trkpt lat="47.49164" lon="19.0457">
				 <ele>102.7</ele>
			 </trkpt>
			 <trkpt lat="47.49195" lon="19.04542">
				 <ele>103.1</ele>
			 </trkpt>
			 <trkpt lat="47.49241" lon="19.04504">
				 <ele>103.8</ele>
			 </trkpt>
			 <trkpt lat="47.49294" lon="19.04463">
				 <ele>104.6</ele>
			 </trkpt>
			 <trkpt lat="47.49335" lon="19.04431">
				 <ele>105.4</ele>
			 </trkpt>
			 <trkpt lat="47.49362" lon="19.04404">
				 <ele>106.3</ele>
			 </trkpt>
			 <trkpt lat="47.49363" lon="19.04392">
				 <ele>107.2</ele>
			 </trkpt>
			 <trkpt lat="47.49357" lon="19.04374">
				 <ele>108</ele>
			 </trkpt>
			 <trkpt lat="47.49352" lon="19.04355">
				 <ele>108.3</ele>
			 </trkpt>
			 <trkpt lat="47.49354" lon="19.04342">
				 <ele>108.5</ele>
			 </trkpt>
			 <trkpt lat="47.49351" lon="19.04332">
				 <ele>108.6</ele>
			 </trkpt>
			 <trkpt lat="47.49345" lon="19.04328">
				 <ele>109</ele>
			 </trkpt>
			 <trkpt lat="47.49325" lon="19.04321">
				 <ele>109.3</ele>
			 </trkpt>
			 <trkpt lat="47.49296" lon="19.04311">
				 <ele>109.5</ele>
			 </trkpt>
			 <trkpt lat="47.49275" lon="19.04305">
				 <ele>109.6</ele>
			 </trkpt>
			 <trkpt lat="47.49256" lon="19.04294">
				 <ele>110</ele>
			 </trkpt>
			 <trkpt lat="47.49245" lon="19.04283">
				 <ele>110.3</ele>
			 </trkpt>
			 <trkpt lat="47.49241" lon="19.04271">
				 <ele>110.6</ele>
			 </trkpt>
			 <trkpt lat="47.49244" lon="19.04259">
				 <ele>111.2</ele>
			 </trkpt>
			 <trkpt lat="47.49252" lon="19.04229">
				 <ele>112.1</ele>
			 </trkpt>
			 <trkpt lat="47.49268" lon="19.04177">
				 <ele>113</ele>
			 </trkpt>
			 <trkpt lat="47.49295" lon="19.04104">
				 <ele>113.5</ele>
			 </trkpt>
			 <trkpt lat="47.4931" lon="19.04061">
				 <ele>114.1</ele>
			 </trkpt>
			 <trkpt lat="47.49333" lon="19.03997">
				 <ele>114.5</ele>
			 </trkpt>
			 <trkpt lat="47.49357" lon="19.03938">
				 <ele>115</ele>
			 </trkpt>
			 <trkpt lat="47.49379" lon="19.03892">
				 <ele>115.8</ele>
			 </trkpt>
			 <trkpt lat="47.49411" lon="19.03843">
				 <ele>116.5</ele>
			 </trkpt>
			 <trkpt lat="47.49441" lon="19.03795">
				 <ele>116.9</ele>
			 </trkpt>
			 <trkpt lat="47.49463" lon="19.03756">
				 <ele>117.4</ele>
			 </trkpt>
			 <trkpt lat="47.49493" lon="19.03701">
				 <ele>117.3</ele>
			 </trkpt>
			 <trkpt lat="47.49525" lon="19.03648">
				 <ele>116.8</ele>
			 </trkpt>
			 <trkpt lat="47.49554" lon="19.03606">
				 <ele>116.4</ele>
			 </trkpt>
			 <trkpt lat="47.49588" lon="19.03556">
				 <ele>116.3</ele>
			 </trkpt>
			 <trkpt lat="47.49627" lon="19.03507">
				 <ele>116.3</ele>
			 </trkpt>
			 <trkpt lat="47.49667" lon="19.03454">
				 <ele>116.6</ele>
			 </trkpt>
			 <trkpt lat="47.49691" lon="19.0342">
				 <ele>116.6</ele>
			 </trkpt>
			 <trkpt lat="47.49699" lon="19.03412">
				 <ele>116.5</ele>
			 </trkpt>
			 <trkpt lat="47.49707" lon="19.03408">
				 <ele>116.2</ele>
			 </trkpt>
			 <trkpt lat="47.49711" lon="19.03424">
				 <ele>116.1</ele>
			 </trkpt>
			 <trkpt lat="47.49723" lon="19.03483">
				 <ele>115.7</ele>
			 </trkpt>
			 <trkpt lat="47.49737" lon="19.03553">
				 <ele>115.9</ele>
			 </trkpt>
			 <trkpt lat="47.49751" lon="19.03622">
				 <ele>115.9</ele>
			 </trkpt>
			 <trkpt lat="47.49765" lon="19.03692">
				 <ele>115.6</ele>
			 </trkpt>
			 <trkpt lat="47.49778" lon="19.03761">
				 <ele>115.3</ele>
			 </trkpt>
			 <trkpt lat="47.49792" lon="19.03831">
				 <ele>114.8</ele>
			 </trkpt>
			 <trkpt lat="47.49806" lon="19.039">
				 <ele>113.8</ele>
			 </trkpt>
			 <trkpt lat="47.4982" lon="19.0397">
				 <ele>113</ele>
			 </trkpt>
			 <trkpt lat="47.49825" lon="19.03993">
				 <ele>111.6</ele>
			 </trkpt>
			 <trkpt lat="47.49821" lon="19.04019">
				 <ele>110.4</ele>
			 </trkpt>
			 <trkpt lat="47.49818" lon="19.04027">
				 <ele>109.1</ele>
			 </trkpt>
			 <trkpt lat="47.49818" lon="19.04052">
				 <ele>107.4</ele>
			 </trkpt>
			 <trkpt lat="47.49824" lon="19.04068">
				 <ele>105.4</ele>
			 </trkpt>
			 <trkpt lat="47.49832" lon="19.04083">
				 <ele>103.7</ele>
			 </trkpt>
			 <trkpt lat="47.4984" lon="19.04096">
				 <ele>102.4</ele>
			 </trkpt>
			 <trkpt lat="47.49846" lon="19.04114">
				 <ele>101.5</ele>
			 </trkpt>
			 <trkpt lat="47.49859" lon="19.04194">
				 <ele>100.6</ele>
			 </trkpt>
			 <trkpt lat="47.49879" lon="19.04297">
				 <ele>100.3</ele>
			 </trkpt>
			 <trkpt lat="47.49904" lon="19.04414">
				 <ele>100.4</ele>
			 </trkpt>
			 <trkpt lat="47.4993" lon="19.04532">
				 <ele>100.6</ele>
			 </trkpt>
			 <trkpt lat="47.49949" lon="19.04631">
				 <ele>101.1</ele>
			 </trkpt>
			 <trkpt lat="47.49955" lon="19.04653">
				 <ele>101.9</ele>
			 </trkpt>
			 <trkpt lat="47.49961" lon="19.04669">
				 <ele>103.6</ele>
			 </trkpt>
			 <trkpt lat="47.49985" lon="19.04677">
				 <ele>105.5</ele>
			 </trkpt>
			 <trkpt lat="47.50018" lon="19.04666">
				 <ele>107.5</ele>
			 </trkpt>
			 <trkpt lat="47.50041" lon="19.04666">
				 <ele>109.7</ele>
			 </trkpt>
			 <trkpt lat="47.50052" lon="19.04681">
				 <ele>111.4</ele>
			 </trkpt>
			 <trkpt lat="47.50053" lon="19.04711">
				 <ele>112.7</ele>
			 </trkpt>
			 <trkpt lat="47.50042" lon="19.04729">
				 <ele>113.7</ele>
			 </trkpt>
			 <trkpt lat="47.50017" lon="19.0474">
				 <ele>114.5</ele>
			 </trkpt>
			 <trkpt lat="47.49982" lon="19.04751">
				 <ele>115.3</ele>
			 </trkpt>
			 <trkpt lat="47.49951" lon="19.04768">
				 <ele>115.7</ele>
			 </trkpt>
			 <trkpt lat="47.49917" lon="19.04796">
				 <ele>116</ele>
			 </trkpt>
			 <trkpt lat="47.49881" lon="19.04815">
				 <ele>115.9</ele>
			 </trkpt>
			 <trkpt lat="47.4987" lon="19.04839">
				 <ele>115.5</ele>
			 </trkpt>
			 <trkpt lat="47.49874" lon="19.04911">
				 <ele>114.5</ele>
			 </trkpt>
			 <trkpt lat="47.4988" lon="19.04984">
				 <ele>113.4</ele>
			 </trkpt>
			 <trkpt lat="47.4989" lon="19.0507">
				 <ele>112.5</ele>
			 </trkpt>
			 <trkpt lat="47.49901" lon="19.05181">
				 <ele>112</ele>
			 </trkpt>
			 <trkpt lat="47.49909" lon="19.05251">
				 <ele>111.9</ele>
			 </trkpt>
			 <trkpt lat="47.49915" lon="19.05328">
				 <ele>111.8</ele>
			 </trkpt>
			 <trkpt lat="47.49919" lon="19.05365">
				 <ele>111.7</ele>
			 </trkpt>
			 <trkpt lat="47.49923" lon="19.05399">
				 <ele>111.8</ele>
			 </trkpt>
			 <trkpt lat="47.49929" lon="19.05428">
				 <ele>111.6</ele>
			 </trkpt>
			 <trkpt lat="47.4994" lon="19.05449">
				 <ele>111.5</ele>
			 </trkpt>
			 <trkpt lat="47.49948" lon="19.05462">
				 <ele>111.3</ele>
			 </trkpt>
			 <trkpt lat="47.49959" lon="19.05468">
				 <ele>111.4</ele>
			 </trkpt>
			 <trkpt lat="47.49988" lon="19.05471">
				 <ele>112</ele>
			 </trkpt>
			 <trkpt lat="47.50021" lon="19.05472">
				 <ele>112.5</ele>
			 </trkpt>
			 <trkpt lat="47.50061" lon="19.05475">
				 <ele>112.6</ele>
			 </trkpt>
			 <trkpt lat="47.50107" lon="19.05479">
				 <ele>112.6</ele>
			 </trkpt>
			 <trkpt lat="47.50149" lon="19.05482">
				 <ele>112.9</ele>
			 </trkpt>
			 <trkpt lat="47.50188" lon="19.05484">
				 <ele>113.2</ele>
			 </trkpt>
			 <trkpt lat="47.50255" lon="19.05486">
				 <ele>113.4</ele>
			 </trkpt>
			 <trkpt lat="47.5032" lon="19.0549">
				 <ele>113.3</ele>
			 </trkpt>
			 <trkpt lat="47.50362" lon="19.05489">
				 <ele>113.2</ele>
			 </trkpt>
			 <trkpt lat="47.50415" lon="19.05493">
				 <ele>113.5</ele>
			 </trkpt>
			 <trkpt lat="47.50464" lon="19.05493">
				 <ele>113.5</ele>
			 </trkpt>
			 <trkpt lat="47.50512" lon="19.05493">
				 <ele>113.6</ele>
			 </trkpt>
			 <trkpt lat="47.50561" lon="19.05493">
				 <ele>114.1</ele>
			 </trkpt>
			 <trkpt lat="47.50637" lon="19.05499">
				 <ele>114.5</ele>
			 </trkpt>
			 <trkpt lat="47.50627" lon="19.05506">
				 <ele>114.5</ele>
			 </trkpt>
			 <trkpt lat="47.50578" lon="19.05504">
				 <ele>114.2</ele>
			 </trkpt>
			 <trkpt lat="47.50527" lon="19.05502">
				 <ele>113.8</ele>
			 </trkpt>
			 <trkpt lat="47.50459" lon="19.05501">
				 <ele>113.5</ele>
			 </trkpt>
			 <trkpt lat="47.5041" lon="19.05499">
				 <ele>113.5</ele>
			 </trkpt>
			 <trkpt lat="47.50361" lon="19.05497">
				 <ele>113.7</ele>
			 </trkpt>
			 <trkpt lat="47.50291" lon="19.05497">
				 <ele>113.9</ele>
			 </trkpt>
			 <trkpt lat="47.50233" lon="19.05496">
				 <ele>114.4</ele>
			 </trkpt>
			 <trkpt lat="47.50164" lon="19.05494">
				 <ele>114.5</ele>
			 </trkpt>
			 <trkpt lat="47.50097" lon="19.05492">
				 <ele>114.3</ele>
			 </trkpt>
			 <trkpt lat="47.50042" lon="19.05493">
				 <ele>114.3</ele>
			 </trkpt>
			 <trkpt lat="47.50019" lon="19.05495">
				 <ele>114.6</ele>
			 </trkpt>
			 <trkpt lat="47.49993" lon="19.05495">
				 <ele>114.9</ele>
			 </trkpt>
			 <trkpt lat="47.49982" lon="19.05498">
				 <ele>115.4</ele>
			 </trkpt>
			 <trkpt lat="47.49981" lon="19.05505">
				 <ele>116.1</ele>
			 </trkpt>
			 <trkpt lat="47.4999" lon="19.05526">
				 <ele>116.9</ele>
			 </trkpt>
			 <trkpt lat="47.50018" lon="19.05572">
				 <ele>117.3</ele>
			 </trkpt>
			 <trkpt lat="47.50054" lon="19.05632">
				 <ele>117.5</ele>
			 </trkpt>
			 <trkpt lat="47.50094" lon="19.05697">
				 <ele>117.5</ele>
			 </trkpt>
			 <trkpt lat="47.50121" lon="19.05741">
				 <ele>117.6</ele>
			 </trkpt>
			 <trkpt lat="47.50183" lon="19.05833">
				 <ele>117.7</ele>
			 </trkpt>
			 <trkpt lat="47.50238" lon="19.05904">
				 <ele>117.6</ele>
			 </trkpt>
			 <trkpt lat="47.50293" lon="19.05991">
				 <ele>117.3</ele>
			 </trkpt>
			 <trkpt lat="47.50335" lon="19.0605">
				 <ele>117.3</ele>
			 </trkpt>
			 <trkpt lat="47.50377" lon="19.06108">
				 <ele>117.2</ele>
			 </trkpt>
			 <trkpt lat="47.50408" lon="19.06157">
				 <ele>116.8</ele>
			 </trkpt>
			 <trkpt lat="47.50439" lon="19.06205">
				 <ele>116.4</ele>
			 </trkpt>
			 <trkpt lat="47.50475" lon="19.06261">
				 <ele>116.2</ele>
			 </trkpt>
			 <trkpt lat="47.50427" lon="19.06195">
				 <ele>116.6</ele>
			 </trkpt>
			 <trkpt lat="47.50385" lon="19.06132">
				 <ele>117.1</ele>
			 </trkpt>
			 <trkpt lat="47.50337" lon="19.06065">
				 <ele>117.3</ele>
			 </trkpt>
			 <trkpt lat="47.50299" lon="19.06008">
				 <ele>117.3</ele>
			 </trkpt>
			 <trkpt lat="47.50254" lon="19.05942">
				 <ele>117.5</ele>
			 </trkpt>
			 <trkpt lat="47.50211" lon="19.05881">
				 <ele>117.8</ele>
			 </trkpt>
			 <trkpt lat="47.50148" lon="19.05789">
				 <ele>117.8</ele>
			 </trkpt>
			 <trkpt lat="47.50113" lon="19.05735">
				 <ele>117.5</ele>
			 </trkpt>
			 <trkpt lat="47.50078" lon="19.05681">
				 <ele>116.9</ele>
			 </trkpt>
			 <trkpt lat="47.50023" lon="19.05595">
				 <ele>116</ele>
			 </trkpt>
			 <trkpt lat="47.4999" lon="19.0555">
				 <ele>115.2</ele>
			 </trkpt>
			 <trkpt lat="47.49968" lon="19.05512">
				 <ele>114.2</ele>
			 </trkpt>
			 <trkpt lat="47.49945" lon="19.05476">
				 <ele>113.5</ele>
			 </trkpt>
			 <trkpt lat="47.49923" lon="19.05431">
				 <ele>113</ele>
			 </trkpt>
			 <trkpt lat="47.49916" lon="19.05389">
				 <ele>112.6</ele>
			 </trkpt>
			 <trkpt lat="47.49912" lon="19.05348">
				 <ele>112.5</ele>
			 </trkpt>
			 <trkpt lat="47.49905" lon="19.05269">
				 <ele>112.1</ele>
			 </trkpt>
			 <trkpt lat="47.49895" lon="19.05165">
				 <ele>111.2</ele>
			 </trkpt>
			 <trkpt lat="47.49887" lon="19.05079">
				 <ele>110.2</ele>
			 </trkpt>
			 <trkpt lat="47.49878" lon="19.04992">
				 <ele>109.5</ele>
			 </trkpt>
			 <trkpt lat="47.49868" lon="19.04875">
				 <ele>109.1</ele>
			 </trkpt>
			 <trkpt lat="47.49861" lon="19.04831">
				 <ele>108.5</ele>
			 </trkpt>
			 <trkpt lat="47.49854" lon="19.04783">
				 <ele>107.7</ele>
			 </trkpt>
			 <trkpt lat="47.49845" lon="19.04758">
				 <ele>106.6</ele>
			 </trkpt>
			 <trkpt lat="47.49835" lon="19.04721">
				 <ele>105.9</ele>
			 </trkpt>
			 <trkpt lat="47.49825" lon="19.04702">
				 <ele>105.6</ele>
			 </trkpt>
			 <trkpt lat="47.49809" lon="19.04699">
				 <ele>104.7</ele>
			 </trkpt>
			 <trkpt lat="47.49793" lon="19.04698">
				 <ele>104.1</ele>
			 </trkpt>
			 <trkpt lat="47.4977" lon="19.04704">
				 <ele>104.2</ele>
			 </trkpt>
			 <trkpt lat="47.49728" lon="19.04728">
				 <ele>104.5</ele>
			 </trkpt>
			 <trkpt lat="47.49675" lon="19.04758">
				 <ele>104.5</ele>
			 </trkpt>
			 <trkpt lat="47.49625" lon="19.04783">
				 <ele>104.6</ele>
			 </trkpt>
			 <trkpt lat="47.49553" lon="19.04828">
				 <ele>104.5</ele>
			 </trkpt>
			 <trkpt lat="47.49493" lon="19.04863">
				 <ele>104</ele>
			 </trkpt>
			 <trkpt lat="47.49428" lon="19.04907">
				 <ele>103.6</ele>
			 </trkpt>
			 <trkpt lat="47.4937" lon="19.04945">
				 <ele>104.4</ele>
			 </trkpt>
			 <trkpt lat="47.49295" lon="19.04997">
				 <ele>104</ele>
			 </trkpt>
			 <trkpt lat="47.49252" lon="19.05021">
				 <ele>104.2</ele>
			 </trkpt>
			 <trkpt lat="47.49216" lon="19.05048">
				 <ele>104.1</ele>
			 </trkpt>
			 <trkpt lat="47.49191" lon="19.05069">
				 <ele>104</ele>
			 </trkpt>
			 <trkpt lat="47.49124" lon="19.05119">
				 <ele>104.2</ele>
			 </trkpt>
			 <trkpt lat="47.49084" lon="19.05147">
				 <ele>104.8</ele>
			 </trkpt>
			 <trkpt lat="47.49044" lon="19.05186">
				 <ele>105.1</ele>
			 </trkpt>
			 <trkpt lat="47.49001" lon="19.05234">
				 <ele>105.5</ele>
			 </trkpt>
			 <trkpt lat="47.48952" lon="19.05297">
				 <ele>106.3</ele>
			 </trkpt>
			 <trkpt lat="47.48909" lon="19.05356">
				 <ele>106.9</ele>
			 </trkpt>
			 <trkpt lat="47.48862" lon="19.05416">
				 <ele>106.1</ele>
			 </trkpt>
			 <trkpt lat="47.48813" lon="19.05481">
				 <ele>105.9</ele>
			 </trkpt>
			 <trkpt lat="47.48778" lon="19.05521">
				 <ele>105.5</ele>
			 </trkpt>
			 <trkpt lat="47.48744" lon="19.05555">
				 <ele>105.5</ele>
			 </trkpt>
			 <trkpt lat="47.48713" lon="19.05596">
				 <ele>105.1</ele>
			 </trkpt>
			 <trkpt lat="47.48647" lon="19.05678">
				 <ele>104.4</ele>
			 </trkpt>
			 <trkpt lat="47.48601" lon="19.05729">
				 <ele>103.7</ele>
			 </trkpt>
			 <trkpt lat="47.48559" lon="19.05776">
				 <ele>103.5</ele>
			 </trkpt>
			 <trkpt lat="47.48499" lon="19.05856">
				 <ele>103.5</ele>
			 </trkpt>
			 <trkpt lat="47.48478" lon="19.05883">
				 <ele>103.5</ele>
			 </trkpt>
			 <trkpt lat="47.48461" lon="19.05912">
				 <ele>103.6</ele>
			 </trkpt>
			 <trkpt lat="47.48457" lon="19.05925">
				 <ele>103.6</ele>
			 </trkpt>
			 <trkpt lat="47.48456" lon="19.0594">
				 <ele>103.8</ele>
			 </trkpt>
			 <trkpt lat="47.4846" lon="19.05959">
				 <ele>104.1</ele>
			 </trkpt>
			 <trkpt lat="47.48463" lon="19.05968">
				 <ele>104.1</ele>
			 </trkpt>
			 <trkpt lat="47.48467" lon="19.05969">
				 <ele>104.4</ele>
			 </trkpt>
			 <trkpt lat="47.48469" lon="19.05962">
				 <ele>104.6</ele>
			 </trkpt>
			 <trkpt lat="47.48472" lon="19.05948">
				 <ele>104.9</ele>
			 </trkpt>
			 <trkpt lat="47.48482" lon="19.05922">
				 <ele>105.5</ele>
			 </trkpt>
			 <trkpt lat="47.48491" lon="19.05901">
				 <ele>105.9</ele>
			 </trkpt>
			 <trkpt lat="47.48504" lon="19.05882">
				 <ele>106.3</ele>
			 </trkpt>
			 <trkpt lat="47.4853" lon="19.05851">
				 <ele>106.5</ele>
			 </trkpt>
			 <trkpt lat="47.48552" lon="19.05824">
				 <ele>106.7</ele>
			 </trkpt>
			 <trkpt lat="47.48579" lon="19.05792">
				 <ele>106.7</ele>
			 </trkpt>
			 <trkpt lat="47.48601" lon="19.05766">
				 <ele>106.6</ele>
			 </trkpt>
			 <trkpt lat="47.48628" lon="19.05729">
				 <ele>106.6</ele>
			 </trkpt>
			 <trkpt lat="47.48645" lon="19.05709">
				 <ele>106.3</ele>
			 </trkpt>
			 <trkpt lat="47.48653" lon="19.05699">
				 <ele>105.8</ele>
			 </trkpt>
			 <trkpt lat="47.48663" lon="19.05694">
				 <ele>105</ele>
			 </trkpt>
			 <trkpt lat="47.48668" lon="19.05692">
				 <ele>103.8</ele>
			 </trkpt>
			 <trkpt lat="47.48667" lon="19.05686">
				 <ele>102.6</ele>
			 </trkpt>
			 <trkpt lat="47.48652" lon="19.05658">
				 <ele>101.5</ele>
			 </trkpt>
			 <trkpt lat="47.48636" lon="19.05623">
				 <ele>100.5</ele>
			 </trkpt>
			 <trkpt lat="47.486" lon="19.05552">
				 <ele>99.8</ele>
			 </trkpt>
			 <trkpt lat="47.48564" lon="19.05481">
				 <ele>99.3</ele>
			 </trkpt>
			 <trkpt lat="47.48544" lon="19.05442">
				 <ele>98.9</ele>
			 </trkpt>
			 <trkpt lat="47.48514" lon="19.05385">
				 <ele>98.7</ele>
			 </trkpt>
			 <trkpt lat="47.48484" lon="19.05329">
				 <ele>98.8</ele>
			 </trkpt>
			 <trkpt lat="47.48476" lon="19.05314">
				 <ele>99.1</ele>
			 </trkpt>
			 <trkpt lat="47.4847" lon="19.05312">
				 <ele>99.6</ele>
			 </trkpt>
			 <trkpt lat="47.48463" lon="19.05317">
				 <ele>100.2</ele>
			 </trkpt>
			 <trkpt lat="47.48452" lon="19.05327">
				 <ele>100.9</ele>
			 </trkpt>
			 <trkpt lat="47.48429" lon="19.05355">
				 <ele>101.9</ele>
			 </trkpt>
			 <trkpt lat="47.48393" lon="19.05402">
				 <ele>102.7</ele>
			 </trkpt>
			 <trkpt lat="47.4837" lon="19.05426">
				 <ele>103.5</ele>
			 </trkpt>
			 <trkpt lat="47.48355" lon="19.05441">
				 <ele>104</ele>
			 </trkpt>
			 <trkpt lat="47.48333" lon="19.0547">
				 <ele>104.3</ele>
			 </trkpt>
			 <trkpt lat="47.4828" lon="19.05528">
				 <ele>104</ele>
			 </trkpt>
			 <trkpt lat="47.4825" lon="19.05559">
				 <ele>104.2</ele>
			 </trkpt>
			 <trkpt lat="47.48188" lon="19.05631">
				 <ele>104.8</ele>
			 </trkpt>
			 <trkpt lat="47.48148" lon="19.05678">
				 <ele>104.9</ele>
			 </trkpt>
			 <trkpt lat="47.48093" lon="19.0574">
				 <ele>105</ele>
			 </trkpt>
			 <trkpt lat="47.48049" lon="19.05789">
				 <ele>104.8</ele>
			 </trkpt>
			 <trkpt lat="47.48011" lon="19.05828">
				 <ele>103.8</ele>
			 </trkpt>
			 <trkpt lat="47.47973" lon="19.05868">
				 <ele>103.3</ele>
			 </trkpt>
			 <trkpt lat="47.47914" lon="19.05936">
				 <ele>102.7</ele>
			 </trkpt>
			 <trkpt lat="47.47877" lon="19.05978">
				 <ele>102.3</ele>
			 </trkpt>
			 <trkpt lat="47.47836" lon="19.06024">
				 <ele>102.3</ele>
			 </trkpt>
			 <trkpt lat="47.47799" lon="19.06067">
				 <ele>102.5</ele>
			 </trkpt>
			 <trkpt lat="47.47748" lon="19.06122">
				 <ele>102.2</ele>
			 </trkpt>
			 <trkpt lat="47.47722" lon="19.06148">
				 <ele>102</ele>
			 </trkpt>
			 <trkpt lat="47.47682" lon="19.06187">
				 <ele>101.7</ele>
			 </trkpt>
			 <trkpt lat="47.47654" lon="19.06209">
				 <ele>101.5</ele>
			 </trkpt>
			 <trkpt lat="47.47607" lon="19.06242">
				 <ele>101.5</ele>
			 </trkpt>
			 <trkpt lat="47.47569" lon="19.06264">
				 <ele>102</ele>
			 </trkpt>
			 <trkpt lat="47.4754" lon="19.06278">
				 <ele>102</ele>
			 </trkpt>
			 <trkpt lat="47.47479" lon="19.06308">
				 <ele>101.8</ele>
			 </trkpt>
			 <trkpt lat="47.47441" lon="19.06325">
				 <ele>101.7</ele>
			 </trkpt>
			 <trkpt lat="47.47364" lon="19.06356">
				 <ele>101.5</ele>
			 </trkpt>
			 <trkpt lat="47.47357" lon="19.06358">
				 <ele>101.2</ele>
			 </trkpt>
			 <trkpt lat="47.47335" lon="19.06364">
				 <ele>100.7</ele>
			 </trkpt>
			 <trkpt lat="47.47305" lon="19.06373">
				 <ele>99.7</ele>
			 </trkpt>
			 <trkpt lat="47.47227" lon="19.06394">
				 <ele>99.5</ele>
			 </trkpt>
			 <trkpt lat="47.47161" lon="19.06406">
				 <ele>99.2</ele>
			 </trkpt>
			 <trkpt lat="47.47141" lon="19.0641">
				 <ele>98.6</ele>
			 </trkpt>
			 <trkpt lat="47.47073" lon="19.0642">
				 <ele>98.3</ele>
			 </trkpt>
			 <trkpt lat="47.47041" lon="19.06425">
				 <ele>98.5</ele>
			 </trkpt>
			 <trkpt lat="47.47" lon="19.06431">
				 <ele>98.9</ele>
			 </trkpt>
			 <trkpt lat="47.46968" lon="19.06438">
				 <ele>99.2</ele>
			 </trkpt>
			 <trkpt lat="47.46934" lon="19.06443">
				 <ele>99.5</ele>
			 </trkpt>
			 <trkpt lat="47.46906" lon="19.06445">
				 <ele>99.9</ele>
			 </trkpt>
			 <trkpt lat="47.46847" lon="19.06442">
				 <ele>100.5</ele>
			 </trkpt>
			 <trkpt lat="47.46835" lon="19.06434">
				 <ele>100.9</ele>
			 </trkpt>
			 <trkpt lat="47.46827" lon="19.0642">
				 <ele>101.3</ele>
			 </trkpt>
			 <trkpt lat="47.46824" lon="19.06395">
				 <ele>101.7</ele>
			 </trkpt>
			 <trkpt lat="47.46827" lon="19.06365">
				 <ele>102.4</ele>
			 </trkpt>
			 <trkpt lat="47.46832" lon="19.06323">
				 <ele>102.8</ele>
			 </trkpt>
			 <trkpt lat="47.46838" lon="19.06276">
				 <ele>102.7</ele>
			 </trkpt>
			 <trkpt lat="47.46842" lon="19.06218">
				 <ele>102.7</ele>
			 </trkpt>
			 <trkpt lat="47.46844" lon="19.06159">
				 <ele>102.6</ele>
			 </trkpt>
			 <trkpt lat="47.46846" lon="19.06087">
				 <ele>102.5</ele>
			 </trkpt>
			 <trkpt lat="47.46844" lon="19.06017">
				 <ele>102.2</ele>
			 </trkpt>
			 <trkpt lat="47.46845" lon="19.05955">
				 <ele>102.2</ele>
			 </trkpt>
			 <trkpt lat="47.46845" lon="19.05936">
				 <ele>102.2</ele>
			 </trkpt>
			 <trkpt lat="47.46842" lon="19.05945">
				 <ele>102.2</ele>
			 </trkpt>
			 <trkpt lat="47.46842" lon="19.05966">
				 <ele>102.2</ele>
			 </trkpt>
			 <trkpt lat="47.46841" lon="19.06006">
				 <ele>102.1</ele>
			 </trkpt>
			 <trkpt lat="47.46843" lon="19.06069">
				 <ele>102.3</ele>
			 </trkpt>
			 <trkpt lat="47.46842" lon="19.06125">
				 <ele>102.5</ele>
			 </trkpt>
			 <trkpt lat="47.46839" lon="19.062">
				 <ele>102.5</ele>
			 </trkpt>
			 <trkpt lat="47.46837" lon="19.0625">
				 <ele>102.5</ele>
			 </trkpt>
			 <trkpt lat="47.46831" lon="19.06301">
				 <ele>102.5</ele>
			 </trkpt>
			 <trkpt lat="47.46826" lon="19.06343">
				 <ele>102.5</ele>
			 </trkpt>
			 <trkpt lat="47.46822" lon="19.06382">
				 <ele>101.8</ele>
			 </trkpt>
			 <trkpt lat="47.46821" lon="19.0641">
				 <ele>101.3</ele>
			 </trkpt>
			 <trkpt lat="47.46828" lon="19.06436">
				 <ele>100.7</ele>
			 </trkpt>
			 <trkpt lat="47.46836" lon="19.06447">
				 <ele>100.2</ele>
			 </trkpt>
			 <trkpt lat="47.46848" lon="19.06456">
				 <ele>99.6</ele>
			 </trkpt>
			 <trkpt lat="47.46909" lon="19.06461">
				 <ele>98.9</ele>
			 </trkpt>
			 <trkpt lat="47.46945" lon="19.06467">
				 <ele>98.2</ele>
			 </trkpt>
			 <trkpt lat="47.46977" lon="19.06468">
				 <ele>97.5</ele>
			 </trkpt>
			 <trkpt lat="47.4701" lon="19.06464">
				 <ele>96.9</ele>
			 </trkpt>
			 <trkpt lat="47.4705" lon="19.06462">
				 <ele>96.4</ele>
			 </trkpt>
			 <trkpt lat="47.47085" lon="19.06459">
				 <ele>96</ele>
			 </trkpt>
			 <trkpt lat="47.47132" lon="19.06451">
				 <ele>96.1</ele>
			 </trkpt>
			 <trkpt lat="47.47198" lon="19.06436">
				 <ele>96.1</ele>
			 </trkpt>
			 <trkpt lat="47.47248" lon="19.06422">
				 <ele>96.5</ele>
			 </trkpt>
			 <trkpt lat="47.47289" lon="19.06408">
				 <ele>96.7</ele>
			 </trkpt>
			 <trkpt lat="47.47369" lon="19.06381">
				 <ele>96.9</ele>
			 </trkpt>
			 <trkpt lat="47.47423" lon="19.06362">
				 <ele>97.2</ele>
			 </trkpt>
			 <trkpt lat="47.47483" lon="19.06336">
				 <ele>97.6</ele>
			 </trkpt>
			 <trkpt lat="47.47546" lon="19.06303">
				 <ele>98.1</ele>
			 </trkpt>
			 <trkpt lat="47.47599" lon="19.06272">
				 <ele>98</ele>
			 </trkpt>
			 <trkpt lat="47.47632" lon="19.0625">
				 <ele>98.2</ele>
			 </trkpt>
			 <trkpt lat="47.47683" lon="19.06208">
				 <ele>98.5</ele>
			 </trkpt>
			 <trkpt lat="47.47704" lon="19.06192">
				 <ele>98.9</ele>
			 </trkpt>
			 <trkpt lat="47.47741" lon="19.06155">
				 <ele>99.4</ele>
			 </trkpt>
			 <trkpt lat="47.47794" lon="19.06099">
				 <ele>99.5</ele>
			 </trkpt>
			 <trkpt lat="47.47837" lon="19.06054">
				 <ele>99.9</ele>
			 </trkpt>
			 <trkpt lat="47.47858" lon="19.06032">
				 <ele>100.5</ele>
			 </trkpt>
			 <trkpt lat="47.47888" lon="19.06002">
				 <ele>100.4</ele>
			 </trkpt>
			 <trkpt lat="47.47907" lon="19.05985">
				 <ele>100.2</ele>
			 </trkpt>
			 <trkpt lat="47.47948" lon="19.0594">
				 <ele>100.4</ele>
			 </trkpt>
			 <trkpt lat="47.47968" lon="19.05921">
				 <ele>101</ele>
			 </trkpt>
			 <trkpt lat="47.48021" lon="19.05862">
				 <ele>101.8</ele>
			 </trkpt>
			 <trkpt lat="47.48058" lon="19.05817">
				 <ele>102.1</ele>
			 </trkpt>
			 <trkpt lat="47.48099" lon="19.05771">
				 <ele>102.3</ele>
			 </trkpt>
			 <trkpt lat="47.48118" lon="19.05741">
				 <ele>102.3</ele>
			 </trkpt>
			 <trkpt lat="47.48168" lon="19.05683">
				 <ele>102.5</ele>
			 </trkpt>
			 <trkpt lat="47.48223" lon="19.05621">
				 <ele>102</ele>
			 </trkpt>
			 <trkpt lat="47.48264" lon="19.05575">
				 <ele>101.5</ele>
			 </trkpt>
			 <trkpt lat="47.48304" lon="19.0553">
				 <ele>102</ele>
			 </trkpt>
			 <trkpt lat="47.48367" lon="19.05456">
				 <ele>102.4</ele>
			 </trkpt>
			 <trkpt lat="47.48422" lon="19.05394">
				 <ele>102.3</ele>
			 </trkpt>
			 <trkpt lat="47.48466" lon="19.05345">
				 <ele>102</ele>
			 </trkpt>
			 <trkpt lat="47.48522" lon="19.05279">
				 <ele>101.5</ele>
			 </trkpt>
			 <trkpt lat="47.48576" lon="19.05219">
				 <ele>101.1</ele>
			 </trkpt>
			 <trkpt lat="47.48616" lon="19.05175">
				 <ele>100.7</ele>
			 </trkpt>
			 <trkpt lat="47.48656" lon="19.05131">
				 <ele>100.8</ele>
			 </trkpt>
			 <trkpt lat="47.48689" lon="19.05098">
				 <ele>100.7</ele>
			 </trkpt>
			 <trkpt lat="47.48738" lon="19.05045">
				 <ele>101.1</ele>
			 </trkpt>
			 <trkpt lat="47.4879" lon="19.04988">
				 <ele>101.3</ele>
			 </trkpt>
			 <trkpt lat="47.48851" lon="19.04924">
				 <ele>100.8</ele>
			 </trkpt>
			 <trkpt lat="47.48894" lon="19.04878">
				 <ele>100.6</ele>
			 </trkpt>
			 <trkpt lat="47.48937" lon="19.04832">
				 <ele>100.4</ele>
			 </trkpt>
			 <trkpt lat="47.48991" lon="19.04773">
				 <ele>100.4</ele>
			 </trkpt>
			 <trkpt lat="47.49045" lon="19.04713">
				 <ele>100.5</ele>
			 </trkpt>
			 <trkpt lat="47.49087" lon="19.04672">
				 <ele>100.6</ele>
			 </trkpt>
			 <trkpt lat="47.49128" lon="19.0463">
				 <ele>100.5</ele>
			 </trkpt>
			 <trkpt lat="47.4916" lon="19.04597">
				 <ele>100.1</ele>
			 </trkpt>
			 <trkpt lat="47.492" lon="19.04565">
				 <ele>99.6</ele>
			 </trkpt>
			 <trkpt lat="47.49239" lon="19.04533">
				 <ele>99</ele>
			 </trkpt>
			 <trkpt lat="47.49299" lon="19.04485">
				 <ele>98.6</ele>
			 </trkpt>
			 <trkpt lat="47.49373" lon="19.04422">
				 <ele>98.4</ele>
			 </trkpt>
			 <trkpt lat="47.49424" lon="19.04382">
				 <ele>97.9</ele>
			 </trkpt>
			 <trkpt lat="47.49465" lon="19.04349">
				 <ele>97.6</ele>
			 </trkpt>
			 <trkpt lat="47.49516" lon="19.04314">
				 <ele>97.6</ele>
			 </trkpt>
			 <trkpt lat="47.49568" lon="19.04281">
				 <ele>97.3</ele>
			 </trkpt>
			 <trkpt lat="47.49622" lon="19.04252">
				 <ele>97</ele>
			 </trkpt>
			 <trkpt lat="47.49698" lon="19.04211">
				 <ele>98.1</ele>
			 </trkpt>
			 <trkpt lat="47.49743" lon="19.04186">
				 <ele>98.6</ele>
			 </trkpt>
			 <trkpt lat="47.49787" lon="19.04161">
				 <ele>99.1</ele>
			 </trkpt>
			 <trkpt lat="47.49824" lon="19.04144">
				 <ele>99.2</ele>
			 </trkpt>
			 <trkpt lat="47.4989" lon="19.04114">
				 <ele>99.4</ele>
			 </trkpt>
			 <trkpt lat="47.49946" lon="19.04089">
				 <ele>99.5</ele>
			 </trkpt>
			 <trkpt lat="47.50017" lon="19.04066">
				 <ele>100.2</ele>
			 </trkpt>
			 <trkpt lat="47.50063" lon="19.04053">
				 <ele>100.5</ele>
			 </trkpt>
			 <trkpt lat="47.50124" lon="19.04044">
				 <ele>100.4</ele>
			 </trkpt>
			 <trkpt lat="47.50176" lon="19.04032">
				 <ele>100.5</ele>
			 </trkpt>
			 <trkpt lat="47.5025" lon="19.04015">
				 <ele>100.9</ele>
			 </trkpt>
			 <trkpt lat="47.50332" lon="19.03998">
				 <ele>100</ele>
			 </trkpt>
			 <trkpt lat="47.50389" lon="19.03987">
				 <ele>99.8</ele>
			 </trkpt>
			 <trkpt lat="47.50469" lon="19.03976">
				 <ele>99.7</ele>
			 </trkpt>
			 <trkpt lat="47.50532" lon="19.03971">
				 <ele>100.5</ele>
			 </trkpt>
			 <trkpt lat="47.50595" lon="19.03966">
				 <ele>100.4</ele>
			 </trkpt>
			 <trkpt lat="47.50684" lon="19.03963">
				 <ele>100.3</ele>
			 </trkpt>
			 <trkpt lat="47.50745" lon="19.03961">
				 <ele>100.1</ele>
			 </trkpt>
			 <trkpt lat="47.50791" lon="19.0396">
				 <ele>100.4</ele>
			 </trkpt>
			 <trkpt lat="47.50836" lon="19.03959">
				 <ele>101</ele>
			 </trkpt>
			 <trkpt lat="47.50891" lon="19.03959">
				 <ele>101.5</ele>
			 </trkpt>
			 <trkpt lat="47.50945" lon="19.03959">
				 <ele>101.5</ele>
			 </trkpt>
			 <trkpt lat="47.50996" lon="19.03958">
				 <ele>101.5</ele>
			 </trkpt>
			 <trkpt lat="47.51046" lon="19.03957">
				 <ele>101.4</ele>
			 </trkpt>
			 <trkpt lat="47.51092" lon="19.03958">
				 <ele>101.1</ele>
			 </trkpt>
			 <trkpt lat="47.51138" lon="19.03958">
				 <ele>100.3</ele>
			 </trkpt>
			 <trkpt lat="47.51186" lon="19.03961">
				 <ele>100.3</ele>
			 </trkpt>
			 <trkpt lat="47.51246" lon="19.03968">
				 <ele>100.2</ele>
			 </trkpt>
			 <trkpt lat="47.51333" lon="19.03991">
				 <ele>99.7</ele>
			 </trkpt>
			 <trkpt lat="47.51375" lon="19.04001">
				 <ele>99.2</ele>
			 </trkpt>
			 <trkpt lat="47.5144" lon="19.04008">
				 <ele>98.4</ele>
			 </trkpt>
			 <trkpt lat="47.51515" lon="19.04003">
				 <ele>97.5</ele>
			 </trkpt>
			 <trkpt lat="47.51568" lon="19.03993">
				 <ele>97</ele>
			 </trkpt>
			 <trkpt lat="47.51623" lon="19.03979">
				 <ele>96.6</ele>
			 </trkpt>
			 <trkpt lat="47.517" lon="19.03957">
				 <ele>96.3</ele>
			 </trkpt>
			 <trkpt lat="47.5177" lon="19.03941">
				 <ele>96.1</ele>
			 </trkpt>
			 <trkpt lat="47.5182" lon="19.03924">
				 <ele>96</ele>
			 </trkpt>
			 <trkpt lat="47.5178" lon="19.03923">
				 <ele>96</ele>
			 </trkpt>
			 <trkpt lat="47.51769" lon="19.03926">
				 <ele>96</ele>
			 </trkpt>
			 <trkpt lat="47.51746" lon="19.03931">
				 <ele>96.1</ele>
			 </trkpt>
			 <trkpt lat="47.51697" lon="19.03947">
				 <ele>96.2</ele>
			 </trkpt>
			 <trkpt lat="47.51674" lon="19.03951">
				 <ele>96.3</ele>
			 </trkpt>
			 <trkpt lat="47.51666" lon="19.0395">
				 <ele>96.5</ele>
			 </trkpt>
			 <trkpt lat="47.51661" lon="19.03943">
				 <ele>96.7</ele>
			 </trkpt>
			 <trkpt lat="47.51659" lon="19.03934">
				 <ele>97</ele>
			 </trkpt>
			 <trkpt lat="47.5166" lon="19.03929">
				 <ele>97.5</ele>
			 </trkpt>
			 <trkpt lat="47.51663" lon="19.03926">
				 <ele>98.1</ele>
			 </trkpt>
			 <trkpt lat="47.51702" lon="19.03916">
				 <ele>98.7</ele>
			 </trkpt>
			 <trkpt lat="47.51754" lon="19.03898">
				 <ele>99.2</ele>
			 </trkpt>
			 <trkpt lat="47.51814" lon="19.03879">
				 <ele>99.5</ele>
			 </trkpt>
			 <trkpt lat="47.51852" lon="19.03868">
				 <ele>99.7</ele>
			 </trkpt>
			 <trkpt lat="47.51877" lon="19.0386">
				 <ele>100.3</ele>
			 </trkpt>
			 <trkpt lat="47.51904" lon="19.03853">
				 <ele>100.8</ele>
			 </trkpt>
			 <trkpt lat="47.51936" lon="19.03846">
				 <ele>101.2</ele>
			 </trkpt>
			 <trkpt lat="47.51965" lon="19.03839">
				 <ele>101.4</ele>
			 </trkpt>
			 <trkpt lat="47.52006" lon="19.03832">
				 <ele>101.5</ele>
			 </trkpt>
			 <trkpt lat="47.52043" lon="19.03826">
				 <ele>101.5</ele>
			 </trkpt>
			 <trkpt lat="47.52067" lon="19.03824">
				 <ele>101.6</ele>
			 </trkpt>
			 <trkpt lat="47.52088" lon="19.03821">
				 <ele>101.7</ele>
			 </trkpt>
			 <trkpt lat="47.52127" lon="19.0382">
				 <ele>102.2</ele>
			 </trkpt>
			 <trkpt lat="47.52159" lon="19.03824">
				 <ele>102.3</ele>
			 </trkpt>
			 <trkpt lat="47.52216" lon="19.03832">
				 <ele>102.5</ele>
			 </trkpt>
			 <trkpt lat="47.52252" lon="19.03837">
				 <ele>103.2</ele>
			 </trkpt>
			 <trkpt lat="47.52295" lon="19.03847">
				 <ele>103.7</ele>
			 </trkpt>
			 <trkpt lat="47.52345" lon="19.03861">
				 <ele>103.9</ele>
			 </trkpt>
			 <trkpt lat="47.52391" lon="19.03879">
				 <ele>104.2</ele>
			 </trkpt>
			 <trkpt lat="47.52451" lon="19.03905">
				 <ele>104.5</ele>
			 </trkpt>
			 <trkpt lat="47.52501" lon="19.03924">
				 <ele>104.7</ele>
			 </trkpt>
			 <trkpt lat="47.52549" lon="19.03943">
				 <ele>104.8</ele>
			 </trkpt>
			 <trkpt lat="47.52614" lon="19.03968">
				 <ele>105.1</ele>
			 </trkpt>
			 <trkpt lat="47.52676" lon="19.03987">
				 <ele>105.3</ele>
			 </trkpt>
			 <trkpt lat="47.52743" lon="19.04008">
				 <ele>105.6</ele>
			 </trkpt>
			 <trkpt lat="47.52814" lon="19.04033">
				 <ele>105.7</ele>
			 </trkpt>
			 <trkpt lat="47.5288" lon="19.0405">
				 <ele>105.2</ele>
			 </trkpt>
			 <trkpt lat="47.52911" lon="19.0406">
				 <ele>104.8</ele>
			 </trkpt>
			 <trkpt lat="47.52942" lon="19.04078">
				 <ele>104.9</ele>
			 </trkpt>
			 <trkpt lat="47.53003" lon="19.04119">
				 <ele>105.2</ele>
			 </trkpt>
			 <trkpt lat="47.53061" lon="19.04156">
				 <ele>105.3</ele>
			 </trkpt>
			 <trkpt lat="47.53114" lon="19.04194">
				 <ele>105.3</ele>
			 </trkpt>
			 <trkpt lat="47.53166" lon="19.04226">
				 <ele>105.1</ele>
			 </trkpt>
			 <trkpt lat="47.53204" lon="19.04255">
				 <ele>104.4</ele>
			 </trkpt>
			 <trkpt lat="47.5323" lon="19.04273">
				 <ele>103.5</ele>
			 </trkpt>
			 <trkpt lat="47.53269" lon="19.04309">
				 <ele>103.4</ele>
			 </trkpt>
			 <trkpt lat="47.53299" lon="19.04338">
				 <ele>103.3</ele>
			 </trkpt>
			 <trkpt lat="47.53367" lon="19.04408">
				 <ele>102.9</ele>
			 </trkpt>
			 <trkpt lat="47.53418" lon="19.04461">
				 <ele>102.5</ele>
			 </trkpt>
			 <trkpt lat="47.5346" lon="19.04498">
				 <ele>102.3</ele>
			 </trkpt>
			 <trkpt lat="47.53514" lon="19.04547">
				 <ele>102.1</ele>
			 </trkpt>
			 <trkpt lat="47.53546" lon="19.04574">
				 <ele>102</ele>
			 </trkpt>
			 <trkpt lat="47.53618" lon="19.04621">
				 <ele>101.9</ele>
			 </trkpt>
			 <trkpt lat="47.53682" lon="19.04663">
				 <ele>101.8</ele>
			 </trkpt>
			 <trkpt lat="47.53739" lon="19.04685">
				 <ele>102.1</ele>
			 </trkpt>
			 <trkpt lat="47.53792" lon="19.04699">
				 <ele>102.5</ele>
			 </trkpt>
			 <trkpt lat="47.53815" lon="19.04701">
				 <ele>102.8</ele>
			 </trkpt>
			 <trkpt lat="47.53848" lon="19.047">
				 <ele>103.1</ele>
			 </trkpt>
			 <trkpt lat="47.53864" lon="19.04696">
				 <ele>103.6</ele>
			 </trkpt>
			 <trkpt lat="47.53876" lon="19.04686">
				 <ele>104</ele>
			 </trkpt>
			 <trkpt lat="47.53888" lon="19.04668">
				 <ele>104.1</ele>
			 </trkpt>
			 <trkpt lat="47.53896" lon="19.04646">
				 <ele>104.1</ele>
			 </trkpt>
			 <trkpt lat="47.5391" lon="19.0458">
				 <ele>104.2</ele>
			 </trkpt>
			 <trkpt lat="47.53919" lon="19.04539">
				 <ele>104.4</ele>
			 </trkpt>
			 <trkpt lat="47.53934" lon="19.0448">
				 <ele>104.7</ele>
			 </trkpt>
			 <trkpt lat="47.53944" lon="19.04442">
				 <ele>105.1</ele>
			 </trkpt>
			 <trkpt lat="47.53947" lon="19.04438">
				 <ele>104.8</ele>
			 </trkpt>
			 <trkpt lat="47.5395" lon="19.04441">
				 <ele>103.6</ele>
			 </trkpt>
			 <trkpt lat="47.53948" lon="19.04452">
				 <ele>102.6</ele>
			 </trkpt>
			 <trkpt lat="47.5393" lon="19.04542">
				 <ele>101.1</ele>
			 </trkpt>
			 <trkpt lat="47.53918" lon="19.04633">
				 <ele>100</ele>
			 </trkpt>
			 <trkpt lat="47.53908" lon="19.04685">
				 <ele>99.3</ele>
			 </trkpt>
			 <trkpt lat="47.5389" lon="19.04759">
				 <ele>98.5</ele>
			 </trkpt>
			 <trkpt lat="47.53865" lon="19.04864">
				 <ele>97.7</ele>
			 </trkpt>
			 <trkpt lat="47.53848" lon="19.04935">
				 <ele>96.9</ele>
			 </trkpt>
			 <trkpt lat="47.53832" lon="19.05006">
				 <ele>96</ele>
			 </trkpt>
			 <trkpt lat="47.53815" lon="19.05078">
				 <ele>95.1</ele>
			 </trkpt>
			 <trkpt lat="47.53799" lon="19.05149">
				 <ele>94.6</ele>
			 </trkpt>
			 <trkpt lat="47.53782" lon="19.0522">
				 <ele>95</ele>
			 </trkpt>
			 <trkpt lat="47.53766" lon="19.05285">
				 <ele>95.5</ele>
			 </trkpt>
			 <trkpt lat="47.53749" lon="19.0535">
				 <ele>96.6</ele>
			 </trkpt>
			 <trkpt lat="47.53743" lon="19.05361">
				 <ele>97.5</ele>
			 </trkpt>
			 <trkpt lat="47.53728" lon="19.05356">
				 <ele>98</ele>
			 </trkpt>
			 <trkpt lat="47.53692" lon="19.05328">
				 <ele>98.4</ele>
			 </trkpt>
			 <trkpt lat="47.53647" lon="19.05294">
				 <ele>98.8</ele>
			 </trkpt>
			 <trkpt lat="47.53618" lon="19.05268">
				 <ele>99.6</ele>
			 </trkpt>
			 <trkpt lat="47.53589" lon="19.05245">
				 <ele>100.4</ele>
			 </trkpt>
			 <trkpt lat="47.53565" lon="19.05216">
				 <ele>101.2</ele>
			 </trkpt>
			 <trkpt lat="47.5354" lon="19.05188">
				 <ele>102</ele>
			 </trkpt>
			 <trkpt lat="47.53497" lon="19.05138">
				 <ele>102.7</ele>
			 </trkpt>
			 <trkpt lat="47.53456" lon="19.05096">
				 <ele>103</ele>
			 </trkpt>
			 <trkpt lat="47.5343" lon="19.0507">
				 <ele>103.2</ele>
			 </trkpt>
			 <trkpt lat="47.53413" lon="19.05061">
				 <ele>103.2</ele>
			 </trkpt>
			 <trkpt lat="47.53397" lon="19.05063">
				 <ele>103.5</ele>
			 </trkpt>
			 <trkpt lat="47.53362" lon="19.05075">
				 <ele>103.7</ele>
			 </trkpt>
			 <trkpt lat="47.53356" lon="19.05071">
				 <ele>103.8</ele>
			 </trkpt>
			 <trkpt lat="47.53356" lon="19.0506">
				 <ele>103.5</ele>
			 </trkpt>
			 <trkpt lat="47.53358" lon="19.05047">
				 <ele>103.2</ele>
			 </trkpt>
			 <trkpt lat="47.53362" lon="19.05031">
				 <ele>103.2</ele>
			 </trkpt>
			 <trkpt lat="47.53366" lon="19.05016">
				 <ele>103.2</ele>
			 </trkpt>
			 <trkpt lat="47.53367" lon="19.05003">
				 <ele>103</ele>
			 </trkpt>
			 <trkpt lat="47.53362" lon="19.04993">
				 <ele>102.7</ele>
			 </trkpt>
			 <trkpt lat="47.53334" lon="19.04963">
				 <ele>102.5</ele>
			 </trkpt>
			 <trkpt lat="47.53301" lon="19.04929">
				 <ele>102.4</ele>
			 </trkpt>
			 <trkpt lat="47.53268" lon="19.04896">
				 <ele>102</ele>
			 </trkpt>
			 <trkpt lat="47.53239" lon="19.04869">
				 <ele>101.8</ele>
			 </trkpt>
			 <trkpt lat="47.53195" lon="19.04829">
				 <ele>101.6</ele>
			 </trkpt>
			 <trkpt lat="47.5317" lon="19.04805">
				 <ele>101.6</ele>
			 </trkpt>
			 <trkpt lat="47.53134" lon="19.04772">
				 <ele>101.7</ele>
			 </trkpt>
			 <trkpt lat="47.53083" lon="19.04725">
				 <ele>101.6</ele>
			 </trkpt>
			 <trkpt lat="47.53014" lon="19.04671">
				 <ele>101.5</ele>
			 </trkpt>
			 <trkpt lat="47.52964" lon="19.04629">
				 <ele>101.7</ele>
			 </trkpt>
			 <trkpt lat="47.52907" lon="19.04587">
				 <ele>101.8</ele>
			 </trkpt>
			 <trkpt lat="47.52863" lon="19.04555">
				 <ele>101.8</ele>
			 </trkpt>
			 <trkpt lat="47.52818" lon="19.04523">
				 <ele>101.9</ele>
			 </trkpt>
			 <trkpt lat="47.52757" lon="19.04484">
				 <ele>101.9</ele>
			 </trkpt>
			 <trkpt lat="47.52688" lon="19.04443">
				 <ele>101.7</ele>
			 </trkpt>
			 <trkpt lat="47.52633" lon="19.04412">
				 <ele>101.7</ele>
			 </trkpt>
			 <trkpt lat="47.52556" lon="19.04364">
				 <ele>101.7</ele>
			 </trkpt>
			 <trkpt lat="47.52493" lon="19.04334">
				 <ele>101.7</ele>
			 </trkpt>
			 <trkpt lat="47.52412" lon="19.04294">
				 <ele>101.6</ele>
			 </trkpt>
			 <trkpt lat="47.52363" lon="19.04273">
				 <ele>101.6</ele>
			 </trkpt>
			 <trkpt lat="47.52348" lon="19.04274">
				 <ele>101.7</ele>
			 </trkpt>
			 <trkpt lat="47.5234" lon="19.04278">
				 <ele>102.1</ele>
			 </trkpt>
			 <trkpt lat="47.52333" lon="19.04307">
				 <ele>102.7</ele>
			 </trkpt>
			 <trkpt lat="47.52329" lon="19.04331">
				 <ele>103.3</ele>
			 </trkpt>
			 <trkpt lat="47.52321" lon="19.04383">
				 <ele>103.9</ele>
			 </trkpt>
			 <trkpt lat="47.52307" lon="19.0443">
				 <ele>104.8</ele>
			 </trkpt>
			 <trkpt lat="47.523" lon="19.0447">
				 <ele>105.4</ele>
			 </trkpt>
			 <trkpt lat="47.5229" lon="19.04507">
				 <ele>105.7</ele>
			 </trkpt>
			 <trkpt lat="47.52293" lon="19.04522">
				 <ele>106.1</ele>
			 </trkpt>
			 <trkpt lat="47.52319" lon="19.04532">
				 <ele>106.6</ele>
			 </trkpt>
			 <trkpt lat="47.524" lon="19.04565">
				 <ele>107.1</ele>
			 </trkpt>
			 <trkpt lat="47.52472" lon="19.04593">
				 <ele>107.4</ele>
			 </trkpt>
			 <trkpt lat="47.52534" lon="19.04614">
				 <ele>107.4</ele>
			 </trkpt>
			 <trkpt lat="47.52585" lon="19.04639">
				 <ele>107.5</ele>
			 </trkpt>
			 <trkpt lat="47.52641" lon="19.0467">
				 <ele>107.5</ele>
			 </trkpt>
			 <trkpt lat="47.52695" lon="19.04696">
				 <ele>107.5</ele>
			 </trkpt>
			 <trkpt lat="47.52753" lon="19.04724">
				 <ele>107.3</ele>
			 </trkpt>
			 <trkpt lat="47.52799" lon="19.04745">
				 <ele>107.3</ele>
			 </trkpt>
			 <trkpt lat="47.52871" lon="19.04782">
				 <ele>107.3</ele>
			 </trkpt>
			 <trkpt lat="47.52937" lon="19.04814">
				 <ele>107.3</ele>
			 </trkpt>
			 <trkpt lat="47.53015" lon="19.04851">
				 <ele>107</ele>
			 </trkpt>
			 <trkpt lat="47.53052" lon="19.04872">
				 <ele>106.5</ele>
			 </trkpt>
			 <trkpt lat="47.53133" lon="19.04916">
				 <ele>106.2</ele>
			 </trkpt>
			 <trkpt lat="47.53174" lon="19.04946">
				 <ele>106</ele>
			 </trkpt>
			 <trkpt lat="47.53234" lon="19.04988">
				 <ele>105.6</ele>
			 </trkpt>
			 <trkpt lat="47.53288" lon="19.05039">
				 <ele>105.3</ele>
			 </trkpt>
			 <trkpt lat="47.53326" lon="19.05075">
				 <ele>105.1</ele>
			 </trkpt>
			 <trkpt lat="47.53344" lon="19.05083">
				 <ele>105.1</ele>
			 </trkpt>
			 <trkpt lat="47.53358" lon="19.05084">
				 <ele>104.6</ele>
			 </trkpt>
			 <trkpt lat="47.53382" lon="19.05074">
				 <ele>104.4</ele>
			 </trkpt>
			 <trkpt lat="47.53407" lon="19.05066">
				 <ele>104.3</ele>
			 </trkpt>
			 <trkpt lat="47.53422" lon="19.05069">
				 <ele>104.1</ele>
			 </trkpt>
			 <trkpt lat="47.5347" lon="19.05115">
				 <ele>103.9</ele>
			 </trkpt>
			 <trkpt lat="47.53523" lon="19.05172">
				 <ele>103.2</ele>
			 </trkpt>
			 <trkpt lat="47.53554" lon="19.05208">
				 <ele>102.5</ele>
			 </trkpt>
			 <trkpt lat="47.53578" lon="19.05247">
				 <ele>101.6</ele>
			 </trkpt>
			 <trkpt lat="47.53607" lon="19.05272">
				 <ele>100.8</ele>
			 </trkpt>
			 <trkpt lat="47.53637" lon="19.05292">
				 <ele>100</ele>
			 </trkpt>
			 <trkpt lat="47.53703" lon="19.05343">
				 <ele>99.1</ele>
			 </trkpt>
			 <trkpt lat="47.53733" lon="19.05366">
				 <ele>98.6</ele>
			 </trkpt>
			 <trkpt lat="47.53739" lon="19.05381">
				 <ele>98.1</ele>
			 </trkpt>
			 <trkpt lat="47.53739" lon="19.05391">
				 <ele>98</ele>
			 </trkpt>
			 <trkpt lat="47.53718" lon="19.05481">
				 <ele>98.5</ele>
			 </trkpt>
			 <trkpt lat="47.53696" lon="19.0557">
				 <ele>99.1</ele>
			 </trkpt>
			 <trkpt lat="47.5368" lon="19.05639">
				 <ele>100.3</ele>
			 </trkpt>
			 <trkpt lat="47.53664" lon="19.05708">
				 <ele>101.4</ele>
			 </trkpt>
			 <trkpt lat="47.53639" lon="19.05808">
				 <ele>102.4</ele>
			 </trkpt>
			 <trkpt lat="47.53625" lon="19.05855">
				 <ele>103.1</ele>
			 </trkpt>
			 <trkpt lat="47.5362" lon="19.05866">
				 <ele>103.6</ele>
			 </trkpt>
			 <trkpt lat="47.53613" lon="19.05873">
				 <ele>104.2</ele>
			 </trkpt>
			 <trkpt lat="47.53596" lon="19.05876">
				 <ele>104.6</ele>
			 </trkpt>
			 <trkpt lat="47.53549" lon="19.05875">
				 <ele>105.1</ele>
			 </trkpt>
			 <trkpt lat="47.53496" lon="19.05872">
				 <ele>104.8</ele>
			 </trkpt>
			 <trkpt lat="47.53467" lon="19.05873">
				 <ele>104</ele>
			 </trkpt>
			 <trkpt lat="47.53452" lon="19.05878">
				 <ele>103.5</ele>
			 </trkpt>
			 <trkpt lat="47.5344" lon="19.05885">
				 <ele>102.9</ele>
			 </trkpt>
			 <trkpt lat="47.5343" lon="19.0591">
				 <ele>102.6</ele>
			 </trkpt>
			 <trkpt lat="47.53428" lon="19.05935">
				 <ele>102.5</ele>
			 </trkpt>
			 <trkpt lat="47.53463" lon="19.05972">
				 <ele>102.8</ele>
			 </trkpt>
			 <trkpt lat="47.5351" lon="19.05989">
				 <ele>103.7</ele>
			 </trkpt>
			 <trkpt lat="47.53556" lon="19.06007">
				 <ele>104.5</ele>
			 </trkpt>
			 <trkpt lat="47.53626" lon="19.06033">
				 <ele>105.4</ele>
			 </trkpt>
			 <trkpt lat="47.53656" lon="19.06035">
				 <ele>106</ele>
			 </trkpt>
			 <trkpt lat="47.53671" lon="19.05974">
				 <ele>106.5</ele>
			 </trkpt>
			 <trkpt lat="47.53678" lon="19.05901">
				 <ele>106.9</ele>
			 </trkpt>
			 <trkpt lat="47.53685" lon="19.05874">
				 <ele>107.2</ele>
			 </trkpt>
			 <trkpt lat="47.53694" lon="19.05863">
				 <ele>107.5</ele>
			 </trkpt>
			 <trkpt lat="47.53701" lon="19.05846">
				 <ele>107.4</ele>
			 </trkpt>
			 <trkpt lat="47.53705" lon="19.05833">
				 <ele>107.5</ele>
			 </trkpt>
			 <trkpt lat="47.53714" lon="19.05829">
				 <ele>107</ele>
			 </trkpt>
			 <trkpt lat="47.53746" lon="19.05837">
				 <ele>106</ele>
			 </trkpt>
			 <trkpt lat="47.53795" lon="19.05855">
				 <ele>105.1</ele>
			 </trkpt>
			 <trkpt lat="47.53857" lon="19.05882">
				 <ele>104.5</ele>
			 </trkpt>
			 <trkpt lat="47.53904" lon="19.05906">
				 <ele>104.1</ele>
			 </trkpt>
			 <trkpt lat="47.53977" lon="19.05943">
				 <ele>103.9</ele>
			 </trkpt>
			 <trkpt lat="47.54038" lon="19.05975">
				 <ele>103.8</ele>
			 </trkpt>
			 <trkpt lat="47.54105" lon="19.06014">
				 <ele>103.7</ele>
			 </trkpt>
			 <trkpt lat="47.54155" lon="19.06047">
				 <ele>103.5</ele>
			 </trkpt>
			 <trkpt lat="47.54173" lon="19.0607">
				 <ele>103.4</ele>
			 </trkpt>
			 <trkpt lat="47.54187" lon="19.06115">
				 <ele>103.1</ele>
			 </trkpt>
			 <trkpt lat="47.54192" lon="19.0619">
				 <ele>103.1</ele>
			 </trkpt>
			 <trkpt lat="47.54195" lon="19.06287">
				 <ele>103.1</ele>
			 </trkpt>
			 <trkpt lat="47.5419" lon="19.06346">
				 <ele>103</ele>
			 </trkpt>
			 <trkpt lat="47.54182" lon="19.06355">
				 <ele>102.9</ele>
			 </trkpt>
			 <trkpt lat="47.54182" lon="19.06377">
				 <ele>102.7</ele>
			 </trkpt>
			 <trkpt lat="47.54187" lon="19.06399">
				 <ele>102.5</ele>
			 </trkpt>
			 <trkpt lat="47.54192" lon="19.06471">
				 <ele>102.3</ele>
			 </trkpt>
			 <trkpt lat="47.54197" lon="19.06569">
				 <ele>101.8</ele>
			 </trkpt>
			 <trkpt lat="47.54201" lon="19.06641">
				 <ele>101.8</ele>
			 </trkpt>
			 <trkpt lat="47.54203" lon="19.06711">
				 <ele>101.8</ele>
			 </trkpt>
			 <trkpt lat="47.54197" lon="19.06664">
				 <ele>101.9</ele>
			 </trkpt>
			 <trkpt lat="47.54193" lon="19.06587">
				 <ele>102</ele>
			 </trkpt>
			 <trkpt lat="47.54189" lon="19.06507">
				 <ele>102.4</ele>
			 </trkpt>
			 <trkpt lat="47.54183" lon="19.0643">
				 <ele>102.6</ele>
			 </trkpt>
			 <trkpt lat="47.5418" lon="19.06393">
				 <ele>102.8</ele>
			 </trkpt>
			 <trkpt lat="47.54168" lon="19.06356">
				 <ele>103.1</ele>
			 </trkpt>
			 <trkpt lat="47.54129" lon="19.06325">
				 <ele>103.5</ele>
			 </trkpt>
			 <trkpt lat="47.54076" lon="19.06289">
				 <ele>104</ele>
			 </trkpt>
			 <trkpt lat="47.54" lon="19.06237">
				 <ele>104.6</ele>
			 </trkpt>
			 <trkpt lat="47.53932" lon="19.06192">
				 <ele>105</ele>
			 </trkpt>
			 <trkpt lat="47.53887" lon="19.0617">
				 <ele>105.2</ele>
			 </trkpt>
			 <trkpt lat="47.53842" lon="19.06148">
				 <ele>105.3</ele>
			 </trkpt>
			 <trkpt lat="47.53796" lon="19.06126">
				 <ele>105.3</ele>
			 </trkpt>
			 <trkpt lat="47.53751" lon="19.06105">
				 <ele>105.1</ele>
			 </trkpt>
			 <trkpt lat="47.53706" lon="19.06083">
				 <ele>104.9</ele>
			 </trkpt>
			 <trkpt lat="47.5366" lon="19.06061">
				 <ele>104.6</ele>
			 </trkpt>
			 <trkpt lat="47.53615" lon="19.06039">
				 <ele>104.6</ele>
			 </trkpt>
			 <trkpt lat="47.5357" lon="19.06017">
				 <ele>104.4</ele>
			 </trkpt>
			 <trkpt lat="47.53525" lon="19.05996">
				 <ele>104.1</ele>
			 </trkpt>
			 <trkpt lat="47.5348" lon="19.05974">
				 <ele>103.9</ele>
			 </trkpt>
			 <trkpt lat="47.53434" lon="19.05952">
				 <ele>103.9</ele>
			 </trkpt>
			 <trkpt lat="47.53389" lon="19.0593">
				 <ele>103.6</ele>
			 </trkpt>
			 <trkpt lat="47.53346" lon="19.05913">
				 <ele>103.5</ele>
			 </trkpt>
			 <trkpt lat="47.53296" lon="19.05889">
				 <ele>103.9</ele>
			 </trkpt>
			 <trkpt lat="47.53247" lon="19.05866">
				 <ele>104</ele>
			 </trkpt>
			 <trkpt lat="47.53197" lon="19.05842">
				 <ele>104.2</ele>
			 </trkpt>
			 <trkpt lat="47.53141" lon="19.05814">
				 <ele>104.5</ele>
			 </trkpt>
			 <trkpt lat="47.53082" lon="19.05785">
				 <ele>104.5</ele>
			 </trkpt>
			 <trkpt lat="47.53027" lon="19.05759">
				 <ele>104.8</ele>
			 </trkpt>
			 <trkpt lat="47.52954" lon="19.05724">
				 <ele>105</ele>
			 </trkpt>
			 <trkpt lat="47.5289" lon="19.05693">
				 <ele>105.1</ele>
			 </trkpt>
			 <trkpt lat="47.52842" lon="19.05671">
				 <ele>105.4</ele>
			 </trkpt>
			 <trkpt lat="47.52824" lon="19.05658">
				 <ele>105.6</ele>
			 </trkpt>
			 <trkpt lat="47.52811" lon="19.05643">
				 <ele>105.5</ele>
			 </trkpt>
			 <trkpt lat="47.52798" lon="19.05633">
				 <ele>105.2</ele>
			 </trkpt>
			 <trkpt lat="47.52781" lon="19.05622">
				 <ele>105.2</ele>
			 </trkpt>
			 <trkpt lat="47.52726" lon="19.05598">
				 <ele>105.3</ele>
			 </trkpt>
			 <trkpt lat="47.52698" lon="19.05573">
				 <ele>105</ele>
			 </trkpt>
			 <trkpt lat="47.52678" lon="19.0554">
				 <ele>104.5</ele>
			 </trkpt>
			 <trkpt lat="47.52663" lon="19.0552">
				 <ele>104.1</ele>
			 </trkpt>
			 <trkpt lat="47.52639" lon="19.05493">
				 <ele>103.5</ele>
			 </trkpt>
			 <trkpt lat="47.52615" lon="19.05473">
				 <ele>103.2</ele>
			 </trkpt>
			 <trkpt lat="47.52535" lon="19.05431">
				 <ele>102.5</ele>
			 </trkpt>
			 <trkpt lat="47.5249" lon="19.05401">
				 <ele>102.1</ele>
			 </trkpt>
			 <trkpt lat="47.52421" lon="19.0536">
				 <ele>102.3</ele>
			 </trkpt>
			 <trkpt lat="47.52363" lon="19.05325">
				 <ele>102.5</ele>
			 </trkpt>
			 <trkpt lat="47.52299" lon="19.05287">
				 <ele>103.1</ele>
			 </trkpt>
			 <trkpt lat="47.52245" lon="19.05254">
				 <ele>103.9</ele>
			 </trkpt>
			 <trkpt lat="47.52191" lon="19.0522">
				 <ele>104.9</ele>
			 </trkpt>
			 <trkpt lat="47.52147" lon="19.0519">
				 <ele>105.6</ele>
			 </trkpt>
			 <trkpt lat="47.52104" lon="19.05161">
				 <ele>105.9</ele>
			 </trkpt>
			 <trkpt lat="47.52077" lon="19.05149">
				 <ele>106.4</ele>
			 </trkpt>
			 <trkpt lat="47.52049" lon="19.05135">
				 <ele>106.7</ele>
			 </trkpt>
			 <trkpt lat="47.52023" lon="19.05117">
				 <ele>107</ele>
			 </trkpt>
			 <trkpt lat="47.51993" lon="19.05094">
				 <ele>107.5</ele>
			 </trkpt>
			 <trkpt lat="47.51967" lon="19.05075">
				 <ele>107</ele>
			 </trkpt>
			 <trkpt lat="47.51949" lon="19.05065">
				 <ele>107.1</ele>
			 </trkpt>
			 <trkpt lat="47.51942" lon="19.05066">
				 <ele>106.9</ele>
			 </trkpt>
			 <trkpt lat="47.51925" lon="19.05061">
				 <ele>106.4</ele>
			 </trkpt>
			 <trkpt lat="47.51899" lon="19.05043">
				 <ele>105.9</ele>
			 </trkpt>
			 <trkpt lat="47.51857" lon="19.05009">
				 <ele>106.4</ele>
			 </trkpt>
			 <trkpt lat="47.5178" lon="19.04947">
				 <ele>107.1</ele>
			 </trkpt>
			 <trkpt lat="47.51742" lon="19.0492">
				 <ele>107.6</ele>
			 </trkpt>
			 <trkpt lat="47.51692" lon="19.04883">
				 <ele>108.3</ele>
			 </trkpt>
			 <trkpt lat="47.51649" lon="19.04853">
				 <ele>108.9</ele>
			 </trkpt>
			 <trkpt lat="47.51607" lon="19.04825">
				 <ele>109.4</ele>
			 </trkpt>
			 <trkpt lat="47.51569" lon="19.04804">
				 <ele>110</ele>
			 </trkpt>
			 <trkpt lat="47.51527" lon="19.04776">
				 <ele>109.6</ele>
			 </trkpt>
			 <trkpt lat="47.51492" lon="19.04757">
				 <ele>109.3</ele>
			 </trkpt>
			 <trkpt lat="47.51446" lon="19.04733">
				 <ele>108.9</ele>
			 </trkpt>
			 <trkpt lat="47.5142" lon="19.04725">
				 <ele>108.5</ele>
			 </trkpt>
			 <trkpt lat="47.514" lon="19.04715">
				 <ele>107.7</ele>
			 </trkpt>
			 <trkpt lat="47.51385" lon="19.04708">
				 <ele>107.5</ele>
			 </trkpt>
			 <trkpt lat="47.51384" lon="19.04702">
				 <ele>107.5</ele>
			 </trkpt>
			 <trkpt lat="47.51388" lon="19.04691">
				 <ele>107.3</ele>
			 </trkpt>
			 <trkpt lat="47.51396" lon="19.04691">
				 <ele>106.6</ele>
			 </trkpt>
			 <trkpt lat="47.51406" lon="19.04695">
				 <ele>106.3</ele>
			 </trkpt>
			 <trkpt lat="47.51445" lon="19.04715">
				 <ele>106.4</ele>
			 </trkpt>
			 <trkpt lat="47.51471" lon="19.04728">
				 <ele>106.6</ele>
			 </trkpt>
			 <trkpt lat="47.51493" lon="19.0474">
				 <ele>106.5</ele>
			 </trkpt>
			 <trkpt lat="47.51525" lon="19.04754">
				 <ele>106.5</ele>
			 </trkpt>
			 <trkpt lat="47.51553" lon="19.04763">
				 <ele>106.6</ele>
			 </trkpt>
			 <trkpt lat="47.51594" lon="19.04789">
				 <ele>106.5</ele>
			 </trkpt>
			 <trkpt lat="47.51622" lon="19.04805">
				 <ele>105.7</ele>
			 </trkpt>
			 <trkpt lat="47.51661" lon="19.04835">
				 <ele>104.7</ele>
			 </trkpt>
			 <trkpt lat="47.51691" lon="19.04856">
				 <ele>103.6</ele>
			 </trkpt>
			 <trkpt lat="47.51721" lon="19.04875">
				 <ele>103</ele>
			 </trkpt>
			 <trkpt lat="47.51754" lon="19.04899">
				 <ele>102.6</ele>
			 </trkpt>
			 <trkpt lat="47.51785" lon="19.04919">
				 <ele>102.1</ele>
			 </trkpt>
			 <trkpt lat="47.51817" lon="19.04946">
				 <ele>101.7</ele>
			 </trkpt>
			 <trkpt lat="47.51846" lon="19.0497">
				 <ele>102.3</ele>
			 </trkpt>
			 <trkpt lat="47.51881" lon="19.04998">
				 <ele>102.2</ele>
			 </trkpt>
			 <trkpt lat="47.51906" lon="19.05018">
				 <ele>101.9</ele>
			 </trkpt>
			 <trkpt lat="47.51928" lon="19.05033">
				 <ele>101.8</ele>
			 </trkpt>
			 <trkpt lat="47.51946" lon="19.05046">
				 <ele>101.5</ele>
			 </trkpt>
			 <trkpt lat="47.52024" lon="19.05102">
				 <ele>101.4</ele>
			 </trkpt>
			 <trkpt lat="47.5195" lon="19.05039">
				 <ele>101.6</ele>
			 </trkpt>
			 <trkpt lat="47.51935" lon="19.05029">
				 <ele>102</ele>
			 </trkpt>
			 <trkpt lat="47.51911" lon="19.05013">
				 <ele>102.1</ele>
			 </trkpt>
			 <trkpt lat="47.51881" lon="19.04992">
				 <ele>102.1</ele>
			 </trkpt>
			 <trkpt lat="47.51824" lon="19.04946">
				 <ele>102.3</ele>
			 </trkpt>
			 <trkpt lat="47.51793" lon="19.0492">
				 <ele>102.1</ele>
			 </trkpt>
			 <trkpt lat="47.51742" lon="19.04886">
				 <ele>102.4</ele>
			 </trkpt>
			 <trkpt lat="47.51705" lon="19.0486">
				 <ele>102.7</ele>
			 </trkpt>
			 <trkpt lat="47.51669" lon="19.04835">
				 <ele>103.4</ele>
			 </trkpt>
			 <trkpt lat="47.51638" lon="19.04814">
				 <ele>104.4</ele>
			 </trkpt>
			 <trkpt lat="47.516" lon="19.04787">
				 <ele>104.7</ele>
			 </trkpt>
			 <trkpt lat="47.51562" lon="19.04765">
				 <ele>104.6</ele>
			 </trkpt>
			 <trkpt lat="47.51533" lon="19.0475">
				 <ele>104.5</ele>
			 </trkpt>
			 <trkpt lat="47.51492" lon="19.0473">
				 <ele>104.4</ele>
			 </trkpt>
			 <trkpt lat="47.51468" lon="19.04711">
				 <ele>104.5</ele>
			 </trkpt>
			 <trkpt lat="47.5143" lon="19.04688">
				 <ele>104.3</ele>
			 </trkpt>
			 <trkpt lat="47.51392" lon="19.04663">
				 <ele>103.7</ele>
			 </trkpt>
			 <trkpt lat="47.51341" lon="19.0464">
				 <ele>103.3</ele>
			 </trkpt>
			 <trkpt lat="47.51312" lon="19.04629">
				 <ele>102.6</ele>
			 </trkpt>
			 <trkpt lat="47.51261" lon="19.04618">
				 <ele>101.8</ele>
			 </trkpt>
			 <trkpt lat="47.51221" lon="19.04613">
				 <ele>101.2</ele>
			 </trkpt>
			 <trkpt lat="47.51172" lon="19.04606">
				 <ele>101.5</ele>
			 </trkpt>
			 <trkpt lat="47.51132" lon="19.04595">
				 <ele>101.9</ele>
			 </trkpt>
			 <trkpt lat="47.51098" lon="19.04591">
				 <ele>102.3</ele>
			 </trkpt>
			 <trkpt lat="47.51063" lon="19.0458">
				 <ele>103.6</ele>
			 </trkpt>
			 <trkpt lat="47.51034" lon="19.0457">
				 <ele>104.6</ele>
			 </trkpt>
			 <trkpt lat="47.50995" lon="19.04562">
				 <ele>105.5</ele>
			 </trkpt>
			 <trkpt lat="47.50949" lon="19.04551">
				 <ele>106.2</ele>
			 </trkpt>
			 <trkpt lat="47.50885" lon="19.04532">
				 <ele>107.1</ele>
			 </trkpt>
			 <trkpt lat="47.5084" lon="19.04521">
				 <ele>107.2</ele>
			 </trkpt>
			 <trkpt lat="47.50772" lon="19.04505">
				 <ele>107.6</ele>
			 </trkpt>
			 <trkpt lat="47.5073" lon="19.04496">
				 <ele>108.1</ele>
			 </trkpt>
			 <trkpt lat="47.50648" lon="19.04482">
				 <ele>108.6</ele>
			 </trkpt>
			 <trkpt lat="47.50608" lon="19.04479">
				 <ele>109.1</ele>
			 </trkpt>
			 <trkpt lat="47.50529" lon="19.04479">
				 <ele>109.4</ele>
			 </trkpt>
			 <trkpt lat="47.50472" lon="19.04489">
				 <ele>108.5</ele>
			 </trkpt>
			 <trkpt lat="47.50416" lon="19.04499">
				 <ele>108.1</ele>
			 </trkpt>
			 <trkpt lat="47.50359" lon="19.04509">
				 <ele>107.4</ele>
			 </trkpt>
			 <trkpt lat="47.50305" lon="19.04523">
				 <ele>106.8</ele>
			 </trkpt>
			 <trkpt lat="47.50251" lon="19.04537">
				 <ele>106.1</ele>
			 </trkpt>
			 <trkpt lat="47.50186" lon="19.04552">
				 <ele>106.5</ele>
			 </trkpt>
			 <trkpt lat="47.50134" lon="19.0457">
				 <ele>106.2</ele>
			 </trkpt>
			 <trkpt lat="47.50082" lon="19.04588">
				 <ele>105.5</ele>
			 </trkpt>
			 <trkpt lat="47.50038" lon="19.04608">
				 <ele>104.5</ele>
			 </trkpt>
			 <trkpt lat="47.49997" lon="19.04635">
				 <ele>103.5</ele>
			 </trkpt>
			 <trkpt lat="47.49976" lon="19.04656">
				 <ele>102.8</ele>
			 </trkpt>
			 <trkpt lat="47.49937" lon="19.04674">
				 <ele>102.1</ele>
			 </trkpt>
			 <trkpt lat="47.49928" lon="19.04673">
				 <ele>101.4</ele>
			 </trkpt>
			 <trkpt lat="47.49884" lon="19.0467">
				 <ele>101.5</ele>
			 </trkpt>
			 <trkpt lat="47.49857" lon="19.04672">
				 <ele>102</ele>
			 </trkpt>
			 <trkpt lat="47.4982" lon="19.04676">
				 <ele>102.4</ele>
			 </trkpt>
			 <trkpt lat="47.49785" lon="19.04689">
				 <ele>102.7</ele>
			 </trkpt>
			 <trkpt lat="47.49758" lon="19.04705">
				 <ele>103.2</ele>
			 </trkpt>
			 <trkpt lat="47.49696" lon="19.04741">
				 <ele>103.9</ele>
			 </trkpt>
			 <trkpt lat="47.49657" lon="19.04761">
				 <ele>104.5</ele>
			 </trkpt>
			 <trkpt lat="47.49631" lon="19.04775">
				 <ele>104.7</ele>
			 </trkpt>
			 <trkpt lat="47.49588" lon="19.04802">
				 <ele>104.9</ele>
			 </trkpt>
			 <trkpt lat="47.49529" lon="19.04836">
				 <ele>105</ele>
			 </trkpt>
			 <trkpt lat="47.49474" lon="19.04872">
				 <ele>104.5</ele>
			 </trkpt>
			 <trkpt lat="47.49435" lon="19.04896">
				 <ele>104</ele>
			 </trkpt>
			 <trkpt lat="47.49381" lon="19.04932">
				 <ele>104.3</ele>
			 </trkpt>
			 <trkpt lat="47.4934" lon="19.04963">
				 <ele>104.3</ele>
			 </trkpt>
			 <trkpt lat="47.49281" lon="19.05007">
				 <ele>104.1</ele>
			 </trkpt>
			 <trkpt lat="47.4922" lon="19.05044">
				 <ele>104.1</ele>
			 </trkpt>
			 <trkpt lat="47.49168" lon="19.05083">
				 <ele>104.1</ele>
			 </trkpt>
			 <trkpt lat="47.49109" lon="19.05128">
				 <ele>104.3</ele>
			 </trkpt>
			 <trkpt lat="47.49055" lon="19.05171">
				 <ele>104.8</ele>
			 </trkpt>
			 <trkpt lat="47.49009" lon="19.05222">
				 <ele>105.1</ele>
			 </trkpt>
			 <trkpt lat="47.48956" lon="19.05289">
				 <ele>105.4</ele>
			 </trkpt>
			 <trkpt lat="47.48913" lon="19.05346">
				 <ele>106.1</ele>
			 </trkpt>
			 <trkpt lat="47.48876" lon="19.05395">
				 <ele>106.3</ele>
			 </trkpt>
			 <trkpt lat="47.48848" lon="19.05431">
				 <ele>105.4</ele>
			 </trkpt>
			 <trkpt lat="47.48809" lon="19.05486">
				 <ele>105.3</ele>
			 </trkpt>
			 <trkpt lat="47.48774" lon="19.05524">
				 <ele>105.2</ele>
			 </trkpt>
			 <trkpt lat="47.4874" lon="19.05558">
				 <ele>104.9</ele>
			 </trkpt>
			 <trkpt lat="47.4871" lon="19.05598">
				 <ele>104.5</ele>
			 </trkpt>
			 <trkpt lat="47.48674" lon="19.05642">
				 <ele>104</ele>
			 </trkpt>
			 <trkpt lat="47.48642" lon="19.05682">
				 <ele>103.5</ele>
			 </trkpt>
			 <trkpt lat="47.48604" lon="19.05724">
				 <ele>103.2</ele>
			 </trkpt>
			 <trkpt lat="47.48562" lon="19.05776">
				 <ele>103.1</ele>
			 </trkpt>
			 <trkpt lat="47.48513" lon="19.05835">
				 <ele>103</ele>
			 </trkpt>
			 <trkpt lat="47.48485" lon="19.05872">
				 <ele>103.1</ele>
			 </trkpt>
			 <trkpt lat="47.48467" lon="19.05899">
				 <ele>103.5</ele>
			 </trkpt>
			 <trkpt lat="47.48458" lon="19.05919">
				 <ele>103.5</ele>
			 </trkpt>
			 <trkpt lat="47.48455" lon="19.05933">
				 <ele>103.6</ele>
			 </trkpt>
			 <trkpt lat="47.48457" lon="19.0595">
				 <ele>104</ele>
			 </trkpt>
			 <trkpt lat="47.48459" lon="19.05966">
				 <ele>104.2</ele>
			 </trkpt>
			 <trkpt lat="47.48462" lon="19.05974">
				 <ele>104.4</ele>
			 </trkpt>
			 <trkpt lat="47.48466" lon="19.05974">
				 <ele>104.6</ele>
			 </trkpt>
			 <trkpt lat="47.48471" lon="19.05967">
				 <ele>105.1</ele>
			 </trkpt>
			 <trkpt lat="47.4848" lon="19.05932">
				 <ele>105.7</ele>
			 </trkpt>
			 <trkpt lat="47.48489" lon="19.05908">
				 <ele>106.3</ele>
			 </trkpt>
			 <trkpt lat="47.48501" lon="19.05889">
				 <ele>106.7</ele>
			 </trkpt>
			 <trkpt lat="47.4854" lon="19.05841">
				 <ele>107</ele>
			 </trkpt>
			 <trkpt lat="47.48569" lon="19.05806">
				 <ele>107.1</ele>
			 </trkpt>
			 <trkpt lat="47.48595" lon="19.05774">
				 <ele>107</ele>
			 </trkpt>
			 <trkpt lat="47.48625" lon="19.05736">
				 <ele>106.7</ele>
			 </trkpt>
			 <trkpt lat="47.48641" lon="19.05717">
				 <ele>106.2</ele>
			 </trkpt>
			 <trkpt lat="47.48658" lon="19.05699">
				 <ele>105.3</ele>
			 </trkpt>
			 <trkpt lat="47.48665" lon="19.05695">
				 <ele>104.5</ele>
			 </trkpt>
			 <trkpt lat="47.48669" lon="19.05689">
				 <ele>103.5</ele>
			 </trkpt>
			 <trkpt lat="47.48663" lon="19.05676">
				 <ele>102.2</ele>
			 </trkpt>
			 <trkpt lat="47.48634" lon="19.05617">
				 <ele>101.3</ele>
			 </trkpt>
			 <trkpt lat="47.48597" lon="19.05544">
				 <ele>100.5</ele>
			 </trkpt>
			 <trkpt lat="47.4856" lon="19.0547">
				 <ele>99.9</ele>
			 </trkpt>
			 <trkpt lat="47.48525" lon="19.05402">
				 <ele>99.6</ele>
			 </trkpt>
			 <trkpt lat="47.48489" lon="19.05334">
				 <ele>99.5</ele>
			 </trkpt>
			 <trkpt lat="47.48478" lon="19.05316">
				 <ele>99.4</ele>
			 </trkpt>
			 <trkpt lat="47.48473" lon="19.05311">
				 <ele>100</ele>
			 </trkpt>
			 <trkpt lat="47.48466" lon="19.05313">
				 <ele>101.1</ele>
			 </trkpt>
			 <trkpt lat="47.48449" lon="19.05329">
				 <ele>102</ele>
			 </trkpt>
			 <trkpt lat="47.48413" lon="19.05372">
				 <ele>102.9</ele>
			 </trkpt>
			 <trkpt lat="47.48376" lon="19.05416">
				 <ele>103.9</ele>
			 </trkpt>
			 <trkpt lat="47.48317" lon="19.05485">
				 <ele>104.6</ele>
			 </trkpt>
			 <trkpt lat="47.48291" lon="19.05514">
				 <ele>105.3</ele>
			 </trkpt>
			 <trkpt lat="47.48261" lon="19.05546">
				 <ele>105.4</ele>
			 </trkpt>
			 <trkpt lat="47.48229" lon="19.05582">
				 <ele>105.2</ele>
			 </trkpt>
			 <trkpt lat="47.48202" lon="19.05613">
				 <ele>105.7</ele>
			 </trkpt>
			 <trkpt lat="47.48157" lon="19.05665">
				 <ele>106</ele>
			 </trkpt>
			 <trkpt lat="47.48122" lon="19.05703">
				 <ele>105.6</ele>
			 </trkpt>
			 <trkpt lat="47.48077" lon="19.05756">
				 <ele>105.1</ele>
			 </trkpt>
			 <trkpt lat="47.48036" lon="19.058">
				 <ele>104.2</ele>
			 </trkpt>
			 <trkpt lat="47.47988" lon="19.0585">
				 <ele>103.7</ele>
			 </trkpt>
			 <trkpt lat="47.47946" lon="19.05896">
				 <ele>103.2</ele>
			 </trkpt>
			 <trkpt lat="47.47892" lon="19.05958">
				 <ele>102.7</ele>
			 </trkpt>
			 <trkpt lat="47.4784" lon="19.06018">
				 <ele>102.3</ele>
			 </trkpt>
			 <trkpt lat="47.47789" lon="19.06074">
				 <ele>102.4</ele>
			 </trkpt>
			 <trkpt lat="47.47738" lon="19.06128">
				 <ele>103.2</ele>
			 </trkpt>
			 <trkpt lat="47.47708" lon="19.06158">
				 <ele>102.5</ele>
			 </trkpt>
			 <trkpt lat="47.47667" lon="19.06196">
				 <ele>102.2</ele>
			 </trkpt>
			 <trkpt lat="47.47611" lon="19.06237">
				 <ele>102</ele>
			 </trkpt>
			 <trkpt lat="47.47577" lon="19.06258">
				 <ele>102</ele>
			 </trkpt>
			 <trkpt lat="47.47532" lon="19.06281">
				 <ele>102.6</ele>
			 </trkpt>
			 <trkpt lat="47.47488" lon="19.06302">
				 <ele>102.8</ele>
			 </trkpt>
			 <trkpt lat="47.47444" lon="19.06322">
				 <ele>103</ele>
			 </trkpt>
			 <trkpt lat="47.47399" lon="19.06339">
				 <ele>103.1</ele>
			 </trkpt>
			 <trkpt lat="47.47353" lon="19.06356">
				 <ele>103.3</ele>
			 </trkpt>
		 </trkseg>
	 </trk>
</gpx>