<?xml version="1.0" encoding="UTF-8"?>
 <gpx creator="Garmin Connect" version="1.1"
	 xsi:schemaLocation="http://www.topografix.com/GPX/1/1 http://www.topografix.com/GPX/11.xsd"
	 xmlns:ns3="http://www.garmin.com/xmlschemas/TrackPointExtension/v1"
	 xmlns="http://www.topografix.com/GPX/1/1"
	 xmlns:xsi="http://www.w3.org/2001/XMLSchema-instance" xmlns:ns2="http://www.garmin.com/xmlschemas/GpxExtensions/v3">
	 <metadata>
		<name>Buller Gorge Marathon 2025 - 42.195 km</name>
		 <link href="https://www.goandrace.com">
		 <text>Garmin Connect</text>
		 </link>
	 <time>2026-08-10T02:53:36</time>
	 </metadata>
	 <trk>
		 <name>Buller Gorge Marathon 2025 - 42.195 km</name>
		 <trkseg>
			 <trkpt lat="-41.863555" lon="171.782191">
				 <ele>36.3</ele>
			 </trkpt>
			 <trkpt lat="-41.863212" lon="171.782311">
				 <ele>36.7</ele>
			 </trkpt>
			 <trkpt lat="-41.862969" lon="171.782371">
				 <ele>36.9</ele>
			 </trkpt>
			 <trkpt lat="-41.862775" lon="171.78239">
				 <ele>37.1</ele>
			 </trkpt>
			 <trkpt lat="-41.862602" lon="171.782381">
				 <ele>37.3</ele>
			 </trkpt>
			 <trkpt lat="-41.862239" lon="171.782321">
				 <ele>37.6</ele>
			 </trkpt>
			 <trkpt lat="-41.861966" lon="171.782267">
				 <ele>38.4</ele>
			 </trkpt>
			 <trkpt lat="-41.861617" lon="171.78217">
				 <ele>39.2</ele>
			 </trkpt>
			 <trkpt lat="-41.861027" lon="171.78193">
				 <ele>39.6</ele>
			 </trkpt>
			 <trkpt lat="-41.86094" lon="171.781898">
				 <ele>40.1</ele>
			 </trkpt>
			 <trkpt lat="-41.860755" lon="171.781862">
				 <ele>40.9</ele>
			 </trkpt>
			 <trkpt lat="-41.860494" lon="171.781882">
				 <ele>42.2</ele>
			 </trkpt>
			 <trkpt lat="-41.860216" lon="171.781924">
				 <ele>43.2</ele>
			 </trkpt>
			 <trkpt lat="-41.859237" lon="171.782096">
				 <ele>44.3</ele>
			 </trkpt>
			 <trkpt lat="-41.858799" lon="171.782154">
				 <ele>45.4</ele>
			 </trkpt>
			 <trkpt lat="-41.857357" lon="171.782313">
				 <ele>46.9</ele>
			 </trkpt>
			 <trkpt lat="-41.856821" lon="171.782365">
				 <ele>48.2</ele>
			 </trkpt>
			 <trkpt lat="-41.856476" lon="171.782416">
				 <ele>49.4</ele>
			 </trkpt>
			 <trkpt lat="-41.85624" lon="171.782466">
				 <ele>50.4</ele>
			 </trkpt>
			 <trkpt lat="-41.8562" lon="171.782475">
				 <ele>51.7</ele>
			 </trkpt>
			 <trkpt lat="-41.855777" lon="171.782597">
				 <ele>53.1</ele>
			 </trkpt>
			 <trkpt lat="-41.855171" lon="171.782819">
				 <ele>54</ele>
			 </trkpt>
			 <trkpt lat="-41.854969" lon="171.782871">
				 <ele>54.2</ele>
			 </trkpt>
			 <trkpt lat="-41.85488" lon="171.782869">
				 <ele>54.2</ele>
			 </trkpt>
			 <trkpt lat="-41.854765" lon="171.782853">
				 <ele>54.1</ele>
			 </trkpt>
			 <trkpt lat="-41.854669" lon="171.782822">
				 <ele>53.8</ele>
			 </trkpt>
			 <trkpt lat="-41.854579" lon="171.782781">
				 <ele>53.1</ele>
			 </trkpt>
			 <trkpt lat="-41.85446" lon="171.782705">
				 <ele>52.5</ele>
			 </trkpt>
			 <trkpt lat="-41.85436" lon="171.782662">
				 <ele>51.9</ele>
			 </trkpt>
			 <trkpt lat="-41.854173" lon="171.782626">
				 <ele>51.5</ele>
			 </trkpt>
			 <trkpt lat="-41.854075" lon="171.782623">
				 <ele>51</ele>
			 </trkpt>
			 <trkpt lat="-41.853992" lon="171.782639">
				 <ele>50.6</ele>
			 </trkpt>
			 <trkpt lat="-41.853904" lon="171.782669">
				 <ele>50.3</ele>
			 </trkpt>
			 <trkpt lat="-41.853746" lon="171.782768">
				 <ele>49.9</ele>
			 </trkpt>
			 <trkpt lat="-41.853486" lon="171.782959">
				 <ele>49.3</ele>
			 </trkpt>
			 <trkpt lat="-41.85331" lon="171.783053">
				 <ele>48.7</ele>
			 </trkpt>
			 <trkpt lat="-41.853211" lon="171.783087">
				 <ele>48.3</ele>
			 </trkpt>
			 <trkpt lat="-41.853114" lon="171.783108">
				 <ele>47.8</ele>
			 </trkpt>
			 <trkpt lat="-41.852935" lon="171.783114">
				 <ele>47.3</ele>
			 </trkpt>
			 <trkpt lat="-41.852113" lon="171.783108">
				 <ele>46.6</ele>
			 </trkpt>
			 <trkpt lat="-41.851948" lon="171.783137">
				 <ele>45.8</ele>
			 </trkpt>
			 <trkpt lat="-41.851841" lon="171.783174">
				 <ele>44.9</ele>
			 </trkpt>
			 <trkpt lat="-41.851751" lon="171.783226">
				 <ele>44.2</ele>
			 </trkpt>
			 <trkpt lat="-41.851643" lon="171.783309">
				 <ele>43.6</ele>
			 </trkpt>
			 <trkpt lat="-41.851479" lon="171.783499">
				 <ele>43.5</ele>
			 </trkpt>
			 <trkpt lat="-41.851356" lon="171.783688">
				 <ele>43.6</ele>
			 </trkpt>
			 <trkpt lat="-41.851057" lon="171.784198">
				 <ele>43.7</ele>
			 </trkpt>
			 <trkpt lat="-41.850912" lon="171.784394">
				 <ele>43.8</ele>
			 </trkpt>
			 <trkpt lat="-41.850771" lon="171.784542">
				 <ele>43.7</ele>
			 </trkpt>
			 <trkpt lat="-41.850667" lon="171.784625">
				 <ele>43.8</ele>
			 </trkpt>
			 <trkpt lat="-41.850436" lon="171.784747">
				 <ele>43.8</ele>
			 </trkpt>
			 <trkpt lat="-41.850349" lon="171.784788">
				 <ele>43.7</ele>
			 </trkpt>
			 <trkpt lat="-41.850246" lon="171.784837">
				 <ele>43.7</ele>
			 </trkpt>
			 <trkpt lat="-41.849795" lon="171.785032">
				 <ele>43.5</ele>
			 </trkpt>
			 <trkpt lat="-41.849282" lon="171.785268">
				 <ele>43.3</ele>
			 </trkpt>
			 <trkpt lat="-41.848941" lon="171.785411">
				 <ele>42.9</ele>
			 </trkpt>
			 <trkpt lat="-41.848767" lon="171.785495">
				 <ele>42.6</ele>
			 </trkpt>
			 <trkpt lat="-41.848607" lon="171.785591">
				 <ele>42.5</ele>
			 </trkpt>
			 <trkpt lat="-41.848515" lon="171.785655">
				 <ele>42.3</ele>
			 </trkpt>
			 <trkpt lat="-41.84842" lon="171.785741">
				 <ele>42.3</ele>
			 </trkpt>
			 <trkpt lat="-41.848325" lon="171.785843">
				 <ele>42</ele>
			 </trkpt>
			 <trkpt lat="-41.848203" lon="171.785993">
				 <ele>41.8</ele>
			 </trkpt>
			 <trkpt lat="-41.848034" lon="171.786264">
				 <ele>41.7</ele>
			 </trkpt>
			 <trkpt lat="-41.847954" lon="171.786428">
				 <ele>41.6</ele>
			 </trkpt>
			 <trkpt lat="-41.847782" lon="171.786851">
				 <ele>41.5</ele>
			 </trkpt>
			 <trkpt lat="-41.847613" lon="171.78735">
				 <ele>41.5</ele>
			 </trkpt>
			 <trkpt lat="-41.847573" lon="171.787514">
				 <ele>41.4</ele>
			 </trkpt>
			 <trkpt lat="-41.847553" lon="171.787648">
				 <ele>41.4</ele>
			 </trkpt>
			 <trkpt lat="-41.847539" lon="171.787804">
				 <ele>41.4</ele>
			 </trkpt>
			 <trkpt lat="-41.847534" lon="171.787959">
				 <ele>41.5</ele>
			 </trkpt>
			 <trkpt lat="-41.84754" lon="171.788111">
				 <ele>41.9</ele>
			 </trkpt>
			 <trkpt lat="-41.847559" lon="171.788265">
				 <ele>42.5</ele>
			 </trkpt>
			 <trkpt lat="-41.847604" lon="171.788453">
				 <ele>43.2</ele>
			 </trkpt>
			 <trkpt lat="-41.847652" lon="171.788609">
				 <ele>43.8</ele>
			 </trkpt>
			 <trkpt lat="-41.847733" lon="171.788808">
				 <ele>44.3</ele>
			 </trkpt>
			 <trkpt lat="-41.847998" lon="171.789418">
				 <ele>44.5</ele>
			 </trkpt>
			 <trkpt lat="-41.848064" lon="171.789623">
				 <ele>44.5</ele>
			 </trkpt>
			 <trkpt lat="-41.848127" lon="171.78985">
				 <ele>44.6</ele>
			 </trkpt>
			 <trkpt lat="-41.848167" lon="171.790082">
				 <ele>45.4</ele>
			 </trkpt>
			 <trkpt lat="-41.848197" lon="171.790309">
				 <ele>46.4</ele>
			 </trkpt>
			 <trkpt lat="-41.848207" lon="171.790562">
				 <ele>47.5</ele>
			 </trkpt>
			 <trkpt lat="-41.848203" lon="171.790876">
				 <ele>48.5</ele>
			 </trkpt>
			 <trkpt lat="-41.848171" lon="171.792377">
				 <ele>49.5</ele>
			 </trkpt>
			 <trkpt lat="-41.848147" lon="171.792764">
				 <ele>50.8</ele>
			 </trkpt>
			 <trkpt lat="-41.848135" lon="171.792852">
				 <ele>51.5</ele>
			 </trkpt>
			 <trkpt lat="-41.848094" lon="171.793123">
				 <ele>51.5</ele>
			 </trkpt>
			 <trkpt lat="-41.847971" lon="171.793691">
				 <ele>51.7</ele>
			 </trkpt>
			 <trkpt lat="-41.847769" lon="171.794485">
				 <ele>52.2</ele>
			 </trkpt>
			 <trkpt lat="-41.847607" lon="171.795036">
				 <ele>52.5</ele>
			 </trkpt>
			 <trkpt lat="-41.847461" lon="171.795485">
				 <ele>52.2</ele>
			 </trkpt>
			 <trkpt lat="-41.847251" lon="171.796236">
				 <ele>51.5</ele>
			 </trkpt>
			 <trkpt lat="-41.847204" lon="171.796387">
				 <ele>50.7</ele>
			 </trkpt>
			 <trkpt lat="-41.847144" lon="171.796553">
				 <ele>50.2</ele>
			 </trkpt>
			 <trkpt lat="-41.847065" lon="171.796738">
				 <ele>49.6</ele>
			 </trkpt>
			 <trkpt lat="-41.846994" lon="171.796863">
				 <ele>48.9</ele>
			 </trkpt>
			 <trkpt lat="-41.846874" lon="171.797046">
				 <ele>48.8</ele>
			 </trkpt>
			 <trkpt lat="-41.846679" lon="171.79728">
				 <ele>48.9</ele>
			 </trkpt>
			 <trkpt lat="-41.846047" lon="171.797938">
				 <ele>48.9</ele>
			 </trkpt>
			 <trkpt lat="-41.845797" lon="171.798263">
				 <ele>48.7</ele>
			 </trkpt>
			 <trkpt lat="-41.845608" lon="171.798584">
				 <ele>48.5</ele>
			 </trkpt>
			 <trkpt lat="-41.845536" lon="171.798746">
				 <ele>48.4</ele>
			 </trkpt>
			 <trkpt lat="-41.845208" lon="171.79959">
				 <ele>48.3</ele>
			 </trkpt>
			 <trkpt lat="-41.84508" lon="171.799901">
				 <ele>48.1</ele>
			 </trkpt>
			 <trkpt lat="-41.84498" lon="171.800096">
				 <ele>47.7</ele>
			 </trkpt>
			 <trkpt lat="-41.844886" lon="171.800258">
				 <ele>47.4</ele>
			 </trkpt>
			 <trkpt lat="-41.844595" lon="171.800606">
				 <ele>47.1</ele>
			 </trkpt>
			 <trkpt lat="-41.844173" lon="171.801061">
				 <ele>46.9</ele>
			 </trkpt>
			 <trkpt lat="-41.843974" lon="171.801277">
				 <ele>47.4</ele>
			 </trkpt>
			 <trkpt lat="-41.843744" lon="171.801622">
				 <ele>48.1</ele>
			 </trkpt>
			 <trkpt lat="-41.843644" lon="171.801801">
				 <ele>49</ele>
			 </trkpt>
			 <trkpt lat="-41.843548" lon="171.802014">
				 <ele>50.3</ele>
			 </trkpt>
			 <trkpt lat="-41.843482" lon="171.802223">
				 <ele>51.5</ele>
			 </trkpt>
			 <trkpt lat="-41.843438" lon="171.802477">
				 <ele>52.5</ele>
			 </trkpt>
			 <trkpt lat="-41.84342" lon="171.802735">
				 <ele>53.4</ele>
			 </trkpt>
			 <trkpt lat="-41.84343" lon="171.802974">
				 <ele>54.1</ele>
			 </trkpt>
			 <trkpt lat="-41.843464" lon="171.803216">
				 <ele>54.9</ele>
			 </trkpt>
			 <trkpt lat="-41.843511" lon="171.803456">
				 <ele>55.4</ele>
			 </trkpt>
			 <trkpt lat="-41.843592" lon="171.803805">
				 <ele>55.7</ele>
			 </trkpt>
			 <trkpt lat="-41.84366" lon="171.804022">
				 <ele>55.3</ele>
			 </trkpt>
			 <trkpt lat="-41.843776" lon="171.804347">
				 <ele>54.6</ele>
			 </trkpt>
			 <trkpt lat="-41.843943" lon="171.804752">
				 <ele>54</ele>
			 </trkpt>
			 <trkpt lat="-41.844111" lon="171.805193">
				 <ele>53.1</ele>
			 </trkpt>
			 <trkpt lat="-41.844401" lon="171.805977">
				 <ele>52</ele>
			 </trkpt>
			 <trkpt lat="-41.844601" lon="171.806557">
				 <ele>51</ele>
			 </trkpt>
			 <trkpt lat="-41.844753" lon="171.80697">
				 <ele>50.2</ele>
			 </trkpt>
			 <trkpt lat="-41.844851" lon="171.807289">
				 <ele>49.3</ele>
			 </trkpt>
			 <trkpt lat="-41.844914" lon="171.807533">
				 <ele>48.5</ele>
			 </trkpt>
			 <trkpt lat="-41.844956" lon="171.807768">
				 <ele>48.2</ele>
			 </trkpt>
			 <trkpt lat="-41.845065" lon="171.808836">
				 <ele>48.2</ele>
			 </trkpt>
			 <trkpt lat="-41.845192" lon="171.810289">
				 <ele>48.8</ele>
			 </trkpt>
			 <trkpt lat="-41.845208" lon="171.810536">
				 <ele>49.2</ele>
			 </trkpt>
			 <trkpt lat="-41.845183" lon="171.81137">
				 <ele>49.5</ele>
			 </trkpt>
			 <trkpt lat="-41.845158" lon="171.811854">
				 <ele>50.1</ele>
			 </trkpt>
			 <trkpt lat="-41.845134" lon="171.812188">
				 <ele>50.7</ele>
			 </trkpt>
			 <trkpt lat="-41.845013" lon="171.812811">
				 <ele>51.2</ele>
			 </trkpt>
			 <trkpt lat="-41.844947" lon="171.813122">
				 <ele>51.4</ele>
			 </trkpt>
			 <trkpt lat="-41.844924" lon="171.813365">
				 <ele>51.8</ele>
			 </trkpt>
			 <trkpt lat="-41.844917" lon="171.813598">
				 <ele>52.1</ele>
			 </trkpt>
			 <trkpt lat="-41.844923" lon="171.813882">
				 <ele>52</ele>
			 </trkpt>
			 <trkpt lat="-41.844956" lon="171.814224">
				 <ele>51.7</ele>
			 </trkpt>
			 <trkpt lat="-41.845073" lon="171.815067">
				 <ele>51.6</ele>
			 </trkpt>
			 <trkpt lat="-41.845098" lon="171.815424">
				 <ele>51.8</ele>
			 </trkpt>
			 <trkpt lat="-41.845089" lon="171.815679">
				 <ele>52</ele>
			 </trkpt>
			 <trkpt lat="-41.845057" lon="171.815957">
				 <ele>52</ele>
			 </trkpt>
			 <trkpt lat="-41.845001" lon="171.81625">
				 <ele>52</ele>
			 </trkpt>
			 <trkpt lat="-41.844916" lon="171.81655">
				 <ele>52.3</ele>
			 </trkpt>
			 <trkpt lat="-41.844668" lon="171.817188">
				 <ele>52.6</ele>
			 </trkpt>
			 <trkpt lat="-41.844608" lon="171.81734">
				 <ele>52.6</ele>
			 </trkpt>
			 <trkpt lat="-41.844553" lon="171.81755">
				 <ele>52.5</ele>
			 </trkpt>
			 <trkpt lat="-41.844525" lon="171.817746">
				 <ele>52.2</ele>
			 </trkpt>
			 <trkpt lat="-41.844517" lon="171.817911">
				 <ele>51.7</ele>
			 </trkpt>
			 <trkpt lat="-41.844524" lon="171.818148">
				 <ele>51.1</ele>
			 </trkpt>
			 <trkpt lat="-41.84456" lon="171.818374">
				 <ele>50.6</ele>
			 </trkpt>
			 <trkpt lat="-41.844621" lon="171.818591">
				 <ele>50.2</ele>
			 </trkpt>
			 <trkpt lat="-41.844704" lon="171.818813">
				 <ele>49.7</ele>
			 </trkpt>
			 <trkpt lat="-41.844841" lon="171.819026">
				 <ele>49.3</ele>
			 </trkpt>
			 <trkpt lat="-41.845018" lon="171.819244">
				 <ele>49</ele>
			 </trkpt>
			 <trkpt lat="-41.845177" lon="171.81934">
				 <ele>48.7</ele>
			 </trkpt>
			 <trkpt lat="-41.845328" lon="171.819413">
				 <ele>48.5</ele>
			 </trkpt>
			 <trkpt lat="-41.845453" lon="171.819463">
				 <ele>48.3</ele>
			 </trkpt>
			 <trkpt lat="-41.845627" lon="171.819514">
				 <ele>48</ele>
			 </trkpt>
			 <trkpt lat="-41.846396" lon="171.81965">
				 <ele>47.7</ele>
			 </trkpt>
			 <trkpt lat="-41.846662" lon="171.819673">
				 <ele>47.5</ele>
			 </trkpt>
			 <trkpt lat="-41.846835" lon="171.819664">
				 <ele>47.3</ele>
			 </trkpt>
			 <trkpt lat="-41.847303" lon="171.819588">
				 <ele>47</ele>
			 </trkpt>
			 <trkpt lat="-41.847464" lon="171.81957">
				 <ele>46.8</ele>
			 </trkpt>
			 <trkpt lat="-41.847641" lon="171.81953">
				 <ele>46.6</ele>
			 </trkpt>
			 <trkpt lat="-41.847741" lon="171.819473">
				 <ele>46.4</ele>
			 </trkpt>
			 <trkpt lat="-41.847869" lon="171.819357">
				 <ele>46.3</ele>
			 </trkpt>
			 <trkpt lat="-41.84809" lon="171.819102">
				 <ele>46.3</ele>
			 </trkpt>
			 <trkpt lat="-41.848205" lon="171.818959">
				 <ele>46.5</ele>
			 </trkpt>
			 <trkpt lat="-41.848292" lon="171.818891">
				 <ele>46.6</ele>
			 </trkpt>
			 <trkpt lat="-41.848381" lon="171.818827">
				 <ele>47.3</ele>
			 </trkpt>
			 <trkpt lat="-41.848472" lon="171.818796">
				 <ele>47.9</ele>
			 </trkpt>
			 <trkpt lat="-41.848565" lon="171.818782">
				 <ele>48.5</ele>
			 </trkpt>
			 <trkpt lat="-41.848653" lon="171.818784">
				 <ele>48.5</ele>
			 </trkpt>
			 <trkpt lat="-41.849188" lon="171.818951">
				 <ele>48.3</ele>
			 </trkpt>
			 <trkpt lat="-41.849718" lon="171.819094">
				 <ele>47.9</ele>
			 </trkpt>
			 <trkpt lat="-41.849984" lon="171.819204">
				 <ele>47.4</ele>
			 </trkpt>
			 <trkpt lat="-41.850255" lon="171.81936">
				 <ele>46.8</ele>
			 </trkpt>
			 <trkpt lat="-41.851221" lon="171.820003">
				 <ele>46.5</ele>
			 </trkpt>
			 <trkpt lat="-41.851361" lon="171.820143">
				 <ele>46.1</ele>
			 </trkpt>
			 <trkpt lat="-41.85145" lon="171.82025">
				 <ele>45.8</ele>
			 </trkpt>
			 <trkpt lat="-41.851528" lon="171.820396">
				 <ele>45.2</ele>
			 </trkpt>
			 <trkpt lat="-41.851628" lon="171.820626">
				 <ele>44.5</ele>
			 </trkpt>
			 <trkpt lat="-41.851739" lon="171.820972">
				 <ele>43.8</ele>
			 </trkpt>
			 <trkpt lat="-41.851896" lon="171.821662">
				 <ele>43.7</ele>
			 </trkpt>
			 <trkpt lat="-41.852039" lon="171.822096">
				 <ele>44.5</ele>
			 </trkpt>
			 <trkpt lat="-41.852158" lon="171.822359">
				 <ele>45.5</ele>
			 </trkpt>
			 <trkpt lat="-41.85229" lon="171.822589">
				 <ele>46.5</ele>
			 </trkpt>
			 <trkpt lat="-41.852429" lon="171.822795">
				 <ele>47.3</ele>
			 </trkpt>
			 <trkpt lat="-41.852671" lon="171.823093">
				 <ele>48</ele>
			 </trkpt>
			 <trkpt lat="-41.853804" lon="171.824343">
				 <ele>48.8</ele>
			 </trkpt>
			 <trkpt lat="-41.854013" lon="171.824583">
				 <ele>49.6</ele>
			 </trkpt>
			 <trkpt lat="-41.854136" lon="171.824772">
				 <ele>50.4</ele>
			 </trkpt>
			 <trkpt lat="-41.854365" lon="171.825268">
				 <ele>51</ele>
			 </trkpt>
			 <trkpt lat="-41.855234" lon="171.827256">
				 <ele>51.5</ele>
			 </trkpt>
			 <trkpt lat="-41.855447" lon="171.827696">
				 <ele>52.2</ele>
			 </trkpt>
			 <trkpt lat="-41.855542" lon="171.827858">
				 <ele>52.2</ele>
			 </trkpt>
			 <trkpt lat="-41.855662" lon="171.828031">
				 <ele>52.4</ele>
			 </trkpt>
			 <trkpt lat="-41.855849" lon="171.828274">
				 <ele>52.6</ele>
			 </trkpt>
			 <trkpt lat="-41.85599" lon="171.828471">
				 <ele>52.8</ele>
			 </trkpt>
			 <trkpt lat="-41.85609" lon="171.828677">
				 <ele>52.6</ele>
			 </trkpt>
			 <trkpt lat="-41.85615" lon="171.828842">
				 <ele>52.5</ele>
			 </trkpt>
			 <trkpt lat="-41.856195" lon="171.828991">
				 <ele>52.5</ele>
			 </trkpt>
			 <trkpt lat="-41.856252" lon="171.829262">
				 <ele>52.4</ele>
			 </trkpt>
			 <trkpt lat="-41.856355" lon="171.829968">
				 <ele>52.1</ele>
			 </trkpt>
			 <trkpt lat="-41.856478" lon="171.830925">
				 <ele>51.6</ele>
			 </trkpt>
			 <trkpt lat="-41.856535" lon="171.831253">
				 <ele>51.5</ele>
			 </trkpt>
			 <trkpt lat="-41.856591" lon="171.831472">
				 <ele>51.4</ele>
			 </trkpt>
			 <trkpt lat="-41.856681" lon="171.831699">
				 <ele>51.1</ele>
			 </trkpt>
			 <trkpt lat="-41.856791" lon="171.83189">
				 <ele>50.9</ele>
			 </trkpt>
			 <trkpt lat="-41.856905" lon="171.832031">
				 <ele>51</ele>
			 </trkpt>
			 <trkpt lat="-41.857099" lon="171.832294">
				 <ele>51.4</ele>
			 </trkpt>
			 <trkpt lat="-41.857225" lon="171.832492">
				 <ele>51.5</ele>
			 </trkpt>
			 <trkpt lat="-41.857325" lon="171.832681">
				 <ele>51.6</ele>
			 </trkpt>
			 <trkpt lat="-41.857501" lon="171.833123">
				 <ele>51.7</ele>
			 </trkpt>
			 <trkpt lat="-41.857643" lon="171.833449">
				 <ele>52.3</ele>
			 </trkpt>
			 <trkpt lat="-41.857779" lon="171.83374">
				 <ele>53.2</ele>
			 </trkpt>
			 <trkpt lat="-41.85789" lon="171.833936">
				 <ele>53.5</ele>
			 </trkpt>
			 <trkpt lat="-41.858146" lon="171.834284">
				 <ele>53.4</ele>
			 </trkpt>
			 <trkpt lat="-41.858276" lon="171.834477">
				 <ele>53.2</ele>
			 </trkpt>
			 <trkpt lat="-41.858416" lon="171.834778">
				 <ele>52.7</ele>
			 </trkpt>
			 <trkpt lat="-41.858519" lon="171.835101">
				 <ele>52.2</ele>
			 </trkpt>
			 <trkpt lat="-41.858579" lon="171.835363">
				 <ele>51.4</ele>
			 </trkpt>
			 <trkpt lat="-41.858599" lon="171.835605">
				 <ele>50.5</ele>
			 </trkpt>
			 <trkpt lat="-41.858591" lon="171.835849">
				 <ele>49.6</ele>
			 </trkpt>
			 <trkpt lat="-41.858555" lon="171.836091">
				 <ele>48.9</ele>
			 </trkpt>
			 <trkpt lat="-41.858495" lon="171.836345">
				 <ele>48</ele>
			 </trkpt>
			 <trkpt lat="-41.858333" lon="171.83696">
				 <ele>47</ele>
			 </trkpt>
			 <trkpt lat="-41.858298" lon="171.83718">
				 <ele>46.2</ele>
			 </trkpt>
			 <trkpt lat="-41.858267" lon="171.837478">
				 <ele>45.5</ele>
			 </trkpt>
			 <trkpt lat="-41.858259" lon="171.837833">
				 <ele>44.8</ele>
			 </trkpt>
			 <trkpt lat="-41.858292" lon="171.838314">
				 <ele>44.6</ele>
			 </trkpt>
			 <trkpt lat="-41.858418" lon="171.839304">
				 <ele>44.8</ele>
			 </trkpt>
			 <trkpt lat="-41.858429" lon="171.839521">
				 <ele>45.5</ele>
			 </trkpt>
			 <trkpt lat="-41.858426" lon="171.839682">
				 <ele>46.4</ele>
			 </trkpt>
			 <trkpt lat="-41.858397" lon="171.839886">
				 <ele>47</ele>
			 </trkpt>
			 <trkpt lat="-41.858348" lon="171.840097">
				 <ele>48.3</ele>
			 </trkpt>
			 <trkpt lat="-41.85828" lon="171.840293">
				 <ele>49.6</ele>
			 </trkpt>
			 <trkpt lat="-41.858177" lon="171.840525">
				 <ele>51.2</ele>
			 </trkpt>
			 <trkpt lat="-41.858074" lon="171.840703">
				 <ele>52.7</ele>
			 </trkpt>
			 <trkpt lat="-41.857897" lon="171.840948">
				 <ele>54.2</ele>
			 </trkpt>
			 <trkpt lat="-41.857221" lon="171.841746">
				 <ele>55.8</ele>
			 </trkpt>
			 <trkpt lat="-41.856858" lon="171.842293">
				 <ele>57.2</ele>
			 </trkpt>
			 <trkpt lat="-41.856696" lon="171.842567">
				 <ele>58.1</ele>
			 </trkpt>
			 <trkpt lat="-41.856584" lon="171.842804">
				 <ele>58.5</ele>
			 </trkpt>
			 <trkpt lat="-41.856553" lon="171.84278">
				 <ele>58.4</ele>
			 </trkpt>
			 <trkpt lat="-41.856584" lon="171.842804">
				 <ele>58.5</ele>
			 </trkpt>
			 <trkpt lat="-41.856696" lon="171.842567">
				 <ele>58.1</ele>
			 </trkpt>
			 <trkpt lat="-41.856858" lon="171.842293">
				 <ele>57.2</ele>
			 </trkpt>
			 <trkpt lat="-41.857221" lon="171.841746">
				 <ele>55.8</ele>
			 </trkpt>
			 <trkpt lat="-41.857897" lon="171.840948">
				 <ele>54.2</ele>
			 </trkpt>
			 <trkpt lat="-41.858074" lon="171.840703">
				 <ele>52.7</ele>
			 </trkpt>
			 <trkpt lat="-41.858177" lon="171.840525">
				 <ele>51.2</ele>
			 </trkpt>
			 <trkpt lat="-41.85828" lon="171.840293">
				 <ele>49.6</ele>
			 </trkpt>
			 <trkpt lat="-41.858348" lon="171.840097">
				 <ele>48.3</ele>
			 </trkpt>
			 <trkpt lat="-41.858397" lon="171.839886">
				 <ele>47</ele>
			 </trkpt>
			 <trkpt lat="-41.858426" lon="171.839682">
				 <ele>46.4</ele>
			 </trkpt>
			 <trkpt lat="-41.858429" lon="171.839521">
				 <ele>45.5</ele>
			 </trkpt>
			 <trkpt lat="-41.858418" lon="171.839304">
				 <ele>44.8</ele>
			 </trkpt>
			 <trkpt lat="-41.858292" lon="171.838314">
				 <ele>44.6</ele>
			 </trkpt>
			 <trkpt lat="-41.858259" lon="171.837833">
				 <ele>44.8</ele>
			 </trkpt>
			 <trkpt lat="-41.858267" lon="171.837478">
				 <ele>45.5</ele>
			 </trkpt>
			 <trkpt lat="-41.858298" lon="171.83718">
				 <ele>46.2</ele>
			 </trkpt>
			 <trkpt lat="-41.858333" lon="171.83696">
				 <ele>47</ele>
			 </trkpt>
			 <trkpt lat="-41.858495" lon="171.836345">
				 <ele>48</ele>
			 </trkpt>
			 <trkpt lat="-41.858555" lon="171.836091">
				 <ele>48.9</ele>
			 </trkpt>
			 <trkpt lat="-41.858591" lon="171.835849">
				 <ele>49.6</ele>
			 </trkpt>
			 <trkpt lat="-41.858599" lon="171.835605">
				 <ele>50.5</ele>
			 </trkpt>
			 <trkpt lat="-41.858579" lon="171.835363">
				 <ele>51.4</ele>
			 </trkpt>
			 <trkpt lat="-41.858519" lon="171.835101">
				 <ele>52.2</ele>
			 </trkpt>
			 <trkpt lat="-41.858416" lon="171.834778">
				 <ele>52.7</ele>
			 </trkpt>
			 <trkpt lat="-41.858276" lon="171.834477">
				 <ele>53.2</ele>
			 </trkpt>
			 <trkpt lat="-41.858146" lon="171.834284">
				 <ele>53.4</ele>
			 </trkpt>
			 <trkpt lat="-41.85789" lon="171.833936">
				 <ele>53.5</ele>
			 </trkpt>
			 <trkpt lat="-41.857779" lon="171.83374">
				 <ele>53.2</ele>
			 </trkpt>
			 <trkpt lat="-41.857643" lon="171.833449">
				 <ele>52.3</ele>
			 </trkpt>
			 <trkpt lat="-41.857501" lon="171.833123">
				 <ele>51.7</ele>
			 </trkpt>
			 <trkpt lat="-41.857325" lon="171.832681">
				 <ele>51.6</ele>
			 </trkpt>
			 <trkpt lat="-41.857225" lon="171.832492">
				 <ele>51.5</ele>
			 </trkpt>
			 <trkpt lat="-41.857099" lon="171.832294">
				 <ele>51.4</ele>
			 </trkpt>
			 <trkpt lat="-41.856905" lon="171.832031">
				 <ele>51</ele>
			 </trkpt>
			 <trkpt lat="-41.856791" lon="171.83189">
				 <ele>50.9</ele>
			 </trkpt>
			 <trkpt lat="-41.856681" lon="171.831699">
				 <ele>51.1</ele>
			 </trkpt>
			 <trkpt lat="-41.856591" lon="171.831472">
				 <ele>51.4</ele>
			 </trkpt>
			 <trkpt lat="-41.856535" lon="171.831253">
				 <ele>51.5</ele>
			 </trkpt>
			 <trkpt lat="-41.856478" lon="171.830925">
				 <ele>51.6</ele>
			 </trkpt>
			 <trkpt lat="-41.856355" lon="171.829968">
				 <ele>52.1</ele>
			 </trkpt>
			 <trkpt lat="-41.856252" lon="171.829262">
				 <ele>52.4</ele>
			 </trkpt>
			 <trkpt lat="-41.856195" lon="171.828991">
				 <ele>52.5</ele>
			 </trkpt>
			 <trkpt lat="-41.85615" lon="171.828842">
				 <ele>52.5</ele>
			 </trkpt>
			 <trkpt lat="-41.85609" lon="171.828677">
				 <ele>52.6</ele>
			 </trkpt>
			 <trkpt lat="-41.85599" lon="171.828471">
				 <ele>52.8</ele>
			 </trkpt>
			 <trkpt lat="-41.855849" lon="171.828274">
				 <ele>52.6</ele>
			 </trkpt>
			 <trkpt lat="-41.855662" lon="171.828031">
				 <ele>52.4</ele>
			 </trkpt>
			 <trkpt lat="-41.855542" lon="171.827858">
				 <ele>52.2</ele>
			 </trkpt>
			 <trkpt lat="-41.855447" lon="171.827696">
				 <ele>52.2</ele>
			 </trkpt>
			 <trkpt lat="-41.855234" lon="171.827256">
				 <ele>51.5</ele>
			 </trkpt>
			 <trkpt lat="-41.854365" lon="171.825268">
				 <ele>51</ele>
			 </trkpt>
			 <trkpt lat="-41.854136" lon="171.824772">
				 <ele>50.4</ele>
			 </trkpt>
			 <trkpt lat="-41.854013" lon="171.824583">
				 <ele>49.6</ele>
			 </trkpt>
			 <trkpt lat="-41.853804" lon="171.824343">
				 <ele>48.8</ele>
			 </trkpt>
			 <trkpt lat="-41.852671" lon="171.823093">
				 <ele>48</ele>
			 </trkpt>
			 <trkpt lat="-41.852429" lon="171.822795">
				 <ele>47.3</ele>
			 </trkpt>
			 <trkpt lat="-41.85229" lon="171.822589">
				 <ele>46.5</ele>
			 </trkpt>
			 <trkpt lat="-41.852158" lon="171.822359">
				 <ele>45.5</ele>
			 </trkpt>
			 <trkpt lat="-41.852039" lon="171.822096">
				 <ele>44.5</ele>
			 </trkpt>
			 <trkpt lat="-41.851896" lon="171.821662">
				 <ele>43.7</ele>
			 </trkpt>
			 <trkpt lat="-41.851739" lon="171.820972">
				 <ele>43.8</ele>
			 </trkpt>
			 <trkpt lat="-41.851628" lon="171.820626">
				 <ele>44.5</ele>
			 </trkpt>
			 <trkpt lat="-41.851528" lon="171.820396">
				 <ele>45.2</ele>
			 </trkpt>
			 <trkpt lat="-41.85145" lon="171.82025">
				 <ele>45.8</ele>
			 </trkpt>
			 <trkpt lat="-41.851361" lon="171.820143">
				 <ele>46.1</ele>
			 </trkpt>
			 <trkpt lat="-41.851221" lon="171.820003">
				 <ele>46.5</ele>
			 </trkpt>
			 <trkpt lat="-41.850255" lon="171.81936">
				 <ele>46.8</ele>
			 </trkpt>
			 <trkpt lat="-41.849984" lon="171.819204">
				 <ele>47.4</ele>
			 </trkpt>
			 <trkpt lat="-41.849718" lon="171.819094">
				 <ele>47.9</ele>
			 </trkpt>
			 <trkpt lat="-41.849188" lon="171.818951">
				 <ele>48.3</ele>
			 </trkpt>
			 <trkpt lat="-41.848653" lon="171.818784">
				 <ele>48.5</ele>
			 </trkpt>
			 <trkpt lat="-41.848565" lon="171.818782">
				 <ele>48.5</ele>
			 </trkpt>
			 <trkpt lat="-41.848472" lon="171.818796">
				 <ele>47.9</ele>
			 </trkpt>
			 <trkpt lat="-41.848381" lon="171.818827">
				 <ele>47.3</ele>
			 </trkpt>
			 <trkpt lat="-41.848292" lon="171.818891">
				 <ele>46.6</ele>
			 </trkpt>
			 <trkpt lat="-41.848205" lon="171.818959">
				 <ele>46.5</ele>
			 </trkpt>
			 <trkpt lat="-41.84809" lon="171.819102">
				 <ele>46.3</ele>
			 </trkpt>
			 <trkpt lat="-41.847869" lon="171.819357">
				 <ele>46.3</ele>
			 </trkpt>
			 <trkpt lat="-41.847741" lon="171.819473">
				 <ele>46.4</ele>
			 </trkpt>
			 <trkpt lat="-41.847641" lon="171.81953">
				 <ele>46.6</ele>
			 </trkpt>
			 <trkpt lat="-41.847464" lon="171.81957">
				 <ele>46.8</ele>
			 </trkpt>
			 <trkpt lat="-41.847303" lon="171.819588">
				 <ele>47</ele>
			 </trkpt>
			 <trkpt lat="-41.846835" lon="171.819664">
				 <ele>47.3</ele>
			 </trkpt>
			 <trkpt lat="-41.846662" lon="171.819673">
				 <ele>47.5</ele>
			 </trkpt>
			 <trkpt lat="-41.846396" lon="171.81965">
				 <ele>47.7</ele>
			 </trkpt>
			 <trkpt lat="-41.845627" lon="171.819514">
				 <ele>48</ele>
			 </trkpt>
			 <trkpt lat="-41.845453" lon="171.819463">
				 <ele>48.3</ele>
			 </trkpt>
			 <trkpt lat="-41.845328" lon="171.819413">
				 <ele>48.5</ele>
			 </trkpt>
			 <trkpt lat="-41.845177" lon="171.81934">
				 <ele>48.7</ele>
			 </trkpt>
			 <trkpt lat="-41.845018" lon="171.819244">
				 <ele>49</ele>
			 </trkpt>
			 <trkpt lat="-41.844841" lon="171.819026">
				 <ele>49.3</ele>
			 </trkpt>
			 <trkpt lat="-41.844704" lon="171.818813">
				 <ele>49.7</ele>
			 </trkpt>
			 <trkpt lat="-41.844621" lon="171.818591">
				 <ele>50.2</ele>
			 </trkpt>
			 <trkpt lat="-41.84456" lon="171.818374">
				 <ele>50.6</ele>
			 </trkpt>
			 <trkpt lat="-41.844524" lon="171.818148">
				 <ele>51.2</ele>
			 </trkpt>
			 <trkpt lat="-41.844517" lon="171.817911">
				 <ele>51.7</ele>
			 </trkpt>
			 <trkpt lat="-41.844525" lon="171.817746">
				 <ele>52.1</ele>
			 </trkpt>
			 <trkpt lat="-41.844553" lon="171.81755">
				 <ele>52.4</ele>
			 </trkpt>
			 <trkpt lat="-41.844608" lon="171.81734">
				 <ele>52.5</ele>
			 </trkpt>
			 <trkpt lat="-41.844916" lon="171.81655">
				 <ele>52.2</ele>
			 </trkpt>
			 <trkpt lat="-41.845001" lon="171.81625">
				 <ele>52</ele>
			 </trkpt>
			 <trkpt lat="-41.845057" lon="171.815957">
				 <ele>52</ele>
			 </trkpt>
			 <trkpt lat="-41.845089" lon="171.815679">
				 <ele>52</ele>
			 </trkpt>
			 <trkpt lat="-41.845098" lon="171.815424">
				 <ele>51.8</ele>
			 </trkpt>
			 <trkpt lat="-41.845073" lon="171.815067">
				 <ele>51.6</ele>
			 </trkpt>
			 <trkpt lat="-41.844956" lon="171.814224">
				 <ele>51.7</ele>
			 </trkpt>
			 <trkpt lat="-41.844923" lon="171.813882">
				 <ele>52</ele>
			 </trkpt>
			 <trkpt lat="-41.844917" lon="171.813598">
				 <ele>52.1</ele>
			 </trkpt>
			 <trkpt lat="-41.844924" lon="171.813365">
				 <ele>51.8</ele>
			 </trkpt>
			 <trkpt lat="-41.844947" lon="171.813122">
				 <ele>51.4</ele>
			 </trkpt>
			 <trkpt lat="-41.845013" lon="171.812811">
				 <ele>51.2</ele>
			 </trkpt>
			 <trkpt lat="-41.845134" lon="171.812188">
				 <ele>50.7</ele>
			 </trkpt>
			 <trkpt lat="-41.845158" lon="171.811854">
				 <ele>50.1</ele>
			 </trkpt>
			 <trkpt lat="-41.845183" lon="171.81137">
				 <ele>49.5</ele>
			 </trkpt>
			 <trkpt lat="-41.845208" lon="171.810536">
				 <ele>49.2</ele>
			 </trkpt>
			 <trkpt lat="-41.845192" lon="171.810289">
				 <ele>48.8</ele>
			 </trkpt>
			 <trkpt lat="-41.845065" lon="171.808836">
				 <ele>48.2</ele>
			 </trkpt>
			 <trkpt lat="-41.844956" lon="171.807768">
				 <ele>48.2</ele>
			 </trkpt>
			 <trkpt lat="-41.844914" lon="171.807533">
				 <ele>48.5</ele>
			 </trkpt>
			 <trkpt lat="-41.844851" lon="171.807289">
				 <ele>49.3</ele>
			 </trkpt>
			 <trkpt lat="-41.844753" lon="171.80697">
				 <ele>50.2</ele>
			 </trkpt>
			 <trkpt lat="-41.844601" lon="171.806557">
				 <ele>51</ele>
			 </trkpt>
			 <trkpt lat="-41.844401" lon="171.805977">
				 <ele>52</ele>
			 </trkpt>
			 <trkpt lat="-41.844111" lon="171.805193">
				 <ele>53.1</ele>
			 </trkpt>
			 <trkpt lat="-41.843943" lon="171.804752">
				 <ele>54</ele>
			 </trkpt>
			 <trkpt lat="-41.843776" lon="171.804347">
				 <ele>54.6</ele>
			 </trkpt>
			 <trkpt lat="-41.84366" lon="171.804022">
				 <ele>55.3</ele>
			 </trkpt>
			 <trkpt lat="-41.843592" lon="171.803805">
				 <ele>55.7</ele>
			 </trkpt>
			 <trkpt lat="-41.843511" lon="171.803456">
				 <ele>55.4</ele>
			 </trkpt>
			 <trkpt lat="-41.843464" lon="171.803216">
				 <ele>54.9</ele>
			 </trkpt>
			 <trkpt lat="-41.84343" lon="171.802974">
				 <ele>54.1</ele>
			 </trkpt>
			 <trkpt lat="-41.84342" lon="171.802735">
				 <ele>53.4</ele>
			 </trkpt>
			 <trkpt lat="-41.843438" lon="171.802477">
				 <ele>52.5</ele>
			 </trkpt>
			 <trkpt lat="-41.843482" lon="171.802223">
				 <ele>51.5</ele>
			 </trkpt>
			 <trkpt lat="-41.843548" lon="171.802014">
				 <ele>50.2</ele>
			 </trkpt>
			 <trkpt lat="-41.843644" lon="171.801801">
				 <ele>48.9</ele>
			 </trkpt>
			 <trkpt lat="-41.843744" lon="171.801622">
				 <ele>48</ele>
			 </trkpt>
			 <trkpt lat="-41.843974" lon="171.801277">
				 <ele>47.3</ele>
			 </trkpt>
			 <trkpt lat="-41.844595" lon="171.800606">
				 <ele>46.8</ele>
			 </trkpt>
			 <trkpt lat="-41.844702" lon="171.800479">
				 <ele>47</ele>
			 </trkpt>
			 <trkpt lat="-41.844886" lon="171.800258">
				 <ele>47.3</ele>
			 </trkpt>
			 <trkpt lat="-41.84498" lon="171.800096">
				 <ele>47.6</ele>
			 </trkpt>
			 <trkpt lat="-41.84508" lon="171.799901">
				 <ele>48</ele>
			 </trkpt>
			 <trkpt lat="-41.845208" lon="171.79959">
				 <ele>48.2</ele>
			 </trkpt>
			 <trkpt lat="-41.845536" lon="171.798746">
				 <ele>48.3</ele>
			 </trkpt>
			 <trkpt lat="-41.845608" lon="171.798584">
				 <ele>48.5</ele>
			 </trkpt>
			 <trkpt lat="-41.845797" lon="171.798263">
				 <ele>48.7</ele>
			 </trkpt>
			 <trkpt lat="-41.846047" lon="171.797938">
				 <ele>48.9</ele>
			 </trkpt>
			 <trkpt lat="-41.846679" lon="171.79728">
				 <ele>48.9</ele>
			 </trkpt>
			 <trkpt lat="-41.846874" lon="171.797046">
				 <ele>48.8</ele>
			 </trkpt>
			 <trkpt lat="-41.846994" lon="171.796863">
				 <ele>48.9</ele>
			 </trkpt>
			 <trkpt lat="-41.847065" lon="171.796738">
				 <ele>49.6</ele>
			 </trkpt>
			 <trkpt lat="-41.847144" lon="171.796553">
				 <ele>50.2</ele>
			 </trkpt>
			 <trkpt lat="-41.847204" lon="171.796387">
				 <ele>50.7</ele>
			 </trkpt>
			 <trkpt lat="-41.847251" lon="171.796236">
				 <ele>51.7</ele>
			 </trkpt>
			 <trkpt lat="-41.847461" lon="171.795485">
				 <ele>52.6</ele>
			 </trkpt>
			 <trkpt lat="-41.847607" lon="171.795036">
				 <ele>53</ele>
			 </trkpt>
			 <trkpt lat="-41.847769" lon="171.794485">
				 <ele>52.6</ele>
			 </trkpt>
			 <trkpt lat="-41.847971" lon="171.793691">
				 <ele>52.2</ele>
			 </trkpt>
			 <trkpt lat="-41.847993" lon="171.793594">
				 <ele>52</ele>
			 </trkpt>
			 <trkpt lat="-41.848094" lon="171.793123">
				 <ele>51.9</ele>
			 </trkpt>
			 <trkpt lat="-41.848147" lon="171.792764">
				 <ele>51.3</ele>
			 </trkpt>
			 <trkpt lat="-41.848171" lon="171.792377">
				 <ele>50</ele>
			 </trkpt>
			 <trkpt lat="-41.848203" lon="171.790876">
				 <ele>49</ele>
			 </trkpt>
			 <trkpt lat="-41.848207" lon="171.790562">
				 <ele>48</ele>
			 </trkpt>
			 <trkpt lat="-41.848197" lon="171.790309">
				 <ele>46.6</ele>
			 </trkpt>
			 <trkpt lat="-41.848167" lon="171.790082">
				 <ele>45.4</ele>
			 </trkpt>
			 <trkpt lat="-41.848127" lon="171.78985">
				 <ele>44.6</ele>
			 </trkpt>
			 <trkpt lat="-41.848064" lon="171.789623">
				 <ele>44.5</ele>
			 </trkpt>
			 <trkpt lat="-41.847998" lon="171.789418">
				 <ele>44.5</ele>
			 </trkpt>
			 <trkpt lat="-41.847733" lon="171.788808">
				 <ele>44.3</ele>
			 </trkpt>
			 <trkpt lat="-41.847652" lon="171.788609">
				 <ele>43.8</ele>
			 </trkpt>
			 <trkpt lat="-41.847604" lon="171.788453">
				 <ele>43.2</ele>
			 </trkpt>
			 <trkpt lat="-41.847559" lon="171.788265">
				 <ele>42.5</ele>
			 </trkpt>
			 <trkpt lat="-41.84754" lon="171.788111">
				 <ele>41.9</ele>
			 </trkpt>
			 <trkpt lat="-41.847534" lon="171.787959">
				 <ele>41.5</ele>
			 </trkpt>
			 <trkpt lat="-41.847539" lon="171.787804">
				 <ele>41.4</ele>
			 </trkpt>
			 <trkpt lat="-41.847553" lon="171.787648">
				 <ele>41.4</ele>
			 </trkpt>
			 <trkpt lat="-41.847573" lon="171.787514">
				 <ele>41.4</ele>
			 </trkpt>
			 <trkpt lat="-41.847613" lon="171.78735">
				 <ele>41.5</ele>
			 </trkpt>
			 <trkpt lat="-41.847782" lon="171.786851">
				 <ele>41.5</ele>
			 </trkpt>
			 <trkpt lat="-41.847954" lon="171.786428">
				 <ele>41.6</ele>
			 </trkpt>
			 <trkpt lat="-41.848034" lon="171.786264">
				 <ele>41.7</ele>
			 </trkpt>
			 <trkpt lat="-41.848203" lon="171.785993">
				 <ele>41.8</ele>
			 </trkpt>
			 <trkpt lat="-41.848325" lon="171.785843">
				 <ele>42</ele>
			 </trkpt>
			 <trkpt lat="-41.84842" lon="171.785741">
				 <ele>42.3</ele>
			 </trkpt>
			 <trkpt lat="-41.848515" lon="171.785655">
				 <ele>42.3</ele>
			 </trkpt>
			 <trkpt lat="-41.848607" lon="171.785591">
				 <ele>42.3</ele>
			 </trkpt>
			 <trkpt lat="-41.848767" lon="171.785495">
				 <ele>42.5</ele>
			 </trkpt>
			 <trkpt lat="-41.848941" lon="171.785411">
				 <ele>42.7</ele>
			 </trkpt>
			 <trkpt lat="-41.849282" lon="171.785268">
				 <ele>43.1</ele>
			 </trkpt>
			 <trkpt lat="-41.849795" lon="171.785032">
				 <ele>43.4</ele>
			 </trkpt>
			 <trkpt lat="-41.849948" lon="171.784966">
				 <ele>43.5</ele>
			 </trkpt>
			 <trkpt lat="-41.850246" lon="171.784837">
				 <ele>43.5</ele>
			 </trkpt>
			 <trkpt lat="-41.850436" lon="171.784747">
				 <ele>43.6</ele>
			 </trkpt>
			 <trkpt lat="-41.850667" lon="171.784625">
				 <ele>43.6</ele>
			 </trkpt>
			 <trkpt lat="-41.850771" lon="171.784542">
				 <ele>43.5</ele>
			 </trkpt>
			 <trkpt lat="-41.850912" lon="171.784394">
				 <ele>43.6</ele>
			 </trkpt>
			 <trkpt lat="-41.851057" lon="171.784198">
				 <ele>43.7</ele>
			 </trkpt>
			 <trkpt lat="-41.851356" lon="171.783688">
				 <ele>43.6</ele>
			 </trkpt>
			 <trkpt lat="-41.851479" lon="171.783499">
				 <ele>43.5</ele>
			 </trkpt>
			 <trkpt lat="-41.851643" lon="171.783309">
				 <ele>43.6</ele>
			 </trkpt>
			 <trkpt lat="-41.851751" lon="171.783226">
				 <ele>44.2</ele>
			 </trkpt>
			 <trkpt lat="-41.851841" lon="171.783174">
				 <ele>44.9</ele>
			 </trkpt>
			 <trkpt lat="-41.851948" lon="171.783137">
				 <ele>45.8</ele>
			 </trkpt>
			 <trkpt lat="-41.852113" lon="171.783108">
				 <ele>46.6</ele>
			 </trkpt>
			 <trkpt lat="-41.852935" lon="171.783114">
				 <ele>47.3</ele>
			 </trkpt>
			 <trkpt lat="-41.853114" lon="171.783108">
				 <ele>47.8</ele>
			 </trkpt>
			 <trkpt lat="-41.853211" lon="171.783087">
				 <ele>48.3</ele>
			 </trkpt>
			 <trkpt lat="-41.85331" lon="171.783053">
				 <ele>48.7</ele>
			 </trkpt>
			 <trkpt lat="-41.853486" lon="171.782959">
				 <ele>49.3</ele>
			 </trkpt>
			 <trkpt lat="-41.853746" lon="171.782768">
				 <ele>49.9</ele>
			 </trkpt>
			 <trkpt lat="-41.853904" lon="171.782669">
				 <ele>50.3</ele>
			 </trkpt>
			 <trkpt lat="-41.853992" lon="171.782639">
				 <ele>50.6</ele>
			 </trkpt>
			 <trkpt lat="-41.854075" lon="171.782623">
				 <ele>51</ele>
			 </trkpt>
			 <trkpt lat="-41.854173" lon="171.782626">
				 <ele>51.5</ele>
			 </trkpt>
			 <trkpt lat="-41.85436" lon="171.782662">
				 <ele>51.9</ele>
			 </trkpt>
			 <trkpt lat="-41.85446" lon="171.782705">
				 <ele>52.5</ele>
			 </trkpt>
			 <trkpt lat="-41.854579" lon="171.782781">
				 <ele>53.1</ele>
			 </trkpt>
			 <trkpt lat="-41.854669" lon="171.782822">
				 <ele>53.8</ele>
			 </trkpt>
			 <trkpt lat="-41.854765" lon="171.782853">
				 <ele>54.1</ele>
			 </trkpt>
			 <trkpt lat="-41.85488" lon="171.782869">
				 <ele>54.2</ele>
			 </trkpt>
			 <trkpt lat="-41.854969" lon="171.782871">
				 <ele>54.2</ele>
			 </trkpt>
			 <trkpt lat="-41.855171" lon="171.782819">
				 <ele>53.5</ele>
			 </trkpt>
			 <trkpt lat="-41.855777" lon="171.782597">
				 <ele>52.3</ele>
			 </trkpt>
			 <trkpt lat="-41.8562" lon="171.782475">
				 <ele>51</ele>
			 </trkpt>
			 <trkpt lat="-41.856476" lon="171.782416">
				 <ele>50</ele>
			 </trkpt>
			 <trkpt lat="-41.856821" lon="171.782365">
				 <ele>48.8</ele>
			 </trkpt>
			 <trkpt lat="-41.857357" lon="171.782313">
				 <ele>47.4</ele>
			 </trkpt>
			 <trkpt lat="-41.858799" lon="171.782154">
				 <ele>45.9</ele>
			 </trkpt>
			 <trkpt lat="-41.859237" lon="171.782096">
				 <ele>44.4</ele>
			 </trkpt>
			 <trkpt lat="-41.860216" lon="171.781924">
				 <ele>43.2</ele>
			 </trkpt>
			 <trkpt lat="-41.860494" lon="171.781882">
				 <ele>42.2</ele>
			 </trkpt>
			 <trkpt lat="-41.860755" lon="171.781862">
				 <ele>40.9</ele>
			 </trkpt>
			 <trkpt lat="-41.86094" lon="171.781898">
				 <ele>40.1</ele>
			 </trkpt>
			 <trkpt lat="-41.861027" lon="171.78193">
				 <ele>39.6</ele>
			 </trkpt>
			 <trkpt lat="-41.861617" lon="171.78217">
				 <ele>39.2</ele>
			 </trkpt>
			 <trkpt lat="-41.861966" lon="171.782267">
				 <ele>38.4</ele>
			 </trkpt>
			 <trkpt lat="-41.862239" lon="171.782321">
				 <ele>38.3</ele>
			 </trkpt>
			 <trkpt lat="-41.862602" lon="171.782381">
				 <ele>38.6</ele>
			 </trkpt>
			 <trkpt lat="-41.862775" lon="171.78239">
				 <ele>39.4</ele>
			 </trkpt>
			 <trkpt lat="-41.862969" lon="171.782371">
				 <ele>40</ele>
			 </trkpt>
			 <trkpt lat="-41.863212" lon="171.782311">
				 <ele>40.1</ele>
			 </trkpt>
			 <trkpt lat="-41.864038" lon="171.782022">
				 <ele>39.9</ele>
			 </trkpt>
			 <trkpt lat="-41.864153" lon="171.781973">
				 <ele>39.9</ele>
			 </trkpt>
			 <trkpt lat="-41.86434" lon="171.781839">
				 <ele>40</ele>
			 </trkpt>
			 <trkpt lat="-41.864464" lon="171.781708">
				 <ele>40.5</ele>
			 </trkpt>
			 <trkpt lat="-41.86461" lon="171.781486">
				 <ele>41</ele>
			 </trkpt>
			 <trkpt lat="-41.86471" lon="171.781285">
				 <ele>41.5</ele>
			 </trkpt>
			 <trkpt lat="-41.864834" lon="171.78083">
				 <ele>41.5</ele>
			 </trkpt>
			 <trkpt lat="-41.864902" lon="171.780622">
				 <ele>41</ele>
			 </trkpt>
			 <trkpt lat="-41.864994" lon="171.780301">
				 <ele>40</ele>
			 </trkpt>
			 <trkpt lat="-41.865006" lon="171.780227">
				 <ele>38.8</ele>
			 </trkpt>
			 <trkpt lat="-41.865001" lon="171.780094">
				 <ele>37.9</ele>
			 </trkpt>
			 <trkpt lat="-41.864984" lon="171.780018">
				 <ele>37.2</ele>
			 </trkpt>
			 <trkpt lat="-41.864935" lon="171.779882">
				 <ele>36.5</ele>
			 </trkpt>
			 <trkpt lat="-41.86483" lon="171.779635">
				 <ele>35.9</ele>
			 </trkpt>
			 <trkpt lat="-41.864756" lon="171.779484">
				 <ele>34.9</ele>
			 </trkpt>
			 <trkpt lat="-41.864637" lon="171.779286">
				 <ele>34.2</ele>
			 </trkpt>
			 <trkpt lat="-41.864606" lon="171.779222">
				 <ele>33.3</ele>
			 </trkpt>
			 <trkpt lat="-41.86459" lon="171.779169">
				 <ele>32.4</ele>
			 </trkpt>
			 <trkpt lat="-41.86458" lon="171.779098">
				 <ele>31.6</ele>
			 </trkpt>
			 <trkpt lat="-41.864577" lon="171.77901">
				 <ele>31.5</ele>
			 </trkpt>
			 <trkpt lat="-41.864585" lon="171.77868">
				 <ele>31.3</ele>
			 </trkpt>
			 <trkpt lat="-41.864599" lon="171.778409">
				 <ele>31.3</ele>
			 </trkpt>
			 <trkpt lat="-41.864585" lon="171.778229">
				 <ele>31.1</ele>
			 </trkpt>
			 <trkpt lat="-41.864567" lon="171.778129">
				 <ele>30.7</ele>
			 </trkpt>
			 <trkpt lat="-41.864253" lon="171.777051">
				 <ele>30.5</ele>
			 </trkpt>
			 <trkpt lat="-41.864178" lon="171.776845">
				 <ele>30.6</ele>
			 </trkpt>
			 <trkpt lat="-41.864125" lon="171.776742">
				 <ele>30.3</ele>
			 </trkpt>
			 <trkpt lat="-41.864066" lon="171.776652">
				 <ele>29.7</ele>
			 </trkpt>
			 <trkpt lat="-41.863921" lon="171.776488">
				 <ele>29.1</ele>
			 </trkpt>
			 <trkpt lat="-41.863769" lon="171.776358">
				 <ele>28.4</ele>
			 </trkpt>
			 <trkpt lat="-41.863593" lon="171.776246">
				 <ele>27.5</ele>
			 </trkpt>
			 <trkpt lat="-41.862616" lon="171.775677">
				 <ele>27.1</ele>
			 </trkpt>
			 <trkpt lat="-41.862454" lon="171.775576">
				 <ele>27</ele>
			 </trkpt>
			 <trkpt lat="-41.862294" lon="171.775455">
				 <ele>27.3</ele>
			 </trkpt>
			 <trkpt lat="-41.862224" lon="171.77538">
				 <ele>27.8</ele>
			 </trkpt>
			 <trkpt lat="-41.862172" lon="171.775307">
				 <ele>28.2</ele>
			 </trkpt>
			 <trkpt lat="-41.862109" lon="171.77521">
				 <ele>28.5</ele>
			 </trkpt>
			 <trkpt lat="-41.86206" lon="171.775102">
				 <ele>29</ele>
			 </trkpt>
			 <trkpt lat="-41.862022" lon="171.775005">
				 <ele>29.8</ele>
			 </trkpt>
			 <trkpt lat="-41.861982" lon="171.774865">
				 <ele>30.5</ele>
			 </trkpt>
			 <trkpt lat="-41.86194" lon="171.774665">
				 <ele>31.4</ele>
			 </trkpt>
			 <trkpt lat="-41.861878" lon="171.774196">
				 <ele>32.1</ele>
			 </trkpt>
			 <trkpt lat="-41.86186" lon="171.77404">
				 <ele>32.6</ele>
			 </trkpt>
			 <trkpt lat="-41.861826" lon="171.77376">
				 <ele>32.9</ele>
			 </trkpt>
			 <trkpt lat="-41.86165" lon="171.772276">
				 <ele>33.2</ele>
			 </trkpt>
			 <trkpt lat="-41.861603" lon="171.771937">
				 <ele>33.5</ele>
			 </trkpt>
			 <trkpt lat="-41.861545" lon="171.771579">
				 <ele>33.6</ele>
			 </trkpt>
			 <trkpt lat="-41.861481" lon="171.771318">
				 <ele>33.5</ele>
			 </trkpt>
			 <trkpt lat="-41.861235" lon="171.770554">
				 <ele>33.5</ele>
			 </trkpt>
			 <trkpt lat="-41.860665" lon="171.768769">
				 <ele>33.5</ele>
			 </trkpt>
			 <trkpt lat="-41.860538" lon="171.768451">
				 <ele>34.1</ele>
			 </trkpt>
			 <trkpt lat="-41.860389" lon="171.768132">
				 <ele>34.9</ele>
			 </trkpt>
			 <trkpt lat="-41.860183" lon="171.767738">
				 <ele>35.5</ele>
			 </trkpt>
			 <trkpt lat="-41.860079" lon="171.767526">
				 <ele>35.6</ele>
			 </trkpt>
			 <trkpt lat="-41.859972" lon="171.76723">
				 <ele>35.6</ele>
			 </trkpt>
			 <trkpt lat="-41.859767" lon="171.766563">
				 <ele>35.4</ele>
			 </trkpt>
			 <trkpt lat="-41.859685" lon="171.766246">
				 <ele>35.1</ele>
			 </trkpt>
			 <trkpt lat="-41.85952" lon="171.765493">
				 <ele>34.9</ele>
			 </trkpt>
			 <trkpt lat="-41.859437" lon="171.765177">
				 <ele>34.8</ele>
			 </trkpt>
			 <trkpt lat="-41.8593" lon="171.764735">
				 <ele>34.6</ele>
			 </trkpt>
			 <trkpt lat="-41.859198" lon="171.764522">
				 <ele>34.5</ele>
			 </trkpt>
			 <trkpt lat="-41.858978" lon="171.764134">
				 <ele>34.3</ele>
			 </trkpt>
			 <trkpt lat="-41.85889" lon="171.763947">
				 <ele>34</ele>
			 </trkpt>
			 <trkpt lat="-41.858727" lon="171.763488">
				 <ele>34</ele>
			 </trkpt>
			 <trkpt lat="-41.858524" lon="171.763084">
				 <ele>34.3</ele>
			 </trkpt>
			 <trkpt lat="-41.85842" lon="171.762868">
				 <ele>34.6</ele>
			 </trkpt>
			 <trkpt lat="-41.858349" lon="171.76267">
				 <ele>35</ele>
			 </trkpt>
			 <trkpt lat="-41.858279" lon="171.762434">
				 <ele>35.3</ele>
			 </trkpt>
			 <trkpt lat="-41.858175" lon="171.762123">
				 <ele>35.5</ele>
			 </trkpt>
			 <trkpt lat="-41.858045" lon="171.761774">
				 <ele>35.6</ele>
			 </trkpt>
			 <trkpt lat="-41.857924" lon="171.761486">
				 <ele>36</ele>
			 </trkpt>
			 <trkpt lat="-41.857707" lon="171.761067">
				 <ele>36</ele>
			 </trkpt>
			 <trkpt lat="-41.857622" lon="171.760882">
				 <ele>35.7</ele>
			 </trkpt>
			 <trkpt lat="-41.857564" lon="171.760738">
				 <ele>35.1</ele>
			 </trkpt>
			 <trkpt lat="-41.857465" lon="171.760453">
				 <ele>34.7</ele>
			 </trkpt>
			 <trkpt lat="-41.857327" lon="171.760005">
				 <ele>34.4</ele>
			 </trkpt>
			 <trkpt lat="-41.857207" lon="171.759678">
				 <ele>34</ele>
			 </trkpt>
			 <trkpt lat="-41.857137" lon="171.759514">
				 <ele>33.4</ele>
			 </trkpt>
			 <trkpt lat="-41.857058" lon="171.759359">
				 <ele>32.7</ele>
			 </trkpt>
			 <trkpt lat="-41.856537" lon="171.758504">
				 <ele>32.3</ele>
			 </trkpt>
			 <trkpt lat="-41.856301" lon="171.758159">
				 <ele>31.8</ele>
			 </trkpt>
			 <trkpt lat="-41.856053" lon="171.757817">
				 <ele>31.2</ele>
			 </trkpt>
			 <trkpt lat="-41.8557" lon="171.757347">
				 <ele>30.8</ele>
			 </trkpt>
			 <trkpt lat="-41.855661" lon="171.757301">
				 <ele>30.6</ele>
			 </trkpt>
			 <trkpt lat="-41.855542" lon="171.757115">
				 <ele>30.8</ele>
			 </trkpt>
			 <trkpt lat="-41.855484" lon="171.757022">
				 <ele>30.8</ele>
			 </trkpt>
			 <trkpt lat="-41.855431" lon="171.756921">
				 <ele>31.3</ele>
			 </trkpt>
			 <trkpt lat="-41.855389" lon="171.756816">
				 <ele>32</ele>
			 </trkpt>
			 <trkpt lat="-41.855347" lon="171.75667">
				 <ele>33.1</ele>
			 </trkpt>
			 <trkpt lat="-41.855312" lon="171.756477">
				 <ele>34.2</ele>
			 </trkpt>
			 <trkpt lat="-41.855287" lon="171.756235">
				 <ele>35</ele>
			 </trkpt>
			 <trkpt lat="-41.855242" lon="171.755742">
				 <ele>35.7</ele>
			 </trkpt>
			 <trkpt lat="-41.855227" lon="171.755629">
				 <ele>37.1</ele>
			 </trkpt>
			 <trkpt lat="-41.855204" lon="171.755491">
				 <ele>38.4</ele>
			 </trkpt>
			 <trkpt lat="-41.855177" lon="171.755371">
				 <ele>39.6</ele>
			 </trkpt>
			 <trkpt lat="-41.855142" lon="171.755251">
				 <ele>40.8</ele>
			 </trkpt>
			 <trkpt lat="-41.855073" lon="171.75505">
				 <ele>41.5</ele>
			 </trkpt>
			 <trkpt lat="-41.854904" lon="171.754633">
				 <ele>42</ele>
			 </trkpt>
			 <trkpt lat="-41.854858" lon="171.75449">
				 <ele>42.6</ele>
			 </trkpt>
			 <trkpt lat="-41.854808" lon="171.754273">
				 <ele>43.3</ele>
			 </trkpt>
			 <trkpt lat="-41.854736" lon="171.753894">
				 <ele>43.9</ele>
			 </trkpt>
			 <trkpt lat="-41.85452" lon="171.752842">
				 <ele>44.6</ele>
			 </trkpt>
			 <trkpt lat="-41.854432" lon="171.75224">
				 <ele>45.5</ele>
			 </trkpt>
			 <trkpt lat="-41.854391" lon="171.752002">
				 <ele>44.9</ele>
			 </trkpt>
			 <trkpt lat="-41.854339" lon="171.751792">
				 <ele>44.1</ele>
			 </trkpt>
			 <trkpt lat="-41.85419" lon="171.75134">
				 <ele>43.2</ele>
			 </trkpt>
			 <trkpt lat="-41.854134" lon="171.751125">
				 <ele>42.4</ele>
			 </trkpt>
			 <trkpt lat="-41.854084" lon="171.750882">
				 <ele>41.9</ele>
			 </trkpt>
			 <trkpt lat="-41.853957" lon="171.75006">
				 <ele>41.3</ele>
			 </trkpt>
			 <trkpt lat="-41.853906" lon="171.749845">
				 <ele>40.5</ele>
			 </trkpt>
			 <trkpt lat="-41.853867" lon="171.749715">
				 <ele>39.5</ele>
			 </trkpt>
			 <trkpt lat="-41.853434" lon="171.748511">
				 <ele>38.6</ele>
			 </trkpt>
			 <trkpt lat="-41.853154" lon="171.747761">
				 <ele>37.6</ele>
			 </trkpt>
			 <trkpt lat="-41.853056" lon="171.747535">
				 <ele>36.5</ele>
			 </trkpt>
			 <trkpt lat="-41.852977" lon="171.747383">
				 <ele>36.2</ele>
			 </trkpt>
			 <trkpt lat="-41.852849" lon="171.747188">
				 <ele>36.1</ele>
			 </trkpt>
			 <trkpt lat="-41.852716" lon="171.747009">
				 <ele>36</ele>
			 </trkpt>
			 <trkpt lat="-41.852482" lon="171.746669">
				 <ele>35.7</ele>
			 </trkpt>
			 <trkpt lat="-41.852362" lon="171.746476">
				 <ele>35.5</ele>
			 </trkpt>
			 <trkpt lat="-41.852319" lon="171.746391">
				 <ele>35.4</ele>
			 </trkpt>
			 <trkpt lat="-41.852224" lon="171.746161">
				 <ele>35.4</ele>
			 </trkpt>
			 <trkpt lat="-41.852131" lon="171.745807">
				 <ele>35.5</ele>
			 </trkpt>
			 <trkpt lat="-41.852094" lon="171.745639">
				 <ele>35.5</ele>
			 </trkpt>
			 <trkpt lat="-41.852075" lon="171.745539">
				 <ele>35.5</ele>
			 </trkpt>
			 <trkpt lat="-41.851979" lon="171.745118">
				 <ele>35.5</ele>
			 </trkpt>
			 <trkpt lat="-41.851921" lon="171.744907">
				 <ele>35.4</ele>
			 </trkpt>
			 <trkpt lat="-41.851877" lon="171.744783">
				 <ele>35.2</ele>
			 </trkpt>
			 <trkpt lat="-41.85181" lon="171.744637">
				 <ele>34.9</ele>
			 </trkpt>
			 <trkpt lat="-41.851728" lon="171.744485">
				 <ele>34.5</ele>
			 </trkpt>
			 <trkpt lat="-41.851613" lon="171.744299">
				 <ele>34</ele>
			 </trkpt>
			 <trkpt lat="-41.851199" lon="171.743671">
				 <ele>33.4</ele>
			 </trkpt>
			 <trkpt lat="-41.850839" lon="171.743137">
				 <ele>32.7</ele>
			 </trkpt>
			 <trkpt lat="-41.850484" lon="171.742591">
				 <ele>32.1</ele>
			 </trkpt>
			 <trkpt lat="-41.850358" lon="171.74243">
				 <ele>31.5</ele>
			 </trkpt>
			 <trkpt lat="-41.85028" lon="171.742358">
				 <ele>31</ele>
			 </trkpt>
			 <trkpt lat="-41.85013" lon="171.742253">
				 <ele>30.6</ele>
			 </trkpt>
			 <trkpt lat="-41.85004" lon="171.74221">
				 <ele>30.5</ele>
			 </trkpt>
			 <trkpt lat="-41.849953" lon="171.74218">
				 <ele>30.4</ele>
			 </trkpt>
			 <trkpt lat="-41.849866" lon="171.742153">
				 <ele>30.5</ele>
			 </trkpt>
			 <trkpt lat="-41.849782" lon="171.742142">
				 <ele>30.7</ele>
			 </trkpt>
			 <trkpt lat="-41.849607" lon="171.742143">
				 <ele>31.1</ele>
			 </trkpt>
			 <trkpt lat="-41.849515" lon="171.742156">
				 <ele>31.5</ele>
			 </trkpt>
			 <trkpt lat="-41.849418" lon="171.74218">
				 <ele>31.6</ele>
			 </trkpt>
			 <trkpt lat="-41.849341" lon="171.74221">
				 <ele>31.7</ele>
			 </trkpt>
			 <trkpt lat="-41.849268" lon="171.742251">
				 <ele>31.6</ele>
			 </trkpt>
			 <trkpt lat="-41.849209" lon="171.742301">
				 <ele>31.5</ele>
			 </trkpt>
			 <trkpt lat="-41.849134" lon="171.74237">
				 <ele>31.5</ele>
			 </trkpt>
			 <trkpt lat="-41.849074" lon="171.74245">
				 <ele>31.5</ele>
			 </trkpt>
			 <trkpt lat="-41.848986" lon="171.74258">
				 <ele>31.5</ele>
			 </trkpt>
			 <trkpt lat="-41.848862" lon="171.742714">
				 <ele>31.3</ele>
			 </trkpt>
			 <trkpt lat="-41.848805" lon="171.742749">
				 <ele>31</ele>
			 </trkpt>
			 <trkpt lat="-41.848745" lon="171.742772">
				 <ele>30.7</ele>
			 </trkpt>
			 <trkpt lat="-41.848306" lon="171.74288">
				 <ele>30.5</ele>
			 </trkpt>
			 <trkpt lat="-41.848257" lon="171.742889">
				 <ele>30.5</ele>
			 </trkpt>
			 <trkpt lat="-41.848202" lon="171.742888">
				 <ele>30.9</ele>
			 </trkpt>
			 <trkpt lat="-41.848153" lon="171.742881">
				 <ele>31.5</ele>
			 </trkpt>
			 <trkpt lat="-41.848105" lon="171.742863">
				 <ele>32.1</ele>
			 </trkpt>
			 <trkpt lat="-41.848063" lon="171.742836">
				 <ele>32.5</ele>
			 </trkpt>
			 <trkpt lat="-41.847991" lon="171.74275">
				 <ele>32.5</ele>
			 </trkpt>
			 <trkpt lat="-41.847916" lon="171.742672">
				 <ele>32.5</ele>
			 </trkpt>
			 <trkpt lat="-41.847829" lon="171.742621">
				 <ele>32.6</ele>
			 </trkpt>
			 <trkpt lat="-41.847715" lon="171.742591">
				 <ele>32.9</ele>
			 </trkpt>
			 <trkpt lat="-41.847598" lon="171.742572">
				 <ele>33.3</ele>
			 </trkpt>
			 <trkpt lat="-41.847424" lon="171.742567">
				 <ele>33.6</ele>
			 </trkpt>
			 <trkpt lat="-41.847331" lon="171.742546">
				 <ele>33.8</ele>
			 </trkpt>
			 <trkpt lat="-41.847263" lon="171.74252">
				 <ele>33.9</ele>
			 </trkpt>
			 <trkpt lat="-41.847205" lon="171.742475">
				 <ele>34</ele>
			 </trkpt>
			 <trkpt lat="-41.847165" lon="171.742432">
				 <ele>34.5</ele>
			 </trkpt>
			 <trkpt lat="-41.847128" lon="171.742372">
				 <ele>35.6</ele>
			 </trkpt>
			 <trkpt lat="-41.847085" lon="171.74228">
				 <ele>35.9</ele>
			 </trkpt>
			 <trkpt lat="-41.847055" lon="171.742187">
				 <ele>36.1</ele>
			 </trkpt>
			 <trkpt lat="-41.847035" lon="171.742108">
				 <ele>36.2</ele>
			 </trkpt>
			 <trkpt lat="-41.84701" lon="171.741936">
				 <ele>36.2</ele>
			 </trkpt>
			 <trkpt lat="-41.847014" lon="171.741465">
				 <ele>36.2</ele>
			 </trkpt>
			 <trkpt lat="-41.846977" lon="171.740955">
				 <ele>36.5</ele>
			 </trkpt>
			 <trkpt lat="-41.846982" lon="171.740825">
				 <ele>37.2</ele>
			 </trkpt>
			 <trkpt lat="-41.846996" lon="171.740687">
				 <ele>37.7</ele>
			 </trkpt>
			 <trkpt lat="-41.847026" lon="171.740561">
				 <ele>37.6</ele>
			 </trkpt>
			 <trkpt lat="-41.847073" lon="171.74043">
				 <ele>37.2</ele>
			 </trkpt>
			 <trkpt lat="-41.847144" lon="171.740295">
				 <ele>36.5</ele>
			 </trkpt>
			 <trkpt lat="-41.847394" lon="171.739922">
				 <ele>37.2</ele>
			 </trkpt>
			 <trkpt lat="-41.847526" lon="171.739713">
				 <ele>38.2</ele>
			 </trkpt>
			 <trkpt lat="-41.848202" lon="171.738547">
				 <ele>38.9</ele>
			 </trkpt>
			 <trkpt lat="-41.848295" lon="171.738387">
				 <ele>39.5</ele>
			 </trkpt>
			 <trkpt lat="-41.84847" lon="171.738078">
				 <ele>40</ele>
			 </trkpt>
			 <trkpt lat="-41.848527" lon="171.73796">
				 <ele>40.2</ele>
			 </trkpt>
			 <trkpt lat="-41.8486" lon="171.737782">
				 <ele>39.8</ele>
			 </trkpt>
			 <trkpt lat="-41.849068" lon="171.736574">
				 <ele>39.5</ele>
			 </trkpt>
			 <trkpt lat="-41.849174" lon="171.736273">
				 <ele>39.5</ele>
			 </trkpt>
			 <trkpt lat="-41.849226" lon="171.736096">
				 <ele>39.5</ele>
			 </trkpt>
			 <trkpt lat="-41.849275" lon="171.735879">
				 <ele>39.1</ele>
			 </trkpt>
			 <trkpt lat="-41.849339" lon="171.735531">
				 <ele>38.2</ele>
			 </trkpt>
			 <trkpt lat="-41.849393" lon="171.735171">
				 <ele>36.9</ele>
			 </trkpt>
			 <trkpt lat="-41.849426" lon="171.734887">
				 <ele>36</ele>
			 </trkpt>
			 <trkpt lat="-41.849437" lon="171.734709">
				 <ele>35.3</ele>
			 </trkpt>
			 <trkpt lat="-41.849437" lon="171.734523">
				 <ele>34.8</ele>
			 </trkpt>
			 <trkpt lat="-41.849426" lon="171.734407">
				 <ele>34.5</ele>
			 </trkpt>
			 <trkpt lat="-41.849392" lon="171.73416">
				 <ele>34.5</ele>
			 </trkpt>
			 <trkpt lat="-41.849347" lon="171.733955">
				 <ele>34.7</ele>
			 </trkpt>
			 <trkpt lat="-41.849322" lon="171.733803">
				 <ele>34.9</ele>
			 </trkpt>
			 <trkpt lat="-41.849289" lon="171.733556">
				 <ele>35.2</ele>
			 </trkpt>
			 <trkpt lat="-41.849286" lon="171.733439">
				 <ele>35.6</ele>
			 </trkpt>
			 <trkpt lat="-41.849292" lon="171.733314">
				 <ele>36.3</ele>
			 </trkpt>
			 <trkpt lat="-41.849364" lon="171.732721">
				 <ele>37</ele>
			 </trkpt>
			 <trkpt lat="-41.849381" lon="171.732594">
				 <ele>37.6</ele>
			 </trkpt>
			 <trkpt lat="-41.849408" lon="171.73249">
				 <ele>38.1</ele>
			 </trkpt>
			 <trkpt lat="-41.849447" lon="171.732396">
				 <ele>38.3</ele>
			 </trkpt>
			 <trkpt lat="-41.849492" lon="171.732309">
				 <ele>38.2</ele>
			 </trkpt>
			 <trkpt lat="-41.849557" lon="171.732216">
				 <ele>37.7</ele>
			 </trkpt>
			 <trkpt lat="-41.849702" lon="171.732049">
				 <ele>36.8</ele>
			 </trkpt>
			 <trkpt lat="-41.849863" lon="171.731894">
				 <ele>35.9</ele>
			 </trkpt>
			 <trkpt lat="-41.849931" lon="171.731812">
				 <ele>34.2</ele>
			 </trkpt>
			 <trkpt lat="-41.849981" lon="171.731721">
				 <ele>32.7</ele>
			 </trkpt>
			 <trkpt lat="-41.850014" lon="171.731607">
				 <ele>31.6</ele>
			 </trkpt>
			 <trkpt lat="-41.850022" lon="171.731499">
				 <ele>30.7</ele>
			 </trkpt>
			 <trkpt lat="-41.850017" lon="171.731418">
				 <ele>30.1</ele>
			 </trkpt>
			 <trkpt lat="-41.84995" lon="171.730915">
				 <ele>29.6</ele>
			 </trkpt>
			 <trkpt lat="-41.849905" lon="171.730629">
				 <ele>29.3</ele>
			 </trkpt>
			 <trkpt lat="-41.849838" lon="171.730413">
				 <ele>29.1</ele>
			 </trkpt>
			 <trkpt lat="-41.849791" lon="171.73031">
				 <ele>29.2</ele>
			 </trkpt>
			 <trkpt lat="-41.849692" lon="171.730144">
				 <ele>29.6</ele>
			 </trkpt>
			 <trkpt lat="-41.849364" lon="171.729734">
				 <ele>30.5</ele>
			 </trkpt>
			 <trkpt lat="-41.849228" lon="171.729546">
				 <ele>32.4</ele>
			 </trkpt>
			 <trkpt lat="-41.849142" lon="171.729366">
				 <ele>34.1</ele>
			 </trkpt>
			 <trkpt lat="-41.849067" lon="171.729154">
				 <ele>35.4</ele>
			 </trkpt>
			 <trkpt lat="-41.848968" lon="171.728815">
				 <ele>36.4</ele>
			 </trkpt>
			 <trkpt lat="-41.848815" lon="171.728218">
				 <ele>37.2</ele>
			 </trkpt>
			 <trkpt lat="-41.848362" lon="171.726574">
				 <ele>38</ele>
			 </trkpt>
			 <trkpt lat="-41.848167" lon="171.725869">
				 <ele>38.8</ele>
			 </trkpt>
			 <trkpt lat="-41.84811" lon="171.725648">
				 <ele>39.5</ele>
			 </trkpt>
			 <trkpt lat="-41.848061" lon="171.725418">
				 <ele>40</ele>
			 </trkpt>
			 <trkpt lat="-41.848035" lon="171.725193">
				 <ele>40.1</ele>
			 </trkpt>
			 <trkpt lat="-41.848029" lon="171.724952">
				 <ele>40.1</ele>
			 </trkpt>
			 <trkpt lat="-41.848037" lon="171.724704">
				 <ele>39.5</ele>
			 </trkpt>
			 <trkpt lat="-41.848084" lon="171.724364">
				 <ele>38.7</ele>
			 </trkpt>
			 <trkpt lat="-41.848195" lon="171.723747">
				 <ele>38</ele>
			 </trkpt>
			 <trkpt lat="-41.848212" lon="171.723516">
				 <ele>36.9</ele>
			 </trkpt>
			 <trkpt lat="-41.848214" lon="171.723297">
				 <ele>35.9</ele>
			 </trkpt>
			 <trkpt lat="-41.848181" lon="171.722192">
				 <ele>34.9</ele>
			 </trkpt>
			 <trkpt lat="-41.848184" lon="171.721804">
				 <ele>33.9</ele>
			 </trkpt>
			 <trkpt lat="-41.848217" lon="171.720627">
				 <ele>32.7</ele>
			 </trkpt>
			 <trkpt lat="-41.848251" lon="171.719775">
				 <ele>31.9</ele>
			 </trkpt>
			 <trkpt lat="-41.848257" lon="171.719401">
				 <ele>31.2</ele>
			 </trkpt>
			 <trkpt lat="-41.84825" lon="171.719167">
				 <ele>30.3</ele>
			 </trkpt>
			 <trkpt lat="-41.848238" lon="171.718796">
				 <ele>29.7</ele>
			 </trkpt>
			 <trkpt lat="-41.848148" lon="171.717961">
				 <ele>29.4</ele>
			 </trkpt>
			 <trkpt lat="-41.848077" lon="171.717155">
				 <ele>29.1</ele>
			 </trkpt>
			 <trkpt lat="-41.848048" lon="171.716901">
				 <ele>29.2</ele>
			 </trkpt>
			 <trkpt lat="-41.84801" lon="171.716682">
				 <ele>29.2</ele>
			 </trkpt>
			 <trkpt lat="-41.847974" lon="171.716526">
				 <ele>29</ele>
			 </trkpt>
			 <trkpt lat="-41.847922" lon="171.716357">
				 <ele>28.7</ele>
			 </trkpt>
			 <trkpt lat="-41.847783" lon="171.716033">
				 <ele>28.7</ele>
			 </trkpt>
			 <trkpt lat="-41.847616" lon="171.715736">
				 <ele>28.5</ele>
			 </trkpt>
			 <trkpt lat="-41.847551" lon="171.715642">
				 <ele>28.5</ele>
			 </trkpt>
			 <trkpt lat="-41.847357" lon="171.715431">
				 <ele>28.6</ele>
			 </trkpt>
			 <trkpt lat="-41.847205" lon="171.7153">
				 <ele>28.6</ele>
			 </trkpt>
			 <trkpt lat="-41.846653" lon="171.714886">
				 <ele>28.5</ele>
			 </trkpt>
			 <trkpt lat="-41.846515" lon="171.714753">
				 <ele>27.9</ele>
			 </trkpt>
			 <trkpt lat="-41.846405" lon="171.714631">
				 <ele>27.3</ele>
			 </trkpt>
			 <trkpt lat="-41.846307" lon="171.714505">
				 <ele>26.6</ele>
			 </trkpt>
			 <trkpt lat="-41.846181" lon="171.714316">
				 <ele>26</ele>
			 </trkpt>
			 <trkpt lat="-41.846083" lon="171.714141">
				 <ele>25.5</ele>
			 </trkpt>
			 <trkpt lat="-41.845886" lon="171.713713">
				 <ele>24.8</ele>
			 </trkpt>
			 <trkpt lat="-41.845787" lon="171.713521">
				 <ele>24.1</ele>
			 </trkpt>
			 <trkpt lat="-41.845739" lon="171.713434">
				 <ele>23.3</ele>
			 </trkpt>
			 <trkpt lat="-41.845618" lon="171.713259">
				 <ele>22.5</ele>
			 </trkpt>
			 <trkpt lat="-41.845564" lon="171.713192">
				 <ele>21.6</ele>
			 </trkpt>
			 <trkpt lat="-41.845419" lon="171.713053">
				 <ele>21.1</ele>
			 </trkpt>
			 <trkpt lat="-41.845357" lon="171.713005">
				 <ele>20.9</ele>
			 </trkpt>
			 <trkpt lat="-41.845182" lon="171.71291">
				 <ele>21</ele>
			 </trkpt>
			 <trkpt lat="-41.844979" lon="171.712848">
				 <ele>21.5</ele>
			 </trkpt>
			 <trkpt lat="-41.844864" lon="171.712834">
				 <ele>22</ele>
			 </trkpt>
			 <trkpt lat="-41.844775" lon="171.712832">
				 <ele>22.5</ele>
			 </trkpt>
			 <trkpt lat="-41.84453" lon="171.712865">
				 <ele>23</ele>
			 </trkpt>
			 <trkpt lat="-41.84444" lon="171.712885">
				 <ele>23.6</ele>
			 </trkpt>
			 <trkpt lat="-41.843968" lon="171.712937">
				 <ele>24.3</ele>
			 </trkpt>
			 <trkpt lat="-41.843786" lon="171.712932">
				 <ele>24.9</ele>
			 </trkpt>
			 <trkpt lat="-41.843613" lon="171.712915">
				 <ele>25.6</ele>
			 </trkpt>
			 <trkpt lat="-41.843251" lon="171.712834">
				 <ele>26.4</ele>
			 </trkpt>
			 <trkpt lat="-41.842896" lon="171.712689">
				 <ele>27</ele>
			 </trkpt>
			 <trkpt lat="-41.842687" lon="171.71258">
				 <ele>27.5</ele>
			 </trkpt>
			 <trkpt lat="-41.842354" lon="171.712375">
				 <ele>27.6</ele>
			 </trkpt>
			 <trkpt lat="-41.8422" lon="171.712257">
				 <ele>27.6</ele>
			 </trkpt>
			 <trkpt lat="-41.842042" lon="171.712115">
				 <ele>27.6</ele>
			 </trkpt>
			 <trkpt lat="-41.841873" lon="171.711945">
				 <ele>27.6</ele>
			 </trkpt>
			 <trkpt lat="-41.841656" lon="171.711689">
				 <ele>27.5</ele>
			 </trkpt>
			 <trkpt lat="-41.841135" lon="171.711098">
				 <ele>27.4</ele>
			 </trkpt>
			 <trkpt lat="-41.841038" lon="171.710978">
				 <ele>27.5</ele>
			 </trkpt>
			 <trkpt lat="-41.84091" lon="171.710788">
				 <ele>27.5</ele>
			 </trkpt>
			 <trkpt lat="-41.8408" lon="171.710605">
				 <ele>27.5</ele>
			 </trkpt>
			 <trkpt lat="-41.840583" lon="171.710209">
				 <ele>27.5</ele>
			 </trkpt>
			 <trkpt lat="-41.84046" lon="171.710031">
				 <ele>27.6</ele>
			 </trkpt>
			 <trkpt lat="-41.840217" lon="171.709734">
				 <ele>27.7</ele>
			 </trkpt>
			 <trkpt lat="-41.839609" lon="171.709082">
				 <ele>27.9</ele>
			 </trkpt>
			 <trkpt lat="-41.839402" lon="171.708877">
				 <ele>28.1</ele>
			 </trkpt>
			 <trkpt lat="-41.839246" lon="171.70875">
				 <ele>28.4</ele>
			 </trkpt>
			 <trkpt lat="-41.838999" lon="171.708588">
				 <ele>28.6</ele>
			 </trkpt>
			 <trkpt lat="-41.838806" lon="171.708504">
				 <ele>28.9</ele>
			 </trkpt>
			 <trkpt lat="-41.838656" lon="171.708451">
				 <ele>28.9</ele>
			 </trkpt>
			 <trkpt lat="-41.838491" lon="171.708405">
				 <ele>28.8</ele>
			 </trkpt>
			 <trkpt lat="-41.838291" lon="171.708395">
				 <ele>28.6</ele>
			 </trkpt>
			 <trkpt lat="-41.837987" lon="171.708397">
				 <ele>28.3</ele>
			 </trkpt>
			 <trkpt lat="-41.83781" lon="171.708407">
				 <ele>27.7</ele>
			 </trkpt>
			 <trkpt lat="-41.837677" lon="171.708452">
				 <ele>27.3</ele>
			 </trkpt>
			 <trkpt lat="-41.837554" lon="171.70851">
				 <ele>26.9</ele>
			 </trkpt>
			 <trkpt lat="-41.837434" lon="171.708585">
				 <ele>26.9</ele>
			 </trkpt>
			 <trkpt lat="-41.837047" lon="171.708831">
				 <ele>26.9</ele>
			 </trkpt>
			 <trkpt lat="-41.836881" lon="171.708918">
				 <ele>27.1</ele>
			 </trkpt>
			 <trkpt lat="-41.836706" lon="171.708988">
				 <ele>27.3</ele>
			 </trkpt>
			 <trkpt lat="-41.836552" lon="171.709027">
				 <ele>27.6</ele>
			 </trkpt>
			 <trkpt lat="-41.83612" lon="171.709107">
				 <ele>28.1</ele>
			 </trkpt>
			 <trkpt lat="-41.835949" lon="171.709152">
				 <ele>28.7</ele>
			 </trkpt>
			 <trkpt lat="-41.835792" lon="171.709213">
				 <ele>29.5</ele>
			 </trkpt>
			 <trkpt lat="-41.835667" lon="171.709284">
				 <ele>30.1</ele>
			 </trkpt>
			 <trkpt lat="-41.835578" lon="171.70936">
				 <ele>30.6</ele>
			 </trkpt>
			 <trkpt lat="-41.835501" lon="171.709451">
				 <ele>30.9</ele>
			 </trkpt>
			 <trkpt lat="-41.835421" lon="171.709581">
				 <ele>30.7</ele>
			 </trkpt>
			 <trkpt lat="-41.835355" lon="171.709742">
				 <ele>30.5</ele>
			 </trkpt>
			 <trkpt lat="-41.835271" lon="171.709989">
				 <ele>30.4</ele>
			 </trkpt>
			 <trkpt lat="-41.835184" lon="171.710191">
				 <ele>30.2</ele>
			 </trkpt>
			 <trkpt lat="-41.83512" lon="171.710325">
				 <ele>30</ele>
			 </trkpt>
			 <trkpt lat="-41.835039" lon="171.710441">
				 <ele>29.8</ele>
			 </trkpt>
			 <trkpt lat="-41.83496" lon="171.710523">
				 <ele>29.6</ele>
			 </trkpt>
			 <trkpt lat="-41.834867" lon="171.710584">
				 <ele>29.6</ele>
			 </trkpt>
			 <trkpt lat="-41.83479" lon="171.710619">
				 <ele>29.9</ele>
			 </trkpt>
			 <trkpt lat="-41.834676" lon="171.710646">
				 <ele>30.3</ele>
			 </trkpt>
			 <trkpt lat="-41.834582" lon="171.710654">
				 <ele>30.9</ele>
			 </trkpt>
			 <trkpt lat="-41.834451" lon="171.710642">
				 <ele>31.6</ele>
			 </trkpt>
			 <trkpt lat="-41.834376" lon="171.710615">
				 <ele>32.3</ele>
			 </trkpt>
			 <trkpt lat="-41.834298" lon="171.710567">
				 <ele>32.8</ele>
			 </trkpt>
			 <trkpt lat="-41.834195" lon="171.71048">
				 <ele>33.3</ele>
			 </trkpt>
			 <trkpt lat="-41.834127" lon="171.7104">
				 <ele>33.6</ele>
			 </trkpt>
			 <trkpt lat="-41.834077" lon="171.71032">
				 <ele>34</ele>
			 </trkpt>
			 <trkpt lat="-41.834035" lon="171.710237">
				 <ele>34.4</ele>
			 </trkpt>
			 <trkpt lat="-41.833986" lon="171.710113">
				 <ele>34.8</ele>
			 </trkpt>
			 <trkpt lat="-41.833941" lon="171.709955">
				 <ele>35</ele>
			 </trkpt>
			 <trkpt lat="-41.833921" lon="171.709811">
				 <ele>35.2</ele>
			 </trkpt>
			 <trkpt lat="-41.83392" lon="171.709683">
				 <ele>35.3</ele>
			 </trkpt>
			 <trkpt lat="-41.833931" lon="171.709549">
				 <ele>35.3</ele>
			 </trkpt>
			 <trkpt lat="-41.833966" lon="171.709329">
				 <ele>35.4</ele>
			 </trkpt>
			 <trkpt lat="-41.834117" lon="171.70853">
				 <ele>35.4</ele>
			 </trkpt>
			 <trkpt lat="-41.834145" lon="171.708293">
				 <ele>35.4</ele>
			 </trkpt>
			 <trkpt lat="-41.834155" lon="171.70804">
				 <ele>35.3</ele>
			 </trkpt>
			 <trkpt lat="-41.834146" lon="171.707269">
				 <ele>35</ele>
			 </trkpt>
			 <trkpt lat="-41.834132" lon="171.707083">
				 <ele>34.5</ele>
			 </trkpt>
			 <trkpt lat="-41.834104" lon="171.706839">
				 <ele>33.6</ele>
			 </trkpt>
			 <trkpt lat="-41.834061" lon="171.70661">
				 <ele>33</ele>
			 </trkpt>
			 <trkpt lat="-41.833967" lon="171.706249">
				 <ele>32.2</ele>
			 </trkpt>
			 <trkpt lat="-41.833813" lon="171.70566">
				 <ele>31.3</ele>
			 </trkpt>
			 <trkpt lat="-41.83375" lon="171.70535">
				 <ele>30.4</ele>
			 </trkpt>
			 <trkpt lat="-41.833741" lon="171.705122">
				 <ele>29.5</ele>
			 </trkpt>
			 <trkpt lat="-41.833755" lon="171.704909">
				 <ele>28.7</ele>
			 </trkpt>
			 <trkpt lat="-41.833988" lon="171.7035">
				 <ele>27.8</ele>
			 </trkpt>
			 <trkpt lat="-41.834109" lon="171.702678">
				 <ele>27</ele>
			 </trkpt>
			 <trkpt lat="-41.83424" lon="171.701891">
				 <ele>26.3</ele>
			 </trkpt>
			 <trkpt lat="-41.834261" lon="171.701644">
				 <ele>25.7</ele>
			 </trkpt>
			 <trkpt lat="-41.834263" lon="171.70141">
				 <ele>25.4</ele>
			 </trkpt>
			 <trkpt lat="-41.834211" lon="171.699451">
				 <ele>25</ele>
			 </trkpt>
			 <trkpt lat="-41.834208" lon="171.699215">
				 <ele>24.8</ele>
			 </trkpt>
			 <trkpt lat="-41.834211" lon="171.698928">
				 <ele>24.7</ele>
			 </trkpt>
			 <trkpt lat="-41.834252" lon="171.698615">
				 <ele>24.7</ele>
			 </trkpt>
			 <trkpt lat="-41.834314" lon="171.698296">
				 <ele>24.6</ele>
			 </trkpt>
			 <trkpt lat="-41.834353" lon="171.697906">
				 <ele>24.5</ele>
			 </trkpt>
			 <trkpt lat="-41.834352" lon="171.697775">
				 <ele>24.5</ele>
			 </trkpt>
			 <trkpt lat="-41.834329" lon="171.697546">
				 <ele>24.6</ele>
			 </trkpt>
			 <trkpt lat="-41.834241" lon="171.697013">
				 <ele>24.7</ele>
			 </trkpt>
			 <trkpt lat="-41.834235" lon="171.696833">
				 <ele>24.9</ele>
			 </trkpt>
			 <trkpt lat="-41.834245" lon="171.696605">
				 <ele>25</ele>
			 </trkpt>
			 <trkpt lat="-41.834318" lon="171.695789">
				 <ele>25.1</ele>
			 </trkpt>
			 <trkpt lat="-41.834346" lon="171.695409">
				 <ele>25</ele>
			 </trkpt>
			 <trkpt lat="-41.83435" lon="171.695167">
				 <ele>25.1</ele>
			 </trkpt>
			 <trkpt lat="-41.834327" lon="171.694455">
				 <ele>25.3</ele>
			 </trkpt>
			 <trkpt lat="-41.834332" lon="171.694113">
				 <ele>25.4</ele>
			 </trkpt>
			 <trkpt lat="-41.834387" lon="171.693648">
				 <ele>25.7</ele>
			 </trkpt>
			 <trkpt lat="-41.834763" lon="171.691503">
				 <ele>26.2</ele>
			 </trkpt>
			 <trkpt lat="-41.834803" lon="171.691184">
				 <ele>26.6</ele>
			 </trkpt>
			 <trkpt lat="-41.834837" lon="171.690814">
				 <ele>27</ele>
			 </trkpt>
			 <trkpt lat="-41.83489" lon="171.690117">
				 <ele>27.3</ele>
			 </trkpt>
			 <trkpt lat="-41.835094" lon="171.688692">
				 <ele>27.6</ele>
			 </trkpt>
			 <trkpt lat="-41.835139" lon="171.688416">
				 <ele>28.3</ele>
			 </trkpt>
			 <trkpt lat="-41.835199" lon="171.688173">
				 <ele>29</ele>
			 </trkpt>
			 <trkpt lat="-41.835392" lon="171.687549">
				 <ele>29.5</ele>
			 </trkpt>
			 <trkpt lat="-41.83544" lon="171.6874">
				 <ele>30</ele>
			 </trkpt>
			 <trkpt lat="-41.835488" lon="171.687211">
				 <ele>30.5</ele>
			 </trkpt>
			 <trkpt lat="-41.835641" lon="171.68654">
				 <ele>30.6</ele>
			 </trkpt>
			 <trkpt lat="-41.835791" lon="171.685834">
				 <ele>30.6</ele>
			 </trkpt>
			 <trkpt lat="-41.835837" lon="171.685576">
				 <ele>30.5</ele>
			 </trkpt>
			 <trkpt lat="-41.835854" lon="171.685338">
				 <ele>30.3</ele>
			 </trkpt>
			 <trkpt lat="-41.835842" lon="171.685209">
				 <ele>30</ele>
			 </trkpt>
			 <trkpt lat="-41.835822" lon="171.685093">
				 <ele>29.7</ele>
			 </trkpt>
			 <trkpt lat="-41.835777" lon="171.684914">
				 <ele>29.2</ele>
			 </trkpt>
			 <trkpt lat="-41.835735" lon="171.684775">
				 <ele>28.7</ele>
			 </trkpt>
			 <trkpt lat="-41.835661" lon="171.684449">
				 <ele>28.3</ele>
			 </trkpt>
			 <trkpt lat="-41.835626" lon="171.684189">
				 <ele>27.8</ele>
			 </trkpt>
			 <trkpt lat="-41.835616" lon="171.683961">
				 <ele>27.4</ele>
			 </trkpt>
			 <trkpt lat="-41.835615" lon="171.683744">
				 <ele>27</ele>
			 </trkpt>
			 <trkpt lat="-41.83563" lon="171.683366">
				 <ele>26.6</ele>
			 </trkpt>
			 <trkpt lat="-41.835636" lon="171.682641">
				 <ele>26.4</ele>
			 </trkpt>
			 <trkpt lat="-41.835652" lon="171.682172">
				 <ele>26.1</ele>
			 </trkpt>
			 <trkpt lat="-41.835669" lon="171.681853">
				 <ele>25.8</ele>
			 </trkpt>
			 <trkpt lat="-41.835693" lon="171.681612">
				 <ele>25.5</ele>
			 </trkpt>
			 <trkpt lat="-41.83572" lon="171.681426">
				 <ele>25.1</ele>
			 </trkpt>
			 <trkpt lat="-41.835763" lon="171.68118">
				 <ele>24.7</ele>
			 </trkpt>
			 <trkpt lat="-41.83583" lon="171.680913">
				 <ele>24.4</ele>
			 </trkpt>
			 <trkpt lat="-41.835888" lon="171.68065">
				 <ele>24</ele>
			 </trkpt>
			 <trkpt lat="-41.835907" lon="171.680523">
				 <ele>23.7</ele>
			 </trkpt>
			 <trkpt lat="-41.835918" lon="171.680396">
				 <ele>23.5</ele>
			 </trkpt>
			 <trkpt lat="-41.835927" lon="171.680163">
				 <ele>23.3</ele>
			 </trkpt>
			 <trkpt lat="-41.835903" lon="171.679709">
				 <ele>22.9</ele>
			 </trkpt>
			 <trkpt lat="-41.835894" lon="171.678986">
				 <ele>22.6</ele>
			 </trkpt>
			 <trkpt lat="-41.835906" lon="171.678694">
				 <ele>22.5</ele>
			 </trkpt>
			 <trkpt lat="-41.835885" lon="171.677842">
				 <ele>22.3</ele>
			 </trkpt>
			 <trkpt lat="-41.835892" lon="171.677657">
				 <ele>22.1</ele>
			 </trkpt>
			 <trkpt lat="-41.835929" lon="171.67733">
				 <ele>21.9</ele>
			 </trkpt>
			 <trkpt lat="-41.835962" lon="171.677072">
				 <ele>21.7</ele>
			 </trkpt>
			 <trkpt lat="-41.836009" lon="171.676699">
				 <ele>21.5</ele>
			 </trkpt>
			 <trkpt lat="-41.836044" lon="171.67651">
				 <ele>21.5</ele>
			 </trkpt>
			 <trkpt lat="-41.836088" lon="171.676328">
				 <ele>21.4</ele>
			 </trkpt>
			 <trkpt lat="-41.836181" lon="171.676008">
				 <ele>21.3</ele>
			 </trkpt>
			 <trkpt lat="-41.836273" lon="171.675734">
				 <ele>21.4</ele>
			 </trkpt>
			 <trkpt lat="-41.83635" lon="171.67546">
				 <ele>21.5</ele>
			 </trkpt>
			 <trkpt lat="-41.836401" lon="171.675214">
				 <ele>21.5</ele>
			 </trkpt>
			 <trkpt lat="-41.836434" lon="171.674959">
				 <ele>21.6</ele>
			 </trkpt>
			 <trkpt lat="-41.836453" lon="171.674372">
				 <ele>21.7</ele>
			 </trkpt>
			 <trkpt lat="-41.836453" lon="171.673456">
				 <ele>21.8</ele>
			 </trkpt>
			 <trkpt lat="-41.836438" lon="171.673199">
				 <ele>21.9</ele>
			 </trkpt>
			 <trkpt lat="-41.836369" lon="171.672869">
				 <ele>22</ele>
			 </trkpt>
			 <trkpt lat="-41.836104" lon="171.67167">
				 <ele>22.1</ele>
			 </trkpt>
			 <trkpt lat="-41.836037" lon="171.671246">
				 <ele>22.1</ele>
			 </trkpt>
			 <trkpt lat="-41.835993" lon="171.670509">
				 <ele>22.1</ele>
			 </trkpt>
			 <trkpt lat="-41.835953" lon="171.670151">
				 <ele>22.4</ele>
			 </trkpt>
			 <trkpt lat="-41.835908" lon="171.669936">
				 <ele>22.9</ele>
			 </trkpt>
			 <trkpt lat="-41.835841" lon="171.669696">
				 <ele>23.4</ele>
			 </trkpt>
			 <trkpt lat="-41.835758" lon="171.669453">
				 <ele>24</ele>
			 </trkpt>
			 <trkpt lat="-41.835597" lon="171.668917">
				 <ele>24.6</ele>
			 </trkpt>
			 <trkpt lat="-41.835506" lon="171.668545">
				 <ele>25.2</ele>
			 </trkpt>
			 <trkpt lat="-41.835434" lon="171.668205">
				 <ele>25.7</ele>
			 </trkpt>
			 <trkpt lat="-41.835366" lon="171.66777">
				 <ele>26.3</ele>
			 </trkpt>
			 <trkpt lat="-41.83531" lon="171.667416">
				 <ele>26.8</ele>
			 </trkpt>
			 <trkpt lat="-41.835229" lon="171.667066">
				 <ele>27.5</ele>
			 </trkpt>
			 <trkpt lat="-41.835065" lon="171.66644">
				 <ele>28.2</ele>
			 </trkpt>
			 <trkpt lat="-41.835" lon="171.66622">
				 <ele>28.6</ele>
			 </trkpt>
			 <trkpt lat="-41.834907" lon="171.666011">
				 <ele>28.7</ele>
			 </trkpt>
			 <trkpt lat="-41.83481" lon="171.665848">
				 <ele>28.9</ele>
			 </trkpt>
			 <trkpt lat="-41.834724" lon="171.665737">
				 <ele>28.8</ele>
			 </trkpt>
			 <trkpt lat="-41.834357" lon="171.66537">
				 <ele>28.5</ele>
			 </trkpt>
			 <trkpt lat="-41.834272" lon="171.665252">
				 <ele>28</ele>
			 </trkpt>
			 <trkpt lat="-41.834186" lon="171.665092">
				 <ele>27.5</ele>
			 </trkpt>
			 <trkpt lat="-41.834127" lon="171.664917">
				 <ele>26.8</ele>
			 </trkpt>
			 <trkpt lat="-41.834089" lon="171.664742">
				 <ele>26.1</ele>
			 </trkpt>
			 <trkpt lat="-41.833988" lon="171.663997">
				 <ele>25.5</ele>
			 </trkpt>
			 <trkpt lat="-41.833937" lon="171.663776">
				 <ele>25</ele>
			 </trkpt>
			 <trkpt lat="-41.833907" lon="171.663679">
				 <ele>24.4</ele>
			 </trkpt>
			 <trkpt lat="-41.833815" lon="171.663449">
				 <ele>23.6</ele>
			 </trkpt>
			 <trkpt lat="-41.833711" lon="171.663236">
				 <ele>22.8</ele>
			 </trkpt>
			 <trkpt lat="-41.833504" lon="171.662838">
				 <ele>22.1</ele>
			 </trkpt>
			 <trkpt lat="-41.83342" lon="171.662605">
				 <ele>21.6</ele>
			 </trkpt>
			 <trkpt lat="-41.833322" lon="171.662286">
				 <ele>21.5</ele>
			 </trkpt>
			 <trkpt lat="-41.832988" lon="171.661029">
				 <ele>21.5</ele>
			 </trkpt>
			 <trkpt lat="-41.832898" lon="171.660667">
				 <ele>21.7</ele>
			 </trkpt>
			 <trkpt lat="-41.83283" lon="171.660315">
				 <ele>21.9</ele>
			 </trkpt>
			 <trkpt lat="-41.832796" lon="171.660075">
				 <ele>21.8</ele>
			 </trkpt>
			 <trkpt lat="-41.832754" lon="171.659603">
				 <ele>21.6</ele>
			 </trkpt>
			 <trkpt lat="-41.832768" lon="171.658109">
				 <ele>21.5</ele>
			 </trkpt>
			 <trkpt lat="-41.832752" lon="171.657861">
				 <ele>21.4</ele>
			 </trkpt>
			 <trkpt lat="-41.832723" lon="171.657612">
				 <ele>21.4</ele>
			 </trkpt>
			 <trkpt lat="-41.832674" lon="171.657359">
				 <ele>21.4</ele>
			 </trkpt>
			 <trkpt lat="-41.832581" lon="171.657038">
				 <ele>21.4</ele>
			 </trkpt>
			 <trkpt lat="-41.832459" lon="171.656719">
				 <ele>21.3</ele>
			 </trkpt>
			 <trkpt lat="-41.831658" lon="171.654766">
				 <ele>21</ele>
			 </trkpt>
			 <trkpt lat="-41.831584" lon="171.654545">
				 <ele>20.7</ele>
			 </trkpt>
			 <trkpt lat="-41.831534" lon="171.654303">
				 <ele>20.5</ele>
			 </trkpt>
			 <trkpt lat="-41.831501" lon="171.654089">
				 <ele>20.5</ele>
			 </trkpt>
			 <trkpt lat="-41.83144" lon="171.653315">
				 <ele>20.8</ele>
			 </trkpt>
			 <trkpt lat="-41.83137" lon="171.652481">
				 <ele>21.3</ele>
			 </trkpt>
			 <trkpt lat="-41.83131" lon="171.651988">
				 <ele>21.6</ele>
			 </trkpt>
			 <trkpt lat="-41.831234" lon="171.651511">
				 <ele>22</ele>
			 </trkpt>
			 <trkpt lat="-41.831145" lon="171.651039">
				 <ele>22.4</ele>
			 </trkpt>
			 <trkpt lat="-41.831041" lon="171.650573">
				 <ele>22.6</ele>
			 </trkpt>
			 <trkpt lat="-41.830952" lon="171.650239">
				 <ele>22.9</ele>
			 </trkpt>
			 <trkpt lat="-41.830688" lon="171.649372">
				 <ele>23.2</ele>
			 </trkpt>
			 <trkpt lat="-41.830382" lon="171.648451">
				 <ele>23.2</ele>
			 </trkpt>
			 <trkpt lat="-41.83022" lon="171.647916">
				 <ele>23.1</ele>
			 </trkpt>
			 <trkpt lat="-41.83015" lon="171.647641">
				 <ele>22.9</ele>
			 </trkpt>
			 <trkpt lat="-41.830089" lon="171.647292">
				 <ele>22.5</ele>
			 </trkpt>
			 <trkpt lat="-41.830048" lon="171.646953">
				 <ele>21.9</ele>
			 </trkpt>
			 <trkpt lat="-41.829914" lon="171.645005">
				 <ele>21.5</ele>
			 </trkpt>
			 <trkpt lat="-41.829859" lon="171.644491">
				 <ele>21.2</ele>
			 </trkpt>
			 <trkpt lat="-41.829793" lon="171.644132">
				 <ele>20.8</ele>
			 </trkpt>
			 <trkpt lat="-41.829719" lon="171.643789">
				 <ele>20.5</ele>
			 </trkpt>
			 <trkpt lat="-41.829419" lon="171.642534">
				 <ele>20.3</ele>
			 </trkpt>
			 <trkpt lat="-41.829367" lon="171.642272">
				 <ele>20</ele>
			 </trkpt>
			 <trkpt lat="-41.829298" lon="171.641763">
				 <ele>20</ele>
			 </trkpt>
			 <trkpt lat="-41.829275" lon="171.641518">
				 <ele>20</ele>
			 </trkpt>
			 <trkpt lat="-41.82923" lon="171.640649">
				 <ele>19.9</ele>
			 </trkpt>
			 <trkpt lat="-41.829195" lon="171.640175">
				 <ele>20</ele>
			 </trkpt>
			 <trkpt lat="-41.829161" lon="171.639917">
				 <ele>20.2</ele>
			 </trkpt>
			 <trkpt lat="-41.829127" lon="171.639725">
				 <ele>20.3</ele>
			 </trkpt>
			 <trkpt lat="-41.828975" lon="171.639105">
				 <ele>20.4</ele>
			 </trkpt>
			 <trkpt lat="-41.828037" lon="171.635525">
				 <ele>20.4</ele>
			 </trkpt>
			 <trkpt lat="-41.825792" lon="171.627046">
				 <ele>20.5</ele>
			 </trkpt>
			 <trkpt lat="-41.825518" lon="171.62599">
				 <ele>20.7</ele>
			 </trkpt>
			 <trkpt lat="-41.825391" lon="171.625521">
				 <ele>21.3</ele>
			 </trkpt>
			 <trkpt lat="-41.825253" lon="171.625086">
				 <ele>21.8</ele>
			 </trkpt>
			 <trkpt lat="-41.825103" lon="171.624676">
				 <ele>22.2</ele>
			 </trkpt>
			 <trkpt lat="-41.824935" lon="171.624219">
				 <ele>22.8</ele>
			 </trkpt>
			 <trkpt lat="-41.824822" lon="171.623916">
				 <ele>23.3</ele>
			 </trkpt>
			 <trkpt lat="-41.824647" lon="171.623478">
				 <ele>23.5</ele>
			 </trkpt>
			 <trkpt lat="-41.824512" lon="171.623156">
				 <ele>23.6</ele>
			 </trkpt>
			 <trkpt lat="-41.82432" lon="171.622749">
				 <ele>23.5</ele>
			 </trkpt>
			 <trkpt lat="-41.824192" lon="171.622454">
				 <ele>23.5</ele>
			 </trkpt>
			 <trkpt lat="-41.824108" lon="171.622222">
				 <ele>23.5</ele>
			 </trkpt>
			 <trkpt lat="-41.823928" lon="171.621537">
				 <ele>23.2</ele>
			 </trkpt>
			 <trkpt lat="-41.823714" lon="171.620511">
				 <ele>22.6</ele>
			 </trkpt>
			 <trkpt lat="-41.823501" lon="171.619535">
				 <ele>22.1</ele>
			 </trkpt>
			 <trkpt lat="-41.823478" lon="171.61942">
				 <ele>21.8</ele>
			 </trkpt>
			 <trkpt lat="-41.822739" lon="171.615989">
				 <ele>21.6</ele>
			 </trkpt>
			 <trkpt lat="-41.822654" lon="171.615622">
				 <ele>21.7</ele>
			 </trkpt>
			 <trkpt lat="-41.822586" lon="171.615362">
				 <ele>22.3</ele>
			 </trkpt>
			 <trkpt lat="-41.82251" lon="171.615083">
				 <ele>23.6</ele>
			 </trkpt>
			 <trkpt lat="-41.822403" lon="171.614722">
				 <ele>25.1</ele>
			 </trkpt>
			 <trkpt lat="-41.822298" lon="171.614392">
				 <ele>26.5</ele>
			 </trkpt>
			 <trkpt lat="-41.822141" lon="171.613954">
				 <ele>27.8</ele>
			 </trkpt>
			 <trkpt lat="-41.821877" lon="171.613318">
				 <ele>29.2</ele>
			 </trkpt>
			 <trkpt lat="-41.821428" lon="171.612296">
				 <ele>30.6</ele>
			 </trkpt>
			 <trkpt lat="-41.821252" lon="171.611853">
				 <ele>32.2</ele>
			 </trkpt>
			 <trkpt lat="-41.821193" lon="171.611742">
				 <ele>33.7</ele>
			 </trkpt>
			 <trkpt lat="-41.821091" lon="171.611573">
				 <ele>35.4</ele>
			 </trkpt>
			 <trkpt lat="-41.820834" lon="171.611191">
				 <ele>36.8</ele>
			 </trkpt>
			 <trkpt lat="-41.820679" lon="171.610926">
				 <ele>37.9</ele>
			 </trkpt>
			 <trkpt lat="-41.82059" lon="171.610703">
				 <ele>38.5</ele>
			 </trkpt>
			 <trkpt lat="-41.82052" lon="171.610484">
				 <ele>39.3</ele>
			 </trkpt>
			 <trkpt lat="-41.820171" lon="171.609241">
				 <ele>40.1</ele>
			 </trkpt>
			 <trkpt lat="-41.820112" lon="171.608998">
				 <ele>40.9</ele>
			 </trkpt>
			 <trkpt lat="-41.820042" lon="171.608654">
				 <ele>41.6</ele>
			 </trkpt>
			 <trkpt lat="-41.819948" lon="171.6081">
				 <ele>42.3</ele>
			 </trkpt>
			 <trkpt lat="-41.819871" lon="171.607735">
				 <ele>42.9</ele>
			 </trkpt>
			 <trkpt lat="-41.819788" lon="171.607402">
				 <ele>43.5</ele>
			 </trkpt>
			 <trkpt lat="-41.819641" lon="171.606957">
				 <ele>43.7</ele>
			 </trkpt>
			 <trkpt lat="-41.819465" lon="171.606555">
				 <ele>44</ele>
			 </trkpt>
			 <trkpt lat="-41.819347" lon="171.606352">
				 <ele>44.5</ele>
			 </trkpt>
			 <trkpt lat="-41.819184" lon="171.606094">
				 <ele>44.9</ele>
			 </trkpt>
			 <trkpt lat="-41.819062" lon="171.605915">
				 <ele>45.5</ele>
			 </trkpt>
			 <trkpt lat="-41.81892" lon="171.605745">
				 <ele>46</ele>
			 </trkpt>
			 <trkpt lat="-41.818712" lon="171.605522">
				 <ele>46.6</ele>
			 </trkpt>
			 <trkpt lat="-41.818036" lon="171.604893">
				 <ele>47.4</ele>
			 </trkpt>
			 <trkpt lat="-41.817761" lon="171.604622">
				 <ele>48</ele>
			 </trkpt>
			 <trkpt lat="-41.817488" lon="171.604313">
				 <ele>48.5</ele>
			 </trkpt>
			 <trkpt lat="-41.817179" lon="171.603917">
				 <ele>49.2</ele>
			 </trkpt>
			 <trkpt lat="-41.816985" lon="171.603641">
				 <ele>50</ele>
			 </trkpt>
			 <trkpt lat="-41.81681" lon="171.603369">
				 <ele>50.8</ele>
			 </trkpt>
			 <trkpt lat="-41.816674" lon="171.603128">
				 <ele>51.3</ele>
			 </trkpt>
			 <trkpt lat="-41.816215" lon="171.602172">
				 <ele>50.8</ele>
			 </trkpt>
			 <trkpt lat="-41.815535" lon="171.600712">
				 <ele>50.3</ele>
			 </trkpt>
			 <trkpt lat="-41.814933" lon="171.599429">
				 <ele>50.1</ele>
			 </trkpt>
			 <trkpt lat="-41.81464" lon="171.598831">
				 <ele>50</ele>
			 </trkpt>
			 <trkpt lat="-41.814242" lon="171.598076">
				 <ele>50.1</ele>
			 </trkpt>
			 <trkpt lat="-41.813552" lon="171.596799">
				 <ele>50.4</ele>
			 </trkpt>
			 <trkpt lat="-41.813283" lon="171.596272">
				 <ele>50.6</ele>
			 </trkpt>
			 <trkpt lat="-41.813062" lon="171.595769">
				 <ele>49.6</ele>
			 </trkpt>
			 <trkpt lat="-41.812944" lon="171.595449">
				 <ele>48.5</ele>
			 </trkpt>
			 <trkpt lat="-41.812853" lon="171.595127">
				 <ele>47</ele>
			 </trkpt>
			 <trkpt lat="-41.812714" lon="171.594538">
				 <ele>45.5</ele>
			 </trkpt>
			 <trkpt lat="-41.81258" lon="171.593772">
				 <ele>44.5</ele>
			 </trkpt>
			 <trkpt lat="-41.812337" lon="171.592326">
				 <ele>43.4</ele>
			 </trkpt>
			 <trkpt lat="-41.812227" lon="171.591732">
				 <ele>41.9</ele>
			 </trkpt>
			 <trkpt lat="-41.812129" lon="171.591301">
				 <ele>40.3</ele>
			 </trkpt>
			 <trkpt lat="-41.812002" lon="171.590929">
				 <ele>38.3</ele>
			 </trkpt>
			 <trkpt lat="-41.811886" lon="171.590644">
				 <ele>36</ele>
			 </trkpt>
			 <trkpt lat="-41.81179" lon="171.590459">
				 <ele>33.5</ele>
			 </trkpt>
			 <trkpt lat="-41.811679" lon="171.590279">
				 <ele>31.6</ele>
			 </trkpt>
			 <trkpt lat="-41.811544" lon="171.590085">
				 <ele>29.7</ele>
			 </trkpt>
			 <trkpt lat="-41.811417" lon="171.589932">
				 <ele>28.1</ele>
			 </trkpt>
			 <trkpt lat="-41.811284" lon="171.589792">
				 <ele>26.7</ele>
			 </trkpt>
			 <trkpt lat="-41.811117" lon="171.589635">
				 <ele>25.8</ele>
			 </trkpt>
			 <trkpt lat="-41.810893" lon="171.589475">
				 <ele>25.1</ele>
			 </trkpt>
			 <trkpt lat="-41.810716" lon="171.589374">
				 <ele>24.5</ele>
			 </trkpt>
			 <trkpt lat="-41.810569" lon="171.589306">
				 <ele>24.2</ele>
			 </trkpt>
			 <trkpt lat="-41.810498" lon="171.589282">
				 <ele>24.3</ele>
			 </trkpt>
			 <trkpt lat="-41.810287" lon="171.589213">
				 <ele>24.6</ele>
			 </trkpt>
			 <trkpt lat="-41.810162" lon="171.589185">
				 <ele>25.5</ele>
			 </trkpt>
			 <trkpt lat="-41.810021" lon="171.589172">
				 <ele>26.9</ele>
			 </trkpt>
			 <trkpt lat="-41.809839" lon="171.589162">
				 <ele>28.4</ele>
			 </trkpt>
			 <trkpt lat="-41.809664" lon="171.589172">
				 <ele>29.8</ele>
			 </trkpt>
			 <trkpt lat="-41.809499" lon="171.589198">
				 <ele>31.5</ele>
			 </trkpt>
			 <trkpt lat="-41.809354" lon="171.589234">
				 <ele>33.1</ele>
			 </trkpt>
			 <trkpt lat="-41.809107" lon="171.589314">
				 <ele>34.8</ele>
			 </trkpt>
			 <trkpt lat="-41.808993" lon="171.589363">
				 <ele>36.4</ele>
			 </trkpt>
			 <trkpt lat="-41.808827" lon="171.589442">
				 <ele>37.7</ele>
			 </trkpt>
			 <trkpt lat="-41.808503" lon="171.589621">
				 <ele>38.8</ele>
			 </trkpt>
			 <trkpt lat="-41.807919" lon="171.589953">
				 <ele>39.9</ele>
			 </trkpt>
			 <trkpt lat="-41.806768" lon="171.590617">
				 <ele>40.7</ele>
			 </trkpt>
			 <trkpt lat="-41.806468" lon="171.59079">
				 <ele>41.3</ele>
			 </trkpt>
			 <trkpt lat="-41.806404" lon="171.590826">
				 <ele>41.6</ele>
			 </trkpt>
			 <trkpt lat="-41.806118" lon="171.590994">
				 <ele>41.9</ele>
			 </trkpt>
			 <trkpt lat="-41.804881" lon="171.591696">
				 <ele>42</ele>
			 </trkpt>
			 <trkpt lat="-41.803661" lon="171.592404">
				 <ele>41.9</ele>
			 </trkpt>
			 <trkpt lat="-41.803016" lon="171.592778">
				 <ele>41.6</ele>
			 </trkpt>
			 <trkpt lat="-41.802182" lon="171.593208">
				 <ele>41.4</ele>
			 </trkpt>
			 <trkpt lat="-41.801316" lon="171.593654">
				 <ele>41.1</ele>
			 </trkpt>
			 <trkpt lat="-41.800833" lon="171.593847">
				 <ele>40.8</ele>
			 </trkpt>
			 <trkpt lat="-41.800579" lon="171.593894">
				 <ele>39.9</ele>
			 </trkpt>
			 <trkpt lat="-41.79991" lon="171.593994">
				 <ele>39</ele>
			 </trkpt>
			 <trkpt lat="-41.798393" lon="171.594157">
				 <ele>38.3</ele>
			 </trkpt>
			 <trkpt lat="-41.796296" lon="171.594483">
				 <ele>37.9</ele>
			 </trkpt>
			 <trkpt lat="-41.795165" lon="171.594727">
				 <ele>37.6</ele>
			 </trkpt>
			 <trkpt lat="-41.792853" lon="171.595261">
				 <ele>37.4</ele>
			 </trkpt>
			 <trkpt lat="-41.792291" lon="171.595374">
				 <ele>37</ele>
			 </trkpt>
			 <trkpt lat="-41.79191" lon="171.595422">
				 <ele>36.5</ele>
			 </trkpt>
			 <trkpt lat="-41.79139" lon="171.595463">
				 <ele>35.8</ele>
			 </trkpt>
			 <trkpt lat="-41.79107" lon="171.595448">
				 <ele>35</ele>
			 </trkpt>
			 <trkpt lat="-41.790902" lon="171.595426">
				 <ele>34.2</ele>
			 </trkpt>
			 <trkpt lat="-41.790749" lon="171.595406">
				 <ele>33.8</ele>
			 </trkpt>
			 <trkpt lat="-41.790434" lon="171.595364">
				 <ele>33.5</ele>
			 </trkpt>
			 <trkpt lat="-41.790126" lon="171.595296">
				 <ele>32.8</ele>
			 </trkpt>
			 <trkpt lat="-41.789803" lon="171.595199">
				 <ele>31.9</ele>
			 </trkpt>
			 <trkpt lat="-41.789438" lon="171.595065">
				 <ele>30.9</ele>
			 </trkpt>
			 <trkpt lat="-41.788931" lon="171.594818">
				 <ele>29.9</ele>
			 </trkpt>
			 <trkpt lat="-41.788535" lon="171.594604">
				 <ele>28.9</ele>
			 </trkpt>
			 <trkpt lat="-41.78754" lon="171.593967">
				 <ele>28.1</ele>
			 </trkpt>
			 <trkpt lat="-41.787196" lon="171.593809">
				 <ele>27.3</ele>
			 </trkpt>
			 <trkpt lat="-41.787046" lon="171.593767">
				 <ele>26.5</ele>
			 </trkpt>
			 <trkpt lat="-41.786887" lon="171.593736">
				 <ele>25.5</ele>
			 </trkpt>
			 <trkpt lat="-41.786717" lon="171.593717">
				 <ele>24.7</ele>
			 </trkpt>
			 <trkpt lat="-41.786569" lon="171.593721">
				 <ele>24</ele>
			 </trkpt>
			 <trkpt lat="-41.786371" lon="171.593766">
				 <ele>23.5</ele>
			 </trkpt>
			 <trkpt lat="-41.785009" lon="171.594274">
				 <ele>23</ele>
			 </trkpt>
			 <trkpt lat="-41.783775" lon="171.594734">
				 <ele>22.5</ele>
			 </trkpt>
			 <trkpt lat="-41.783594" lon="171.594792">
				 <ele>22.1</ele>
			 </trkpt>
			 <trkpt lat="-41.782797" lon="171.594998">
				 <ele>21.7</ele>
			 </trkpt>
			 <trkpt lat="-41.781819" lon="171.595216">
				 <ele>21.4</ele>
			 </trkpt>
			 <trkpt lat="-41.781381" lon="171.595279">
				 <ele>21.1</ele>
			 </trkpt>
			 <trkpt lat="-41.780767" lon="171.595296">
				 <ele>21</ele>
			 </trkpt>
			 <trkpt lat="-41.780339" lon="171.595239">
				 <ele>21</ele>
			 </trkpt>
			 <trkpt lat="-41.778671" lon="171.594988">
				 <ele>21</ele>
			 </trkpt>
			 <trkpt lat="-41.778161" lon="171.594893">
				 <ele>21</ele>
			 </trkpt>
			 <trkpt lat="-41.777964" lon="171.594822">
				 <ele>20.9</ele>
			 </trkpt>
			 <trkpt lat="-41.777767" lon="171.594732">
				 <ele>20.8</ele>
			 </trkpt>
			 <trkpt lat="-41.777504" lon="171.594571">
				 <ele>20.7</ele>
			 </trkpt>
			 <trkpt lat="-41.777185" lon="171.594331">
				 <ele>20.6</ele>
			 </trkpt>
			 <trkpt lat="-41.776368" lon="171.593746">
				 <ele>20.5</ele>
			 </trkpt>
			 <trkpt lat="-41.774826" lon="171.59266">
				 <ele>20.5</ele>
			 </trkpt>
			 <trkpt lat="-41.774625" lon="171.592539">
				 <ele>20.4</ele>
			 </trkpt>
			 <trkpt lat="-41.774397" lon="171.592427">
				 <ele>20.2</ele>
			 </trkpt>
			 <trkpt lat="-41.774066" lon="171.592311">
				 <ele>20</ele>
			 </trkpt>
			 <trkpt lat="-41.773832" lon="171.59225">
				 <ele>19.5</ele>
			 </trkpt>
			 <trkpt lat="-41.773532" lon="171.592193">
				 <ele>19.1</ele>
			 </trkpt>
			 <trkpt lat="-41.773356" lon="171.592173">
				 <ele>18.3</ele>
			 </trkpt>
			 <trkpt lat="-41.773103" lon="171.592164">
				 <ele>17.4</ele>
			 </trkpt>
			 <trkpt lat="-41.7729" lon="171.592175">
				 <ele>16.5</ele>
			 </trkpt>
			 <trkpt lat="-41.772" lon="171.59225">
				 <ele>15.5</ele>
			 </trkpt>
			 <trkpt lat="-41.771924" lon="171.592257">
				 <ele>14.5</ele>
			 </trkpt>
			 <trkpt lat="-41.768567" lon="171.592578">
				 <ele>13.5</ele>
			 </trkpt>
			 <trkpt lat="-41.767916" lon="171.592655">
				 <ele>12.5</ele>
			 </trkpt>
			 <trkpt lat="-41.767296" lon="171.592713">
				 <ele>11.5</ele>
			 </trkpt>
			 <trkpt lat="-41.766898" lon="171.592717">
				 <ele>10.6</ele>
			 </trkpt>
			 <trkpt lat="-41.766826" lon="171.59272">
				 <ele>9.9</ele>
			 </trkpt>
			 <trkpt lat="-41.766805" lon="171.592905">
				 <ele>9.1</ele>
			 </trkpt>
			 <trkpt lat="-41.766766" lon="171.593145">
				 <ele>8.7</ele>
			 </trkpt>
			 <trkpt lat="-41.76669" lon="171.593503">
				 <ele>8.5</ele>
			 </trkpt>
			 <trkpt lat="-41.766524" lon="171.594255">
				 <ele>8.2</ele>
			 </trkpt>
			 <trkpt lat="-41.765752" lon="171.597764">
				 <ele>8</ele>
			 </trkpt>
			 <trkpt lat="-41.765649" lon="171.598239">
				 <ele>7.8</ele>
			 </trkpt>
			 <trkpt lat="-41.765585" lon="171.598501">
				 <ele>7.6</ele>
			 </trkpt>
			 <trkpt lat="-41.765545" lon="171.598635">
				 <ele>7.5</ele>
			 </trkpt>
			 <trkpt lat="-41.765462" lon="171.598908">
				 <ele>7.3</ele>
			 </trkpt>
			 <trkpt lat="-41.765401" lon="171.599056">
				 <ele>7.1</ele>
			 </trkpt>
			 <trkpt lat="-41.765301" lon="171.599265">
				 <ele>7</ele>
			 </trkpt>
			 <trkpt lat="-41.765129" lon="171.59955">
				 <ele>7</ele>
			 </trkpt>
			 <trkpt lat="-41.76494" lon="171.599783">
				 <ele>7</ele>
			 </trkpt>
			 <trkpt lat="-41.764666" lon="171.600057">
				 <ele>7</ele>
			 </trkpt>
			 <trkpt lat="-41.764527" lon="171.600161">
				 <ele>7</ele>
			 </trkpt>
			 <trkpt lat="-41.764358" lon="171.600266">
				 <ele>7</ele>
			 </trkpt>
			 <trkpt lat="-41.764023" lon="171.600423">
				 <ele>7</ele>
			 </trkpt>
			 <trkpt lat="-41.763831" lon="171.60048">
				 <ele>7</ele>
			 </trkpt>
			 <trkpt lat="-41.763666" lon="171.600502">
				 <ele>7</ele>
			 </trkpt>
			 <trkpt lat="-41.763438" lon="171.600505">
				 <ele>7</ele>
			 </trkpt>
			 <trkpt lat="-41.763284" lon="171.600486">
				 <ele>7</ele>
			 </trkpt>
			 <trkpt lat="-41.762803" lon="171.600383">
				 <ele>6.9</ele>
			 </trkpt>
			 <trkpt lat="-41.762728" lon="171.600366">
				 <ele>6.8</ele>
			 </trkpt>
			 <trkpt lat="-41.761442" lon="171.600078">
				 <ele>6.7</ele>
			 </trkpt>
			 <trkpt lat="-41.761341" lon="171.600055">
				 <ele>6.6</ele>
			 </trkpt>
			 <trkpt lat="-41.76126" lon="171.600036">
				 <ele>6.5</ele>
			 </trkpt>
			 <trkpt lat="-41.759968" lon="171.599727">
				 <ele>6.5</ele>
			 </trkpt>
			 <trkpt lat="-41.759866" lon="171.599703">
				 <ele>6.3</ele>
			 </trkpt>
			 <trkpt lat="-41.759769" lon="171.599681">
				 <ele>6.1</ele>
			 </trkpt>
			 <trkpt lat="-41.758486" lon="171.599391">
				 <ele>5.9</ele>
			 </trkpt>
			 <trkpt lat="-41.758399" lon="171.599371">
				 <ele>5.7</ele>
			 </trkpt>
			 <trkpt lat="-41.758293" lon="171.599347">
				 <ele>5.5</ele>
			 </trkpt>
			 <trkpt lat="-41.757004" lon="171.59906">
				 <ele>5.5</ele>
			 </trkpt>
			 <trkpt lat="-41.756901" lon="171.599037">
				 <ele>5.4</ele>
			 </trkpt>
			 <trkpt lat="-41.756815" lon="171.599017">
				 <ele>5.3</ele>
			 </trkpt>
			 <trkpt lat="-41.755598" lon="171.598742">
				 <ele>5.2</ele>
			 </trkpt>
			 <trkpt lat="-41.755441" lon="171.598706">
				 <ele>5.1</ele>
			 </trkpt>
			 <trkpt lat="-41.755431" lon="171.598772">
				 <ele>5</ele>
			 </trkpt>
			 <trkpt lat="-41.755416" lon="171.598882">
				 <ele>4.9</ele>
			 </trkpt>
			 <trkpt lat="-41.755339" lon="171.599476">
				 <ele>4.8</ele>
			 </trkpt>
			 <trkpt lat="-41.755263" lon="171.60007">
				 <ele>4.7</ele>
			 </trkpt>
			 <trkpt lat="-41.755255" lon="171.600125">
				 <ele>4.6</ele>
			 </trkpt>
			 <trkpt lat="-41.755019" lon="171.600307">
				 <ele>4.6</ele>
			 </trkpt>
			 <trkpt lat="-41.754684" lon="171.600709">
				 <ele>4.6</ele>
			 </trkpt>
			 <trkpt lat="-41.754608" lon="171.6008">
				 <ele>4.5</ele>
			 </trkpt>
			 <trkpt lat="-41.754531" lon="171.601393">
				 <ele>4.4</ele>
			 </trkpt>
			 <trkpt lat="-41.754499" lon="171.601643">
				 <ele>4.3</ele>
			 </trkpt>
		 </trkseg>
	 </trk>
</gpx>