<?xml version="1.0" encoding="UTF-8"?>
 <gpx creator="Garmin Connect" version="1.1"
	 xsi:schemaLocation="http://www.topografix.com/GPX/1/1 http://www.topografix.com/GPX/11.xsd"
	 xmlns:ns3="http://www.garmin.com/xmlschemas/TrackPointExtension/v1"
	 xmlns="http://www.topografix.com/GPX/1/1"
	 xmlns:xsi="http://www.w3.org/2001/XMLSchema-instance" xmlns:ns2="http://www.garmin.com/xmlschemas/GpxExtensions/v3">
	 <metadata>
		<name>Busselton Marathon 2025 - 42.195 km</name>
		 <link href="https://www.goandrace.com">
		 <text>Garmin Connect</text>
		 </link>
	 <time>2026-08-10T02:53:44</time>
	 </metadata>
	 <trk>
		 <name>Busselton Marathon 2025 - 42.195 km</name>
		 <trkseg>
			 <trkpt lat="-33.647086" lon="115.338882">
				 <ele>3</ele>
			 </trkpt>
			 <trkpt lat="-33.64709" lon="115.33889">
				 <ele>3.1</ele>
			 </trkpt>
			 <trkpt lat="-33.64808" lon="115.33631">
				 <ele>3.3</ele>
			 </trkpt>
			 <trkpt lat="-33.64808" lon="115.33631">
				 <ele>3.2</ele>
			 </trkpt>
			 <trkpt lat="-33.64854" lon="115.33515">
				 <ele>3.1</ele>
			 </trkpt>
			 <trkpt lat="-33.64904" lon="115.33387">
				 <ele>3</ele>
			 </trkpt>
			 <trkpt lat="-33.648985" lon="115.333841">
				 <ele>3</ele>
			 </trkpt>
			 <trkpt lat="-33.647672" lon="115.337263">
				 <ele>3</ele>
			 </trkpt>
			 <trkpt lat="-33.646637" lon="115.34002">
				 <ele>3.1</ele>
			 </trkpt>
			 <trkpt lat="-33.64616" lon="115.34122">
				 <ele>3.2</ele>
			 </trkpt>
			 <trkpt lat="-33.646187" lon="115.341252">
				 <ele>3.2</ele>
			 </trkpt>
			 <trkpt lat="-33.647089" lon="115.338913">
				 <ele>3.1</ele>
			 </trkpt>
			 <trkpt lat="-33.64708" lon="115.33891">
				 <ele>3</ele>
			 </trkpt>
			 <trkpt lat="-33.64816" lon="115.33609">
				 <ele>2.9</ele>
			 </trkpt>
			 <trkpt lat="-33.64838" lon="115.33555">
				 <ele>2.9</ele>
			 </trkpt>
			 <trkpt lat="-33.64838" lon="115.33555">
				 <ele>3.1</ele>
			 </trkpt>
			 <trkpt lat="-33.64956" lon="115.33253">
				 <ele>3.3</ele>
			 </trkpt>
			 <trkpt lat="-33.65031" lon="115.33057">
				 <ele>3.4</ele>
			 </trkpt>
			 <trkpt lat="-33.65036" lon="115.3305">
				 <ele>3.5</ele>
			 </trkpt>
			 <trkpt lat="-33.65057" lon="115.33049">
				 <ele>3.4</ele>
			 </trkpt>
			 <trkpt lat="-33.65053" lon="115.33018">
				 <ele>3.3</ele>
			 </trkpt>
			 <trkpt lat="-33.65053" lon="115.33006">
				 <ele>3.3</ele>
			 </trkpt>
			 <trkpt lat="-33.65057" lon="115.32997">
				 <ele>3.2</ele>
			 </trkpt>
			 <trkpt lat="-33.65061" lon="115.32992">
				 <ele>3.1</ele>
			 </trkpt>
			 <trkpt lat="-33.65101" lon="115.32891">
				 <ele>3</ele>
			 </trkpt>
			 <trkpt lat="-33.65112" lon="115.32875">
				 <ele>3</ele>
			 </trkpt>
			 <trkpt lat="-33.65125" lon="115.32838">
				 <ele>2.9</ele>
			 </trkpt>
			 <trkpt lat="-33.65128" lon="115.32808">
				 <ele>2.8</ele>
			 </trkpt>
			 <trkpt lat="-33.65134" lon="115.32786">
				 <ele>2.8</ele>
			 </trkpt>
			 <trkpt lat="-33.65286" lon="115.324">
				 <ele>2.8</ele>
			 </trkpt>
			 <trkpt lat="-33.65308" lon="115.32344">
				 <ele>2.9</ele>
			 </trkpt>
			 <trkpt lat="-33.65308" lon="115.32339">
				 <ele>3</ele>
			 </trkpt>
			 <trkpt lat="-33.65304" lon="115.32336">
				 <ele>3</ele>
			 </trkpt>
			 <trkpt lat="-33.65296" lon="115.32334">
				 <ele>3.2</ele>
			 </trkpt>
			 <trkpt lat="-33.65288" lon="115.32334">
				 <ele>3.4</ele>
			 </trkpt>
			 <trkpt lat="-33.65271" lon="115.32334">
				 <ele>3.5</ele>
			 </trkpt>
			 <trkpt lat="-33.65261" lon="115.32338">
				 <ele>3.6</ele>
			 </trkpt>
			 <trkpt lat="-33.65254" lon="115.32338">
				 <ele>3.7</ele>
			 </trkpt>
			 <trkpt lat="-33.65242" lon="115.32328">
				 <ele>3.8</ele>
			 </trkpt>
			 <trkpt lat="-33.65242" lon="115.32328">
				 <ele>3.9</ele>
			 </trkpt>
			 <trkpt lat="-33.65227" lon="115.32312">
				 <ele>4</ele>
			 </trkpt>
			 <trkpt lat="-33.6522" lon="115.323">
				 <ele>4</ele>
			 </trkpt>
			 <trkpt lat="-33.65222" lon="115.32278">
				 <ele>4</ele>
			 </trkpt>
			 <trkpt lat="-33.65225" lon="115.32269">
				 <ele>4</ele>
			 </trkpt>
			 <trkpt lat="-33.65231" lon="115.32257">
				 <ele>4</ele>
			 </trkpt>
			 <trkpt lat="-33.65239" lon="115.32237">
				 <ele>4.1</ele>
			 </trkpt>
			 <trkpt lat="-33.65247" lon="115.32202">
				 <ele>4.2</ele>
			 </trkpt>
			 <trkpt lat="-33.65256" lon="115.3215">
				 <ele>4.2</ele>
			 </trkpt>
			 <trkpt lat="-33.65261" lon="115.32134">
				 <ele>4.2</ele>
			 </trkpt>
			 <trkpt lat="-33.65276" lon="115.3211">
				 <ele>4.2</ele>
			 </trkpt>
			 <trkpt lat="-33.65278" lon="115.32101">
				 <ele>4.2</ele>
			 </trkpt>
			 <trkpt lat="-33.65278" lon="115.32084">
				 <ele>4.1</ele>
			 </trkpt>
			 <trkpt lat="-33.6528" lon="115.32058">
				 <ele>4</ele>
			 </trkpt>
			 <trkpt lat="-33.65283" lon="115.32046">
				 <ele>4</ele>
			 </trkpt>
			 <trkpt lat="-33.65282" lon="115.3202">
				 <ele>3.9</ele>
			 </trkpt>
			 <trkpt lat="-33.65285" lon="115.31988">
				 <ele>3.8</ele>
			 </trkpt>
			 <trkpt lat="-33.65296" lon="115.31946">
				 <ele>3.6</ele>
			 </trkpt>
			 <trkpt lat="-33.65306" lon="115.31903">
				 <ele>3.5</ele>
			 </trkpt>
			 <trkpt lat="-33.6531" lon="115.31845">
				 <ele>3.4</ele>
			 </trkpt>
			 <trkpt lat="-33.6532" lon="115.31802">
				 <ele>3.3</ele>
			 </trkpt>
			 <trkpt lat="-33.65323" lon="115.31792">
				 <ele>3.2</ele>
			 </trkpt>
			 <trkpt lat="-33.65323" lon="115.31784">
				 <ele>3.1</ele>
			 </trkpt>
			 <trkpt lat="-33.65318" lon="115.3177">
				 <ele>3</ele>
			 </trkpt>
			 <trkpt lat="-33.65316" lon="115.31759">
				 <ele>3</ele>
			 </trkpt>
			 <trkpt lat="-33.65318" lon="115.3171">
				 <ele>2.9</ele>
			 </trkpt>
			 <trkpt lat="-33.65321" lon="115.31695">
				 <ele>2.9</ele>
			 </trkpt>
			 <trkpt lat="-33.6532" lon="115.31661">
				 <ele>2.9</ele>
			 </trkpt>
			 <trkpt lat="-33.65317" lon="115.31639">
				 <ele>2.9</ele>
			 </trkpt>
			 <trkpt lat="-33.65321" lon="115.31617">
				 <ele>2.9</ele>
			 </trkpt>
			 <trkpt lat="-33.65318" lon="115.31582">
				 <ele>2.9</ele>
			 </trkpt>
			 <trkpt lat="-33.65314" lon="115.31553">
				 <ele>2.9</ele>
			 </trkpt>
			 <trkpt lat="-33.65311" lon="115.31535">
				 <ele>2.9</ele>
			 </trkpt>
			 <trkpt lat="-33.6531" lon="115.31514">
				 <ele>2.9</ele>
			 </trkpt>
			 <trkpt lat="-33.65312" lon="115.3148">
				 <ele>3</ele>
			 </trkpt>
			 <trkpt lat="-33.65316" lon="115.31459">
				 <ele>2.9</ele>
			 </trkpt>
			 <trkpt lat="-33.65323" lon="115.31418">
				 <ele>2.9</ele>
			 </trkpt>
			 <trkpt lat="-33.65373" lon="115.31231">
				 <ele>2.9</ele>
			 </trkpt>
			 <trkpt lat="-33.65404" lon="115.31118">
				 <ele>2.9</ele>
			 </trkpt>
			 <trkpt lat="-33.65434" lon="115.30998">
				 <ele>2.8</ele>
			 </trkpt>
			 <trkpt lat="-33.65471" lon="115.30813">
				 <ele>2.7</ele>
			 </trkpt>
			 <trkpt lat="-33.65469" lon="115.30798">
				 <ele>2.6</ele>
			 </trkpt>
			 <trkpt lat="-33.6547" lon="115.30747">
				 <ele>2.5</ele>
			 </trkpt>
			 <trkpt lat="-33.6547" lon="115.30747">
				 <ele>2.5</ele>
			 </trkpt>
			 <trkpt lat="-33.65477" lon="115.3067">
				 <ele>2.4</ele>
			 </trkpt>
			 <trkpt lat="-33.65477" lon="115.30579">
				 <ele>2.3</ele>
			 </trkpt>
			 <trkpt lat="-33.65479" lon="115.30552">
				 <ele>2.4</ele>
			 </trkpt>
			 <trkpt lat="-33.65484" lon="115.30466">
				 <ele>2.4</ele>
			 </trkpt>
			 <trkpt lat="-33.65488" lon="115.30417">
				 <ele>2.3</ele>
			 </trkpt>
			 <trkpt lat="-33.65497" lon="115.30356">
				 <ele>2.2</ele>
			 </trkpt>
			 <trkpt lat="-33.65503" lon="115.30296">
				 <ele>2.2</ele>
			 </trkpt>
			 <trkpt lat="-33.65511" lon="115.3026">
				 <ele>2.2</ele>
			 </trkpt>
			 <trkpt lat="-33.65526" lon="115.30222">
				 <ele>2.2</ele>
			 </trkpt>
			 <trkpt lat="-33.65531" lon="115.302">
				 <ele>2.2</ele>
			 </trkpt>
			 <trkpt lat="-33.65541" lon="115.30202">
				 <ele>2.2</ele>
			 </trkpt>
			 <trkpt lat="-33.65548" lon="115.30205">
				 <ele>2.3</ele>
			 </trkpt>
			 <trkpt lat="-33.65558" lon="115.30221">
				 <ele>2.4</ele>
			 </trkpt>
			 <trkpt lat="-33.6556" lon="115.30227">
				 <ele>2.4</ele>
			 </trkpt>
			 <trkpt lat="-33.65563" lon="115.30226">
				 <ele>2.4</ele>
			 </trkpt>
			 <trkpt lat="-33.6557" lon="115.30225">
				 <ele>2.5</ele>
			 </trkpt>
			 <trkpt lat="-33.65599" lon="115.30228">
				 <ele>2.5</ele>
			 </trkpt>
			 <trkpt lat="-33.65603" lon="115.30079">
				 <ele>2.5</ele>
			 </trkpt>
			 <trkpt lat="-33.65606" lon="115.2996">
				 <ele>2.6</ele>
			 </trkpt>
			 <trkpt lat="-33.65608" lon="115.2983">
				 <ele>2.7</ele>
			 </trkpt>
			 <trkpt lat="-33.65604" lon="115.29695">
				 <ele>2.7</ele>
			 </trkpt>
			 <trkpt lat="-33.656029" lon="115.296617">
				 <ele>2.7</ele>
			 </trkpt>
			 <trkpt lat="-33.655641" lon="115.296644">
				 <ele>2.6</ele>
			 </trkpt>
			 <trkpt lat="-33.655446" lon="115.296655">
				 <ele>2.5</ele>
			 </trkpt>
			 <trkpt lat="-33.65541" lon="115.29666">
				 <ele>2.5</ele>
			 </trkpt>
			 <trkpt lat="-33.65539" lon="115.29632">
				 <ele>2.5</ele>
			 </trkpt>
			 <trkpt lat="-33.65548" lon="115.29603">
				 <ele>2.5</ele>
			 </trkpt>
			 <trkpt lat="-33.65553" lon="115.29591">
				 <ele>2.5</ele>
			 </trkpt>
			 <trkpt lat="-33.65563" lon="115.29581">
				 <ele>2.6</ele>
			 </trkpt>
			 <trkpt lat="-33.65579" lon="115.29564">
				 <ele>2.6</ele>
			 </trkpt>
			 <trkpt lat="-33.65579" lon="115.29564">
				 <ele>2.6</ele>
			 </trkpt>
			 <trkpt lat="-33.65582" lon="115.29558">
				 <ele>2.7</ele>
			 </trkpt>
			 <trkpt lat="-33.65582" lon="115.29549">
				 <ele>2.8</ele>
			 </trkpt>
			 <trkpt lat="-33.65581" lon="115.29526">
				 <ele>2.9</ele>
			 </trkpt>
			 <trkpt lat="-33.65587" lon="115.29505">
				 <ele>3</ele>
			 </trkpt>
			 <trkpt lat="-33.6559" lon="115.2948">
				 <ele>3</ele>
			 </trkpt>
			 <trkpt lat="-33.65589" lon="115.29421">
				 <ele>2.9</ele>
			 </trkpt>
			 <trkpt lat="-33.65583" lon="115.2934">
				 <ele>2.9</ele>
			 </trkpt>
			 <trkpt lat="-33.65571" lon="115.29317">
				 <ele>2.8</ele>
			 </trkpt>
			 <trkpt lat="-33.65556" lon="115.29297">
				 <ele>2.7</ele>
			 </trkpt>
			 <trkpt lat="-33.65556" lon="115.29297">
				 <ele>2.6</ele>
			 </trkpt>
			 <trkpt lat="-33.6554" lon="115.29273">
				 <ele>2.5</ele>
			 </trkpt>
			 <trkpt lat="-33.65519" lon="115.29246">
				 <ele>2.5</ele>
			 </trkpt>
			 <trkpt lat="-33.65514" lon="115.29239">
				 <ele>2.4</ele>
			 </trkpt>
			 <trkpt lat="-33.6551" lon="115.29232">
				 <ele>2.4</ele>
			 </trkpt>
			 <trkpt lat="-33.6551" lon="115.2923">
				 <ele>2.4</ele>
			 </trkpt>
			 <trkpt lat="-33.655146" lon="115.291957">
				 <ele>2.4</ele>
			 </trkpt>
			 <trkpt lat="-33.655239" lon="115.291839">
				 <ele>2.5</ele>
			 </trkpt>
			 <trkpt lat="-33.655373" lon="115.291721">
				 <ele>2.5</ele>
			 </trkpt>
			 <trkpt lat="-33.655391" lon="115.291496">
				 <ele>2.5</ele>
			 </trkpt>
			 <trkpt lat="-33.655319" lon="115.291244">
				 <ele>2.5</ele>
			 </trkpt>
			 <trkpt lat="-33.655395" lon="115.290895">
				 <ele>2.5</ele>
			 </trkpt>
			 <trkpt lat="-33.655413" lon="115.290377">
				 <ele>2.5</ele>
			 </trkpt>
			 <trkpt lat="-33.655483" lon="115.290237">
				 <ele>2.5</ele>
			 </trkpt>
			 <trkpt lat="-33.655492" lon="115.290076">
				 <ele>2.6</ele>
			 </trkpt>
			 <trkpt lat="-33.655497" lon="115.289996">
				 <ele>2.6</ele>
			 </trkpt>
			 <trkpt lat="-33.655483" lon="115.289819">
				 <ele>2.6</ele>
			 </trkpt>
			 <trkpt lat="-33.655524" lon="115.289454">
				 <ele>2.6</ele>
			 </trkpt>
			 <trkpt lat="-33.655582" lon="115.289304">
				 <ele>2.5</ele>
			 </trkpt>
			 <trkpt lat="-33.655564" lon="115.288896">
				 <ele>2.5</ele>
			 </trkpt>
			 <trkpt lat="-33.655644" lon="115.288725">
				 <ele>2.5</ele>
			 </trkpt>
			 <trkpt lat="-33.65575" lon="115.288394">
				 <ele>2.6</ele>
			 </trkpt>
			 <trkpt lat="-33.655947" lon="115.288077">
				 <ele>2.6</ele>
			 </trkpt>
			 <trkpt lat="-33.65594" lon="115.28803">
				 <ele>2.7</ele>
			 </trkpt>
			 <trkpt lat="-33.65602" lon="115.28801">
				 <ele>2.8</ele>
			 </trkpt>
			 <trkpt lat="-33.65609" lon="115.28796">
				 <ele>2.9</ele>
			 </trkpt>
			 <trkpt lat="-33.65616" lon="115.28793">
				 <ele>3</ele>
			 </trkpt>
			 <trkpt lat="-33.65631" lon="115.28792">
				 <ele>3.1</ele>
			 </trkpt>
			 <trkpt lat="-33.65637" lon="115.28784">
				 <ele>3.2</ele>
			 </trkpt>
			 <trkpt lat="-33.65647" lon="115.28774">
				 <ele>3.4</ele>
			 </trkpt>
			 <trkpt lat="-33.65664" lon="115.28756">
				 <ele>3.5</ele>
			 </trkpt>
			 <trkpt lat="-33.6567" lon="115.28742">
				 <ele>3.6</ele>
			 </trkpt>
			 <trkpt lat="-33.65669" lon="115.28725">
				 <ele>3.7</ele>
			 </trkpt>
			 <trkpt lat="-33.6567" lon="115.28683">
				 <ele>3.8</ele>
			 </trkpt>
			 <trkpt lat="-33.65674" lon="115.2865">
				 <ele>3.9</ele>
			 </trkpt>
			 <trkpt lat="-33.65671" lon="115.28618">
				 <ele>4</ele>
			 </trkpt>
			 <trkpt lat="-33.6567" lon="115.28589">
				 <ele>4</ele>
			 </trkpt>
			 <trkpt lat="-33.6567" lon="115.28589">
				 <ele>4</ele>
			 </trkpt>
			 <trkpt lat="-33.65672" lon="115.28547">
				 <ele>4</ele>
			 </trkpt>
			 <trkpt lat="-33.65671" lon="115.28498">
				 <ele>4</ele>
			 </trkpt>
			 <trkpt lat="-33.65667" lon="115.28474">
				 <ele>4.1</ele>
			 </trkpt>
			 <trkpt lat="-33.65661" lon="115.28449">
				 <ele>4.1</ele>
			 </trkpt>
			 <trkpt lat="-33.65658" lon="115.28419">
				 <ele>4.1</ele>
			 </trkpt>
			 <trkpt lat="-33.65658" lon="115.28376">
				 <ele>4.2</ele>
			 </trkpt>
			 <trkpt lat="-33.65659" lon="115.28353">
				 <ele>4.3</ele>
			 </trkpt>
			 <trkpt lat="-33.65666" lon="115.28333">
				 <ele>4.4</ele>
			 </trkpt>
			 <trkpt lat="-33.65672" lon="115.28299">
				 <ele>4.4</ele>
			 </trkpt>
			 <trkpt lat="-33.65679" lon="115.2825">
				 <ele>4.4</ele>
			 </trkpt>
			 <trkpt lat="-33.65679" lon="115.28238">
				 <ele>4.4</ele>
			 </trkpt>
			 <trkpt lat="-33.65662" lon="115.28235">
				 <ele>4.4</ele>
			 </trkpt>
			 <trkpt lat="-33.65653" lon="115.28232">
				 <ele>4.4</ele>
			 </trkpt>
			 <trkpt lat="-33.6565" lon="115.28221">
				 <ele>4.2</ele>
			 </trkpt>
			 <trkpt lat="-33.65655" lon="115.28179">
				 <ele>4.1</ele>
			 </trkpt>
			 <trkpt lat="-33.65658" lon="115.28146">
				 <ele>3.9</ele>
			 </trkpt>
			 <trkpt lat="-33.65658" lon="115.28125">
				 <ele>3.7</ele>
			 </trkpt>
			 <trkpt lat="-33.65658" lon="115.281">
				 <ele>3.5</ele>
			 </trkpt>
			 <trkpt lat="-33.65651" lon="115.28093">
				 <ele>3.4</ele>
			 </trkpt>
			 <trkpt lat="-33.65621" lon="115.28082">
				 <ele>3.3</ele>
			 </trkpt>
			 <trkpt lat="-33.65603" lon="115.28075">
				 <ele>3.2</ele>
			 </trkpt>
			 <trkpt lat="-33.65585" lon="115.28072">
				 <ele>3.1</ele>
			 </trkpt>
			 <trkpt lat="-33.65566" lon="115.28052">
				 <ele>3</ele>
			 </trkpt>
			 <trkpt lat="-33.65566" lon="115.28039">
				 <ele>2.8</ele>
			 </trkpt>
			 <trkpt lat="-33.6557" lon="115.28027">
				 <ele>2.7</ele>
			 </trkpt>
			 <trkpt lat="-33.65573" lon="115.28018">
				 <ele>2.6</ele>
			 </trkpt>
			 <trkpt lat="-33.65572" lon="115.28005">
				 <ele>2.6</ele>
			 </trkpt>
			 <trkpt lat="-33.65574" lon="115.27963">
				 <ele>2.5</ele>
			 </trkpt>
			 <trkpt lat="-33.65585" lon="115.27915">
				 <ele>2.5</ele>
			 </trkpt>
			 <trkpt lat="-33.65588" lon="115.27902">
				 <ele>2.4</ele>
			 </trkpt>
			 <trkpt lat="-33.65587" lon="115.27893">
				 <ele>2.3</ele>
			 </trkpt>
			 <trkpt lat="-33.65586" lon="115.27884">
				 <ele>2.3</ele>
			 </trkpt>
			 <trkpt lat="-33.65589" lon="115.27872">
				 <ele>2.3</ele>
			 </trkpt>
			 <trkpt lat="-33.65597" lon="115.27842">
				 <ele>2.3</ele>
			 </trkpt>
			 <trkpt lat="-33.656" lon="115.27824">
				 <ele>2.4</ele>
			 </trkpt>
			 <trkpt lat="-33.65601" lon="115.27808">
				 <ele>2.5</ele>
			 </trkpt>
			 <trkpt lat="-33.65602" lon="115.27732">
				 <ele>2.6</ele>
			 </trkpt>
			 <trkpt lat="-33.65603" lon="115.27724">
				 <ele>2.8</ele>
			 </trkpt>
			 <trkpt lat="-33.65603" lon="115.27724">
				 <ele>3</ele>
			 </trkpt>
			 <trkpt lat="-33.65607" lon="115.27701">
				 <ele>3.2</ele>
			 </trkpt>
			 <trkpt lat="-33.65605" lon="115.27663">
				 <ele>3.4</ele>
			 </trkpt>
			 <trkpt lat="-33.65606" lon="115.27608">
				 <ele>3.5</ele>
			 </trkpt>
			 <trkpt lat="-33.6561" lon="115.27596">
				 <ele>3.6</ele>
			 </trkpt>
			 <trkpt lat="-33.65618" lon="115.27584">
				 <ele>3.6</ele>
			 </trkpt>
			 <trkpt lat="-33.6562" lon="115.27579">
				 <ele>3.6</ele>
			 </trkpt>
			 <trkpt lat="-33.65618" lon="115.27573">
				 <ele>3.6</ele>
			 </trkpt>
			 <trkpt lat="-33.65618" lon="115.27552">
				 <ele>3.6</ele>
			 </trkpt>
			 <trkpt lat="-33.65628" lon="115.27502">
				 <ele>3.6</ele>
			 </trkpt>
			 <trkpt lat="-33.65633" lon="115.27434">
				 <ele>3.5</ele>
			 </trkpt>
			 <trkpt lat="-33.6564" lon="115.27399">
				 <ele>3.5</ele>
			 </trkpt>
			 <trkpt lat="-33.65649" lon="115.27333">
				 <ele>3.4</ele>
			 </trkpt>
			 <trkpt lat="-33.65665" lon="115.2726">
				 <ele>3.3</ele>
			 </trkpt>
			 <trkpt lat="-33.65676" lon="115.27218">
				 <ele>3.1</ele>
			 </trkpt>
			 <trkpt lat="-33.65679" lon="115.27199">
				 <ele>3</ele>
			 </trkpt>
			 <trkpt lat="-33.65678" lon="115.27189">
				 <ele>3</ele>
			 </trkpt>
			 <trkpt lat="-33.65671" lon="115.27161">
				 <ele>3</ele>
			 </trkpt>
			 <trkpt lat="-33.65674" lon="115.27134">
				 <ele>3</ele>
			 </trkpt>
			 <trkpt lat="-33.65674" lon="115.27102">
				 <ele>2.9</ele>
			 </trkpt>
			 <trkpt lat="-33.65677" lon="115.27073">
				 <ele>2.9</ele>
			 </trkpt>
			 <trkpt lat="-33.65684" lon="115.27022">
				 <ele>2.8</ele>
			 </trkpt>
			 <trkpt lat="-33.65693" lon="115.26946">
				 <ele>2.7</ele>
			 </trkpt>
			 <trkpt lat="-33.65695" lon="115.26881">
				 <ele>2.6</ele>
			 </trkpt>
			 <trkpt lat="-33.65693" lon="115.26858">
				 <ele>2.6</ele>
			 </trkpt>
			 <trkpt lat="-33.65693" lon="115.26847">
				 <ele>2.7</ele>
			 </trkpt>
			 <trkpt lat="-33.65697" lon="115.26835">
				 <ele>2.7</ele>
			 </trkpt>
			 <trkpt lat="-33.65702" lon="115.26796">
				 <ele>2.7</ele>
			 </trkpt>
			 <trkpt lat="-33.65704" lon="115.26758">
				 <ele>2.7</ele>
			 </trkpt>
			 <trkpt lat="-33.65706" lon="115.26693">
				 <ele>2.7</ele>
			 </trkpt>
			 <trkpt lat="-33.65709" lon="115.26668">
				 <ele>2.7</ele>
			 </trkpt>
			 <trkpt lat="-33.65709" lon="115.26637">
				 <ele>2.7</ele>
			 </trkpt>
			 <trkpt lat="-33.65708" lon="115.26601">
				 <ele>2.8</ele>
			 </trkpt>
			 <trkpt lat="-33.6571" lon="115.26581">
				 <ele>2.9</ele>
			 </trkpt>
			 <trkpt lat="-33.65715" lon="115.26558">
				 <ele>3</ele>
			 </trkpt>
			 <trkpt lat="-33.65726" lon="115.2652">
				 <ele>2.9</ele>
			 </trkpt>
			 <trkpt lat="-33.65728" lon="115.26482">
				 <ele>2.9</ele>
			 </trkpt>
			 <trkpt lat="-33.65734" lon="115.26465">
				 <ele>2.9</ele>
			 </trkpt>
			 <trkpt lat="-33.65741" lon="115.2645">
				 <ele>2.9</ele>
			 </trkpt>
			 <trkpt lat="-33.6575" lon="115.26436">
				 <ele>2.9</ele>
			 </trkpt>
			 <trkpt lat="-33.65756" lon="115.2642">
				 <ele>2.9</ele>
			 </trkpt>
			 <trkpt lat="-33.65756" lon="115.2641">
				 <ele>2.8</ele>
			 </trkpt>
			 <trkpt lat="-33.65749" lon="115.26394">
				 <ele>2.7</ele>
			 </trkpt>
			 <trkpt lat="-33.65746" lon="115.26369">
				 <ele>2.7</ele>
			 </trkpt>
			 <trkpt lat="-33.65746" lon="115.26362">
				 <ele>2.6</ele>
			 </trkpt>
			 <trkpt lat="-33.65749" lon="115.26354">
				 <ele>2.5</ele>
			 </trkpt>
			 <trkpt lat="-33.65751" lon="115.26328">
				 <ele>2.6</ele>
			 </trkpt>
			 <trkpt lat="-33.65752" lon="115.26312">
				 <ele>2.6</ele>
			 </trkpt>
			 <trkpt lat="-33.65751" lon="115.26297">
				 <ele>2.6</ele>
			 </trkpt>
			 <trkpt lat="-33.65749" lon="115.26288">
				 <ele>2.6</ele>
			 </trkpt>
			 <trkpt lat="-33.65749" lon="115.26288">
				 <ele>2.6</ele>
			 </trkpt>
			 <trkpt lat="-33.65741" lon="115.26251">
				 <ele>2.5</ele>
			 </trkpt>
			 <trkpt lat="-33.65742" lon="115.26233">
				 <ele>2.6</ele>
			 </trkpt>
			 <trkpt lat="-33.65748" lon="115.26212">
				 <ele>2.7</ele>
			 </trkpt>
			 <trkpt lat="-33.65747" lon="115.26191">
				 <ele>2.7</ele>
			 </trkpt>
			 <trkpt lat="-33.65747" lon="115.26172">
				 <ele>2.7</ele>
			 </trkpt>
			 <trkpt lat="-33.65755" lon="115.26133">
				 <ele>2.7</ele>
			 </trkpt>
			 <trkpt lat="-33.65754" lon="115.2612">
				 <ele>2.7</ele>
			 </trkpt>
			 <trkpt lat="-33.65756" lon="115.26109">
				 <ele>2.7</ele>
			 </trkpt>
			 <trkpt lat="-33.65756" lon="115.2606">
				 <ele>2.6</ele>
			 </trkpt>
			 <trkpt lat="-33.65751" lon="115.26028">
				 <ele>2.6</ele>
			 </trkpt>
			 <trkpt lat="-33.65749" lon="115.25976">
				 <ele>2.5</ele>
			 </trkpt>
			 <trkpt lat="-33.65743" lon="115.25901">
				 <ele>2.5</ele>
			 </trkpt>
			 <trkpt lat="-33.65746" lon="115.25886">
				 <ele>2.5</ele>
			 </trkpt>
			 <trkpt lat="-33.65747" lon="115.25855">
				 <ele>2.5</ele>
			 </trkpt>
			 <trkpt lat="-33.65746" lon="115.25774">
				 <ele>2.4</ele>
			 </trkpt>
			 <trkpt lat="-33.65735" lon="115.25699">
				 <ele>2.4</ele>
			 </trkpt>
			 <trkpt lat="-33.65736" lon="115.25642">
				 <ele>2.4</ele>
			 </trkpt>
			 <trkpt lat="-33.65737" lon="115.2558">
				 <ele>2.2</ele>
			 </trkpt>
			 <trkpt lat="-33.65741" lon="115.25536">
				 <ele>2</ele>
			 </trkpt>
			 <trkpt lat="-33.65739" lon="115.25495">
				 <ele>2</ele>
			 </trkpt>
			 <trkpt lat="-33.65744" lon="115.25458">
				 <ele>1.9</ele>
			 </trkpt>
			 <trkpt lat="-33.65747" lon="115.25394">
				 <ele>1.9</ele>
			 </trkpt>
			 <trkpt lat="-33.65737" lon="115.25341">
				 <ele>1.9</ele>
			 </trkpt>
			 <trkpt lat="-33.65727" lon="115.25311">
				 <ele>1.8</ele>
			 </trkpt>
			 <trkpt lat="-33.65726" lon="115.25297">
				 <ele>1.9</ele>
			 </trkpt>
			 <trkpt lat="-33.65727" lon="115.25289">
				 <ele>2</ele>
			 </trkpt>
			 <trkpt lat="-33.65736" lon="115.25276">
				 <ele>2.1</ele>
			 </trkpt>
			 <trkpt lat="-33.65746" lon="115.25262">
				 <ele>2.2</ele>
			 </trkpt>
			 <trkpt lat="-33.65746" lon="115.25239">
				 <ele>2.4</ele>
			 </trkpt>
			 <trkpt lat="-33.65735" lon="115.25159">
				 <ele>2.5</ele>
			 </trkpt>
			 <trkpt lat="-33.65728" lon="115.25131">
				 <ele>2.6</ele>
			 </trkpt>
			 <trkpt lat="-33.65724" lon="115.25096">
				 <ele>2.7</ele>
			 </trkpt>
			 <trkpt lat="-33.65727" lon="115.25085">
				 <ele>2.8</ele>
			 </trkpt>
			 <trkpt lat="-33.65723" lon="115.25063">
				 <ele>2.8</ele>
			 </trkpt>
			 <trkpt lat="-33.65717" lon="115.25047">
				 <ele>2.9</ele>
			 </trkpt>
			 <trkpt lat="-33.65714" lon="115.25022">
				 <ele>2.9</ele>
			 </trkpt>
			 <trkpt lat="-33.6571" lon="115.25">
				 <ele>3</ele>
			 </trkpt>
			 <trkpt lat="-33.65709" lon="115.24978">
				 <ele>3.1</ele>
			 </trkpt>
			 <trkpt lat="-33.65714" lon="115.24957">
				 <ele>3.2</ele>
			 </trkpt>
			 <trkpt lat="-33.65699" lon="115.24879">
				 <ele>3.3</ele>
			 </trkpt>
			 <trkpt lat="-33.65699" lon="115.24879">
				 <ele>3.4</ele>
			 </trkpt>
			 <trkpt lat="-33.65688" lon="115.24823">
				 <ele>3.4</ele>
			 </trkpt>
			 <trkpt lat="-33.65689" lon="115.24811">
				 <ele>3.4</ele>
			 </trkpt>
			 <trkpt lat="-33.65693" lon="115.248">
				 <ele>3.4</ele>
			 </trkpt>
			 <trkpt lat="-33.65702" lon="115.24792">
				 <ele>3.5</ele>
			 </trkpt>
			 <trkpt lat="-33.65711" lon="115.24789">
				 <ele>3.5</ele>
			 </trkpt>
			 <trkpt lat="-33.65771" lon="115.2479">
				 <ele>3.5</ele>
			 </trkpt>
			 <trkpt lat="-33.65886" lon="115.24792">
				 <ele>3.3</ele>
			 </trkpt>
			 <trkpt lat="-33.65903" lon="115.2479">
				 <ele>3.1</ele>
			 </trkpt>
			 <trkpt lat="-33.65914" lon="115.24784">
				 <ele>3</ele>
			 </trkpt>
			 <trkpt lat="-33.65925" lon="115.24784">
				 <ele>2.9</ele>
			 </trkpt>
			 <trkpt lat="-33.65937" lon="115.2478">
				 <ele>2.8</ele>
			 </trkpt>
			 <trkpt lat="-33.65943" lon="115.24778">
				 <ele>2.8</ele>
			 </trkpt>
			 <trkpt lat="-33.65946" lon="115.24775">
				 <ele>2.8</ele>
			 </trkpt>
			 <trkpt lat="-33.65948" lon="115.2477">
				 <ele>2.8</ele>
			 </trkpt>
			 <trkpt lat="-33.65947" lon="115.24731">
				 <ele>2.8</ele>
			 </trkpt>
			 <trkpt lat="-33.65937" lon="115.24697">
				 <ele>2.8</ele>
			 </trkpt>
			 <trkpt lat="-33.65929" lon="115.24597">
				 <ele>2.8</ele>
			 </trkpt>
			 <trkpt lat="-33.65921" lon="115.24469">
				 <ele>2.9</ele>
			 </trkpt>
			 <trkpt lat="-33.65914" lon="115.24375">
				 <ele>3</ele>
			 </trkpt>
			 <trkpt lat="-33.65915" lon="115.24343">
				 <ele>3.1</ele>
			 </trkpt>
			 <trkpt lat="-33.6589" lon="115.2413">
				 <ele>3.1</ele>
			 </trkpt>
			 <trkpt lat="-33.65875" lon="115.24012">
				 <ele>3.2</ele>
			 </trkpt>
			 <trkpt lat="-33.65875" lon="115.24012">
				 <ele>3.2</ele>
			 </trkpt>
			 <trkpt lat="-33.65845" lon="115.23793">
				 <ele>3.2</ele>
			 </trkpt>
			 <trkpt lat="-33.65817" lon="115.23618">
				 <ele>3.2</ele>
			 </trkpt>
			 <trkpt lat="-33.65795" lon="115.23478">
				 <ele>3.2</ele>
			 </trkpt>
			 <trkpt lat="-33.65787" lon="115.23438">
				 <ele>3.3</ele>
			 </trkpt>
			 <trkpt lat="-33.65745" lon="115.23234">
				 <ele>3.3</ele>
			 </trkpt>
			 <trkpt lat="-33.65741" lon="115.23205">
				 <ele>3.3</ele>
			 </trkpt>
			 <trkpt lat="-33.65719" lon="115.23122">
				 <ele>3.4</ele>
			 </trkpt>
			 <trkpt lat="-33.65702" lon="115.23042">
				 <ele>3.3</ele>
			 </trkpt>
			 <trkpt lat="-33.6569" lon="115.23011">
				 <ele>3.4</ele>
			 </trkpt>
			 <trkpt lat="-33.65669" lon="115.22963">
				 <ele>3.4</ele>
			 </trkpt>
			 <trkpt lat="-33.65668" lon="115.22951">
				 <ele>3.5</ele>
			 </trkpt>
			 <trkpt lat="-33.65647" lon="115.22931">
				 <ele>3.5</ele>
			 </trkpt>
			 <trkpt lat="-33.65639" lon="115.22921">
				 <ele>3.6</ele>
			 </trkpt>
			 <trkpt lat="-33.65632" lon="115.22896">
				 <ele>3.7</ele>
			 </trkpt>
			 <trkpt lat="-33.65568" lon="115.228">
				 <ele>3.7</ele>
			 </trkpt>
			 <trkpt lat="-33.65558" lon="115.2278">
				 <ele>3.8</ele>
			 </trkpt>
			 <trkpt lat="-33.65556" lon="115.22764">
				 <ele>3.9</ele>
			 </trkpt>
			 <trkpt lat="-33.65533" lon="115.2257">
				 <ele>3.9</ele>
			 </trkpt>
			 <trkpt lat="-33.65533" lon="115.2257">
				 <ele>4</ele>
			 </trkpt>
			 <trkpt lat="-33.65501" lon="115.22185">
				 <ele>3.9</ele>
			 </trkpt>
			 <trkpt lat="-33.65501" lon="115.22185">
				 <ele>3.8</ele>
			 </trkpt>
			 <trkpt lat="-33.65492" lon="115.22075">
				 <ele>3.8</ele>
			 </trkpt>
			 <trkpt lat="-33.65495" lon="115.22069">
				 <ele>3.7</ele>
			 </trkpt>
			 <trkpt lat="-33.65508" lon="115.22061">
				 <ele>3.7</ele>
			 </trkpt>
			 <trkpt lat="-33.655785" lon="115.220205">
				 <ele>3.6</ele>
			 </trkpt>
			 <trkpt lat="-33.655446" lon="115.219197">
				 <ele>3.6</ele>
			 </trkpt>
			 <trkpt lat="-33.65548" lon="115.21918">
				 <ele>3.6</ele>
			 </trkpt>
			 <trkpt lat="-33.65491" lon="115.21772">
				 <ele>3.6</ele>
			 </trkpt>
			 <trkpt lat="-33.6547" lon="115.21714">
				 <ele>3.5</ele>
			 </trkpt>
			 <trkpt lat="-33.65456" lon="115.21667">
				 <ele>3.5</ele>
			 </trkpt>
			 <trkpt lat="-33.65353" lon="115.21267">
				 <ele>3.5</ele>
			 </trkpt>
			 <trkpt lat="-33.65336" lon="115.21203">
				 <ele>3.6</ele>
			 </trkpt>
			 <trkpt lat="-33.65336" lon="115.21203">
				 <ele>3.6</ele>
			 </trkpt>
			 <trkpt lat="-33.65314" lon="115.21113">
				 <ele>3.6</ele>
			 </trkpt>
			 <trkpt lat="-33.65292" lon="115.21004">
				 <ele>3.5</ele>
			 </trkpt>
			 <trkpt lat="-33.6527" lon="115.20866">
				 <ele>3.5</ele>
			 </trkpt>
			 <trkpt lat="-33.65244" lon="115.20658">
				 <ele>3.5</ele>
			 </trkpt>
			 <trkpt lat="-33.65222" lon="115.20545">
				 <ele>3.4</ele>
			 </trkpt>
			 <trkpt lat="-33.65207" lon="115.20485">
				 <ele>3.4</ele>
			 </trkpt>
			 <trkpt lat="-33.65191" lon="115.20417">
				 <ele>3.5</ele>
			 </trkpt>
			 <trkpt lat="-33.65172" lon="115.20344">
				 <ele>3.5</ele>
			 </trkpt>
			 <trkpt lat="-33.65114" lon="115.20165">
				 <ele>3.5</ele>
			 </trkpt>
			 <trkpt lat="-33.65114" lon="115.20165">
				 <ele>3.4</ele>
			 </trkpt>
			 <trkpt lat="-33.65063" lon="115.20006">
				 <ele>3.3</ele>
			 </trkpt>
			 <trkpt lat="-33.65035" lon="115.19935">
				 <ele>3.3</ele>
			 </trkpt>
			 <trkpt lat="-33.65005" lon="115.19868">
				 <ele>3.3</ele>
			 </trkpt>
			 <trkpt lat="-33.64925" lon="115.19707">
				 <ele>3.3</ele>
			 </trkpt>
			 <trkpt lat="-33.64896" lon="115.19645">
				 <ele>3.4</ele>
			 </trkpt>
			 <trkpt lat="-33.64855" lon="115.19542">
				 <ele>3.4</ele>
			 </trkpt>
			 <trkpt lat="-33.64837" lon="115.19491">
				 <ele>3.3</ele>
			 </trkpt>
			 <trkpt lat="-33.64837" lon="115.19491">
				 <ele>3.2</ele>
			 </trkpt>
			 <trkpt lat="-33.64782" lon="115.19316">
				 <ele>3.1</ele>
			 </trkpt>
			 <trkpt lat="-33.64742" lon="115.19184">
				 <ele>3.2</ele>
			 </trkpt>
			 <trkpt lat="-33.64589" lon="115.18701">
				 <ele>3.3</ele>
			 </trkpt>
			 <trkpt lat="-33.64491" lon="115.1839">
				 <ele>3.4</ele>
			 </trkpt>
			 <trkpt lat="-33.64491" lon="115.1839">
				 <ele>3.4</ele>
			 </trkpt>
			 <trkpt lat="-33.64393" lon="115.18077">
				 <ele>3.4</ele>
			 </trkpt>
			 <trkpt lat="-33.64334" lon="115.17873">
				 <ele>3.4</ele>
			 </trkpt>
			 <trkpt lat="-33.64332" lon="115.17866">
				 <ele>3.3</ele>
			 </trkpt>
			 <trkpt lat="-33.64325" lon="115.17867">
				 <ele>3.3</ele>
			 </trkpt>
			 <trkpt lat="-33.64293" lon="115.17771">
				 <ele>3.3</ele>
			 </trkpt>
			 <trkpt lat="-33.64267" lon="115.17675">
				 <ele>3.3</ele>
			 </trkpt>
			 <trkpt lat="-33.64231" lon="115.17544">
				 <ele>3.2</ele>
			 </trkpt>
			 <trkpt lat="-33.64229" lon="115.17537">
				 <ele>3.1</ele>
			 </trkpt>
			 <trkpt lat="-33.64229" lon="115.17537">
				 <ele>2.9</ele>
			 </trkpt>
			 <trkpt lat="-33.64201" lon="115.17453">
				 <ele>2.8</ele>
			 </trkpt>
			 <trkpt lat="-33.64138" lon="115.17295">
				 <ele>2.7</ele>
			 </trkpt>
			 <trkpt lat="-33.64126" lon="115.17275">
				 <ele>2.6</ele>
			 </trkpt>
			 <trkpt lat="-33.64112" lon="115.17239">
				 <ele>2.5</ele>
			 </trkpt>
			 <trkpt lat="-33.64071" lon="115.17139">
				 <ele>2.5</ele>
			 </trkpt>
			 <trkpt lat="-33.64047" lon="115.17083">
				 <ele>2.5</ele>
			 </trkpt>
			 <trkpt lat="-33.64036" lon="115.17066">
				 <ele>2.4</ele>
			 </trkpt>
			 <trkpt lat="-33.64032" lon="115.17051">
				 <ele>2.3</ele>
			 </trkpt>
			 <trkpt lat="-33.64006" lon="115.16995">
				 <ele>2.3</ele>
			 </trkpt>
			 <trkpt lat="-33.6398" lon="115.16929">
				 <ele>2.4</ele>
			 </trkpt>
			 <trkpt lat="-33.63939" lon="115.16833">
				 <ele>2.5</ele>
			 </trkpt>
			 <trkpt lat="-33.63915" lon="115.16751">
				 <ele>2.5</ele>
			 </trkpt>
			 <trkpt lat="-33.63915" lon="115.16751">
				 <ele>2.7</ele>
			 </trkpt>
			 <trkpt lat="-33.63864" lon="115.16559">
				 <ele>2.8</ele>
			 </trkpt>
			 <trkpt lat="-33.63811" lon="115.16578">
				 <ele>2.9</ele>
			 </trkpt>
			 <trkpt lat="-33.63786" lon="115.16586">
				 <ele>2.9</ele>
			 </trkpt>
			 <trkpt lat="-33.6378" lon="115.16574">
				 <ele>2.9</ele>
			 </trkpt>
			 <trkpt lat="-33.63774" lon="115.16568">
				 <ele>3</ele>
			 </trkpt>
			 <trkpt lat="-33.63771" lon="115.1656">
				 <ele>3.1</ele>
			 </trkpt>
			 <trkpt lat="-33.6376" lon="115.1652">
				 <ele>3.2</ele>
			 </trkpt>
			 <trkpt lat="-33.6376" lon="115.1652">
				 <ele>3.1</ele>
			 </trkpt>
			 <trkpt lat="-33.63752" lon="115.16502">
				 <ele>3.1</ele>
			 </trkpt>
			 <trkpt lat="-33.63746" lon="115.16491">
				 <ele>3</ele>
			 </trkpt>
			 <trkpt lat="-33.63737" lon="115.16474">
				 <ele>2.9</ele>
			 </trkpt>
			 <trkpt lat="-33.63731" lon="115.16444">
				 <ele>2.9</ele>
			 </trkpt>
			 <trkpt lat="-33.63728" lon="115.16434">
				 <ele>2.9</ele>
			 </trkpt>
			 <trkpt lat="-33.63727" lon="115.16421">
				 <ele>2.9</ele>
			 </trkpt>
			 <trkpt lat="-33.63727" lon="115.16396">
				 <ele>3</ele>
			 </trkpt>
			 <trkpt lat="-33.63723" lon="115.16374">
				 <ele>2.9</ele>
			 </trkpt>
			 <trkpt lat="-33.6372" lon="115.16345">
				 <ele>2.9</ele>
			 </trkpt>
			 <trkpt lat="-33.63717" lon="115.16332">
				 <ele>3</ele>
			 </trkpt>
			 <trkpt lat="-33.63696" lon="115.16246">
				 <ele>3.1</ele>
			 </trkpt>
			 <trkpt lat="-33.63691" lon="115.16231">
				 <ele>3.2</ele>
			 </trkpt>
			 <trkpt lat="-33.63685" lon="115.16184">
				 <ele>3.3</ele>
			 </trkpt>
			 <trkpt lat="-33.63677" lon="115.16163">
				 <ele>3.4</ele>
			 </trkpt>
			 <trkpt lat="-33.6367" lon="115.16157">
				 <ele>3.4</ele>
			 </trkpt>
			 <trkpt lat="-33.63665" lon="115.16153">
				 <ele>3.4</ele>
			 </trkpt>
			 <trkpt lat="-33.63664" lon="115.16141">
				 <ele>3.4</ele>
			 </trkpt>
			 <trkpt lat="-33.63661" lon="115.16125">
				 <ele>3.4</ele>
			 </trkpt>
			 <trkpt lat="-33.63659" lon="115.16119">
				 <ele>3.5</ele>
			 </trkpt>
			 <trkpt lat="-33.63658" lon="115.16109">
				 <ele>3.5</ele>
			 </trkpt>
			 <trkpt lat="-33.63659" lon="115.1608">
				 <ele>3.4</ele>
			 </trkpt>
			 <trkpt lat="-33.63656" lon="115.16038">
				 <ele>3.2</ele>
			 </trkpt>
			 <trkpt lat="-33.63646" lon="115.1601">
				 <ele>3.1</ele>
			 </trkpt>
			 <trkpt lat="-33.63639" lon="115.16003">
				 <ele>3</ele>
			 </trkpt>
			 <trkpt lat="-33.63636" lon="115.15992">
				 <ele>2.9</ele>
			 </trkpt>
			 <trkpt lat="-33.63637" lon="115.15971">
				 <ele>2.9</ele>
			 </trkpt>
			 <trkpt lat="-33.6363" lon="115.15938">
				 <ele>2.9</ele>
			 </trkpt>
			 <trkpt lat="-33.63623" lon="115.15913">
				 <ele>2.9</ele>
			 </trkpt>
			 <trkpt lat="-33.63612" lon="115.15902">
				 <ele>2.9</ele>
			 </trkpt>
			 <trkpt lat="-33.63609" lon="115.15882">
				 <ele>2.9</ele>
			 </trkpt>
			 <trkpt lat="-33.63609" lon="115.15865">
				 <ele>3</ele>
			 </trkpt>
			 <trkpt lat="-33.636" lon="115.15839">
				 <ele>3</ele>
			 </trkpt>
			 <trkpt lat="-33.63592" lon="115.15823">
				 <ele>3.1</ele>
			 </trkpt>
			 <trkpt lat="-33.63591" lon="115.15789">
				 <ele>3.2</ele>
			 </trkpt>
			 <trkpt lat="-33.63585" lon="115.15772">
				 <ele>3.3</ele>
			 </trkpt>
			 <trkpt lat="-33.63578" lon="115.15748">
				 <ele>3.3</ele>
			 </trkpt>
			 <trkpt lat="-33.63567" lon="115.1573">
				 <ele>3.4</ele>
			 </trkpt>
			 <trkpt lat="-33.63555" lon="115.15716">
				 <ele>3.5</ele>
			 </trkpt>
			 <trkpt lat="-33.63549" lon="115.15701">
				 <ele>3.5</ele>
			 </trkpt>
			 <trkpt lat="-33.63549" lon="115.15701">
				 <ele>3.5</ele>
			 </trkpt>
			 <trkpt lat="-33.63543" lon="115.15686">
				 <ele>3.5</ele>
			 </trkpt>
			 <trkpt lat="-33.6353" lon="115.15676">
				 <ele>3.4</ele>
			 </trkpt>
			 <trkpt lat="-33.63524" lon="115.15659">
				 <ele>3.4</ele>
			 </trkpt>
			 <trkpt lat="-33.63518" lon="115.15649">
				 <ele>3.4</ele>
			 </trkpt>
			 <trkpt lat="-33.63499" lon="115.15613">
				 <ele>3.3</ele>
			 </trkpt>
			 <trkpt lat="-33.63489" lon="115.15588">
				 <ele>3.2</ele>
			 </trkpt>
			 <trkpt lat="-33.63483" lon="115.1557">
				 <ele>3.2</ele>
			 </trkpt>
			 <trkpt lat="-33.63478" lon="115.15561">
				 <ele>3.1</ele>
			 </trkpt>
			 <trkpt lat="-33.63472" lon="115.15553">
				 <ele>3</ele>
			 </trkpt>
			 <trkpt lat="-33.63469" lon="115.15537">
				 <ele>3</ele>
			 </trkpt>
			 <trkpt lat="-33.63462" lon="115.1552">
				 <ele>2.9</ele>
			 </trkpt>
			 <trkpt lat="-33.6346" lon="115.15496">
				 <ele>2.8</ele>
			 </trkpt>
			 <trkpt lat="-33.6346" lon="115.15462">
				 <ele>2.7</ele>
			 </trkpt>
			 <trkpt lat="-33.63459" lon="115.15457">
				 <ele>2.6</ele>
			 </trkpt>
			 <trkpt lat="-33.63446" lon="115.15442">
				 <ele>2.6</ele>
			 </trkpt>
			 <trkpt lat="-33.63431" lon="115.15425">
				 <ele>2.6</ele>
			 </trkpt>
			 <trkpt lat="-33.63424" lon="115.15401">
				 <ele>2.5</ele>
			 </trkpt>
			 <trkpt lat="-33.63423" lon="115.15372">
				 <ele>2.5</ele>
			 </trkpt>
			 <trkpt lat="-33.63405" lon="115.15314">
				 <ele>2.6</ele>
			 </trkpt>
			 <trkpt lat="-33.63404" lon="115.15299">
				 <ele>2.7</ele>
			 </trkpt>
			 <trkpt lat="-33.63406" lon="115.15267">
				 <ele>2.8</ele>
			 </trkpt>
			 <trkpt lat="-33.63381" lon="115.15185">
				 <ele>3</ele>
			 </trkpt>
			 <trkpt lat="-33.6337" lon="115.15156">
				 <ele>3.2</ele>
			 </trkpt>
			 <trkpt lat="-33.63313" lon="115.15026">
				 <ele>3.4</ele>
			 </trkpt>
			 <trkpt lat="-33.63307" lon="115.15017">
				 <ele>3.5</ele>
			 </trkpt>
			 <trkpt lat="-33.63307" lon="115.15017">
				 <ele>3.6</ele>
			 </trkpt>
			 <trkpt lat="-33.63305" lon="115.15009">
				 <ele>3.7</ele>
			 </trkpt>
			 <trkpt lat="-33.63295" lon="115.14988">
				 <ele>3.9</ele>
			 </trkpt>
			 <trkpt lat="-33.63277" lon="115.14942">
				 <ele>4</ele>
			 </trkpt>
			 <trkpt lat="-33.63258" lon="115.14917">
				 <ele>4</ele>
			 </trkpt>
			 <trkpt lat="-33.63252" lon="115.14908">
				 <ele>4</ele>
			 </trkpt>
			 <trkpt lat="-33.63247" lon="115.14893">
				 <ele>4</ele>
			 </trkpt>
			 <trkpt lat="-33.63235" lon="115.14856">
				 <ele>4</ele>
			 </trkpt>
			 <trkpt lat="-33.63227" lon="115.14838">
				 <ele>3.9</ele>
			 </trkpt>
			 <trkpt lat="-33.63227" lon="115.14838">
				 <ele>3.9</ele>
			 </trkpt>
			 <trkpt lat="-33.63243" lon="115.14882">
				 <ele>3.9</ele>
			 </trkpt>
			 <trkpt lat="-33.63248" lon="115.14899">
				 <ele>3.9</ele>
			 </trkpt>
			 <trkpt lat="-33.63254" lon="115.14912">
				 <ele>3.9</ele>
			 </trkpt>
			 <trkpt lat="-33.63275" lon="115.14938">
				 <ele>3.9</ele>
			 </trkpt>
			 <trkpt lat="-33.6329" lon="115.14973">
				 <ele>3.9</ele>
			 </trkpt>
			 <trkpt lat="-33.63294" lon="115.14986">
				 <ele>3.9</ele>
			 </trkpt>
			 <trkpt lat="-33.63299" lon="115.14995">
				 <ele>3.8</ele>
			 </trkpt>
			 <trkpt lat="-33.63307" lon="115.15014">
				 <ele>3.7</ele>
			 </trkpt>
			 <trkpt lat="-33.6331" lon="115.15022">
				 <ele>3.6</ele>
			 </trkpt>
			 <trkpt lat="-33.63313" lon="115.15026">
				 <ele>3.5</ele>
			 </trkpt>
			 <trkpt lat="-33.63332" lon="115.15069">
				 <ele>3.5</ele>
			 </trkpt>
			 <trkpt lat="-33.63357" lon="115.15127">
				 <ele>3.4</ele>
			 </trkpt>
			 <trkpt lat="-33.63357" lon="115.15127">
				 <ele>3.2</ele>
			 </trkpt>
			 <trkpt lat="-33.63378" lon="115.15176">
				 <ele>3</ele>
			 </trkpt>
			 <trkpt lat="-33.63404" lon="115.1526">
				 <ele>2.8</ele>
			 </trkpt>
			 <trkpt lat="-33.63406" lon="115.15274">
				 <ele>2.7</ele>
			 </trkpt>
			 <trkpt lat="-33.63404" lon="115.15308">
				 <ele>2.6</ele>
			 </trkpt>
			 <trkpt lat="-33.63423" lon="115.1537">
				 <ele>2.6</ele>
			 </trkpt>
			 <trkpt lat="-33.63425" lon="115.15386">
				 <ele>2.6</ele>
			 </trkpt>
			 <trkpt lat="-33.63425" lon="115.15409">
				 <ele>2.6</ele>
			 </trkpt>
			 <trkpt lat="-33.63436" lon="115.15432">
				 <ele>2.7</ele>
			 </trkpt>
			 <trkpt lat="-33.63455" lon="115.15451">
				 <ele>2.7</ele>
			 </trkpt>
			 <trkpt lat="-33.6346" lon="115.15462">
				 <ele>2.7</ele>
			 </trkpt>
			 <trkpt lat="-33.6346" lon="115.15512">
				 <ele>2.8</ele>
			 </trkpt>
			 <trkpt lat="-33.63466" lon="115.1553">
				 <ele>3</ele>
			 </trkpt>
			 <trkpt lat="-33.63472" lon="115.15553">
				 <ele>3.1</ele>
			 </trkpt>
			 <trkpt lat="-33.63487" lon="115.15577">
				 <ele>3.2</ele>
			 </trkpt>
			 <trkpt lat="-33.63494" lon="115.156">
				 <ele>3.2</ele>
			 </trkpt>
			 <trkpt lat="-33.63511" lon="115.15637">
				 <ele>3.2</ele>
			 </trkpt>
			 <trkpt lat="-33.63521" lon="115.15654">
				 <ele>3.3</ele>
			 </trkpt>
			 <trkpt lat="-33.63528" lon="115.1567">
				 <ele>3.3</ele>
			 </trkpt>
			 <trkpt lat="-33.6353" lon="115.15676">
				 <ele>3.3</ele>
			 </trkpt>
			 <trkpt lat="-33.63538" lon="115.15682">
				 <ele>3.4</ele>
			 </trkpt>
			 <trkpt lat="-33.63543" lon="115.15686">
				 <ele>3.4</ele>
			 </trkpt>
			 <trkpt lat="-33.63547" lon="115.15696">
				 <ele>3.4</ele>
			 </trkpt>
			 <trkpt lat="-33.63555" lon="115.15716">
				 <ele>3.3</ele>
			 </trkpt>
			 <trkpt lat="-33.63567" lon="115.1573">
				 <ele>3.3</ele>
			 </trkpt>
			 <trkpt lat="-33.63578" lon="115.15748">
				 <ele>3.2</ele>
			 </trkpt>
			 <trkpt lat="-33.63585" lon="115.15772">
				 <ele>3.2</ele>
			 </trkpt>
			 <trkpt lat="-33.63591" lon="115.15789">
				 <ele>3.2</ele>
			 </trkpt>
			 <trkpt lat="-33.63592" lon="115.15803">
				 <ele>3.1</ele>
			 </trkpt>
			 <trkpt lat="-33.63592" lon="115.15823">
				 <ele>3.1</ele>
			 </trkpt>
			 <trkpt lat="-33.636" lon="115.15839">
				 <ele>3</ele>
			 </trkpt>
			 <trkpt lat="-33.63609" lon="115.15865">
				 <ele>2.8</ele>
			 </trkpt>
			 <trkpt lat="-33.63609" lon="115.15882">
				 <ele>2.8</ele>
			 </trkpt>
			 <trkpt lat="-33.63612" lon="115.15902">
				 <ele>2.8</ele>
			 </trkpt>
			 <trkpt lat="-33.63623" lon="115.15913">
				 <ele>2.8</ele>
			 </trkpt>
			 <trkpt lat="-33.6363" lon="115.15935">
				 <ele>2.8</ele>
			 </trkpt>
			 <trkpt lat="-33.63629" lon="115.15935">
				 <ele>2.8</ele>
			 </trkpt>
			 <trkpt lat="-33.63634" lon="115.15957">
				 <ele>2.8</ele>
			 </trkpt>
			 <trkpt lat="-33.63637" lon="115.15971">
				 <ele>2.8</ele>
			 </trkpt>
			 <trkpt lat="-33.63636" lon="115.15986">
				 <ele>2.8</ele>
			 </trkpt>
			 <trkpt lat="-33.63636" lon="115.15996">
				 <ele>2.8</ele>
			 </trkpt>
			 <trkpt lat="-33.63639" lon="115.16002">
				 <ele>3</ele>
			 </trkpt>
			 <trkpt lat="-33.63649" lon="115.16016">
				 <ele>3.2</ele>
			 </trkpt>
			 <trkpt lat="-33.63657" lon="115.16046">
				 <ele>3.3</ele>
			 </trkpt>
			 <trkpt lat="-33.63659" lon="115.161">
				 <ele>3.4</ele>
			 </trkpt>
			 <trkpt lat="-33.63658" lon="115.16116">
				 <ele>3.5</ele>
			 </trkpt>
			 <trkpt lat="-33.6366" lon="115.16122">
				 <ele>3.4</ele>
			 </trkpt>
			 <trkpt lat="-33.63664" lon="115.16136">
				 <ele>3.4</ele>
			 </trkpt>
			 <trkpt lat="-33.63664" lon="115.16151">
				 <ele>3.4</ele>
			 </trkpt>
			 <trkpt lat="-33.63668" lon="115.16157">
				 <ele>3.4</ele>
			 </trkpt>
			 <trkpt lat="-33.63676" lon="115.16161">
				 <ele>3.4</ele>
			 </trkpt>
			 <trkpt lat="-33.63684" lon="115.16179">
				 <ele>3.4</ele>
			 </trkpt>
			 <trkpt lat="-33.6369" lon="115.16226">
				 <ele>3.3</ele>
			 </trkpt>
			 <trkpt lat="-33.63694" lon="115.16242">
				 <ele>3.2</ele>
			 </trkpt>
			 <trkpt lat="-33.63709" lon="115.16297">
				 <ele>3.1</ele>
			 </trkpt>
			 <trkpt lat="-33.63719" lon="115.16341">
				 <ele>3</ele>
			 </trkpt>
			 <trkpt lat="-33.63722" lon="115.16369">
				 <ele>2.9</ele>
			 </trkpt>
			 <trkpt lat="-33.63727" lon="115.16391">
				 <ele>3</ele>
			 </trkpt>
			 <trkpt lat="-33.63727" lon="115.16414">
				 <ele>3</ele>
			 </trkpt>
			 <trkpt lat="-33.63727" lon="115.16428">
				 <ele>3</ele>
			 </trkpt>
			 <trkpt lat="-33.63729" lon="115.16438">
				 <ele>3</ele>
			 </trkpt>
			 <trkpt lat="-33.63736" lon="115.16467">
				 <ele>3</ele>
			 </trkpt>
			 <trkpt lat="-33.63739" lon="115.1648">
				 <ele>3</ele>
			 </trkpt>
			 <trkpt lat="-33.63745" lon="115.16488">
				 <ele>3.1</ele>
			 </trkpt>
			 <trkpt lat="-33.63756" lon="115.1651">
				 <ele>2.8</ele>
			 </trkpt>
			 <trkpt lat="-33.6377" lon="115.16553">
				 <ele>2.7</ele>
			 </trkpt>
			 <trkpt lat="-33.63772" lon="115.16564">
				 <ele>2.6</ele>
			 </trkpt>
			 <trkpt lat="-33.63786" lon="115.16586">
				 <ele>2.5</ele>
			 </trkpt>
			 <trkpt lat="-33.63811" lon="115.16578">
				 <ele>2.5</ele>
			 </trkpt>
			 <trkpt lat="-33.63837" lon="115.16567">
				 <ele>2.4</ele>
			 </trkpt>
			 <trkpt lat="-33.63864" lon="115.16559">
				 <ele>2.3</ele>
			 </trkpt>
			 <trkpt lat="-33.63866" lon="115.16569">
				 <ele>2.2</ele>
			 </trkpt>
			 <trkpt lat="-33.63913" lon="115.16745">
				 <ele>2.2</ele>
			 </trkpt>
			 <trkpt lat="-33.6394" lon="115.16835">
				 <ele>2.2</ele>
			 </trkpt>
			 <trkpt lat="-33.64006" lon="115.16995">
				 <ele>2</ele>
			 </trkpt>
			 <trkpt lat="-33.64032" lon="115.17051">
				 <ele>2.3</ele>
			 </trkpt>
			 <trkpt lat="-33.64036" lon="115.17066">
				 <ele>2.4</ele>
			 </trkpt>
			 <trkpt lat="-33.64047" lon="115.17084">
				 <ele>2.5</ele>
			 </trkpt>
			 <trkpt lat="-33.64099" lon="115.17207">
				 <ele>2.6</ele>
			 </trkpt>
			 <trkpt lat="-33.64126" lon="115.17275">
				 <ele>2.7</ele>
			 </trkpt>
			 <trkpt lat="-33.64134" lon="115.17289">
				 <ele>2.8</ele>
			 </trkpt>
			 <trkpt lat="-33.64134" lon="115.17289">
				 <ele>3</ele>
			 </trkpt>
			 <trkpt lat="-33.64172" lon="115.17379">
				 <ele>3.2</ele>
			 </trkpt>
			 <trkpt lat="-33.64213" lon="115.17488">
				 <ele>3.3</ele>
			 </trkpt>
			 <trkpt lat="-33.64248" lon="115.176">
				 <ele>3.4</ele>
			 </trkpt>
			 <trkpt lat="-33.64293" lon="115.17771">
				 <ele>3.5</ele>
			 </trkpt>
			 <trkpt lat="-33.64325" lon="115.17867">
				 <ele>3.5</ele>
			 </trkpt>
			 <trkpt lat="-33.64332" lon="115.17866">
				 <ele>3.6</ele>
			 </trkpt>
			 <trkpt lat="-33.64338" lon="115.17887">
				 <ele>3.7</ele>
			 </trkpt>
			 <trkpt lat="-33.64411" lon="115.18136">
				 <ele>3.6</ele>
			 </trkpt>
			 <trkpt lat="-33.64534" lon="115.18525">
				 <ele>3.7</ele>
			 </trkpt>
			 <trkpt lat="-33.64621" lon="115.18805">
				 <ele>3.7</ele>
			 </trkpt>
			 <trkpt lat="-33.64667" lon="115.1895">
				 <ele>3.6</ele>
			 </trkpt>
			 <trkpt lat="-33.64667" lon="115.1895">
				 <ele>3.5</ele>
			 </trkpt>
			 <trkpt lat="-33.64767" lon="115.19267">
				 <ele>3.5</ele>
			 </trkpt>
			 <trkpt lat="-33.64828" lon="115.19464">
				 <ele>3.5</ele>
			 </trkpt>
			 <trkpt lat="-33.64847" lon="115.19521">
				 <ele>3.5</ele>
			 </trkpt>
			 <trkpt lat="-33.64874" lon="115.19592">
				 <ele>3.5</ele>
			 </trkpt>
			 <trkpt lat="-33.64922" lon="115.19702">
				 <ele>3.4</ele>
			 </trkpt>
			 <trkpt lat="-33.65021" lon="115.19903">
				 <ele>3.4</ele>
			 </trkpt>
			 <trkpt lat="-33.65043" lon="115.19954">
				 <ele>3.5</ele>
			 </trkpt>
			 <trkpt lat="-33.65086" lon="115.20077">
				 <ele>3.4</ele>
			 </trkpt>
			 <trkpt lat="-33.65172" lon="115.20344">
				 <ele>3.4</ele>
			 </trkpt>
			 <trkpt lat="-33.65191" lon="115.20417">
				 <ele>3.4</ele>
			 </trkpt>
			 <trkpt lat="-33.65222" lon="115.20545">
				 <ele>3.5</ele>
			 </trkpt>
			 <trkpt lat="-33.65244" lon="115.20658">
				 <ele>3.5</ele>
			 </trkpt>
			 <trkpt lat="-33.65264" lon="115.20814">
				 <ele>3.5</ele>
			 </trkpt>
			 <trkpt lat="-33.65264" lon="115.20814">
				 <ele>3.5</ele>
			 </trkpt>
			 <trkpt lat="-33.65279" lon="115.20929">
				 <ele>3.6</ele>
			 </trkpt>
			 <trkpt lat="-33.65303" lon="115.21058">
				 <ele>3.6</ele>
			 </trkpt>
			 <trkpt lat="-33.65327" lon="115.21166">
				 <ele>3.5</ele>
			 </trkpt>
			 <trkpt lat="-33.65383" lon="115.21385">
				 <ele>3.5</ele>
			 </trkpt>
			 <trkpt lat="-33.65427" lon="115.21552">
				 <ele>3.5</ele>
			 </trkpt>
			 <trkpt lat="-33.65468" lon="115.21707">
				 <ele>3.6</ele>
			 </trkpt>
			 <trkpt lat="-33.65498" lon="115.2179">
				 <ele>3.7</ele>
			 </trkpt>
			 <trkpt lat="-33.65552" lon="115.21928">
				 <ele>3.7</ele>
			 </trkpt>
			 <trkpt lat="-33.655797" lon="115.220171">
				 <ele>3.8</ele>
			 </trkpt>
			 <trkpt lat="-33.654949" lon="115.220664">
				 <ele>3.8</ele>
			 </trkpt>
			 <trkpt lat="-33.65496" lon="115.22069">
				 <ele>3.8</ele>
			 </trkpt>
			 <trkpt lat="-33.65492" lon="115.22074">
				 <ele>3.8</ele>
			 </trkpt>
			 <trkpt lat="-33.65492" lon="115.22078">
				 <ele>3.8</ele>
			 </trkpt>
			 <trkpt lat="-33.655" lon="115.22176">
				 <ele>3.9</ele>
			 </trkpt>
			 <trkpt lat="-33.65511" lon="115.22318">
				 <ele>4</ele>
			 </trkpt>
			 <trkpt lat="-33.65511" lon="115.22318">
				 <ele>4.1</ele>
			 </trkpt>
			 <trkpt lat="-33.65534" lon="115.22578">
				 <ele>4.1</ele>
			 </trkpt>
			 <trkpt lat="-33.6554" lon="115.22633">
				 <ele>4</ele>
			 </trkpt>
			 <trkpt lat="-33.65556" lon="115.22768">
				 <ele>3.9</ele>
			 </trkpt>
			 <trkpt lat="-33.65561" lon="115.22788">
				 <ele>3.8</ele>
			 </trkpt>
			 <trkpt lat="-33.65592" lon="115.22836">
				 <ele>3.7</ele>
			 </trkpt>
			 <trkpt lat="-33.65622" lon="115.22882">
				 <ele>3.6</ele>
			 </trkpt>
			 <trkpt lat="-33.65636" lon="115.22905">
				 <ele>3.6</ele>
			 </trkpt>
			 <trkpt lat="-33.65637" lon="115.22916">
				 <ele>3.7</ele>
			 </trkpt>
			 <trkpt lat="-33.65642" lon="115.22926">
				 <ele>3.6</ele>
			 </trkpt>
			 <trkpt lat="-33.65668" lon="115.22951">
				 <ele>3.5</ele>
			 </trkpt>
			 <trkpt lat="-33.65672" lon="115.22973">
				 <ele>3.4</ele>
			 </trkpt>
			 <trkpt lat="-33.65683" lon="115.22995">
				 <ele>3.3</ele>
			 </trkpt>
			 <trkpt lat="-33.65697" lon="115.23025">
				 <ele>3.3</ele>
			 </trkpt>
			 <trkpt lat="-33.65702" lon="115.23042">
				 <ele>3.4</ele>
			 </trkpt>
			 <trkpt lat="-33.65708" lon="115.23077">
				 <ele>3.4</ele>
			 </trkpt>
			 <trkpt lat="-33.6571" lon="115.23085">
				 <ele>3.5</ele>
			 </trkpt>
			 <trkpt lat="-33.6571" lon="115.23085">
				 <ele>3.5</ele>
			 </trkpt>
			 <trkpt lat="-33.65742" lon="115.23213">
				 <ele>3.5</ele>
			 </trkpt>
			 <trkpt lat="-33.65771" lon="115.2336">
				 <ele>3.4</ele>
			 </trkpt>
			 <trkpt lat="-33.6579" lon="115.23452">
				 <ele>3.4</ele>
			 </trkpt>
			 <trkpt lat="-33.65804" lon="115.23532">
				 <ele>3.4</ele>
			 </trkpt>
			 <trkpt lat="-33.65817" lon="115.23614">
				 <ele>3.4</ele>
			 </trkpt>
			 <trkpt lat="-33.65843" lon="115.23784">
				 <ele>3.3</ele>
			 </trkpt>
			 <trkpt lat="-33.65869" lon="115.23964">
				 <ele>3.2</ele>
			 </trkpt>
			 <trkpt lat="-33.65915" lon="115.24343">
				 <ele>3.1</ele>
			 </trkpt>
			 <trkpt lat="-33.65914" lon="115.24375">
				 <ele>3</ele>
			 </trkpt>
			 <trkpt lat="-33.65921" lon="115.24469">
				 <ele>2.9</ele>
			 </trkpt>
			 <trkpt lat="-33.65928" lon="115.24577">
				 <ele>2.7</ele>
			 </trkpt>
			 <trkpt lat="-33.65928" lon="115.24577">
				 <ele>2.7</ele>
			 </trkpt>
			 <trkpt lat="-33.65937" lon="115.24697">
				 <ele>2.7</ele>
			 </trkpt>
			 <trkpt lat="-33.65947" lon="115.24731">
				 <ele>2.7</ele>
			 </trkpt>
			 <trkpt lat="-33.65948" lon="115.2477">
				 <ele>2.7</ele>
			 </trkpt>
			 <trkpt lat="-33.65943" lon="115.24778">
				 <ele>2.7</ele>
			 </trkpt>
			 <trkpt lat="-33.65937" lon="115.2478">
				 <ele>2.9</ele>
			 </trkpt>
			 <trkpt lat="-33.65925" lon="115.24784">
				 <ele>3.1</ele>
			 </trkpt>
			 <trkpt lat="-33.65914" lon="115.24784">
				 <ele>3.2</ele>
			 </trkpt>
			 <trkpt lat="-33.65903" lon="115.2479">
				 <ele>3.3</ele>
			 </trkpt>
			 <trkpt lat="-33.65886" lon="115.24792">
				 <ele>3.4</ele>
			 </trkpt>
			 <trkpt lat="-33.65711" lon="115.24789">
				 <ele>3.4</ele>
			 </trkpt>
			 <trkpt lat="-33.65702" lon="115.24792">
				 <ele>3.4</ele>
			 </trkpt>
			 <trkpt lat="-33.65693" lon="115.248">
				 <ele>3.4</ele>
			 </trkpt>
			 <trkpt lat="-33.65689" lon="115.24811">
				 <ele>3.4</ele>
			 </trkpt>
			 <trkpt lat="-33.65688" lon="115.24823">
				 <ele>3.4</ele>
			 </trkpt>
			 <trkpt lat="-33.65714" lon="115.24954">
				 <ele>3.4</ele>
			 </trkpt>
			 <trkpt lat="-33.6571" lon="115.24971">
				 <ele>3.3</ele>
			 </trkpt>
			 <trkpt lat="-33.6571" lon="115.24996">
				 <ele>3.2</ele>
			 </trkpt>
			 <trkpt lat="-33.65711" lon="115.25011">
				 <ele>3.1</ele>
			 </trkpt>
			 <trkpt lat="-33.65717" lon="115.25041">
				 <ele>3</ele>
			 </trkpt>
			 <trkpt lat="-33.65718" lon="115.2505">
				 <ele>2.9</ele>
			 </trkpt>
			 <trkpt lat="-33.65721" lon="115.25057">
				 <ele>3</ele>
			 </trkpt>
			 <trkpt lat="-33.65727" lon="115.25082">
				 <ele>2.9</ele>
			 </trkpt>
			 <trkpt lat="-33.65725" lon="115.25093">
				 <ele>2.8</ele>
			 </trkpt>
			 <trkpt lat="-33.65724" lon="115.251">
				 <ele>2.7</ele>
			 </trkpt>
			 <trkpt lat="-33.65727" lon="115.25125">
				 <ele>2.6</ele>
			 </trkpt>
			 <trkpt lat="-33.65734" lon="115.25153">
				 <ele>2.5</ele>
			 </trkpt>
			 <trkpt lat="-33.65744" lon="115.25221">
				 <ele>2.4</ele>
			 </trkpt>
			 <trkpt lat="-33.65747" lon="115.2526">
				 <ele>2.2</ele>
			 </trkpt>
			 <trkpt lat="-33.65739" lon="115.25272">
				 <ele>2</ele>
			 </trkpt>
			 <trkpt lat="-33.65739" lon="115.25272">
				 <ele>1.9</ele>
			 </trkpt>
			 <trkpt lat="-33.6573" lon="115.25284">
				 <ele>1.8</ele>
			 </trkpt>
			 <trkpt lat="-33.65726" lon="115.25293">
				 <ele>1.7</ele>
			 </trkpt>
			 <trkpt lat="-33.65727" lon="115.25309">
				 <ele>1.7</ele>
			 </trkpt>
			 <trkpt lat="-33.65734" lon="115.25332">
				 <ele>1.7</ele>
			 </trkpt>
			 <trkpt lat="-33.65746" lon="115.25388">
				 <ele>1.7</ele>
			 </trkpt>
			 <trkpt lat="-33.65744" lon="115.25443">
				 <ele>1.8</ele>
			 </trkpt>
			 <trkpt lat="-33.65743" lon="115.25469">
				 <ele>2</ele>
			 </trkpt>
			 <trkpt lat="-33.6574" lon="115.25489">
				 <ele>2</ele>
			 </trkpt>
			 <trkpt lat="-33.65741" lon="115.25524">
				 <ele>2.1</ele>
			 </trkpt>
			 <trkpt lat="-33.65741" lon="115.25542">
				 <ele>2.3</ele>
			 </trkpt>
			 <trkpt lat="-33.65737" lon="115.25572">
				 <ele>2.4</ele>
			 </trkpt>
			 <trkpt lat="-33.65736" lon="115.25625">
				 <ele>2.5</ele>
			 </trkpt>
			 <trkpt lat="-33.65736" lon="115.25667">
				 <ele>2.5</ele>
			 </trkpt>
			 <trkpt lat="-33.65735" lon="115.25694">
				 <ele>2.5</ele>
			 </trkpt>
			 <trkpt lat="-33.65746" lon="115.25766">
				 <ele>2.5</ele>
			 </trkpt>
			 <trkpt lat="-33.65747" lon="115.25827">
				 <ele>2.5</ele>
			 </trkpt>
			 <trkpt lat="-33.65747" lon="115.25881">
				 <ele>2.5</ele>
			 </trkpt>
			 <trkpt lat="-33.65743" lon="115.25898">
				 <ele>2.5</ele>
			 </trkpt>
			 <trkpt lat="-33.65747" lon="115.25937">
				 <ele>2.5</ele>
			 </trkpt>
			 <trkpt lat="-33.65751" lon="115.26023">
				 <ele>2.5</ele>
			 </trkpt>
			 <trkpt lat="-33.65754" lon="115.26052">
				 <ele>2.5</ele>
			 </trkpt>
			 <trkpt lat="-33.65756" lon="115.2608">
				 <ele>2.5</ele>
			 </trkpt>
			 <trkpt lat="-33.65756" lon="115.26105">
				 <ele>2.5</ele>
			 </trkpt>
			 <trkpt lat="-33.65754" lon="115.26117">
				 <ele>2.5</ele>
			 </trkpt>
			 <trkpt lat="-33.65756" lon="115.26129">
				 <ele>2.6</ele>
			 </trkpt>
			 <trkpt lat="-33.6575" lon="115.26162">
				 <ele>2.7</ele>
			 </trkpt>
			 <trkpt lat="-33.65746" lon="115.26185">
				 <ele>2.7</ele>
			 </trkpt>
			 <trkpt lat="-33.65748" lon="115.26208">
				 <ele>2.7</ele>
			 </trkpt>
			 <trkpt lat="-33.65745" lon="115.26225">
				 <ele>2.6</ele>
			 </trkpt>
			 <trkpt lat="-33.65741" lon="115.26237">
				 <ele>2.6</ele>
			 </trkpt>
			 <trkpt lat="-33.65741" lon="115.26246">
				 <ele>2.7</ele>
			 </trkpt>
			 <trkpt lat="-33.65747" lon="115.2628">
				 <ele>2.7</ele>
			 </trkpt>
			 <trkpt lat="-33.65752" lon="115.26312">
				 <ele>2.7</ele>
			 </trkpt>
			 <trkpt lat="-33.6575" lon="115.26342">
				 <ele>2.7</ele>
			 </trkpt>
			 <trkpt lat="-33.65749" lon="115.26354">
				 <ele>2.6</ele>
			 </trkpt>
			 <trkpt lat="-33.65746" lon="115.26362">
				 <ele>2.6</ele>
			 </trkpt>
			 <trkpt lat="-33.65748" lon="115.26385">
				 <ele>2.6</ele>
			 </trkpt>
			 <trkpt lat="-33.65749" lon="115.26394">
				 <ele>2.7</ele>
			 </trkpt>
			 <trkpt lat="-33.65756" lon="115.2641">
				 <ele>2.8</ele>
			 </trkpt>
			 <trkpt lat="-33.65756" lon="115.2642">
				 <ele>2.9</ele>
			 </trkpt>
			 <trkpt lat="-33.6575" lon="115.26436">
				 <ele>2.9</ele>
			 </trkpt>
			 <trkpt lat="-33.65734" lon="115.26465">
				 <ele>2.9</ele>
			 </trkpt>
			 <trkpt lat="-33.65728" lon="115.26482">
				 <ele>2.9</ele>
			 </trkpt>
			 <trkpt lat="-33.65727" lon="115.26497">
				 <ele>2.9</ele>
			 </trkpt>
			 <trkpt lat="-33.65726" lon="115.2652">
				 <ele>2.9</ele>
			 </trkpt>
			 <trkpt lat="-33.65722" lon="115.26537">
				 <ele>3</ele>
			 </trkpt>
			 <trkpt lat="-33.6571" lon="115.26581">
				 <ele>2.9</ele>
			 </trkpt>
			 <trkpt lat="-33.65708" lon="115.26623">
				 <ele>2.8</ele>
			 </trkpt>
			 <trkpt lat="-33.65709" lon="115.26656">
				 <ele>2.7</ele>
			 </trkpt>
			 <trkpt lat="-33.65707" lon="115.26679">
				 <ele>2.7</ele>
			 </trkpt>
			 <trkpt lat="-33.65705" lon="115.26735">
				 <ele>2.7</ele>
			 </trkpt>
			 <trkpt lat="-33.65702" lon="115.26776">
				 <ele>2.7</ele>
			 </trkpt>
			 <trkpt lat="-33.65702" lon="115.26796">
				 <ele>2.6</ele>
			 </trkpt>
			 <trkpt lat="-33.65699" lon="115.26821">
				 <ele>2.6</ele>
			 </trkpt>
			 <trkpt lat="-33.65693" lon="115.26847">
				 <ele>2.6</ele>
			 </trkpt>
			 <trkpt lat="-33.65695" lon="115.26871">
				 <ele>2.6</ele>
			 </trkpt>
			 <trkpt lat="-33.65695" lon="115.26871">
				 <ele>2.5</ele>
			 </trkpt>
			 <trkpt lat="-33.65694" lon="115.26923">
				 <ele>2.5</ele>
			 </trkpt>
			 <trkpt lat="-33.65691" lon="115.26962">
				 <ele>2.6</ele>
			 </trkpt>
			 <trkpt lat="-33.65681" lon="115.27039">
				 <ele>2.7</ele>
			 </trkpt>
			 <trkpt lat="-33.65676" lon="115.27083">
				 <ele>2.7</ele>
			 </trkpt>
			 <trkpt lat="-33.65674" lon="115.27108">
				 <ele>2.7</ele>
			 </trkpt>
			 <trkpt lat="-33.65675" lon="115.27127">
				 <ele>2.7</ele>
			 </trkpt>
			 <trkpt lat="-33.65673" lon="115.27142">
				 <ele>2.8</ele>
			 </trkpt>
			 <trkpt lat="-33.65671" lon="115.27156">
				 <ele>2.9</ele>
			 </trkpt>
			 <trkpt lat="-33.65672" lon="115.27166">
				 <ele>2.9</ele>
			 </trkpt>
			 <trkpt lat="-33.65679" lon="115.27193">
				 <ele>2.9</ele>
			 </trkpt>
			 <trkpt lat="-33.65678" lon="115.27207">
				 <ele>3</ele>
			 </trkpt>
			 <trkpt lat="-33.65674" lon="115.27226">
				 <ele>3.1</ele>
			 </trkpt>
			 <trkpt lat="-33.65661" lon="115.27279">
				 <ele>3.2</ele>
			 </trkpt>
			 <trkpt lat="-33.65651" lon="115.27321">
				 <ele>3.3</ele>
			 </trkpt>
			 <trkpt lat="-33.65647" lon="115.27352">
				 <ele>3.4</ele>
			 </trkpt>
			 <trkpt lat="-33.65638" lon="115.27409">
				 <ele>3.4</ele>
			 </trkpt>
			 <trkpt lat="-33.65634" lon="115.27427">
				 <ele>3.5</ele>
			 </trkpt>
			 <trkpt lat="-33.65633" lon="115.27443">
				 <ele>3.5</ele>
			 </trkpt>
			 <trkpt lat="-33.65629" lon="115.27484">
				 <ele>3.5</ele>
			 </trkpt>
			 <trkpt lat="-33.65627" lon="115.27509">
				 <ele>3.6</ele>
			 </trkpt>
			 <trkpt lat="-33.65621" lon="115.27535">
				 <ele>3.7</ele>
			 </trkpt>
			 <trkpt lat="-33.65618" lon="115.27559">
				 <ele>3.7</ele>
			 </trkpt>
			 <trkpt lat="-33.65618" lon="115.27569">
				 <ele>3.7</ele>
			 </trkpt>
			 <trkpt lat="-33.65619" lon="115.27578">
				 <ele>3.6</ele>
			 </trkpt>
			 <trkpt lat="-33.65614" lon="115.2759">
				 <ele>3.5</ele>
			 </trkpt>
			 <trkpt lat="-33.65608" lon="115.27603">
				 <ele>3.4</ele>
			 </trkpt>
			 <trkpt lat="-33.65606" lon="115.27615">
				 <ele>3.3</ele>
			 </trkpt>
			 <trkpt lat="-33.65606" lon="115.27677">
				 <ele>3.1</ele>
			 </trkpt>
			 <trkpt lat="-33.65607" lon="115.27694">
				 <ele>2.9</ele>
			 </trkpt>
			 <trkpt lat="-33.65606" lon="115.27706">
				 <ele>2.7</ele>
			 </trkpt>
			 <trkpt lat="-33.65601" lon="115.27745">
				 <ele>2.5</ele>
			 </trkpt>
			 <trkpt lat="-33.65601" lon="115.27819">
				 <ele>2.4</ele>
			 </trkpt>
			 <trkpt lat="-33.65595" lon="115.27848">
				 <ele>2.4</ele>
			 </trkpt>
			 <trkpt lat="-33.65587" lon="115.27879">
				 <ele>2.4</ele>
			 </trkpt>
			 <trkpt lat="-33.65588" lon="115.27897">
				 <ele>2.4</ele>
			 </trkpt>
			 <trkpt lat="-33.65587" lon="115.27908">
				 <ele>2.4</ele>
			 </trkpt>
			 <trkpt lat="-33.6558" lon="115.27932">
				 <ele>2.5</ele>
			 </trkpt>
			 <trkpt lat="-33.65573" lon="115.27974">
				 <ele>2.5</ele>
			 </trkpt>
			 <trkpt lat="-33.65573" lon="115.28014">
				 <ele>2.5</ele>
			 </trkpt>
			 <trkpt lat="-33.65568" lon="115.28033">
				 <ele>2.6</ele>
			 </trkpt>
			 <trkpt lat="-33.65566" lon="115.28052">
				 <ele>2.8</ele>
			 </trkpt>
			 <trkpt lat="-33.65585" lon="115.28072">
				 <ele>3</ele>
			 </trkpt>
			 <trkpt lat="-33.65596" lon="115.28073">
				 <ele>3.2</ele>
			 </trkpt>
			 <trkpt lat="-33.6561" lon="115.28078">
				 <ele>3.2</ele>
			 </trkpt>
			 <trkpt lat="-33.65631" lon="115.28086">
				 <ele>3.3</ele>
			 </trkpt>
			 <trkpt lat="-33.65654" lon="115.28096">
				 <ele>3.4</ele>
			 </trkpt>
			 <trkpt lat="-33.65658" lon="115.28102">
				 <ele>3.5</ele>
			 </trkpt>
			 <trkpt lat="-33.65658" lon="115.28135">
				 <ele>3.7</ele>
			 </trkpt>
			 <trkpt lat="-33.65654" lon="115.28184">
				 <ele>3.9</ele>
			 </trkpt>
			 <trkpt lat="-33.6565" lon="115.28215">
				 <ele>4.1</ele>
			 </trkpt>
			 <trkpt lat="-33.65651" lon="115.28225">
				 <ele>4.3</ele>
			 </trkpt>
			 <trkpt lat="-33.65655" lon="115.28233">
				 <ele>4.3</ele>
			 </trkpt>
			 <trkpt lat="-33.65667" lon="115.28236">
				 <ele>4.4</ele>
			 </trkpt>
			 <trkpt lat="-33.65679" lon="115.28238">
				 <ele>4.5</ele>
			 </trkpt>
			 <trkpt lat="-33.6568" lon="115.28242">
				 <ele>4.5</ele>
			 </trkpt>
			 <trkpt lat="-33.65679" lon="115.28257">
				 <ele>4.5</ele>
			 </trkpt>
			 <trkpt lat="-33.65671" lon="115.28309">
				 <ele>4.5</ele>
			 </trkpt>
			 <trkpt lat="-33.65665" lon="115.28336">
				 <ele>4.5</ele>
			 </trkpt>
			 <trkpt lat="-33.65665" lon="115.28336">
				 <ele>4.4</ele>
			 </trkpt>
			 <trkpt lat="-33.65659" lon="115.28353">
				 <ele>4.3</ele>
			 </trkpt>
			 <trkpt lat="-33.65658" lon="115.28376">
				 <ele>4.3</ele>
			 </trkpt>
			 <trkpt lat="-33.65658" lon="115.28419">
				 <ele>4.2</ele>
			 </trkpt>
			 <trkpt lat="-33.65661" lon="115.28449">
				 <ele>4.2</ele>
			 </trkpt>
			 <trkpt lat="-33.65667" lon="115.28474">
				 <ele>4.1</ele>
			 </trkpt>
			 <trkpt lat="-33.65671" lon="115.28498">
				 <ele>4</ele>
			 </trkpt>
			 <trkpt lat="-33.65672" lon="115.28547">
				 <ele>4</ele>
			 </trkpt>
			 <trkpt lat="-33.6567" lon="115.28592">
				 <ele>4</ele>
			 </trkpt>
			 <trkpt lat="-33.65671" lon="115.28618">
				 <ele>4</ele>
			 </trkpt>
			 <trkpt lat="-33.65674" lon="115.2865">
				 <ele>3.9</ele>
			 </trkpt>
			 <trkpt lat="-33.6567" lon="115.28683">
				 <ele>3.8</ele>
			 </trkpt>
			 <trkpt lat="-33.65669" lon="115.28725">
				 <ele>3.7</ele>
			 </trkpt>
			 <trkpt lat="-33.6567" lon="115.28742">
				 <ele>3.6</ele>
			 </trkpt>
			 <trkpt lat="-33.65667" lon="115.28751">
				 <ele>3.5</ele>
			 </trkpt>
			 <trkpt lat="-33.656307" lon="115.287933">
				 <ele>3.4</ele>
			 </trkpt>
			 <trkpt lat="-33.65595" lon="115.288062">
				 <ele>3.2</ele>
			 </trkpt>
			 <trkpt lat="-33.655735" lon="115.288352">
				 <ele>3.1</ele>
			 </trkpt>
			 <trkpt lat="-33.655655" lon="115.288727">
				 <ele>3</ele>
			 </trkpt>
			 <trkpt lat="-33.655561" lon="115.288947">
				 <ele>2.9</ele>
			 </trkpt>
			 <trkpt lat="-33.65561" lon="115.289328">
				 <ele>2.8</ele>
			 </trkpt>
			 <trkpt lat="-33.655501" lon="115.289483">
				 <ele>2.8</ele>
			 </trkpt>
			 <trkpt lat="-33.65547" lon="115.289853">
				 <ele>2.8</ele>
			 </trkpt>
			 <trkpt lat="-33.655488" lon="115.290259">
				 <ele>2.7</ele>
			 </trkpt>
			 <trkpt lat="-33.655425" lon="115.290393">
				 <ele>2.6</ele>
			 </trkpt>
			 <trkpt lat="-33.655403" lon="115.290913">
				 <ele>2.5</ele>
			 </trkpt>
			 <trkpt lat="-33.655345" lon="115.291246">
				 <ele>2.5</ele>
			 </trkpt>
			 <trkpt lat="-33.655425" lon="115.291509">
				 <ele>2.5</ele>
			 </trkpt>
			 <trkpt lat="-33.655376" lon="115.291702">
				 <ele>2.5</ele>
			 </trkpt>
			 <trkpt lat="-33.655157" lon="115.291916">
				 <ele>2.5</ele>
			 </trkpt>
			 <trkpt lat="-33.655113" lon="115.292297">
				 <ele>2.5</ele>
			 </trkpt>
			 <trkpt lat="-33.6551" lon="115.2923">
				 <ele>2.5</ele>
			 </trkpt>
			 <trkpt lat="-33.65516" lon="115.29243">
				 <ele>2.5</ele>
			 </trkpt>
			 <trkpt lat="-33.65533" lon="115.29263">
				 <ele>2.5</ele>
			 </trkpt>
			 <trkpt lat="-33.65554" lon="115.29294">
				 <ele>2.5</ele>
			 </trkpt>
			 <trkpt lat="-33.65575" lon="115.29323">
				 <ele>2.6</ele>
			 </trkpt>
			 <trkpt lat="-33.65581" lon="115.29336">
				 <ele>2.7</ele>
			 </trkpt>
			 <trkpt lat="-33.65583" lon="115.29345">
				 <ele>2.8</ele>
			 </trkpt>
			 <trkpt lat="-33.65586" lon="115.29388">
				 <ele>2.9</ele>
			 </trkpt>
			 <trkpt lat="-33.65589" lon="115.29427">
				 <ele>3</ele>
			 </trkpt>
			 <trkpt lat="-33.65589" lon="115.2946">
				 <ele>3</ele>
			 </trkpt>
			 <trkpt lat="-33.65589" lon="115.29462">
				 <ele>3</ele>
			 </trkpt>
			 <trkpt lat="-33.65589" lon="115.29462">
				 <ele>3</ele>
			 </trkpt>
			 <trkpt lat="-33.65589" lon="115.29487">
				 <ele>2.9</ele>
			 </trkpt>
			 <trkpt lat="-33.65586" lon="115.29512">
				 <ele>2.8</ele>
			 </trkpt>
			 <trkpt lat="-33.65581" lon="115.2953">
				 <ele>2.7</ele>
			 </trkpt>
			 <trkpt lat="-33.65582" lon="115.29554">
				 <ele>2.6</ele>
			 </trkpt>
			 <trkpt lat="-33.65578" lon="115.29566">
				 <ele>2.5</ele>
			 </trkpt>
			 <trkpt lat="-33.65557" lon="115.29587">
				 <ele>2.5</ele>
			 </trkpt>
			 <trkpt lat="-33.6555" lon="115.29597">
				 <ele>2.5</ele>
			 </trkpt>
			 <trkpt lat="-33.65544" lon="115.29616">
				 <ele>2.4</ele>
			 </trkpt>
			 <trkpt lat="-33.65543" lon="115.29621">
				 <ele>2.4</ele>
			 </trkpt>
			 <trkpt lat="-33.65543" lon="115.29621">
				 <ele>2.4</ele>
			 </trkpt>
			 <trkpt lat="-33.65539" lon="115.29635">
				 <ele>2.4</ele>
			 </trkpt>
			 <trkpt lat="-33.6554" lon="115.29657">
				 <ele>2.5</ele>
			 </trkpt>
			 <trkpt lat="-33.655445" lon="115.296674">
				 <ele>2.5</ele>
			 </trkpt>
			 <trkpt lat="-33.656035" lon="115.296636">
				 <ele>2.6</ele>
			 </trkpt>
			 <trkpt lat="-33.656048" lon="115.297387">
				 <ele>2.7</ele>
			 </trkpt>
			 <trkpt lat="-33.65606" lon="115.29739">
				 <ele>2.8</ele>
			 </trkpt>
			 <trkpt lat="-33.65608" lon="115.2983">
				 <ele>2.9</ele>
			 </trkpt>
			 <trkpt lat="-33.65606" lon="115.2996">
				 <ele>2.9</ele>
			 </trkpt>
			 <trkpt lat="-33.65603" lon="115.30079">
				 <ele>2.9</ele>
			 </trkpt>
			 <trkpt lat="-33.656" lon="115.30218">
				 <ele>2.8</ele>
			 </trkpt>
			 <trkpt lat="-33.656" lon="115.30218">
				 <ele>2.7</ele>
			 </trkpt>
			 <trkpt lat="-33.65599" lon="115.30228">
				 <ele>2.6</ele>
			 </trkpt>
			 <trkpt lat="-33.65581" lon="115.30226">
				 <ele>2.5</ele>
			 </trkpt>
			 <trkpt lat="-33.65566" lon="115.30225">
				 <ele>2.5</ele>
			 </trkpt>
			 <trkpt lat="-33.6556" lon="115.30227">
				 <ele>2.4</ele>
			 </trkpt>
			 <trkpt lat="-33.65556" lon="115.30217">
				 <ele>2.3</ele>
			 </trkpt>
			 <trkpt lat="-33.6555" lon="115.30207">
				 <ele>2.3</ele>
			 </trkpt>
			 <trkpt lat="-33.65545" lon="115.30203">
				 <ele>2.3</ele>
			 </trkpt>
			 <trkpt lat="-33.65537" lon="115.30201">
				 <ele>2.3</ele>
			 </trkpt>
			 <trkpt lat="-33.65531" lon="115.302">
				 <ele>2.3</ele>
			 </trkpt>
			 <trkpt lat="-33.6553" lon="115.30209">
				 <ele>2.3</ele>
			 </trkpt>
			 <trkpt lat="-33.65528" lon="115.30219">
				 <ele>2.3</ele>
			 </trkpt>
			 <trkpt lat="-33.65523" lon="115.3023">
				 <ele>2.3</ele>
			 </trkpt>
			 <trkpt lat="-33.65509" lon="115.30268">
				 <ele>2.3</ele>
			 </trkpt>
			 <trkpt lat="-33.65502" lon="115.30305">
				 <ele>2.3</ele>
			 </trkpt>
			 <trkpt lat="-33.65494" lon="115.30383">
				 <ele>2.3</ele>
			 </trkpt>
			 <trkpt lat="-33.65487" lon="115.30428">
				 <ele>2.3</ele>
			 </trkpt>
			 <trkpt lat="-33.65484" lon="115.30473">
				 <ele>2.2</ele>
			 </trkpt>
			 <trkpt lat="-33.65483" lon="115.30474">
				 <ele>2.1</ele>
			 </trkpt>
			 <trkpt lat="-33.65483" lon="115.30474">
				 <ele>2</ele>
			 </trkpt>
			 <trkpt lat="-33.65479" lon="115.3056">
				 <ele>2.1</ele>
			 </trkpt>
			 <trkpt lat="-33.65478" lon="115.306">
				 <ele>2.2</ele>
			 </trkpt>
			 <trkpt lat="-33.65478" lon="115.30649">
				 <ele>2.2</ele>
			 </trkpt>
			 <trkpt lat="-33.65477" lon="115.30683">
				 <ele>2.2</ele>
			 </trkpt>
			 <trkpt lat="-33.65472" lon="115.30722">
				 <ele>2.3</ele>
			 </trkpt>
			 <trkpt lat="-33.6547" lon="115.3076">
				 <ele>2.4</ele>
			 </trkpt>
			 <trkpt lat="-33.65468" lon="115.30793">
				 <ele>2.5</ele>
			 </trkpt>
			 <trkpt lat="-33.65471" lon="115.30809">
				 <ele>2.5</ele>
			 </trkpt>
			 <trkpt lat="-33.6545" lon="115.30918">
				 <ele>2.6</ele>
			 </trkpt>
			 <trkpt lat="-33.65429" lon="115.31024">
				 <ele>2.7</ele>
			 </trkpt>
			 <trkpt lat="-33.65411" lon="115.3109">
				 <ele>2.8</ele>
			 </trkpt>
			 <trkpt lat="-33.6538" lon="115.31207">
				 <ele>2.8</ele>
			 </trkpt>
			 <trkpt lat="-33.65366" lon="115.31259">
				 <ele>2.8</ele>
			 </trkpt>
			 <trkpt lat="-33.65366" lon="115.31259">
				 <ele>2.9</ele>
			 </trkpt>
			 <trkpt lat="-33.65321" lon="115.31427">
				 <ele>3</ele>
			 </trkpt>
			 <trkpt lat="-33.65315" lon="115.31461">
				 <ele>3</ele>
			 </trkpt>
			 <trkpt lat="-33.65311" lon="115.31496">
				 <ele>2.9</ele>
			 </trkpt>
			 <trkpt lat="-33.65312" lon="115.31536">
				 <ele>2.9</ele>
			 </trkpt>
			 <trkpt lat="-33.65315" lon="115.3156">
				 <ele>2.9</ele>
			 </trkpt>
			 <trkpt lat="-33.6532" lon="115.3159">
				 <ele>2.9</ele>
			 </trkpt>
			 <trkpt lat="-33.6532" lon="115.31623">
				 <ele>2.9</ele>
			 </trkpt>
			 <trkpt lat="-33.65317" lon="115.31645">
				 <ele>2.9</ele>
			 </trkpt>
			 <trkpt lat="-33.65321" lon="115.31667">
				 <ele>3</ele>
			 </trkpt>
			 <trkpt lat="-33.65321" lon="115.31702">
				 <ele>3.1</ele>
			 </trkpt>
			 <trkpt lat="-33.65318" lon="115.31711">
				 <ele>3.1</ele>
			 </trkpt>
			 <trkpt lat="-33.65316" lon="115.31763">
				 <ele>3.2</ele>
			 </trkpt>
			 <trkpt lat="-33.65323" lon="115.3179">
				 <ele>3.3</ele>
			 </trkpt>
			 <trkpt lat="-33.65317" lon="115.31814">
				 <ele>3.5</ele>
			 </trkpt>
			 <trkpt lat="-33.6531" lon="115.31852">
				 <ele>3.6</ele>
			 </trkpt>
			 <trkpt lat="-33.65304" lon="115.31914">
				 <ele>3.8</ele>
			 </trkpt>
			 <trkpt lat="-33.65283" lon="115.31994">
				 <ele>3.9</ele>
			 </trkpt>
			 <trkpt lat="-33.65282" lon="115.32049">
				 <ele>4</ele>
			 </trkpt>
			 <trkpt lat="-33.65279" lon="115.32063">
				 <ele>4.1</ele>
			 </trkpt>
			 <trkpt lat="-33.65278" lon="115.32094">
				 <ele>4.1</ele>
			 </trkpt>
			 <trkpt lat="-33.65277" lon="115.32106">
				 <ele>4.1</ele>
			 </trkpt>
			 <trkpt lat="-33.65274" lon="115.32114">
				 <ele>4.2</ele>
			 </trkpt>
			 <trkpt lat="-33.65259" lon="115.32139">
				 <ele>4.2</ele>
			 </trkpt>
			 <trkpt lat="-33.65254" lon="115.3216">
				 <ele>4.2</ele>
			 </trkpt>
			 <trkpt lat="-33.65243" lon="115.32217">
				 <ele>4.2</ele>
			 </trkpt>
			 <trkpt lat="-33.65243" lon="115.3222">
				 <ele>4.1</ele>
			 </trkpt>
			 <trkpt lat="-33.65243" lon="115.3222">
				 <ele>4</ele>
			 </trkpt>
			 <trkpt lat="-33.65235" lon="115.3225">
				 <ele>4</ele>
			 </trkpt>
			 <trkpt lat="-33.65227" lon="115.32264">
				 <ele>4</ele>
			 </trkpt>
			 <trkpt lat="-33.6522" lon="115.32289">
				 <ele>4</ele>
			 </trkpt>
			 <trkpt lat="-33.6522" lon="115.32296">
				 <ele>4</ele>
			 </trkpt>
			 <trkpt lat="-33.65224" lon="115.32308">
				 <ele>3.9</ele>
			 </trkpt>
			 <trkpt lat="-33.65251" lon="115.32336">
				 <ele>3.8</ele>
			 </trkpt>
			 <trkpt lat="-33.65256" lon="115.32338">
				 <ele>3.7</ele>
			 </trkpt>
			 <trkpt lat="-33.65267" lon="115.32336">
				 <ele>3.6</ele>
			 </trkpt>
			 <trkpt lat="-33.65282" lon="115.32334">
				 <ele>3.5</ele>
			 </trkpt>
			 <trkpt lat="-33.65301" lon="115.32334">
				 <ele>3.3</ele>
			 </trkpt>
			 <trkpt lat="-33.65308" lon="115.32339">
				 <ele>3.1</ele>
			 </trkpt>
			 <trkpt lat="-33.65308" lon="115.32344">
				 <ele>2.9</ele>
			 </trkpt>
			 <trkpt lat="-33.65288" lon="115.32396">
				 <ele>2.9</ele>
			 </trkpt>
			 <trkpt lat="-33.65204" lon="115.32607">
				 <ele>2.8</ele>
			 </trkpt>
			 <trkpt lat="-33.65204" lon="115.32607">
				 <ele>2.7</ele>
			 </trkpt>
			 <trkpt lat="-33.65134" lon="115.32786">
				 <ele>2.7</ele>
			 </trkpt>
			 <trkpt lat="-33.65128" lon="115.32808">
				 <ele>2.7</ele>
			 </trkpt>
			 <trkpt lat="-33.65125" lon="115.32838">
				 <ele>2.7</ele>
			 </trkpt>
			 <trkpt lat="-33.65112" lon="115.32875">
				 <ele>2.8</ele>
			 </trkpt>
			 <trkpt lat="-33.65101" lon="115.32891">
				 <ele>2.9</ele>
			 </trkpt>
			 <trkpt lat="-33.65061" lon="115.32992">
				 <ele>3</ele>
			 </trkpt>
			 <trkpt lat="-33.65056" lon="115.32998">
				 <ele>3.2</ele>
			 </trkpt>
			 <trkpt lat="-33.65044" lon="115.33005">
				 <ele>3.4</ele>
			 </trkpt>
			 <trkpt lat="-33.65033" lon="115.33038">
				 <ele>3.3</ele>
			 </trkpt>
			 <trkpt lat="-33.64997" lon="115.33132">
				 <ele>3.3</ele>
			 </trkpt>
			 <trkpt lat="-33.64997" lon="115.33132">
				 <ele>3.3</ele>
			 </trkpt>
			 <trkpt lat="-33.64909" lon="115.33356">
				 <ele>3.3</ele>
			 </trkpt>
			 <trkpt lat="-33.64821" lon="115.33581">
				 <ele>3.3</ele>
			 </trkpt>
			 <trkpt lat="-33.64759" lon="115.33745">
				 <ele>3.2</ele>
			 </trkpt>
			 <trkpt lat="-33.64764" lon="115.33748">
				 <ele>3</ele>
			 </trkpt>
			 <trkpt lat="-33.64749" lon="115.33787">
				 <ele>2.9</ele>
			 </trkpt>
			 <trkpt lat="-33.64749" lon="115.33787">
				 <ele>2.8</ele>
			 </trkpt>
			 <trkpt lat="-33.64655" lon="115.34025">
				 <ele>2.6</ele>
			 </trkpt>
			 <trkpt lat="-33.64614" lon="115.34127">
				 <ele>2.5</ele>
			 </trkpt>
			 <trkpt lat="-33.64612" lon="115.34136">
				 <ele>2.4</ele>
			 </trkpt>
			 <trkpt lat="-33.64613" lon="115.3414">
				 <ele>2.3</ele>
			 </trkpt>
			 <trkpt lat="-33.64618" lon="115.3415">
				 <ele>2.2</ele>
			 </trkpt>
			 <trkpt lat="-33.64626" lon="115.34154">
				 <ele>2.1</ele>
			 </trkpt>
			 <trkpt lat="-33.64626" lon="115.34154">
				 <ele>2</ele>
			 </trkpt>
			 <trkpt lat="-33.64637" lon="115.34156">
				 <ele>2</ele>
			 </trkpt>
			 <trkpt lat="-33.64671" lon="115.34156">
				 <ele>2</ele>
			 </trkpt>
			 <trkpt lat="-33.64671" lon="115.34168">
				 <ele>2</ele>
			 </trkpt>
			 <trkpt lat="-33.64671" lon="115.3417">
				 <ele>2</ele>
			 </trkpt>
			 <trkpt lat="-33.64671" lon="115.3417">
				 <ele>2</ele>
			 </trkpt>
			 <trkpt lat="-33.6467" lon="115.34181">
				 <ele>2</ele>
			 </trkpt>
			 <trkpt lat="-33.64669" lon="115.34182">
				 <ele>2</ele>
			 </trkpt>
			 <trkpt lat="-33.64613" lon="115.34181">
				 <ele>2.1</ele>
			 </trkpt>
			 <trkpt lat="-33.64613" lon="115.34181">
				 <ele>2.1</ele>
			 </trkpt>
			 <trkpt lat="-33.64602" lon="115.3418">
				 <ele>2.3</ele>
			 </trkpt>
			 <trkpt lat="-33.64594" lon="115.34183">
				 <ele>2.4</ele>
			 </trkpt>
			 <trkpt lat="-33.64587" lon="115.34175">
				 <ele>2.5</ele>
			 </trkpt>
			 <trkpt lat="-33.64591" lon="115.34165">
				 <ele>2.5</ele>
			 </trkpt>
			 <trkpt lat="-33.645956" lon="115.341307">
				 <ele>2.5</ele>
			 </trkpt>
			 <trkpt lat="-33.64635" lon="115.340404">
				 <ele>2.6</ele>
			 </trkpt>
			 <trkpt lat="-33.646676" lon="115.339488">
				 <ele>2.7</ele>
			 </trkpt>
			 <trkpt lat="-33.647186" lon="115.338183">
				 <ele>2.8</ele>
			 </trkpt>
			 <trkpt lat="-33.647142" lon="115.338135">
				 <ele>2.9</ele>
			 </trkpt>
			 <trkpt lat="-33.646799" lon="115.339054">
				 <ele>2.9</ele>
			 </trkpt>
			 <trkpt lat="-33.646593" lon="115.339613">
				 <ele>3</ele>
			 </trkpt>
			 <trkpt lat="-33.646463" lon="115.339677">
				 <ele>2.9</ele>
			 </trkpt>
			 <trkpt lat="-33.64624" lon="115.340227">
				 <ele>2.8</ele>
			 </trkpt>
		 </trkseg>
	 </trk>
</gpx>