<?xml version="1.0" encoding="UTF-8"?>
 <gpx creator="Garmin Connect" version="1.1"
	 xsi:schemaLocation="http://www.topografix.com/GPX/1/1 http://www.topografix.com/GPX/11.xsd"
	 xmlns:ns3="http://www.garmin.com/xmlschemas/TrackPointExtension/v1"
	 xmlns="http://www.topografix.com/GPX/1/1"
	 xmlns:xsi="http://www.w3.org/2001/XMLSchema-instance" xmlns:ns2="http://www.garmin.com/xmlschemas/GpxExtensions/v3">
	 <metadata>
		<name>Can Tho Heritage Marathon 2024 - 42.195 km</name>
		 <link href="https://www.goandrace.com">
		 <text>Garmin Connect</text>
		 </link>
	 <time>2026-08-17T15:57:21</time>
	 </metadata>
	 <trk>
		 <name>Can Tho Heritage Marathon 2024 - 42.195 km</name>
		 <trkseg>
			 <trkpt lat="10.049462" lon="105.79059">
				 <ele>3</ele>
			 </trkpt>
			 <trkpt lat="10.050556" lon="105.789891">
				 <ele>2.9</ele>
			 </trkpt>
			 <trkpt lat="10.050636" lon="105.789678">
				 <ele>2.8</ele>
			 </trkpt>
			 <trkpt lat="10.051034" lon="105.788491">
				 <ele>2.6</ele>
			 </trkpt>
			 <trkpt lat="10.051062" lon="105.788444">
				 <ele>2.4</ele>
			 </trkpt>
			 <trkpt lat="10.051103" lon="105.788437">
				 <ele>2.6</ele>
			 </trkpt>
			 <trkpt lat="10.051145" lon="105.788437">
				 <ele>2.8</ele>
			 </trkpt>
			 <trkpt lat="10.051177" lon="105.788459">
				 <ele>2.8</ele>
			 </trkpt>
			 <trkpt lat="10.052103" lon="105.789786">
				 <ele>2.8</ele>
			 </trkpt>
			 <trkpt lat="10.052143" lon="105.789785">
				 <ele>3</ele>
			 </trkpt>
			 <trkpt lat="10.050655" lon="105.787209">
				 <ele>3.3</ele>
			 </trkpt>
			 <trkpt lat="10.048964" lon="105.784484">
				 <ele>3.5</ele>
			 </trkpt>
			 <trkpt lat="10.048088" lon="105.783295">
				 <ele>3.8</ele>
			 </trkpt>
			 <trkpt lat="10.047639" lon="105.782704">
				 <ele>4.1</ele>
			 </trkpt>
			 <trkpt lat="10.047182" lon="105.78213">
				 <ele>4.5</ele>
			 </trkpt>
			 <trkpt lat="10.045589" lon="105.780289">
				 <ele>4.8</ele>
			 </trkpt>
			 <trkpt lat="10.045489" lon="105.780016">
				 <ele>5.2</ele>
			 </trkpt>
			 <trkpt lat="10.045449" lon="105.779938">
				 <ele>5.5</ele>
			 </trkpt>
			 <trkpt lat="10.045377" lon="105.77988">
				 <ele>5.2</ele>
			 </trkpt>
			 <trkpt lat="10.045213" lon="105.779819">
				 <ele>5.4</ele>
			 </trkpt>
			 <trkpt lat="10.04505" lon="105.779704">
				 <ele>5.5</ele>
			 </trkpt>
			 <trkpt lat="10.044173" lon="105.778792">
				 <ele>5.5</ele>
			 </trkpt>
			 <trkpt lat="10.043874" lon="105.778586">
				 <ele>5.3</ele>
			 </trkpt>
			 <trkpt lat="10.040359" lon="105.7773">
				 <ele>5.1</ele>
			 </trkpt>
			 <trkpt lat="10.033027" lon="105.774576">
				 <ele>5</ele>
			 </trkpt>
			 <trkpt lat="10.032742" lon="105.77442">
				 <ele>4.9</ele>
			 </trkpt>
			 <trkpt lat="10.032232" lon="105.77399">
				 <ele>4.7</ele>
			 </trkpt>
			 <trkpt lat="10.025922" lon="105.768535">
				 <ele>4.3</ele>
			 </trkpt>
			 <trkpt lat="10.025199" lon="105.767902">
				 <ele>3.9</ele>
			 </trkpt>
			 <trkpt lat="10.021834" lon="105.764992">
				 <ele>4.1</ele>
			 </trkpt>
			 <trkpt lat="10.02129" lon="105.764555">
				 <ele>3.8</ele>
			 </trkpt>
			 <trkpt lat="10.017376" lon="105.76116">
				 <ele>3.7</ele>
			 </trkpt>
			 <trkpt lat="10.01655" lon="105.760457">
				 <ele>3.7</ele>
			 </trkpt>
			 <trkpt lat="10.016389" lon="105.760303">
				 <ele>4</ele>
			 </trkpt>
			 <trkpt lat="10.014343" lon="105.758514">
				 <ele>4</ele>
			 </trkpt>
			 <trkpt lat="10.013952" lon="105.758074">
				 <ele>3.9</ele>
			 </trkpt>
			 <trkpt lat="10.013714" lon="105.757712">
				 <ele>3.8</ele>
			 </trkpt>
			 <trkpt lat="10.013389" lon="105.756961">
				 <ele>3.7</ele>
			 </trkpt>
			 <trkpt lat="10.012729" lon="105.754824">
				 <ele>3.5</ele>
			 </trkpt>
			 <trkpt lat="10.012377" lon="105.753813">
				 <ele>3.4</ele>
			 </trkpt>
			 <trkpt lat="10.012247" lon="105.753466">
				 <ele>3.5</ele>
			 </trkpt>
			 <trkpt lat="10.01212" lon="105.753223">
				 <ele>3.5</ele>
			 </trkpt>
			 <trkpt lat="10.01197" lon="105.752976">
				 <ele>3.4</ele>
			 </trkpt>
			 <trkpt lat="10.01177" lon="105.752696">
				 <ele>3.3</ele>
			 </trkpt>
			 <trkpt lat="10.011598" lon="105.752432">
				 <ele>3.2</ele>
			 </trkpt>
			 <trkpt lat="10.010027" lon="105.750822">
				 <ele>3.5</ele>
			 </trkpt>
			 <trkpt lat="10.009851" lon="105.750575">
				 <ele>3.7</ele>
			 </trkpt>
			 <trkpt lat="10.00966" lon="105.750344">
				 <ele>4</ele>
			 </trkpt>
			 <trkpt lat="10.009227" lon="105.749974">
				 <ele>4.3</ele>
			 </trkpt>
			 <trkpt lat="10.008725" lon="105.749666">
				 <ele>4.5</ele>
			 </trkpt>
			 <trkpt lat="10.008307" lon="105.749424">
				 <ele>4.7</ele>
			 </trkpt>
			 <trkpt lat="10.008254" lon="105.749368">
				 <ele>4.6</ele>
			 </trkpt>
			 <trkpt lat="10.008198" lon="105.749222">
				 <ele>4.4</ele>
			 </trkpt>
			 <trkpt lat="10.008144" lon="105.748972">
				 <ele>4.2</ele>
			 </trkpt>
			 <trkpt lat="10.008148" lon="105.748892">
				 <ele>4.1</ele>
			 </trkpt>
			 <trkpt lat="10.00817" lon="105.748797">
				 <ele>3.9</ele>
			 </trkpt>
			 <trkpt lat="10.008232" lon="105.748719">
				 <ele>3.3</ele>
			 </trkpt>
			 <trkpt lat="10.008792" lon="105.748212">
				 <ele>2.7</ele>
			 </trkpt>
			 <trkpt lat="10.009079" lon="105.74797">
				 <ele>2.3</ele>
			 </trkpt>
			 <trkpt lat="10.010174" lon="105.747019">
				 <ele>1.9</ele>
			 </trkpt>
			 <trkpt lat="10.011877" lon="105.745521">
				 <ele>1.6</ele>
			 </trkpt>
			 <trkpt lat="10.012365" lon="105.745079">
				 <ele>1.5</ele>
			 </trkpt>
			 <trkpt lat="10.012846" lon="105.744666">
				 <ele>1.3</ele>
			 </trkpt>
			 <trkpt lat="10.013025" lon="105.744525">
				 <ele>1.4</ele>
			 </trkpt>
			 <trkpt lat="10.013112" lon="105.744467">
				 <ele>1.5</ele>
			 </trkpt>
			 <trkpt lat="10.01323" lon="105.744409">
				 <ele>1.5</ele>
			 </trkpt>
			 <trkpt lat="10.013381" lon="105.744353">
				 <ele>1.5</ele>
			 </trkpt>
			 <trkpt lat="10.0135" lon="105.744324">
				 <ele>1.8</ele>
			 </trkpt>
			 <trkpt lat="10.013746" lon="105.744312">
				 <ele>2.1</ele>
			 </trkpt>
			 <trkpt lat="10.014459" lon="105.744328">
				 <ele>2.2</ele>
			 </trkpt>
			 <trkpt lat="10.014937" lon="105.744331">
				 <ele>2.2</ele>
			 </trkpt>
			 <trkpt lat="10.015394" lon="105.744307">
				 <ele>2.1</ele>
			 </trkpt>
			 <trkpt lat="10.015608" lon="105.744284">
				 <ele>2</ele>
			 </trkpt>
			 <trkpt lat="10.015821" lon="105.744254">
				 <ele>1.9</ele>
			 </trkpt>
			 <trkpt lat="10.016281" lon="105.744129">
				 <ele>1.9</ele>
			 </trkpt>
			 <trkpt lat="10.0166" lon="105.744023">
				 <ele>1.9</ele>
			 </trkpt>
			 <trkpt lat="10.016928" lon="105.743863">
				 <ele>1.9</ele>
			 </trkpt>
			 <trkpt lat="10.017432" lon="105.743575">
				 <ele>1.7</ele>
			 </trkpt>
			 <trkpt lat="10.017914" lon="105.743231">
				 <ele>1.5</ele>
			 </trkpt>
			 <trkpt lat="10.018934" lon="105.742363">
				 <ele>1.4</ele>
			 </trkpt>
			 <trkpt lat="10.019196" lon="105.74218">
				 <ele>1.4</ele>
			 </trkpt>
			 <trkpt lat="10.019494" lon="105.742026">
				 <ele>1.5</ele>
			 </trkpt>
			 <trkpt lat="10.019707" lon="105.741943">
				 <ele>1.5</ele>
			 </trkpt>
			 <trkpt lat="10.019968" lon="105.74189">
				 <ele>1.7</ele>
			 </trkpt>
			 <trkpt lat="10.020169" lon="105.741874">
				 <ele>1.8</ele>
			 </trkpt>
			 <trkpt lat="10.020476" lon="105.74167">
				 <ele>1.8</ele>
			 </trkpt>
			 <trkpt lat="10.02064" lon="105.741541">
				 <ele>1.6</ele>
			 </trkpt>
			 <trkpt lat="10.020699" lon="105.741401">
				 <ele>1.4</ele>
			 </trkpt>
			 <trkpt lat="10.021344" lon="105.739031">
				 <ele>1.5</ele>
			 </trkpt>
			 <trkpt lat="10.021368" lon="105.738984">
				 <ele>1.6</ele>
			 </trkpt>
			 <trkpt lat="10.021399" lon="105.738967">
				 <ele>1.9</ele>
			 </trkpt>
			 <trkpt lat="10.022517" lon="105.738513">
				 <ele>2.1</ele>
			 </trkpt>
			 <trkpt lat="10.023218" lon="105.738255">
				 <ele>2.3</ele>
			 </trkpt>
			 <trkpt lat="10.024332" lon="105.737857">
				 <ele>2.4</ele>
			 </trkpt>
			 <trkpt lat="10.024424" lon="105.737811">
				 <ele>2.4</ele>
			 </trkpt>
			 <trkpt lat="10.024508" lon="105.737708">
				 <ele>2.5</ele>
			 </trkpt>
			 <trkpt lat="10.024706" lon="105.737416">
				 <ele>2.5</ele>
			 </trkpt>
			 <trkpt lat="10.024753" lon="105.737312">
				 <ele>2.6</ele>
			 </trkpt>
			 <trkpt lat="10.024795" lon="105.73718">
				 <ele>3</ele>
			 </trkpt>
			 <trkpt lat="10.024784" lon="105.737073">
				 <ele>3.1</ele>
			 </trkpt>
			 <trkpt lat="10.024749" lon="105.736984">
				 <ele>3.1</ele>
			 </trkpt>
			 <trkpt lat="10.024631" lon="105.736861">
				 <ele>3</ele>
			 </trkpt>
			 <trkpt lat="10.024487" lon="105.736678">
				 <ele>2.9</ele>
			 </trkpt>
			 <trkpt lat="10.024457" lon="105.736615">
				 <ele>2.7</ele>
			 </trkpt>
			 <trkpt lat="10.024451" lon="105.73655">
				 <ele>2.6</ele>
			 </trkpt>
			 <trkpt lat="10.024453" lon="105.736484">
				 <ele>2.5</ele>
			 </trkpt>
			 <trkpt lat="10.025011" lon="105.735438">
				 <ele>2.5</ele>
			 </trkpt>
			 <trkpt lat="10.025361" lon="105.734746">
				 <ele>2.4</ele>
			 </trkpt>
			 <trkpt lat="10.025689" lon="105.734028">
				 <ele>2.3</ele>
			 </trkpt>
			 <trkpt lat="10.025832" lon="105.733865">
				 <ele>2.2</ele>
			 </trkpt>
			 <trkpt lat="10.026106" lon="105.733688">
				 <ele>2.3</ele>
			 </trkpt>
			 <trkpt lat="10.026333" lon="105.733517">
				 <ele>2.5</ele>
			 </trkpt>
			 <trkpt lat="10.02649" lon="105.73339">
				 <ele>2.6</ele>
			 </trkpt>
			 <trkpt lat="10.027364" lon="105.732734">
				 <ele>2.8</ele>
			 </trkpt>
			 <trkpt lat="10.02794" lon="105.732288">
				 <ele>3.1</ele>
			 </trkpt>
			 <trkpt lat="10.028191" lon="105.732109">
				 <ele>3.4</ele>
			 </trkpt>
			 <trkpt lat="10.02853" lon="105.731931">
				 <ele>3.6</ele>
			 </trkpt>
			 <trkpt lat="10.028818" lon="105.7318">
				 <ele>3.9</ele>
			 </trkpt>
			 <trkpt lat="10.028901" lon="105.73178">
				 <ele>4.3</ele>
			 </trkpt>
			 <trkpt lat="10.028987" lon="105.731781">
				 <ele>4.6</ele>
			 </trkpt>
			 <trkpt lat="10.029282" lon="105.731902">
				 <ele>4.9</ele>
			 </trkpt>
			 <trkpt lat="10.029388" lon="105.73191">
				 <ele>4.9</ele>
			 </trkpt>
			 <trkpt lat="10.02948" lon="105.731867">
				 <ele>4.8</ele>
			 </trkpt>
			 <trkpt lat="10.029567" lon="105.731778">
				 <ele>4.7</ele>
			 </trkpt>
			 <trkpt lat="10.029614" lon="105.73171">
				 <ele>4.6</ele>
			 </trkpt>
			 <trkpt lat="10.029634" lon="105.731624">
				 <ele>4.5</ele>
			 </trkpt>
			 <trkpt lat="10.029636" lon="105.731188">
				 <ele>4.4</ele>
			 </trkpt>
			 <trkpt lat="10.029585" lon="105.730953">
				 <ele>4.2</ele>
			 </trkpt>
			 <trkpt lat="10.029509" lon="105.730692">
				 <ele>4</ele>
			 </trkpt>
			 <trkpt lat="10.029467" lon="105.730428">
				 <ele>3.7</ele>
			 </trkpt>
			 <trkpt lat="10.029456" lon="105.729832">
				 <ele>3.5</ele>
			 </trkpt>
			 <trkpt lat="10.029414" lon="105.729637">
				 <ele>3.3</ele>
			 </trkpt>
			 <trkpt lat="10.029373" lon="105.729503">
				 <ele>3.3</ele>
			 </trkpt>
			 <trkpt lat="10.029271" lon="105.729331">
				 <ele>3.3</ele>
			 </trkpt>
			 <trkpt lat="10.029148" lon="105.72918">
				 <ele>3.3</ele>
			 </trkpt>
			 <trkpt lat="10.029046" lon="105.729078">
				 <ele>3.3</ele>
			 </trkpt>
			 <trkpt lat="10.028903" lon="105.728947">
				 <ele>3.4</ele>
			 </trkpt>
			 <trkpt lat="10.028853" lon="105.728878">
				 <ele>3.5</ele>
			 </trkpt>
			 <trkpt lat="10.028822" lon="105.728804">
				 <ele>3.7</ele>
			 </trkpt>
			 <trkpt lat="10.028822" lon="105.728733">
				 <ele>3.9</ele>
			 </trkpt>
			 <trkpt lat="10.028836" lon="105.728681">
				 <ele>4.2</ele>
			 </trkpt>
			 <trkpt lat="10.028903" lon="105.728582">
				 <ele>4.4</ele>
			 </trkpt>
			 <trkpt lat="10.029014" lon="105.728511">
				 <ele>4.5</ele>
			 </trkpt>
			 <trkpt lat="10.029132" lon="105.728413">
				 <ele>4.5</ele>
			 </trkpt>
			 <trkpt lat="10.029221" lon="105.728318">
				 <ele>4.5</ele>
			 </trkpt>
			 <trkpt lat="10.029316" lon="105.728155">
				 <ele>4.5</ele>
			 </trkpt>
			 <trkpt lat="10.029368" lon="105.727979">
				 <ele>4.5</ele>
			 </trkpt>
			 <trkpt lat="10.02941" lon="105.727702">
				 <ele>4.4</ele>
			 </trkpt>
			 <trkpt lat="10.02943" lon="105.727654">
				 <ele>4</ele>
			 </trkpt>
			 <trkpt lat="10.02948" lon="105.727618">
				 <ele>3.7</ele>
			 </trkpt>
			 <trkpt lat="10.029531" lon="105.727601">
				 <ele>3.5</ele>
			 </trkpt>
			 <trkpt lat="10.029586" lon="105.727606">
				 <ele>3.4</ele>
			 </trkpt>
			 <trkpt lat="10.029635" lon="105.72763">
				 <ele>3.2</ele>
			 </trkpt>
			 <trkpt lat="10.035447" lon="105.732619">
				 <ele>2.9</ele>
			 </trkpt>
			 <trkpt lat="10.041372" lon="105.73762">
				 <ele>2.9</ele>
			 </trkpt>
			 <trkpt lat="10.041958" lon="105.738161">
				 <ele>2.9</ele>
			 </trkpt>
			 <trkpt lat="10.041994" lon="105.738108">
				 <ele>2.9</ele>
			 </trkpt>
			 <trkpt lat="10.041377" lon="105.73754">
				 <ele>2.9</ele>
			 </trkpt>
			 <trkpt lat="10.035486" lon="105.732556">
				 <ele>2.9</ele>
			 </trkpt>
			 <trkpt lat="10.029645" lon="105.727564">
				 <ele>3.2</ele>
			 </trkpt>
			 <trkpt lat="10.029588" lon="105.727531">
				 <ele>3.4</ele>
			 </trkpt>
			 <trkpt lat="10.029503" lon="105.727524">
				 <ele>3.5</ele>
			 </trkpt>
			 <trkpt lat="10.02945" lon="105.727543">
				 <ele>3.7</ele>
			 </trkpt>
			 <trkpt lat="10.029384" lon="105.727595">
				 <ele>4</ele>
			 </trkpt>
			 <trkpt lat="10.02933" lon="105.727787">
				 <ele>4.4</ele>
			 </trkpt>
			 <trkpt lat="10.029316" lon="105.72797">
				 <ele>4.5</ele>
			 </trkpt>
			 <trkpt lat="10.029286" lon="105.728083">
				 <ele>4.5</ele>
			 </trkpt>
			 <trkpt lat="10.029242" lon="105.72819">
				 <ele>4.6</ele>
			 </trkpt>
			 <trkpt lat="10.029164" lon="105.728299">
				 <ele>4.6</ele>
			 </trkpt>
			 <trkpt lat="10.029011" lon="105.728439">
				 <ele>4.6</ele>
			 </trkpt>
			 <trkpt lat="10.02889" lon="105.728523">
				 <ele>4.6</ele>
			 </trkpt>
			 <trkpt lat="10.028836" lon="105.72858">
				 <ele>4.5</ele>
			 </trkpt>
			 <trkpt lat="10.028797" lon="105.728651">
				 <ele>4.4</ele>
			 </trkpt>
			 <trkpt lat="10.028767" lon="105.72872">
				 <ele>4.2</ele>
			 </trkpt>
			 <trkpt lat="10.028765" lon="105.72878">
				 <ele>3.9</ele>
			 </trkpt>
			 <trkpt lat="10.028783" lon="105.728857">
				 <ele>3.7</ele>
			 </trkpt>
			 <trkpt lat="10.02881" lon="105.728918">
				 <ele>3.5</ele>
			 </trkpt>
			 <trkpt lat="10.028837" lon="105.728958">
				 <ele>3.4</ele>
			 </trkpt>
			 <trkpt lat="10.028894" lon="105.729016">
				 <ele>3.3</ele>
			 </trkpt>
			 <trkpt lat="10.02912" lon="105.72922">
				 <ele>3.3</ele>
			 </trkpt>
			 <trkpt lat="10.029241" lon="105.729374">
				 <ele>3.3</ele>
			 </trkpt>
			 <trkpt lat="10.02933" lon="105.72954">
				 <ele>3.3</ele>
			 </trkpt>
			 <trkpt lat="10.029365" lon="105.729641">
				 <ele>3.4</ele>
			 </trkpt>
			 <trkpt lat="10.029399" lon="105.729842">
				 <ele>3.5</ele>
			 </trkpt>
			 <trkpt lat="10.02942" lon="105.730452">
				 <ele>3.6</ele>
			 </trkpt>
			 <trkpt lat="10.029437" lon="105.730589">
				 <ele>3.9</ele>
			 </trkpt>
			 <trkpt lat="10.029465" lon="105.730726">
				 <ele>4.1</ele>
			 </trkpt>
			 <trkpt lat="10.029533" lon="105.730965">
				 <ele>4.3</ele>
			 </trkpt>
			 <trkpt lat="10.029578" lon="105.731201">
				 <ele>4.5</ele>
			 </trkpt>
			 <trkpt lat="10.029579" lon="105.731623">
				 <ele>4.5</ele>
			 </trkpt>
			 <trkpt lat="10.029566" lon="105.731669">
				 <ele>4.6</ele>
			 </trkpt>
			 <trkpt lat="10.029535" lon="105.731724">
				 <ele>4.7</ele>
			 </trkpt>
			 <trkpt lat="10.029432" lon="105.731825">
				 <ele>4.8</ele>
			 </trkpt>
			 <trkpt lat="10.029346" lon="105.731839">
				 <ele>5</ele>
			 </trkpt>
			 <trkpt lat="10.029249" lon="105.731825">
				 <ele>5.2</ele>
			 </trkpt>
			 <trkpt lat="10.029108" lon="105.731755">
				 <ele>5.2</ele>
			 </trkpt>
			 <trkpt lat="10.028992" lon="105.731721">
				 <ele>5.1</ele>
			 </trkpt>
			 <trkpt lat="10.028902" lon="105.731726">
				 <ele>4.8</ele>
			 </trkpt>
			 <trkpt lat="10.028807" lon="105.731742">
				 <ele>4.5</ele>
			 </trkpt>
			 <trkpt lat="10.028553" lon="105.731853">
				 <ele>4.2</ele>
			 </trkpt>
			 <trkpt lat="10.028278" lon="105.732004">
				 <ele>3.9</ele>
			 </trkpt>
			 <trkpt lat="10.028138" lon="105.732086">
				 <ele>3.6</ele>
			 </trkpt>
			 <trkpt lat="10.027902" lon="105.732256">
				 <ele>3.5</ele>
			 </trkpt>
			 <trkpt lat="10.027127" lon="105.732846">
				 <ele>3.3</ele>
			 </trkpt>
			 <trkpt lat="10.026454" lon="105.733352">
				 <ele>3</ele>
			 </trkpt>
			 <trkpt lat="10.026116" lon="105.733604">
				 <ele>2.7</ele>
			 </trkpt>
			 <trkpt lat="10.025755" lon="105.733866">
				 <ele>2.5</ele>
			 </trkpt>
			 <trkpt lat="10.025654" lon="105.733972">
				 <ele>2.5</ele>
			 </trkpt>
			 <trkpt lat="10.025318" lon="105.734702">
				 <ele>2.5</ele>
			 </trkpt>
			 <trkpt lat="10.024956" lon="105.735418">
				 <ele>2.7</ele>
			 </trkpt>
			 <trkpt lat="10.024406" lon="105.736452">
				 <ele>2.8</ele>
			 </trkpt>
			 <trkpt lat="10.024388" lon="105.736571">
				 <ele>3</ele>
			 </trkpt>
			 <trkpt lat="10.024406" lon="105.736638">
				 <ele>3.2</ele>
			 </trkpt>
			 <trkpt lat="10.024454" lon="105.736735">
				 <ele>3.2</ele>
			 </trkpt>
			 <trkpt lat="10.024718" lon="105.737053">
				 <ele>3.2</ele>
			 </trkpt>
			 <trkpt lat="10.024737" lon="105.737132">
				 <ele>3.1</ele>
			 </trkpt>
			 <trkpt lat="10.024716" lon="105.737265">
				 <ele>2.8</ele>
			 </trkpt>
			 <trkpt lat="10.02457" lon="105.737516">
				 <ele>2.7</ele>
			 </trkpt>
			 <trkpt lat="10.024444" lon="105.73771">
				 <ele>2.6</ele>
			 </trkpt>
			 <trkpt lat="10.024388" lon="105.73777">
				 <ele>2.5</ele>
			 </trkpt>
			 <trkpt lat="10.024241" lon="105.737843">
				 <ele>2.5</ele>
			 </trkpt>
			 <trkpt lat="10.022519" lon="105.738447">
				 <ele>2.4</ele>
			 </trkpt>
			 <trkpt lat="10.021363" lon="105.738911">
				 <ele>2.1</ele>
			 </trkpt>
			 <trkpt lat="10.021322" lon="105.738938">
				 <ele>1.8</ele>
			 </trkpt>
			 <trkpt lat="10.021302" lon="105.738995">
				 <ele>1.6</ele>
			 </trkpt>
			 <trkpt lat="10.020653" lon="105.74133">
				 <ele>1.5</ele>
			 </trkpt>
			 <trkpt lat="10.020604" lon="105.741408">
				 <ele>1.3</ele>
			 </trkpt>
			 <trkpt lat="10.020506" lon="105.741447">
				 <ele>1.6</ele>
			 </trkpt>
			 <trkpt lat="10.020419" lon="105.74146">
				 <ele>1.8</ele>
			 </trkpt>
			 <trkpt lat="10.02036" lon="105.74145">
				 <ele>2.1</ele>
			 </trkpt>
			 <trkpt lat="10.020313" lon="105.741433">
				 <ele>2.4</ele>
			 </trkpt>
			 <trkpt lat="10.020057" lon="105.741194">
				 <ele>2.6</ele>
			 </trkpt>
			 <trkpt lat="10.019153" lon="105.740192">
				 <ele>2.8</ele>
			 </trkpt>
			 <trkpt lat="10.018696" lon="105.739717">
				 <ele>2.9</ele>
			 </trkpt>
			 <trkpt lat="10.018232" lon="105.739263">
				 <ele>3</ele>
			 </trkpt>
			 <trkpt lat="10.01793" lon="105.738876">
				 <ele>2.9</ele>
			 </trkpt>
			 <trkpt lat="10.017593" lon="105.738477">
				 <ele>2.8</ele>
			 </trkpt>
			 <trkpt lat="10.016927" lon="105.737681">
				 <ele>3</ele>
			 </trkpt>
			 <trkpt lat="10.015601" lon="105.736158">
				 <ele>2.6</ele>
			 </trkpt>
			 <trkpt lat="10.012953" lon="105.733037">
				 <ele>2.4</ele>
			 </trkpt>
			 <trkpt lat="10.007581" lon="105.72684">
				 <ele>2</ele>
			 </trkpt>
			 <trkpt lat="10.006453" lon="105.725464">
				 <ele>1.6</ele>
			 </trkpt>
			 <trkpt lat="10.006057" lon="105.724941">
				 <ele>1.2</ele>
			 </trkpt>
			 <trkpt lat="10.005696" lon="105.724354">
				 <ele>0.8</ele>
			 </trkpt>
			 <trkpt lat="10.00525" lon="105.723529">
				 <ele>0.6</ele>
			 </trkpt>
			 <trkpt lat="10.004836" lon="105.722675">
				 <ele>0.6</ele>
			 </trkpt>
			 <trkpt lat="10.004388" lon="105.721854">
				 <ele>0.6</ele>
			 </trkpt>
			 <trkpt lat="10.004076" lon="105.72133">
				 <ele>0.7</ele>
			 </trkpt>
			 <trkpt lat="10.003368" lon="105.720338">
				 <ele>0.7</ele>
			 </trkpt>
			 <trkpt lat="10.002923" lon="105.719793">
				 <ele>0.8</ele>
			 </trkpt>
			 <trkpt lat="10.002452" lon="105.719289">
				 <ele>0.6</ele>
			 </trkpt>
			 <trkpt lat="10.001784" lon="105.718632">
				 <ele>0.5</ele>
			 </trkpt>
			 <trkpt lat="10.001212" lon="105.718156">
				 <ele>0.5</ele>
			 </trkpt>
			 <trkpt lat="10.000597" lon="105.717686">
				 <ele>0.9</ele>
			 </trkpt>
			 <trkpt lat="9.998663" lon="105.716428">
				 <ele>1.3</ele>
			 </trkpt>
			 <trkpt lat="9.996754" lon="105.715143">
				 <ele>1.3</ele>
			 </trkpt>
			 <trkpt lat="9.996412" lon="105.714964">
				 <ele>1.3</ele>
			 </trkpt>
			 <trkpt lat="9.996128" lon="105.71487">
				 <ele>1.5</ele>
			 </trkpt>
			 <trkpt lat="9.99485" lon="105.71396">
				 <ele>1.5</ele>
			 </trkpt>
			 <trkpt lat="9.994317" lon="105.713546">
				 <ele>1.3</ele>
			 </trkpt>
			 <trkpt lat="9.993275" lon="105.712753">
				 <ele>1.2</ele>
			 </trkpt>
			 <trkpt lat="9.991702" lon="105.711593">
				 <ele>1.4</ele>
			 </trkpt>
			 <trkpt lat="9.991552" lon="105.711449">
				 <ele>1.6</ele>
			 </trkpt>
			 <trkpt lat="9.991208" lon="105.711053">
				 <ele>1.9</ele>
			 </trkpt>
			 <trkpt lat="9.991011" lon="105.710766">
				 <ele>1.9</ele>
			 </trkpt>
			 <trkpt lat="9.990866" lon="105.710493">
				 <ele>1.8</ele>
			 </trkpt>
			 <trkpt lat="9.990645" lon="105.709879">
				 <ele>2.2</ele>
			 </trkpt>
			 <trkpt lat="9.990596" lon="105.709619">
				 <ele>2.4</ele>
			 </trkpt>
			 <trkpt lat="9.99055" lon="105.709215">
				 <ele>2.5</ele>
			 </trkpt>
			 <trkpt lat="9.990586" lon="105.708311">
				 <ele>2.9</ele>
			 </trkpt>
			 <trkpt lat="9.990798" lon="105.70073">
				 <ele>3.4</ele>
			 </trkpt>
			 <trkpt lat="9.990851" lon="105.699479">
				 <ele>3.6</ele>
			 </trkpt>
			 <trkpt lat="9.990878" lon="105.698218">
				 <ele>3.6</ele>
			 </trkpt>
			 <trkpt lat="9.990848" lon="105.697501">
				 <ele>3.5</ele>
			 </trkpt>
			 <trkpt lat="9.990787" lon="105.696972">
				 <ele>3.1</ele>
			 </trkpt>
			 <trkpt lat="9.990722" lon="105.696577">
				 <ele>2.7</ele>
			 </trkpt>
			 <trkpt lat="9.990564" lon="105.695882">
				 <ele>2.5</ele>
			 </trkpt>
			 <trkpt lat="9.990166" lon="105.694549">
				 <ele>2.1</ele>
			 </trkpt>
			 <trkpt lat="9.989992" lon="105.693872">
				 <ele>1.8</ele>
			 </trkpt>
			 <trkpt lat="9.989919" lon="105.693387">
				 <ele>1.6</ele>
			 </trkpt>
			 <trkpt lat="9.989906" lon="105.692939">
				 <ele>1.3</ele>
			 </trkpt>
			 <trkpt lat="9.989962" lon="105.692377">
				 <ele>1</ele>
			 </trkpt>
			 <trkpt lat="9.989987" lon="105.692162">
				 <ele>1</ele>
			 </trkpt>
			 <trkpt lat="9.990145" lon="105.691545">
				 <ele>1.2</ele>
			 </trkpt>
			 <trkpt lat="9.990951" lon="105.689532">
				 <ele>1.4</ele>
			 </trkpt>
			 <trkpt lat="9.991752" lon="105.687517">
				 <ele>1.6</ele>
			 </trkpt>
			 <trkpt lat="9.992116" lon="105.686657">
				 <ele>2</ele>
			 </trkpt>
			 <trkpt lat="9.992265" lon="105.686391">
				 <ele>2.4</ele>
			 </trkpt>
			 <trkpt lat="9.992346" lon="105.686256">
				 <ele>2.7</ele>
			 </trkpt>
			 <trkpt lat="9.992505" lon="105.686035">
				 <ele>3</ele>
			 </trkpt>
			 <trkpt lat="9.992932" lon="105.685514">
				 <ele>3</ele>
			 </trkpt>
			 <trkpt lat="9.993374" lon="105.685066">
				 <ele>3.2</ele>
			 </trkpt>
			 <trkpt lat="9.994631" lon="105.683776">
				 <ele>3.3</ele>
			 </trkpt>
			 <trkpt lat="9.994606" lon="105.683749">
				 <ele>3.3</ele>
			 </trkpt>
			 <trkpt lat="9.993464" lon="105.684935">
				 <ele>3.3</ele>
			 </trkpt>
			 <trkpt lat="9.992906" lon="105.685501">
				 <ele>3.1</ele>
			 </trkpt>
			 <trkpt lat="9.992485" lon="105.686021">
				 <ele>3</ele>
			 </trkpt>
			 <trkpt lat="9.992404" lon="105.686135">
				 <ele>2.8</ele>
			 </trkpt>
			 <trkpt lat="9.992246" lon="105.68638">
				 <ele>2.6</ele>
			 </trkpt>
			 <trkpt lat="9.992094" lon="105.686651">
				 <ele>2.5</ele>
			 </trkpt>
			 <trkpt lat="9.991733" lon="105.687512">
				 <ele>2.5</ele>
			 </trkpt>
			 <trkpt lat="9.99052" lon="105.69053">
				 <ele>2.5</ele>
			 </trkpt>
			 <trkpt lat="9.990415" lon="105.690582">
				 <ele>2.5</ele>
			 </trkpt>
			 <trkpt lat="9.990361" lon="105.690589">
				 <ele>2.5</ele>
			 </trkpt>
			 <trkpt lat="9.990151" lon="105.69059">
				 <ele>2.5</ele>
			 </trkpt>
			 <trkpt lat="9.987323" lon="105.690149">
				 <ele>2.5</ele>
			 </trkpt>
			 <trkpt lat="9.987226" lon="105.690175">
				 <ele>2.6</ele>
			 </trkpt>
			 <trkpt lat="9.987177" lon="105.690234">
				 <ele>2.7</ele>
			 </trkpt>
			 <trkpt lat="9.987151" lon="105.690298">
				 <ele>2.8</ele>
			 </trkpt>
			 <trkpt lat="9.986934" lon="105.692173">
				 <ele>2.8</ele>
			 </trkpt>
			 <trkpt lat="9.986943" lon="105.692452">
				 <ele>2.9</ele>
			 </trkpt>
			 <trkpt lat="9.98698" lon="105.692677">
				 <ele>3</ele>
			 </trkpt>
			 <trkpt lat="9.98712" lon="105.693171">
				 <ele>3.1</ele>
			 </trkpt>
			 <trkpt lat="9.98731" lon="105.693638">
				 <ele>3</ele>
			 </trkpt>
			 <trkpt lat="9.987567" lon="105.694128">
				 <ele>2.8</ele>
			 </trkpt>
			 <trkpt lat="9.988153" lon="105.695059">
				 <ele>2.8</ele>
			 </trkpt>
			 <trkpt lat="9.988265" lon="105.695255">
				 <ele>2.7</ele>
			 </trkpt>
			 <trkpt lat="9.988363" lon="105.69549">
				 <ele>2.6</ele>
			 </trkpt>
			 <trkpt lat="9.988613" lon="105.696399">
				 <ele>2.5</ele>
			 </trkpt>
			 <trkpt lat="9.988772" lon="105.69702">
				 <ele>2.4</ele>
			 </trkpt>
			 <trkpt lat="9.988822" lon="105.69731">
				 <ele>2.3</ele>
			 </trkpt>
			 <trkpt lat="9.988835" lon="105.697474">
				 <ele>2</ele>
			 </trkpt>
			 <trkpt lat="9.988841" lon="105.697633">
				 <ele>1.8</ele>
			 </trkpt>
			 <trkpt lat="9.988833" lon="105.697802">
				 <ele>1.9</ele>
			 </trkpt>
			 <trkpt lat="9.988803" lon="105.69799">
				 <ele>2.3</ele>
			 </trkpt>
			 <trkpt lat="9.988747" lon="105.698207">
				 <ele>2.7</ele>
			 </trkpt>
			 <trkpt lat="9.988608" lon="105.698638">
				 <ele>3.1</ele>
			 </trkpt>
			 <trkpt lat="9.988525" lon="105.698861">
				 <ele>3.4</ele>
			 </trkpt>
			 <trkpt lat="9.987712" lon="105.700557">
				 <ele>3.5</ele>
			 </trkpt>
			 <trkpt lat="9.98735" lon="105.701203">
				 <ele>3.6</ele>
			 </trkpt>
			 <trkpt lat="9.987294" lon="105.701403">
				 <ele>3.8</ele>
			 </trkpt>
			 <trkpt lat="9.987273" lon="105.701601">
				 <ele>4</ele>
			 </trkpt>
			 <trkpt lat="9.987314" lon="105.701798">
				 <ele>4.2</ele>
			 </trkpt>
			 <trkpt lat="9.987417" lon="105.702055">
				 <ele>4.3</ele>
			 </trkpt>
			 <trkpt lat="9.987597" lon="105.702442">
				 <ele>4.1</ele>
			 </trkpt>
			 <trkpt lat="9.988031" lon="105.703264">
				 <ele>3.8</ele>
			 </trkpt>
			 <trkpt lat="9.98818" lon="105.703592">
				 <ele>3.5</ele>
			 </trkpt>
			 <trkpt lat="9.988234" lon="105.703749">
				 <ele>3.3</ele>
			 </trkpt>
			 <trkpt lat="9.98826" lon="105.703853">
				 <ele>3.1</ele>
			 </trkpt>
			 <trkpt lat="9.988296" lon="105.704102">
				 <ele>3.1</ele>
			 </trkpt>
			 <trkpt lat="9.988298" lon="105.704292">
				 <ele>3.3</ele>
			 </trkpt>
			 <trkpt lat="9.988263" lon="105.70448">
				 <ele>3.5</ele>
			 </trkpt>
			 <trkpt lat="9.988156" lon="105.704736">
				 <ele>3.8</ele>
			 </trkpt>
			 <trkpt lat="9.987968" lon="105.705114">
				 <ele>4</ele>
			 </trkpt>
			 <trkpt lat="9.987882" lon="105.705377">
				 <ele>4.1</ele>
			 </trkpt>
			 <trkpt lat="9.987852" lon="105.70566">
				 <ele>4.1</ele>
			 </trkpt>
			 <trkpt lat="9.987857" lon="105.705946">
				 <ele>4.1</ele>
			 </trkpt>
			 <trkpt lat="9.987929" lon="105.70657">
				 <ele>4.1</ele>
			 </trkpt>
			 <trkpt lat="9.987947" lon="105.706849">
				 <ele>4.1</ele>
			 </trkpt>
			 <trkpt lat="9.987952" lon="105.707196">
				 <ele>4.2</ele>
			 </trkpt>
			 <trkpt lat="9.987951" lon="105.707539">
				 <ele>4.2</ele>
			 </trkpt>
			 <trkpt lat="9.987926" lon="105.707751">
				 <ele>4.1</ele>
			 </trkpt>
			 <trkpt lat="9.987888" lon="105.707955">
				 <ele>3.5</ele>
			 </trkpt>
			 <trkpt lat="9.987802" lon="105.708361">
				 <ele>2.9</ele>
			 </trkpt>
			 <trkpt lat="9.98771" lon="105.708857">
				 <ele>2.6</ele>
			 </trkpt>
			 <trkpt lat="9.987655" lon="105.709102">
				 <ele>2.5</ele>
			 </trkpt>
			 <trkpt lat="9.987588" lon="105.709339">
				 <ele>2.5</ele>
			 </trkpt>
			 <trkpt lat="9.987234" lon="105.710325">
				 <ele>2.6</ele>
			 </trkpt>
			 <trkpt lat="9.987059" lon="105.710862">
				 <ele>2.8</ele>
			 </trkpt>
			 <trkpt lat="9.986914" lon="105.711367">
				 <ele>2.8</ele>
			 </trkpt>
			 <trkpt lat="9.98686" lon="105.711649">
				 <ele>2.5</ele>
			 </trkpt>
			 <trkpt lat="9.986835" lon="105.711922">
				 <ele>2.2</ele>
			 </trkpt>
			 <trkpt lat="9.986855" lon="105.712315">
				 <ele>1.8</ele>
			 </trkpt>
			 <trkpt lat="9.986919" lon="105.712608">
				 <ele>1.9</ele>
			 </trkpt>
			 <trkpt lat="9.986996" lon="105.71286">
				 <ele>2</ele>
			 </trkpt>
			 <trkpt lat="9.987174" lon="105.713127">
				 <ele>1.8</ele>
			 </trkpt>
			 <trkpt lat="9.987286" lon="105.713236">
				 <ele>1.7</ele>
			 </trkpt>
			 <trkpt lat="9.987404" lon="105.71332">
				 <ele>1.5</ele>
			 </trkpt>
			 <trkpt lat="9.987633" lon="105.713443">
				 <ele>1</ele>
			 </trkpt>
			 <trkpt lat="9.988086" lon="105.713631">
				 <ele>0.5</ele>
			 </trkpt>
			 <trkpt lat="9.988784" lon="105.713889">
				 <ele>0.3</ele>
			 </trkpt>
			 <trkpt lat="9.991591" lon="105.714541">
				 <ele>0.3</ele>
			 </trkpt>
			 <trkpt lat="9.99173" lon="105.714585">
				 <ele>0.4</ele>
			 </trkpt>
			 <trkpt lat="9.991856" lon="105.714637">
				 <ele>0.4</ele>
			 </trkpt>
			 <trkpt lat="9.992159" lon="105.714815">
				 <ele>0.5</ele>
			 </trkpt>
			 <trkpt lat="9.992732" lon="105.715142">
				 <ele>0.6</ele>
			 </trkpt>
			 <trkpt lat="9.99301" lon="105.715305">
				 <ele>0.8</ele>
			 </trkpt>
			 <trkpt lat="9.993244" lon="105.715405">
				 <ele>0.9</ele>
			 </trkpt>
			 <trkpt lat="9.993914" lon="105.715607">
				 <ele>1</ele>
			 </trkpt>
			 <trkpt lat="9.99471" lon="105.71624">
				 <ele>1.1</ele>
			 </trkpt>
			 <trkpt lat="9.994868" lon="105.716541">
				 <ele>1.2</ele>
			 </trkpt>
			 <trkpt lat="9.994931" lon="105.716719">
				 <ele>1.3</ele>
			 </trkpt>
			 <trkpt lat="9.995" lon="105.716862">
				 <ele>1.4</ele>
			 </trkpt>
			 <trkpt lat="9.99514" lon="105.717058">
				 <ele>1.5</ele>
			 </trkpt>
			 <trkpt lat="9.995343" lon="105.717272">
				 <ele>1.6</ele>
			 </trkpt>
			 <trkpt lat="9.995945" lon="105.717858">
				 <ele>1.6</ele>
			 </trkpt>
			 <trkpt lat="9.996109" lon="105.718061">
				 <ele>1.6</ele>
			 </trkpt>
			 <trkpt lat="9.996761" lon="105.719075">
				 <ele>1.6</ele>
			 </trkpt>
			 <trkpt lat="9.996903" lon="105.719316">
				 <ele>1.6</ele>
			 </trkpt>
			 <trkpt lat="9.997032" lon="105.719566">
				 <ele>1.7</ele>
			 </trkpt>
			 <trkpt lat="9.99712" lon="105.719811">
				 <ele>1.8</ele>
			 </trkpt>
			 <trkpt lat="9.997179" lon="105.720062">
				 <ele>1.9</ele>
			 </trkpt>
			 <trkpt lat="9.997214" lon="105.720234">
				 <ele>2</ele>
			 </trkpt>
			 <trkpt lat="9.997235" lon="105.720406">
				 <ele>2</ele>
			 </trkpt>
			 <trkpt lat="9.997253" lon="105.720645">
				 <ele>2.1</ele>
			 </trkpt>
			 <trkpt lat="9.997249" lon="105.72082">
				 <ele>2.2</ele>
			 </trkpt>
			 <trkpt lat="9.997232" lon="105.720998">
				 <ele>2.2</ele>
			 </trkpt>
			 <trkpt lat="9.997158" lon="105.721309">
				 <ele>2.2</ele>
			 </trkpt>
			 <trkpt lat="9.997063" lon="105.721609">
				 <ele>2.1</ele>
			 </trkpt>
			 <trkpt lat="9.996989" lon="105.721918">
				 <ele>2</ele>
			 </trkpt>
			 <trkpt lat="9.996899" lon="105.722669">
				 <ele>1.9</ele>
			 </trkpt>
			 <trkpt lat="9.996855" lon="105.72285">
				 <ele>1.8</ele>
			 </trkpt>
			 <trkpt lat="9.996793" lon="105.72302">
				 <ele>1.7</ele>
			 </trkpt>
			 <trkpt lat="9.99664" lon="105.723274">
				 <ele>2.2</ele>
			 </trkpt>
			 <trkpt lat="9.996402" lon="105.723597">
				 <ele>2.5</ele>
			 </trkpt>
			 <trkpt lat="9.996308" lon="105.723806">
				 <ele>2.5</ele>
			 </trkpt>
			 <trkpt lat="9.996173" lon="105.724241">
				 <ele>2.4</ele>
			 </trkpt>
			 <trkpt lat="9.996009" lon="105.725794">
				 <ele>2.4</ele>
			 </trkpt>
			 <trkpt lat="9.995843" lon="105.727168">
				 <ele>2.4</ele>
			 </trkpt>
			 <trkpt lat="9.995757" lon="105.727666">
				 <ele>2.5</ele>
			 </trkpt>
			 <trkpt lat="9.995504" lon="105.728794">
				 <ele>2.7</ele>
			 </trkpt>
			 <trkpt lat="9.995255" lon="105.73014">
				 <ele>2.9</ele>
			 </trkpt>
			 <trkpt lat="9.994951" lon="105.731903">
				 <ele>3.3</ele>
			 </trkpt>
			 <trkpt lat="9.994794" lon="105.732884">
				 <ele>3.7</ele>
			 </trkpt>
			 <trkpt lat="9.994688" lon="105.734238">
				 <ele>3.7</ele>
			 </trkpt>
			 <trkpt lat="9.99467" lon="105.734526">
				 <ele>3.8</ele>
			 </trkpt>
			 <trkpt lat="9.994668" lon="105.734843">
				 <ele>4.2</ele>
			 </trkpt>
			 <trkpt lat="9.994718" lon="105.735908">
				 <ele>4.4</ele>
			 </trkpt>
			 <trkpt lat="9.994785" lon="105.736601">
				 <ele>4.5</ele>
			 </trkpt>
			 <trkpt lat="9.994808" lon="105.736953">
				 <ele>4.5</ele>
			 </trkpt>
			 <trkpt lat="9.994854" lon="105.737308">
				 <ele>4.4</ele>
			 </trkpt>
			 <trkpt lat="9.99494" lon="105.737725">
				 <ele>4.3</ele>
			 </trkpt>
			 <trkpt lat="9.995167" lon="105.738632">
				 <ele>4.3</ele>
			 </trkpt>
			 <trkpt lat="9.995413" lon="105.739245">
				 <ele>4.1</ele>
			 </trkpt>
			 <trkpt lat="9.995703" lon="105.739867">
				 <ele>3.7</ele>
			 </trkpt>
			 <trkpt lat="9.995866" lon="105.740143">
				 <ele>3.2</ele>
			 </trkpt>
			 <trkpt lat="9.995994" lon="105.740288">
				 <ele>2.7</ele>
			 </trkpt>
			 <trkpt lat="9.996103" lon="105.74046">
				 <ele>2.3</ele>
			 </trkpt>
			 <trkpt lat="9.996508" lon="105.740978">
				 <ele>1.9</ele>
			 </trkpt>
			 <trkpt lat="9.996918" lon="105.741421">
				 <ele>1.7</ele>
			 </trkpt>
			 <trkpt lat="9.997187" lon="105.741647">
				 <ele>1.6</ele>
			 </trkpt>
			 <trkpt lat="9.997565" lon="105.741919">
				 <ele>1.5</ele>
			 </trkpt>
			 <trkpt lat="9.998373" lon="105.742356">
				 <ele>1.4</ele>
			 </trkpt>
			 <trkpt lat="9.99865" lon="105.742489">
				 <ele>1.1</ele>
			 </trkpt>
			 <trkpt lat="9.999318" lon="105.742764">
				 <ele>0.8</ele>
			 </trkpt>
			 <trkpt lat="9.999545" lon="105.742841">
				 <ele>0.7</ele>
			 </trkpt>
			 <trkpt lat="9.999773" lon="105.742906">
				 <ele>0.7</ele>
			 </trkpt>
			 <trkpt lat="10.001275" lon="105.743208">
				 <ele>0.6</ele>
			 </trkpt>
			 <trkpt lat="10.001778" lon="105.743304">
				 <ele>0.6</ele>
			 </trkpt>
			 <trkpt lat="10.002711" lon="105.743421">
				 <ele>0.9</ele>
			 </trkpt>
			 <trkpt lat="10.003155" lon="105.743543">
				 <ele>1</ele>
			 </trkpt>
			 <trkpt lat="10.003424" lon="105.743628">
				 <ele>1</ele>
			 </trkpt>
			 <trkpt lat="10.003804" lon="105.743755">
				 <ele>1</ele>
			 </trkpt>
			 <trkpt lat="10.004244" lon="105.744014">
				 <ele>1.2</ele>
			 </trkpt>
			 <trkpt lat="10.004678" lon="105.744293">
				 <ele>1.4</ele>
			 </trkpt>
			 <trkpt lat="10.005098" lon="105.744625">
				 <ele>1.5</ele>
			 </trkpt>
			 <trkpt lat="10.005743" lon="105.745235">
				 <ele>1.7</ele>
			 </trkpt>
			 <trkpt lat="10.006" lon="105.745503">
				 <ele>1.9</ele>
			 </trkpt>
			 <trkpt lat="10.006228" lon="105.745713">
				 <ele>2.1</ele>
			 </trkpt>
			 <trkpt lat="10.006399" lon="105.74583">
				 <ele>2.2</ele>
			 </trkpt>
			 <trkpt lat="10.006581" lon="105.74592">
				 <ele>2.1</ele>
			 </trkpt>
			 <trkpt lat="10.006729" lon="105.745981">
				 <ele>2.1</ele>
			 </trkpt>
			 <trkpt lat="10.006879" lon="105.746058">
				 <ele>2.3</ele>
			 </trkpt>
			 <trkpt lat="10.007152" lon="105.746283">
				 <ele>2.5</ele>
			 </trkpt>
			 <trkpt lat="10.00728" lon="105.746412">
				 <ele>2.5</ele>
			 </trkpt>
			 <trkpt lat="10.007392" lon="105.746577">
				 <ele>2.6</ele>
			 </trkpt>
			 <trkpt lat="10.007525" lon="105.746826">
				 <ele>2.7</ele>
			 </trkpt>
			 <trkpt lat="10.007879" lon="105.747642">
				 <ele>2.9</ele>
			 </trkpt>
			 <trkpt lat="10.007942" lon="105.747827">
				 <ele>3.1</ele>
			 </trkpt>
			 <trkpt lat="10.007999" lon="105.748054">
				 <ele>3.4</ele>
			 </trkpt>
			 <trkpt lat="10.008016" lon="105.748253">
				 <ele>3.6</ele>
			 </trkpt>
			 <trkpt lat="10.008035" lon="105.748628">
				 <ele>3.9</ele>
			 </trkpt>
			 <trkpt lat="10.008109" lon="105.749186">
				 <ele>4.1</ele>
			 </trkpt>
			 <trkpt lat="10.008168" lon="105.749379">
				 <ele>4.2</ele>
			 </trkpt>
			 <trkpt lat="10.008367" lon="105.749582">
				 <ele>4.2</ele>
			 </trkpt>
			 <trkpt lat="10.00842" lon="105.749744">
				 <ele>4.2</ele>
			 </trkpt>
			 <trkpt lat="10.008525" lon="105.749924">
				 <ele>4.3</ele>
			 </trkpt>
			 <trkpt lat="10.008701" lon="105.750028">
				 <ele>4.4</ele>
			 </trkpt>
			 <trkpt lat="10.008889" lon="105.750112">
				 <ele>4.3</ele>
			 </trkpt>
			 <trkpt lat="10.009073" lon="105.750243">
				 <ele>4</ele>
			 </trkpt>
			 <trkpt lat="10.009382" lon="105.750569">
				 <ele>3.6</ele>
			 </trkpt>
			 <trkpt lat="10.009504" lon="105.750692">
				 <ele>3.4</ele>
			 </trkpt>
			 <trkpt lat="10.009722" lon="105.750897">
				 <ele>3.1</ele>
			 </trkpt>
			 <trkpt lat="10.009868" lon="105.751015">
				 <ele>3</ele>
			 </trkpt>
			 <trkpt lat="10.01157" lon="105.752662">
				 <ele>3.3</ele>
			 </trkpt>
			 <trkpt lat="10.011897" lon="105.753053">
				 <ele>3.5</ele>
			 </trkpt>
			 <trkpt lat="10.01204" lon="105.753294">
				 <ele>3.8</ele>
			 </trkpt>
			 <trkpt lat="10.012135" lon="105.753509">
				 <ele>4</ele>
			 </trkpt>
			 <trkpt lat="10.012364" lon="105.754093">
				 <ele>4.1</ele>
			 </trkpt>
			 <trkpt lat="10.012613" lon="105.755016">
				 <ele>4</ele>
			 </trkpt>
			 <trkpt lat="10.012655" lon="105.75523">
				 <ele>3.8</ele>
			 </trkpt>
			 <trkpt lat="10.012617" lon="105.75551">
				 <ele>3.7</ele>
			 </trkpt>
			 <trkpt lat="10.012555" lon="105.755729">
				 <ele>3.6</ele>
			 </trkpt>
			 <trkpt lat="10.012423" lon="105.756136">
				 <ele>3.5</ele>
			 </trkpt>
			 <trkpt lat="10.01212" lon="105.756956">
				 <ele>3.5</ele>
			 </trkpt>
			 <trkpt lat="10.011585" lon="105.758516">
				 <ele>3</ele>
			 </trkpt>
			 <trkpt lat="10.011531" lon="105.758785">
				 <ele>2.7</ele>
			 </trkpt>
			 <trkpt lat="10.011535" lon="105.758972">
				 <ele>2.6</ele>
			 </trkpt>
			 <trkpt lat="10.011553" lon="105.759122">
				 <ele>2.5</ele>
			 </trkpt>
			 <trkpt lat="10.011596" lon="105.759272">
				 <ele>2.5</ele>
			 </trkpt>
			 <trkpt lat="10.011662" lon="105.75945">
				 <ele>2.5</ele>
			 </trkpt>
			 <trkpt lat="10.011859" lon="105.7597">
				 <ele>2.7</ele>
			 </trkpt>
			 <trkpt lat="10.019426" lon="105.768369">
				 <ele>2.8</ele>
			 </trkpt>
			 <trkpt lat="10.019488" lon="105.768527">
				 <ele>2.8</ele>
			 </trkpt>
			 <trkpt lat="10.019478" lon="105.768626">
				 <ele>3</ele>
			 </trkpt>
			 <trkpt lat="10.017484" lon="105.772566">
				 <ele>3.1</ele>
			 </trkpt>
			 <trkpt lat="10.017425" lon="105.772738">
				 <ele>3.3</ele>
			 </trkpt>
			 <trkpt lat="10.01746" lon="105.772786">
				 <ele>3.2</ele>
			 </trkpt>
			 <trkpt lat="10.017708" lon="105.772838">
				 <ele>2.9</ele>
			 </trkpt>
			 <trkpt lat="10.020006" lon="105.772944">
				 <ele>2.6</ele>
			 </trkpt>
			 <trkpt lat="10.020112" lon="105.772885">
				 <ele>2.5</ele>
			 </trkpt>
			 <trkpt lat="10.020196" lon="105.772762">
				 <ele>2.5</ele>
			 </trkpt>
			 <trkpt lat="10.020555" lon="105.771812">
				 <ele>2.5</ele>
			 </trkpt>
			 <trkpt lat="10.020706" lon="105.771579">
				 <ele>2.7</ele>
			 </trkpt>
			 <trkpt lat="10.020929" lon="105.771404">
				 <ele>2.9</ele>
			 </trkpt>
			 <trkpt lat="10.021618" lon="105.770931">
				 <ele>3.1</ele>
			 </trkpt>
			 <trkpt lat="10.021672" lon="105.770935">
				 <ele>3.5</ele>
			 </trkpt>
			 <trkpt lat="10.021722" lon="105.77095">
				 <ele>3.6</ele>
			 </trkpt>
			 <trkpt lat="10.025666" lon="105.775499">
				 <ele>3.8</ele>
			 </trkpt>
			 <trkpt lat="10.026939" lon="105.776941">
				 <ele>4.1</ele>
			 </trkpt>
			 <trkpt lat="10.027153" lon="105.777204">
				 <ele>4.5</ele>
			 </trkpt>
			 <trkpt lat="10.027562" lon="105.777794">
				 <ele>4.6</ele>
			 </trkpt>
			 <trkpt lat="10.028092" lon="105.778427">
				 <ele>4.8</ele>
			 </trkpt>
			 <trkpt lat="10.029549" lon="105.780039">
				 <ele>5.2</ele>
			 </trkpt>
			 <trkpt lat="10.030382" lon="105.780979">
				 <ele>5.3</ele>
			 </trkpt>
			 <trkpt lat="10.031419" lon="105.782163">
				 <ele>5.5</ele>
			 </trkpt>
			 <trkpt lat="10.031917" lon="105.782672">
				 <ele>5.4</ele>
			 </trkpt>
			 <trkpt lat="10.033901" lon="105.784871">
				 <ele>5.4</ele>
			 </trkpt>
			 <trkpt lat="10.035756" lon="105.78696">
				 <ele>5.5</ele>
			 </trkpt>
			 <trkpt lat="10.036123" lon="105.787412">
				 <ele>5.6</ele>
			 </trkpt>
			 <trkpt lat="10.036263" lon="105.787472">
				 <ele>5.5</ele>
			 </trkpt>
			 <trkpt lat="10.036703" lon="105.787511">
				 <ele>5.1</ele>
			 </trkpt>
			 <trkpt lat="10.037417" lon="105.787645">
				 <ele>4.7</ele>
			 </trkpt>
			 <trkpt lat="10.037763" lon="105.787785">
				 <ele>4.3</ele>
			 </trkpt>
			 <trkpt lat="10.038183" lon="105.788298">
				 <ele>3.6</ele>
			 </trkpt>
			 <trkpt lat="10.039265" lon="105.789402">
				 <ele>3.2</ele>
			 </trkpt>
			 <trkpt lat="10.040654" lon="105.790924">
				 <ele>2.8</ele>
			 </trkpt>
			 <trkpt lat="10.040744" lon="105.791016">
				 <ele>2.6</ele>
			 </trkpt>
			 <trkpt lat="10.040762" lon="105.791085">
				 <ele>2.4</ele>
			 </trkpt>
			 <trkpt lat="10.040687" lon="105.791382">
				 <ele>2.1</ele>
			 </trkpt>
			 <trkpt lat="10.040628" lon="105.791551">
				 <ele>1.8</ele>
			 </trkpt>
			 <trkpt lat="10.040639" lon="105.791907">
				 <ele>1.6</ele>
			 </trkpt>
			 <trkpt lat="10.040676" lon="105.792021">
				 <ele>1.8</ele>
			 </trkpt>
			 <trkpt lat="10.040798" lon="105.792428">
				 <ele>2</ele>
			 </trkpt>
			 <trkpt lat="10.040755" lon="105.792664">
				 <ele>2.3</ele>
			 </trkpt>
			 <trkpt lat="10.040416" lon="105.793139">
				 <ele>2.6</ele>
			 </trkpt>
			 <trkpt lat="10.039967" lon="105.79374">
				 <ele>3.1</ele>
			 </trkpt>
			 <trkpt lat="10.039938" lon="105.793882">
				 <ele>3.5</ele>
			 </trkpt>
			 <trkpt lat="10.03999" lon="105.794003">
				 <ele>3.5</ele>
			 </trkpt>
			 <trkpt lat="10.040069" lon="105.794086">
				 <ele>3.4</ele>
			 </trkpt>
			 <trkpt lat="10.040444" lon="105.794198">
				 <ele>3</ele>
			 </trkpt>
			 <trkpt lat="10.04066" lon="105.794267">
				 <ele>3.4</ele>
			 </trkpt>
			 <trkpt lat="10.040884" lon="105.794308">
				 <ele>3.5</ele>
			 </trkpt>
			 <trkpt lat="10.041085" lon="105.794308">
				 <ele>3.5</ele>
			 </trkpt>
			 <trkpt lat="10.041287" lon="105.794275">
				 <ele>3.4</ele>
			 </trkpt>
			 <trkpt lat="10.042028" lon="105.794059">
				 <ele>3.2</ele>
			 </trkpt>
			 <trkpt lat="10.043684" lon="105.793522">
				 <ele>2.9</ele>
			 </trkpt>
			 <trkpt lat="10.0448" lon="105.793095">
				 <ele>2.6</ele>
			 </trkpt>
			 <trkpt lat="10.045699" lon="105.79276">
				 <ele>2.4</ele>
			 </trkpt>
			 <trkpt lat="10.046839" lon="105.792272">
				 <ele>2.3</ele>
			 </trkpt>
			 <trkpt lat="10.047324" lon="105.792058">
				 <ele>2.4</ele>
			 </trkpt>
			 <trkpt lat="10.047868" lon="105.791701">
				 <ele>2.7</ele>
			 </trkpt>
			 <trkpt lat="10.048412" lon="105.791329">
				 <ele>2</ele>
			 </trkpt>
		 </trkseg>
	 </trk>
</gpx>