<?xml version="1.0" encoding="UTF-8"?>
 <gpx creator="Garmin Connect" version="1.1"
	 xsi:schemaLocation="http://www.topografix.com/GPX/1/1 http://www.topografix.com/GPX/11.xsd"
	 xmlns:ns3="http://www.garmin.com/xmlschemas/TrackPointExtension/v1"
	 xmlns="http://www.topografix.com/GPX/1/1"
	 xmlns:xsi="http://www.w3.org/2001/XMLSchema-instance" xmlns:ns2="http://www.garmin.com/xmlschemas/GpxExtensions/v3">
	 <metadata>
		<name>Cape Gate Vaal Marathon 2025 - 42.195 km</name>
		 <link href="https://www.goandrace.com">
		 <text>Garmin Connect</text>
		 </link>
	 <time>2026-08-10T02:53:55</time>
	 </metadata>
	 <trk>
		 <name>Cape Gate Vaal Marathon 2025 - 42.195 km</name>
		 <trkseg>
			 <trkpt lat="-26.65431" lon="27.958815">
				 <ele>1435.5</ele>
			 </trkpt>
			 <trkpt lat="-26.654192" lon="27.9593">
				 <ele>1435.7</ele>
			 </trkpt>
			 <trkpt lat="-26.654074" lon="27.959786">
				 <ele>1435.8</ele>
			 </trkpt>
			 <trkpt lat="-26.653956" lon="27.960271">
				 <ele>1435.7</ele>
			 </trkpt>
			 <trkpt lat="-26.653928" lon="27.960386">
				 <ele>1435.8</ele>
			 </trkpt>
			 <trkpt lat="-26.653796" lon="27.960591">
				 <ele>1435.9</ele>
			 </trkpt>
			 <trkpt lat="-26.653405" lon="27.960342">
				 <ele>1436.3</ele>
			 </trkpt>
			 <trkpt lat="-26.653014" lon="27.960093">
				 <ele>1436.8</ele>
			 </trkpt>
			 <trkpt lat="-26.652624" lon="27.959844">
				 <ele>1437.4</ele>
			 </trkpt>
			 <trkpt lat="-26.652233" lon="27.959595">
				 <ele>1437.5</ele>
			 </trkpt>
			 <trkpt lat="-26.6521" lon="27.95951">
				 <ele>1437.5</ele>
			 </trkpt>
			 <trkpt lat="-26.65195" lon="27.95983">
				 <ele>1437.8</ele>
			 </trkpt>
			 <trkpt lat="-26.65188" lon="27.96004">
				 <ele>1438</ele>
			 </trkpt>
			 <trkpt lat="-26.65189" lon="27.96021">
				 <ele>1438.2</ele>
			 </trkpt>
			 <trkpt lat="-26.65196" lon="27.96055">
				 <ele>1438.7</ele>
			 </trkpt>
			 <trkpt lat="-26.65212" lon="27.96126">
				 <ele>1439.1</ele>
			 </trkpt>
			 <trkpt lat="-26.65238" lon="27.96232">
				 <ele>1439.4</ele>
			 </trkpt>
			 <trkpt lat="-26.65177" lon="27.96251">
				 <ele>1439.5</ele>
			 </trkpt>
			 <trkpt lat="-26.65068" lon="27.96282">
				 <ele>1439.3</ele>
			 </trkpt>
			 <trkpt lat="-26.65006" lon="27.96294">
				 <ele>1439</ele>
			 </trkpt>
			 <trkpt lat="-26.64981" lon="27.96208">
				 <ele>1438.9</ele>
			 </trkpt>
			 <trkpt lat="-26.64948" lon="27.96059">
				 <ele>1438.9</ele>
			 </trkpt>
			 <trkpt lat="-26.64938" lon="27.96018">
				 <ele>1438.7</ele>
			 </trkpt>
			 <trkpt lat="-26.64934" lon="27.95978">
				 <ele>1438.7</ele>
			 </trkpt>
			 <trkpt lat="-26.64934" lon="27.95963">
				 <ele>1438.8</ele>
			 </trkpt>
			 <trkpt lat="-26.64938" lon="27.95928">
				 <ele>1438.6</ele>
			 </trkpt>
			 <trkpt lat="-26.64923" lon="27.9592">
				 <ele>1438.4</ele>
			 </trkpt>
			 <trkpt lat="-26.64905" lon="27.95906">
				 <ele>1438.1</ele>
			 </trkpt>
			 <trkpt lat="-26.64883" lon="27.95896">
				 <ele>1437.6</ele>
			 </trkpt>
			 <trkpt lat="-26.64834" lon="27.95891">
				 <ele>1437.5</ele>
			 </trkpt>
			 <trkpt lat="-26.64803" lon="27.95894">
				 <ele>1437.5</ele>
			 </trkpt>
			 <trkpt lat="-26.64785" lon="27.95902">
				 <ele>1437.7</ele>
			 </trkpt>
			 <trkpt lat="-26.64771" lon="27.95913">
				 <ele>1438</ele>
			 </trkpt>
			 <trkpt lat="-26.64756" lon="27.95928">
				 <ele>1438.2</ele>
			 </trkpt>
			 <trkpt lat="-26.64733" lon="27.9596">
				 <ele>1438.4</ele>
			 </trkpt>
			 <trkpt lat="-26.64636" lon="27.96097">
				 <ele>1438.7</ele>
			 </trkpt>
			 <trkpt lat="-26.64629" lon="27.96115">
				 <ele>1439</ele>
			 </trkpt>
			 <trkpt lat="-26.64624" lon="27.96132">
				 <ele>1439.2</ele>
			 </trkpt>
			 <trkpt lat="-26.64623" lon="27.96155">
				 <ele>1440.1</ele>
			 </trkpt>
			 <trkpt lat="-26.64624" lon="27.9616">
				 <ele>1441.2</ele>
			 </trkpt>
			 <trkpt lat="-26.64685" lon="27.96454">
				 <ele>1442.2</ele>
			 </trkpt>
			 <trkpt lat="-26.64615" lon="27.96474">
				 <ele>1443</ele>
			 </trkpt>
			 <trkpt lat="-26.64525" lon="27.96497">
				 <ele>1443.6</ele>
			 </trkpt>
			 <trkpt lat="-26.64597" lon="27.96829">
				 <ele>1444.2</ele>
			 </trkpt>
			 <trkpt lat="-26.64637" lon="27.97016">
				 <ele>1444.8</ele>
			 </trkpt>
			 <trkpt lat="-26.64614" lon="27.97024">
				 <ele>1445.5</ele>
			 </trkpt>
			 <trkpt lat="-26.64557" lon="27.97037">
				 <ele>1446</ele>
			 </trkpt>
			 <trkpt lat="-26.64517" lon="27.97046">
				 <ele>1446.6</ele>
			 </trkpt>
			 <trkpt lat="-26.64482" lon="27.9706">
				 <ele>1447.5</ele>
			 </trkpt>
			 <trkpt lat="-26.64448" lon="27.97091">
				 <ele>1447.8</ele>
			 </trkpt>
			 <trkpt lat="-26.64464" lon="27.97109">
				 <ele>1448.2</ele>
			 </trkpt>
			 <trkpt lat="-26.64499" lon="27.97154">
				 <ele>1448.5</ele>
			 </trkpt>
			 <trkpt lat="-26.64509" lon="27.97211">
				 <ele>1448.9</ele>
			 </trkpt>
			 <trkpt lat="-26.64479" lon="27.97219">
				 <ele>1449.4</ele>
			 </trkpt>
			 <trkpt lat="-26.64464" lon="27.97235">
				 <ele>1449.8</ele>
			 </trkpt>
			 <trkpt lat="-26.64295" lon="27.97414">
				 <ele>1450.3</ele>
			 </trkpt>
			 <trkpt lat="-26.64157" lon="27.97563">
				 <ele>1450.6</ele>
			 </trkpt>
			 <trkpt lat="-26.64034" lon="27.97694">
				 <ele>1451</ele>
			 </trkpt>
			 <trkpt lat="-26.64014" lon="27.97715">
				 <ele>1451.3</ele>
			 </trkpt>
			 <trkpt lat="-26.63957" lon="27.97734">
				 <ele>1451.6</ele>
			 </trkpt>
			 <trkpt lat="-26.63778" lon="27.9778">
				 <ele>1452</ele>
			 </trkpt>
			 <trkpt lat="-26.63637" lon="27.97815">
				 <ele>1452.3</ele>
			 </trkpt>
			 <trkpt lat="-26.63559" lon="27.97834">
				 <ele>1452.5</ele>
			 </trkpt>
			 <trkpt lat="-26.63569" lon="27.9789">
				 <ele>1452.8</ele>
			 </trkpt>
			 <trkpt lat="-26.6359" lon="27.9793">
				 <ele>1453.3</ele>
			 </trkpt>
			 <trkpt lat="-26.63597" lon="27.9794">
				 <ele>1453.8</ele>
			 </trkpt>
			 <trkpt lat="-26.63633" lon="27.97973">
				 <ele>1454.3</ele>
			 </trkpt>
			 <trkpt lat="-26.63668" lon="27.98">
				 <ele>1454.9</ele>
			 </trkpt>
			 <trkpt lat="-26.63797" lon="27.98103">
				 <ele>1455.5</ele>
			 </trkpt>
			 <trkpt lat="-26.63943" lon="27.98223">
				 <ele>1456.2</ele>
			 </trkpt>
			 <trkpt lat="-26.64031" lon="27.98293">
				 <ele>1456.7</ele>
			 </trkpt>
			 <trkpt lat="-26.64055" lon="27.98313">
				 <ele>1457.2</ele>
			 </trkpt>
			 <trkpt lat="-26.6412" lon="27.98359">
				 <ele>1457.5</ele>
			 </trkpt>
			 <trkpt lat="-26.64155" lon="27.98393">
				 <ele>1457.9</ele>
			 </trkpt>
			 <trkpt lat="-26.64188" lon="27.98416">
				 <ele>1458.3</ele>
			 </trkpt>
			 <trkpt lat="-26.642" lon="27.9843">
				 <ele>1458.3</ele>
			 </trkpt>
			 <trkpt lat="-26.64222" lon="27.98466">
				 <ele>1458.3</ele>
			 </trkpt>
			 <trkpt lat="-26.64248" lon="27.98524">
				 <ele>1458.4</ele>
			 </trkpt>
			 <trkpt lat="-26.6425" lon="27.98532">
				 <ele>1458.5</ele>
			 </trkpt>
			 <trkpt lat="-26.64283" lon="27.98694">
				 <ele>1458.4</ele>
			 </trkpt>
			 <trkpt lat="-26.64293" lon="27.98749">
				 <ele>1458.2</ele>
			 </trkpt>
			 <trkpt lat="-26.64298" lon="27.98779">
				 <ele>1458</ele>
			 </trkpt>
			 <trkpt lat="-26.64298" lon="27.98805">
				 <ele>1457.9</ele>
			 </trkpt>
			 <trkpt lat="-26.6431" lon="27.98865">
				 <ele>1457.9</ele>
			 </trkpt>
			 <trkpt lat="-26.64324" lon="27.98899">
				 <ele>1458.1</ele>
			 </trkpt>
			 <trkpt lat="-26.64336" lon="27.98914">
				 <ele>1458.3</ele>
			 </trkpt>
			 <trkpt lat="-26.64351" lon="27.98932">
				 <ele>1458.5</ele>
			 </trkpt>
			 <trkpt lat="-26.64371" lon="27.98947">
				 <ele>1458.4</ele>
			 </trkpt>
			 <trkpt lat="-26.64389" lon="27.98955">
				 <ele>1458.1</ele>
			 </trkpt>
			 <trkpt lat="-26.64414" lon="27.9896">
				 <ele>1457.5</ele>
			 </trkpt>
			 <trkpt lat="-26.64446" lon="27.98957">
				 <ele>1457.3</ele>
			 </trkpt>
			 <trkpt lat="-26.64519" lon="27.98941">
				 <ele>1456.9</ele>
			 </trkpt>
			 <trkpt lat="-26.64775" lon="27.98887">
				 <ele>1456.5</ele>
			 </trkpt>
			 <trkpt lat="-26.64852" lon="27.98867">
				 <ele>1455.9</ele>
			 </trkpt>
			 <trkpt lat="-26.64916" lon="27.98853">
				 <ele>1455.4</ele>
			 </trkpt>
			 <trkpt lat="-26.64993" lon="27.98837">
				 <ele>1454.7</ele>
			 </trkpt>
			 <trkpt lat="-26.6502" lon="27.98828">
				 <ele>1454.2</ele>
			 </trkpt>
			 <trkpt lat="-26.6504" lon="27.98822">
				 <ele>1453.9</ele>
			 </trkpt>
			 <trkpt lat="-26.65043" lon="27.9884">
				 <ele>1454</ele>
			 </trkpt>
			 <trkpt lat="-26.65044" lon="27.98865">
				 <ele>1454.1</ele>
			 </trkpt>
			 <trkpt lat="-26.65046" lon="27.98886">
				 <ele>1454.3</ele>
			 </trkpt>
			 <trkpt lat="-26.65077" lon="27.99062">
				 <ele>1454.4</ele>
			 </trkpt>
			 <trkpt lat="-26.65134" lon="27.99384">
				 <ele>1454.5</ele>
			 </trkpt>
			 <trkpt lat="-26.65138" lon="27.994">
				 <ele>1454.8</ele>
			 </trkpt>
			 <trkpt lat="-26.65145" lon="27.99411">
				 <ele>1455.1</ele>
			 </trkpt>
			 <trkpt lat="-26.65155" lon="27.99417">
				 <ele>1455.4</ele>
			 </trkpt>
			 <trkpt lat="-26.65167" lon="27.9942">
				 <ele>1455.6</ele>
			 </trkpt>
			 <trkpt lat="-26.65167" lon="27.99426">
				 <ele>1456</ele>
			 </trkpt>
			 <trkpt lat="-26.65173" lon="27.99482">
				 <ele>1456.2</ele>
			 </trkpt>
			 <trkpt lat="-26.65167" lon="27.99537">
				 <ele>1456.4</ele>
			 </trkpt>
			 <trkpt lat="-26.65167" lon="27.9955">
				 <ele>1456.6</ele>
			 </trkpt>
			 <trkpt lat="-26.65174" lon="27.99594">
				 <ele>1456.8</ele>
			 </trkpt>
			 <trkpt lat="-26.65219" lon="27.99839">
				 <ele>1456.8</ele>
			 </trkpt>
			 <trkpt lat="-26.65225" lon="27.99858">
				 <ele>1456.8</ele>
			 </trkpt>
			 <trkpt lat="-26.65229" lon="27.99869">
				 <ele>1456.9</ele>
			 </trkpt>
			 <trkpt lat="-26.65257" lon="27.99861">
				 <ele>1457.1</ele>
			 </trkpt>
			 <trkpt lat="-26.65334" lon="27.99876">
				 <ele>1457.2</ele>
			 </trkpt>
			 <trkpt lat="-26.6537" lon="27.99883">
				 <ele>1457.4</ele>
			 </trkpt>
			 <trkpt lat="-26.65465" lon="27.99893">
				 <ele>1457.4</ele>
			 </trkpt>
			 <trkpt lat="-26.65513" lon="27.99908">
				 <ele>1457.4</ele>
			 </trkpt>
			 <trkpt lat="-26.65519" lon="27.9989">
				 <ele>1457.2</ele>
			 </trkpt>
			 <trkpt lat="-26.65575" lon="27.99699">
				 <ele>1456.7</ele>
			 </trkpt>
			 <trkpt lat="-26.6562" lon="27.99546">
				 <ele>1456.3</ele>
			 </trkpt>
			 <trkpt lat="-26.65628" lon="27.99549">
				 <ele>1455.2</ele>
			 </trkpt>
			 <trkpt lat="-26.65652" lon="27.99562">
				 <ele>1454.1</ele>
			 </trkpt>
			 <trkpt lat="-26.6567" lon="27.9958">
				 <ele>1453.8</ele>
			 </trkpt>
			 <trkpt lat="-26.65689" lon="27.99604">
				 <ele>1453.6</ele>
			 </trkpt>
			 <trkpt lat="-26.65728" lon="27.99655">
				 <ele>1453.6</ele>
			 </trkpt>
			 <trkpt lat="-26.65878" lon="27.99859">
				 <ele>1453.6</ele>
			 </trkpt>
			 <trkpt lat="-26.65966" lon="27.9998">
				 <ele>1453.7</ele>
			 </trkpt>
			 <trkpt lat="-26.66098" lon="28.00154">
				 <ele>1453.8</ele>
			 </trkpt>
			 <trkpt lat="-26.6615" lon="28.00222">
				 <ele>1454.3</ele>
			 </trkpt>
			 <trkpt lat="-26.66068" lon="28.00297">
				 <ele>1455</ele>
			 </trkpt>
			 <trkpt lat="-26.65914" lon="28.00446">
				 <ele>1455.8</ele>
			 </trkpt>
			 <trkpt lat="-26.659" lon="28.00459">
				 <ele>1457.3</ele>
			 </trkpt>
			 <trkpt lat="-26.6589" lon="28.00475">
				 <ele>1459.1</ele>
			 </trkpt>
			 <trkpt lat="-26.65851" lon="28.00537">
				 <ele>1460</ele>
			 </trkpt>
			 <trkpt lat="-26.65734" lon="28.00724">
				 <ele>1460.8</ele>
			 </trkpt>
			 <trkpt lat="-26.65759" lon="28.00744">
				 <ele>1461.5</ele>
			 </trkpt>
			 <trkpt lat="-26.65839" lon="28.00808">
				 <ele>1462.2</ele>
			 </trkpt>
			 <trkpt lat="-26.65915" lon="28.00869">
				 <ele>1462.6</ele>
			 </trkpt>
			 <trkpt lat="-26.65881" lon="28.00924">
				 <ele>1463.1</ele>
			 </trkpt>
			 <trkpt lat="-26.65853" lon="28.00941">
				 <ele>1463.4</ele>
			 </trkpt>
			 <trkpt lat="-26.65798" lon="28.00971">
				 <ele>1463.5</ele>
			 </trkpt>
			 <trkpt lat="-26.65891" lon="28.01168">
				 <ele>1463.4</ele>
			 </trkpt>
			 <trkpt lat="-26.65975" lon="28.01233">
				 <ele>1463.5</ele>
			 </trkpt>
			 <trkpt lat="-26.66004" lon="28.01228">
				 <ele>1463.3</ele>
			 </trkpt>
			 <trkpt lat="-26.66021" lon="28.01225">
				 <ele>1463.3</ele>
			 </trkpt>
			 <trkpt lat="-26.66105" lon="28.01211">
				 <ele>1463</ele>
			 </trkpt>
			 <trkpt lat="-26.66166" lon="28.01201">
				 <ele>1462.6</ele>
			 </trkpt>
			 <trkpt lat="-26.66197" lon="28.01184">
				 <ele>1461.8</ele>
			 </trkpt>
			 <trkpt lat="-26.66224" lon="28.01159">
				 <ele>1461.1</ele>
			 </trkpt>
			 <trkpt lat="-26.66263" lon="28.01112">
				 <ele>1460</ele>
			 </trkpt>
			 <trkpt lat="-26.66314" lon="28.01092">
				 <ele>1458.5</ele>
			 </trkpt>
			 <trkpt lat="-26.6637" lon="28.01069">
				 <ele>1457.3</ele>
			 </trkpt>
			 <trkpt lat="-26.66333" lon="28.0095">
				 <ele>1456.5</ele>
			 </trkpt>
			 <trkpt lat="-26.66358" lon="28.00942">
				 <ele>1455.7</ele>
			 </trkpt>
			 <trkpt lat="-26.66441" lon="28.00901">
				 <ele>1454.8</ele>
			 </trkpt>
			 <trkpt lat="-26.66398" lon="28.00768">
				 <ele>1453.8</ele>
			 </trkpt>
			 <trkpt lat="-26.66374" lon="28.00693">
				 <ele>1453</ele>
			 </trkpt>
			 <trkpt lat="-26.66363" lon="28.00659">
				 <ele>1452.3</ele>
			 </trkpt>
			 <trkpt lat="-26.6633" lon="28.00555">
				 <ele>1451.8</ele>
			 </trkpt>
			 <trkpt lat="-26.66319" lon="28.0051">
				 <ele>1451.5</ele>
			 </trkpt>
			 <trkpt lat="-26.66319" lon="28.00484">
				 <ele>1451.5</ele>
			 </trkpt>
			 <trkpt lat="-26.66334" lon="28.00386">
				 <ele>1451.8</ele>
			 </trkpt>
			 <trkpt lat="-26.66348" lon="28.00328">
				 <ele>1451.5</ele>
			 </trkpt>
			 <trkpt lat="-26.66366" lon="28.00277">
				 <ele>1450.9</ele>
			 </trkpt>
			 <trkpt lat="-26.66377" lon="28.0025">
				 <ele>1450.3</ele>
			 </trkpt>
			 <trkpt lat="-26.66389" lon="28.00232">
				 <ele>1449.5</ele>
			 </trkpt>
			 <trkpt lat="-26.66425" lon="28.00189">
				 <ele>1448.7</ele>
			 </trkpt>
			 <trkpt lat="-26.66511" lon="28.00103">
				 <ele>1447.8</ele>
			 </trkpt>
			 <trkpt lat="-26.6654" lon="28.00127">
				 <ele>1446.8</ele>
			 </trkpt>
			 <trkpt lat="-26.66561" lon="28.00139">
				 <ele>1445.9</ele>
			 </trkpt>
			 <trkpt lat="-26.66606" lon="28.00143">
				 <ele>1444.8</ele>
			 </trkpt>
			 <trkpt lat="-26.6662" lon="28.00141">
				 <ele>1443.7</ele>
			 </trkpt>
			 <trkpt lat="-26.66641" lon="28.00137">
				 <ele>1442.7</ele>
			 </trkpt>
			 <trkpt lat="-26.66654" lon="28.0013">
				 <ele>1442</ele>
			 </trkpt>
			 <trkpt lat="-26.66657" lon="28.00128">
				 <ele>1441.5</ele>
			 </trkpt>
			 <trkpt lat="-26.6667" lon="28.00121">
				 <ele>1440.8</ele>
			 </trkpt>
			 <trkpt lat="-26.66687" lon="28.00103">
				 <ele>1440.3</ele>
			 </trkpt>
			 <trkpt lat="-26.66706" lon="28.00076">
				 <ele>1439.7</ele>
			 </trkpt>
			 <trkpt lat="-26.66731" lon="28.0004">
				 <ele>1439.5</ele>
			 </trkpt>
			 <trkpt lat="-26.66751" lon="27.99995">
				 <ele>1439.6</ele>
			 </trkpt>
			 <trkpt lat="-26.66777" lon="27.99936">
				 <ele>1439.8</ele>
			 </trkpt>
			 <trkpt lat="-26.66781" lon="27.99924">
				 <ele>1440</ele>
			 </trkpt>
			 <trkpt lat="-26.6678" lon="27.99912">
				 <ele>1440.2</ele>
			 </trkpt>
			 <trkpt lat="-26.66754" lon="27.99832">
				 <ele>1440.4</ele>
			 </trkpt>
			 <trkpt lat="-26.66733" lon="27.99767">
				 <ele>1440.5</ele>
			 </trkpt>
			 <trkpt lat="-26.66727" lon="27.99758">
				 <ele>1440.5</ele>
			 </trkpt>
			 <trkpt lat="-26.66721" lon="27.9975">
				 <ele>1440.8</ele>
			 </trkpt>
			 <trkpt lat="-26.66716" lon="27.99747">
				 <ele>1440.5</ele>
			 </trkpt>
			 <trkpt lat="-26.66706" lon="27.99747">
				 <ele>1440.5</ele>
			 </trkpt>
			 <trkpt lat="-26.66682" lon="27.9975">
				 <ele>1440.4</ele>
			 </trkpt>
			 <trkpt lat="-26.66611" lon="27.9976">
				 <ele>1439.7</ele>
			 </trkpt>
			 <trkpt lat="-26.66481" lon="27.99773">
				 <ele>1439.1</ele>
			 </trkpt>
			 <trkpt lat="-26.664804" lon="27.99638">
				 <ele>1438.5</ele>
			 </trkpt>
			 <trkpt lat="-26.664833" lon="27.994298">
				 <ele>1438</ele>
			 </trkpt>
			 <trkpt lat="-26.664834" lon="27.993823">
				 <ele>1437.5</ele>
			 </trkpt>
			 <trkpt lat="-26.664838" lon="27.993233">
				 <ele>1437.5</ele>
			 </trkpt>
			 <trkpt lat="-26.664829" lon="27.992944">
				 <ele>1437.5</ele>
			 </trkpt>
			 <trkpt lat="-26.664817" lon="27.992821">
				 <ele>1437.3</ele>
			 </trkpt>
			 <trkpt lat="-26.664787" lon="27.992733">
				 <ele>1437.8</ele>
			 </trkpt>
			 <trkpt lat="-26.664698" lon="27.992562">
				 <ele>1438.1</ele>
			 </trkpt>
			 <trkpt lat="-26.663237" lon="27.990698">
				 <ele>1438.5</ele>
			 </trkpt>
			 <trkpt lat="-26.662959" lon="27.990405">
				 <ele>1439.1</ele>
			 </trkpt>
			 <trkpt lat="-26.661909" lon="27.989386">
				 <ele>1439.6</ele>
			 </trkpt>
			 <trkpt lat="-26.661798" lon="27.989272">
				 <ele>1440.2</ele>
			 </trkpt>
			 <trkpt lat="-26.661717" lon="27.989143">
				 <ele>1440.7</ele>
			 </trkpt>
			 <trkpt lat="-26.661665" lon="27.989005">
				 <ele>1441.2</ele>
			 </trkpt>
			 <trkpt lat="-26.661651" lon="27.988881">
				 <ele>1441.5</ele>
			 </trkpt>
			 <trkpt lat="-26.661652" lon="27.988773">
				 <ele>1441</ele>
			 </trkpt>
			 <trkpt lat="-26.66169" lon="27.98863">
				 <ele>1440.5</ele>
			 </trkpt>
			 <trkpt lat="-26.661789" lon="27.988494">
				 <ele>1440.1</ele>
			 </trkpt>
			 <trkpt lat="-26.661894" lon="27.988414">
				 <ele>1439.7</ele>
			 </trkpt>
			 <trkpt lat="-26.662029" lon="27.988343">
				 <ele>1439.4</ele>
			 </trkpt>
			 <trkpt lat="-26.663187" lon="27.987916">
				 <ele>1438.7</ele>
			 </trkpt>
			 <trkpt lat="-26.6633" lon="27.987838">
				 <ele>1438</ele>
			 </trkpt>
			 <trkpt lat="-26.663385" lon="27.987738">
				 <ele>1437.3</ele>
			 </trkpt>
			 <trkpt lat="-26.663435" lon="27.987646">
				 <ele>1436.5</ele>
			 </trkpt>
			 <trkpt lat="-26.663706" lon="27.986968">
				 <ele>1435.9</ele>
			 </trkpt>
			 <trkpt lat="-26.664112" lon="27.985918">
				 <ele>1435.5</ele>
			 </trkpt>
			 <trkpt lat="-26.664466" lon="27.984972">
				 <ele>1435.8</ele>
			 </trkpt>
			 <trkpt lat="-26.664502" lon="27.984833">
				 <ele>1436</ele>
			 </trkpt>
			 <trkpt lat="-26.664525" lon="27.984664">
				 <ele>1436</ele>
			 </trkpt>
			 <trkpt lat="-26.664527" lon="27.984562">
				 <ele>1435.8</ele>
			 </trkpt>
			 <trkpt lat="-26.664427" lon="27.983381">
				 <ele>1435.5</ele>
			 </trkpt>
			 <trkpt lat="-26.664273" lon="27.98106">
				 <ele>1435.4</ele>
			 </trkpt>
			 <trkpt lat="-26.664349" lon="27.981059">
				 <ele>1435.3</ele>
			 </trkpt>
			 <trkpt lat="-26.664425" lon="27.981047">
				 <ele>1435.2</ele>
			 </trkpt>
			 <trkpt lat="-26.664498" lon="27.981023">
				 <ele>1435.1</ele>
			 </trkpt>
			 <trkpt lat="-26.664567" lon="27.980988">
				 <ele>1434.9</ele>
			 </trkpt>
			 <trkpt lat="-26.664631" lon="27.980941">
				 <ele>1434.5</ele>
			 </trkpt>
			 <trkpt lat="-26.664709" lon="27.980861">
				 <ele>1434</ele>
			 </trkpt>
			 <trkpt lat="-26.664772" lon="27.980764">
				 <ele>1433.7</ele>
			 </trkpt>
			 <trkpt lat="-26.664809" lon="27.980673">
				 <ele>1433.5</ele>
			 </trkpt>
			 <trkpt lat="-26.66481" lon="27.98042">
				 <ele>1433.3</ele>
			 </trkpt>
			 <trkpt lat="-26.66477" lon="27.9802">
				 <ele>1433.3</ele>
			 </trkpt>
			 <trkpt lat="-26.66467" lon="27.98005">
				 <ele>1433.4</ele>
			 </trkpt>
			 <trkpt lat="-26.66458" lon="27.97996">
				 <ele>1433.6</ele>
			 </trkpt>
			 <trkpt lat="-26.666034" lon="27.978125">
				 <ele>1433.9</ele>
			 </trkpt>
			 <trkpt lat="-26.666309" lon="27.977784">
				 <ele>1434.2</ele>
			 </trkpt>
			 <trkpt lat="-26.666716" lon="27.977278">
				 <ele>1434.5</ele>
			 </trkpt>
			 <trkpt lat="-26.666912" lon="27.977032">
				 <ele>1434.8</ele>
			 </trkpt>
			 <trkpt lat="-26.66698" lon="27.976937">
				 <ele>1435.1</ele>
			 </trkpt>
			 <trkpt lat="-26.667031" lon="27.976843">
				 <ele>1435.1</ele>
			 </trkpt>
			 <trkpt lat="-26.667065" lon="27.976765">
				 <ele>1435.3</ele>
			 </trkpt>
			 <trkpt lat="-26.667097" lon="27.976656">
				 <ele>1435.3</ele>
			 </trkpt>
			 <trkpt lat="-26.66711" lon="27.976555">
				 <ele>1435.1</ele>
			 </trkpt>
			 <trkpt lat="-26.667109" lon="27.976435">
				 <ele>1434.8</ele>
			 </trkpt>
			 <trkpt lat="-26.667028" lon="27.975625">
				 <ele>1434.5</ele>
			 </trkpt>
			 <trkpt lat="-26.666977" lon="27.975113">
				 <ele>1434.1</ele>
			 </trkpt>
			 <trkpt lat="-26.666698" lon="27.972762">
				 <ele>1433.8</ele>
			 </trkpt>
			 <trkpt lat="-26.666554" lon="27.971564">
				 <ele>1433.5</ele>
			 </trkpt>
			 <trkpt lat="-26.66654" lon="27.971351">
				 <ele>1433.2</ele>
			 </trkpt>
			 <trkpt lat="-26.666538" lon="27.971156">
				 <ele>1432.8</ele>
			 </trkpt>
			 <trkpt lat="-26.666556" lon="27.971008">
				 <ele>1432.6</ele>
			 </trkpt>
			 <trkpt lat="-26.666561" lon="27.970968">
				 <ele>1432.6</ele>
			 </trkpt>
			 <trkpt lat="-26.666588" lon="27.970848">
				 <ele>1433</ele>
			 </trkpt>
			 <trkpt lat="-26.666637" lon="27.970679">
				 <ele>1433.2</ele>
			 </trkpt>
			 <trkpt lat="-26.667147" lon="27.969473">
				 <ele>1433.4</ele>
			 </trkpt>
			 <trkpt lat="-26.667517" lon="27.968588">
				 <ele>1433.5</ele>
			 </trkpt>
			 <trkpt lat="-26.667733" lon="27.968085">
				 <ele>1433.5</ele>
			 </trkpt>
			 <trkpt lat="-26.667839" lon="27.96787">
				 <ele>1433.3</ele>
			 </trkpt>
			 <trkpt lat="-26.668157" lon="27.967386">
				 <ele>1432.9</ele>
			 </trkpt>
			 <trkpt lat="-26.668258" lon="27.967253">
				 <ele>1432.5</ele>
			 </trkpt>
			 <trkpt lat="-26.668452" lon="27.966994">
				 <ele>1432.3</ele>
			 </trkpt>
			 <trkpt lat="-26.668667" lon="27.966772">
				 <ele>1432</ele>
			 </trkpt>
			 <trkpt lat="-26.668735" lon="27.966714">
				 <ele>1431.4</ele>
			 </trkpt>
			 <trkpt lat="-26.669127" lon="27.966431">
				 <ele>1430.7</ele>
			 </trkpt>
			 <trkpt lat="-26.669186" lon="27.966375">
				 <ele>1430.4</ele>
			 </trkpt>
			 <trkpt lat="-26.669259" lon="27.966283">
				 <ele>1430</ele>
			 </trkpt>
			 <trkpt lat="-26.669302" lon="27.966218">
				 <ele>1430.2</ele>
			 </trkpt>
			 <trkpt lat="-26.669343" lon="27.966125">
				 <ele>1430.5</ele>
			 </trkpt>
			 <trkpt lat="-26.66937" lon="27.966025">
				 <ele>1430.8</ele>
			 </trkpt>
			 <trkpt lat="-26.669381" lon="27.965983">
				 <ele>1431.2</ele>
			 </trkpt>
			 <trkpt lat="-26.669405" lon="27.965828">
				 <ele>1431.5</ele>
			 </trkpt>
			 <trkpt lat="-26.669762" lon="27.963306">
				 <ele>1431.7</ele>
			 </trkpt>
			 <trkpt lat="-26.669908" lon="27.962036">
				 <ele>1431.9</ele>
			 </trkpt>
			 <trkpt lat="-26.670119" lon="27.959958">
				 <ele>1432.1</ele>
			 </trkpt>
			 <trkpt lat="-26.670348" lon="27.958155">
				 <ele>1432.2</ele>
			 </trkpt>
			 <trkpt lat="-26.670367" lon="27.957912">
				 <ele>1432.1</ele>
			 </trkpt>
			 <trkpt lat="-26.670364" lon="27.9578">
				 <ele>1432.1</ele>
			 </trkpt>
			 <trkpt lat="-26.670349" lon="27.957706">
				 <ele>1431.6</ele>
			 </trkpt>
			 <trkpt lat="-26.670292" lon="27.957574">
				 <ele>1431.4</ele>
			 </trkpt>
			 <trkpt lat="-26.67016" lon="27.95742">
				 <ele>1431.4</ele>
			 </trkpt>
			 <trkpt lat="-26.67005" lon="27.95735">
				 <ele>1431.8</ele>
			 </trkpt>
			 <trkpt lat="-26.66982" lon="27.95729">
				 <ele>1431.8</ele>
			 </trkpt>
			 <trkpt lat="-26.66977" lon="27.95728">
				 <ele>1431.9</ele>
			 </trkpt>
			 <trkpt lat="-26.6695" lon="27.95732">
				 <ele>1432</ele>
			 </trkpt>
			 <trkpt lat="-26.66838" lon="27.95789">
				 <ele>1432</ele>
			 </trkpt>
			 <trkpt lat="-26.6672" lon="27.95845">
				 <ele>1431.9</ele>
			 </trkpt>
			 <trkpt lat="-26.66641" lon="27.95881">
				 <ele>1431.8</ele>
			 </trkpt>
			 <trkpt lat="-26.66617" lon="27.95889">
				 <ele>1432.1</ele>
			 </trkpt>
			 <trkpt lat="-26.66601" lon="27.95888">
				 <ele>1432.5</ele>
			 </trkpt>
			 <trkpt lat="-26.66574" lon="27.95874">
				 <ele>1433</ele>
			 </trkpt>
			 <trkpt lat="-26.66535" lon="27.95847">
				 <ele>1433.3</ele>
			 </trkpt>
			 <trkpt lat="-26.66458" lon="27.95792">
				 <ele>1433.3</ele>
			 </trkpt>
			 <trkpt lat="-26.66446" lon="27.95871">
				 <ele>1434</ele>
			 </trkpt>
			 <trkpt lat="-26.66439" lon="27.95917">
				 <ele>1434.6</ele>
			 </trkpt>
			 <trkpt lat="-26.66417" lon="27.96071">
				 <ele>1435.5</ele>
			 </trkpt>
			 <trkpt lat="-26.66387" lon="27.9628">
				 <ele>1436.4</ele>
			 </trkpt>
			 <trkpt lat="-26.66194" lon="27.96243">
				 <ele>1437.5</ele>
			 </trkpt>
			 <trkpt lat="-26.66166" lon="27.96437">
				 <ele>1438.8</ele>
			 </trkpt>
			 <trkpt lat="-26.66152" lon="27.96533">
				 <ele>1439.6</ele>
			 </trkpt>
			 <trkpt lat="-26.66143" lon="27.96533">
				 <ele>1440.5</ele>
			 </trkpt>
			 <trkpt lat="-26.66128" lon="27.96539">
				 <ele>1440.3</ele>
			 </trkpt>
			 <trkpt lat="-26.66114" lon="27.96553">
				 <ele>1440.3</ele>
			 </trkpt>
			 <trkpt lat="-26.66108" lon="27.96563">
				 <ele>1440.3</ele>
			 </trkpt>
			 <trkpt lat="-26.66105" lon="27.96568">
				 <ele>1440.1</ele>
			 </trkpt>
			 <trkpt lat="-26.66076" lon="27.96563">
				 <ele>1439.9</ele>
			 </trkpt>
			 <trkpt lat="-26.65945" lon="27.96538">
				 <ele>1439.4</ele>
			 </trkpt>
			 <trkpt lat="-26.6591" lon="27.96536">
				 <ele>1439.2</ele>
			 </trkpt>
			 <trkpt lat="-26.65896" lon="27.9654">
				 <ele>1438.7</ele>
			 </trkpt>
			 <trkpt lat="-26.65871" lon="27.96551">
				 <ele>1438.2</ele>
			 </trkpt>
			 <trkpt lat="-26.65862" lon="27.9655">
				 <ele>1437.6</ele>
			 </trkpt>
			 <trkpt lat="-26.65799" lon="27.96572">
				 <ele>1437.5</ele>
			 </trkpt>
			 <trkpt lat="-26.65748" lon="27.96588">
				 <ele>1438.1</ele>
			 </trkpt>
			 <trkpt lat="-26.65757" lon="27.96556">
				 <ele>1438.3</ele>
			 </trkpt>
			 <trkpt lat="-26.65767" lon="27.96536">
				 <ele>1438.4</ele>
			 </trkpt>
			 <trkpt lat="-26.65767" lon="27.96527">
				 <ele>1438.5</ele>
			 </trkpt>
			 <trkpt lat="-26.65725" lon="27.96387">
				 <ele>1438.5</ele>
			 </trkpt>
			 <trkpt lat="-26.65723" lon="27.96372">
				 <ele>1438.7</ele>
			 </trkpt>
			 <trkpt lat="-26.65724" lon="27.9632">
				 <ele>1438.6</ele>
			 </trkpt>
			 <trkpt lat="-26.65734" lon="27.96231">
				 <ele>1438.7</ele>
			 </trkpt>
			 <trkpt lat="-26.65733" lon="27.96219">
				 <ele>1438.9</ele>
			 </trkpt>
			 <trkpt lat="-26.65725" lon="27.96205">
				 <ele>1439.3</ele>
			 </trkpt>
			 <trkpt lat="-26.65721" lon="27.96202">
				 <ele>1439.2</ele>
			 </trkpt>
			 <trkpt lat="-26.657116" lon="27.961988">
				 <ele>1439.1</ele>
			 </trkpt>
			 <trkpt lat="-26.657025" lon="27.961988">
				 <ele>1439.2</ele>
			 </trkpt>
			 <trkpt lat="-26.655573" lon="27.962402">
				 <ele>1439.4</ele>
			 </trkpt>
			 <trkpt lat="-26.65471" lon="27.96264">
				 <ele>1439.4</ele>
			 </trkpt>
			 <trkpt lat="-26.654655" lon="27.962649">
				 <ele>1439.4</ele>
			 </trkpt>
			 <trkpt lat="-26.654591" lon="27.962645">
				 <ele>1439.5</ele>
			 </trkpt>
			 <trkpt lat="-26.654542" lon="27.962627">
				 <ele>1439.7</ele>
			 </trkpt>
			 <trkpt lat="-26.654495" lon="27.962592">
				 <ele>1439.7</ele>
			 </trkpt>
			 <trkpt lat="-26.654407" lon="27.962498">
				 <ele>1439.7</ele>
			 </trkpt>
			 <trkpt lat="-26.654308" lon="27.962525">
				 <ele>1439.8</ele>
			 </trkpt>
			 <trkpt lat="-26.652544" lon="27.963014">
				 <ele>1439.8</ele>
			 </trkpt>
			 <trkpt lat="-26.652386" lon="27.962328">
				 <ele>1439.7</ele>
			 </trkpt>
			 <trkpt lat="-26.6512" lon="27.96268">
				 <ele>1439.6</ele>
			 </trkpt>
			 <trkpt lat="-26.65068" lon="27.96282">
				 <ele>1439.4</ele>
			 </trkpt>
			 <trkpt lat="-26.65006" lon="27.96294">
				 <ele>1439.2</ele>
			 </trkpt>
			 <trkpt lat="-26.64981" lon="27.96208">
				 <ele>1439.1</ele>
			 </trkpt>
			 <trkpt lat="-26.64968" lon="27.9615">
				 <ele>1438.8</ele>
			 </trkpt>
			 <trkpt lat="-26.64938" lon="27.96018">
				 <ele>1438.6</ele>
			 </trkpt>
			 <trkpt lat="-26.64934" lon="27.95978">
				 <ele>1438.7</ele>
			 </trkpt>
			 <trkpt lat="-26.64934" lon="27.95963">
				 <ele>1438.8</ele>
			 </trkpt>
			 <trkpt lat="-26.64938" lon="27.95928">
				 <ele>1438.6</ele>
			 </trkpt>
			 <trkpt lat="-26.64923" lon="27.9592">
				 <ele>1438.5</ele>
			 </trkpt>
			 <trkpt lat="-26.64905" lon="27.95906">
				 <ele>1438.3</ele>
			 </trkpt>
			 <trkpt lat="-26.64883" lon="27.95896">
				 <ele>1438</ele>
			 </trkpt>
			 <trkpt lat="-26.64834" lon="27.95891">
				 <ele>1437.7</ele>
			 </trkpt>
			 <trkpt lat="-26.64803" lon="27.95894">
				 <ele>1437.6</ele>
			 </trkpt>
			 <trkpt lat="-26.64797" lon="27.95897">
				 <ele>1437.7</ele>
			 </trkpt>
			 <trkpt lat="-26.64785" lon="27.95902">
				 <ele>1437.9</ele>
			 </trkpt>
			 <trkpt lat="-26.64771" lon="27.95913">
				 <ele>1438.1</ele>
			 </trkpt>
			 <trkpt lat="-26.64756" lon="27.95928">
				 <ele>1438.2</ele>
			 </trkpt>
			 <trkpt lat="-26.64733" lon="27.9596">
				 <ele>1438.5</ele>
			 </trkpt>
			 <trkpt lat="-26.64636" lon="27.96097">
				 <ele>1438.9</ele>
			 </trkpt>
			 <trkpt lat="-26.64629" lon="27.96115">
				 <ele>1439.2</ele>
			 </trkpt>
			 <trkpt lat="-26.64624" lon="27.96132">
				 <ele>1439.5</ele>
			 </trkpt>
			 <trkpt lat="-26.64623" lon="27.96155">
				 <ele>1439.8</ele>
			 </trkpt>
			 <trkpt lat="-26.64676" lon="27.96406">
				 <ele>1440.6</ele>
			 </trkpt>
			 <trkpt lat="-26.64685" lon="27.96454">
				 <ele>1441.6</ele>
			 </trkpt>
			 <trkpt lat="-26.64615" lon="27.96474">
				 <ele>1442.5</ele>
			 </trkpt>
			 <trkpt lat="-26.64554" lon="27.9649">
				 <ele>1443.1</ele>
			 </trkpt>
			 <trkpt lat="-26.64525" lon="27.96497">
				 <ele>1443.6</ele>
			 </trkpt>
			 <trkpt lat="-26.64569" lon="27.96701">
				 <ele>1444.2</ele>
			 </trkpt>
			 <trkpt lat="-26.64637" lon="27.97016">
				 <ele>1444.5</ele>
			 </trkpt>
			 <trkpt lat="-26.64582" lon="27.97032">
				 <ele>1445.1</ele>
			 </trkpt>
			 <trkpt lat="-26.64515" lon="27.97047">
				 <ele>1445.7</ele>
			 </trkpt>
			 <trkpt lat="-26.645" lon="27.97052">
				 <ele>1446.4</ele>
			 </trkpt>
			 <trkpt lat="-26.64482" lon="27.9706">
				 <ele>1447.3</ele>
			 </trkpt>
			 <trkpt lat="-26.64448" lon="27.97091">
				 <ele>1447.8</ele>
			 </trkpt>
			 <trkpt lat="-26.64482" lon="27.97132">
				 <ele>1448.1</ele>
			 </trkpt>
			 <trkpt lat="-26.64499" lon="27.97154">
				 <ele>1448.4</ele>
			 </trkpt>
			 <trkpt lat="-26.64509" lon="27.97211">
				 <ele>1448.6</ele>
			 </trkpt>
			 <trkpt lat="-26.64534" lon="27.97335">
				 <ele>1449</ele>
			 </trkpt>
			 <trkpt lat="-26.64554" lon="27.9744">
				 <ele>1449.5</ele>
			 </trkpt>
			 <trkpt lat="-26.64552" lon="27.97458">
				 <ele>1449.8</ele>
			 </trkpt>
			 <trkpt lat="-26.6454" lon="27.97483">
				 <ele>1450</ele>
			 </trkpt>
			 <trkpt lat="-26.64494" lon="27.97552">
				 <ele>1450.3</ele>
			 </trkpt>
			 <trkpt lat="-26.64422" lon="27.97658">
				 <ele>1450.5</ele>
			 </trkpt>
			 <trkpt lat="-26.64344" lon="27.97781">
				 <ele>1450.6</ele>
			 </trkpt>
			 <trkpt lat="-26.64235" lon="27.97949">
				 <ele>1450.7</ele>
			 </trkpt>
			 <trkpt lat="-26.64168" lon="27.97895">
				 <ele>1450.8</ele>
			 </trkpt>
			 <trkpt lat="-26.64109" lon="27.97848">
				 <ele>1450.9</ele>
			 </trkpt>
			 <trkpt lat="-26.64078" lon="27.97818">
				 <ele>1451.1</ele>
			 </trkpt>
			 <trkpt lat="-26.64064" lon="27.97786">
				 <ele>1451.2</ele>
			 </trkpt>
			 <trkpt lat="-26.6405" lon="27.97717">
				 <ele>1451.3</ele>
			 </trkpt>
			 <trkpt lat="-26.64045" lon="27.97704">
				 <ele>1451.4</ele>
			 </trkpt>
			 <trkpt lat="-26.64034" lon="27.97694">
				 <ele>1451.5</ele>
			 </trkpt>
			 <trkpt lat="-26.64014" lon="27.97715">
				 <ele>1451.5</ele>
			 </trkpt>
			 <trkpt lat="-26.63957" lon="27.97734">
				 <ele>1451.6</ele>
			 </trkpt>
			 <trkpt lat="-26.63859" lon="27.9776">
				 <ele>1452</ele>
			 </trkpt>
			 <trkpt lat="-26.63864" lon="27.97791">
				 <ele>1452.3</ele>
			 </trkpt>
			 <trkpt lat="-26.6385" lon="27.97824">
				 <ele>1452.5</ele>
			 </trkpt>
			 <trkpt lat="-26.63838" lon="27.97855">
				 <ele>1452.6</ele>
			 </trkpt>
			 <trkpt lat="-26.63776" lon="27.97946">
				 <ele>1452.7</ele>
			 </trkpt>
			 <trkpt lat="-26.63703" lon="27.97886">
				 <ele>1452.8</ele>
			 </trkpt>
			 <trkpt lat="-26.63701" lon="27.97876">
				 <ele>1452.9</ele>
			 </trkpt>
			 <trkpt lat="-26.63687" lon="27.97802">
				 <ele>1453.1</ele>
			 </trkpt>
			 <trkpt lat="-26.63559" lon="27.97834">
				 <ele>1453.3</ele>
			 </trkpt>
			 <trkpt lat="-26.63564" lon="27.9786">
				 <ele>1453.3</ele>
			 </trkpt>
			 <trkpt lat="-26.63569" lon="27.9789">
				 <ele>1453.5</ele>
			 </trkpt>
			 <trkpt lat="-26.63582" lon="27.97918">
				 <ele>1453.5</ele>
			 </trkpt>
			 <trkpt lat="-26.63597" lon="27.9794">
				 <ele>1453.8</ele>
			 </trkpt>
			 <trkpt lat="-26.63633" lon="27.97973">
				 <ele>1454.2</ele>
			 </trkpt>
			 <trkpt lat="-26.63715" lon="27.98038">
				 <ele>1454.6</ele>
			 </trkpt>
			 <trkpt lat="-26.6387" lon="27.98162">
				 <ele>1455.3</ele>
			 </trkpt>
			 <trkpt lat="-26.63943" lon="27.98223">
				 <ele>1455.9</ele>
			 </trkpt>
			 <trkpt lat="-26.64022" lon="27.98286">
				 <ele>1456.5</ele>
			 </trkpt>
			 <trkpt lat="-26.64055" lon="27.98313">
				 <ele>1457.1</ele>
			 </trkpt>
			 <trkpt lat="-26.6407" lon="27.98323">
				 <ele>1457.5</ele>
			 </trkpt>
			 <trkpt lat="-26.6412" lon="27.98359">
				 <ele>1458</ele>
			 </trkpt>
			 <trkpt lat="-26.64155" lon="27.98393">
				 <ele>1458.3</ele>
			 </trkpt>
			 <trkpt lat="-26.64188" lon="27.98416">
				 <ele>1458.4</ele>
			 </trkpt>
			 <trkpt lat="-26.642" lon="27.9843">
				 <ele>1458.4</ele>
			 </trkpt>
			 <trkpt lat="-26.64222" lon="27.98466">
				 <ele>1458.4</ele>
			 </trkpt>
			 <trkpt lat="-26.64237" lon="27.98496">
				 <ele>1458.4</ele>
			 </trkpt>
			 <trkpt lat="-26.64248" lon="27.98524">
				 <ele>1458.4</ele>
			 </trkpt>
			 <trkpt lat="-26.64254" lon="27.98547">
				 <ele>1458.4</ele>
			 </trkpt>
			 <trkpt lat="-26.64288" lon="27.98721">
				 <ele>1458.2</ele>
			 </trkpt>
			 <trkpt lat="-26.64298" lon="27.98779">
				 <ele>1458</ele>
			 </trkpt>
			 <trkpt lat="-26.64298" lon="27.98805">
				 <ele>1457.9</ele>
			 </trkpt>
			 <trkpt lat="-26.64304" lon="27.98845">
				 <ele>1457.9</ele>
			 </trkpt>
			 <trkpt lat="-26.64316" lon="27.98883">
				 <ele>1457.9</ele>
			 </trkpt>
			 <trkpt lat="-26.64324" lon="27.98899">
				 <ele>1458.2</ele>
			 </trkpt>
			 <trkpt lat="-26.64334" lon="27.98911">
				 <ele>1458.5</ele>
			 </trkpt>
			 <trkpt lat="-26.64349" lon="27.98929">
				 <ele>1458.7</ele>
			 </trkpt>
			 <trkpt lat="-26.64371" lon="27.98947">
				 <ele>1458.5</ele>
			 </trkpt>
			 <trkpt lat="-26.64389" lon="27.98955">
				 <ele>1458</ele>
			 </trkpt>
			 <trkpt lat="-26.64414" lon="27.9896">
				 <ele>1457.6</ele>
			 </trkpt>
			 <trkpt lat="-26.64449" lon="27.98957">
				 <ele>1457.4</ele>
			 </trkpt>
			 <trkpt lat="-26.64501" lon="27.98945">
				 <ele>1457</ele>
			 </trkpt>
			 <trkpt lat="-26.64775" lon="27.98887">
				 <ele>1456.5</ele>
			 </trkpt>
			 <trkpt lat="-26.64886" lon="27.98859">
				 <ele>1456.1</ele>
			 </trkpt>
			 <trkpt lat="-26.64938" lon="27.98849">
				 <ele>1455.5</ele>
			 </trkpt>
			 <trkpt lat="-26.64993" lon="27.98837">
				 <ele>1454.9</ele>
			 </trkpt>
			 <trkpt lat="-26.65008" lon="27.98831">
				 <ele>1454.5</ele>
			 </trkpt>
			 <trkpt lat="-26.65035" lon="27.98824">
				 <ele>1454.1</ele>
			 </trkpt>
			 <trkpt lat="-26.6504" lon="27.98822">
				 <ele>1454.2</ele>
			 </trkpt>
			 <trkpt lat="-26.65043" lon="27.9884">
				 <ele>1454.4</ele>
			 </trkpt>
			 <trkpt lat="-26.65046" lon="27.98886">
				 <ele>1454.5</ele>
			 </trkpt>
			 <trkpt lat="-26.65107" lon="27.99234">
				 <ele>1454.5</ele>
			 </trkpt>
			 <trkpt lat="-26.65138" lon="27.994">
				 <ele>1454.7</ele>
			 </trkpt>
			 <trkpt lat="-26.65145" lon="27.99411">
				 <ele>1454.9</ele>
			 </trkpt>
			 <trkpt lat="-26.65155" lon="27.99417">
				 <ele>1455.1</ele>
			 </trkpt>
			 <trkpt lat="-26.65167" lon="27.9942">
				 <ele>1455.5</ele>
			 </trkpt>
			 <trkpt lat="-26.65167" lon="27.99426">
				 <ele>1455.9</ele>
			 </trkpt>
			 <trkpt lat="-26.65173" lon="27.99482">
				 <ele>1456.2</ele>
			 </trkpt>
			 <trkpt lat="-26.65167" lon="27.99537">
				 <ele>1456.4</ele>
			 </trkpt>
			 <trkpt lat="-26.65167" lon="27.9955">
				 <ele>1456.6</ele>
			 </trkpt>
			 <trkpt lat="-26.65174" lon="27.99594">
				 <ele>1456.6</ele>
			 </trkpt>
			 <trkpt lat="-26.65219" lon="27.99839">
				 <ele>1456.6</ele>
			 </trkpt>
			 <trkpt lat="-26.65225" lon="27.99858">
				 <ele>1456.7</ele>
			 </trkpt>
			 <trkpt lat="-26.65229" lon="27.99869">
				 <ele>1456.8</ele>
			 </trkpt>
			 <trkpt lat="-26.65257" lon="27.99861">
				 <ele>1456.9</ele>
			 </trkpt>
			 <trkpt lat="-26.6537" lon="27.99883">
				 <ele>1457.2</ele>
			 </trkpt>
			 <trkpt lat="-26.65465" lon="27.99893">
				 <ele>1457.4</ele>
			 </trkpt>
			 <trkpt lat="-26.65513" lon="27.99908">
				 <ele>1457.4</ele>
			 </trkpt>
			 <trkpt lat="-26.65519" lon="27.9989">
				 <ele>1457</ele>
			 </trkpt>
			 <trkpt lat="-26.65575" lon="27.99699">
				 <ele>1456.5</ele>
			 </trkpt>
			 <trkpt lat="-26.6562" lon="27.99546">
				 <ele>1456.2</ele>
			 </trkpt>
			 <trkpt lat="-26.65628" lon="27.99549">
				 <ele>1455.4</ele>
			 </trkpt>
			 <trkpt lat="-26.656473" lon="27.995601">
				 <ele>1454.4</ele>
			 </trkpt>
			 <trkpt lat="-26.65689" lon="27.996069">
				 <ele>1453</ele>
			 </trkpt>
			 <trkpt lat="-26.657085" lon="27.99631">
				 <ele>1451.6</ele>
			 </trkpt>
			 <trkpt lat="-26.657763" lon="27.997157">
				 <ele>1451.4</ele>
			 </trkpt>
			 <trkpt lat="-26.658228" lon="27.997792">
				 <ele>1451</ele>
			 </trkpt>
			 <trkpt lat="-26.65865" lon="27.998398">
				 <ele>1450.7</ele>
			 </trkpt>
			 <trkpt lat="-26.659285" lon="27.999331">
				 <ele>1450.5</ele>
			 </trkpt>
			 <trkpt lat="-26.659406" lon="27.999499">
				 <ele>1450.6</ele>
			 </trkpt>
			 <trkpt lat="-26.660131" lon="28.000438">
				 <ele>1451</ele>
			 </trkpt>
			 <trkpt lat="-26.660837" lon="28.001361">
				 <ele>1451.4</ele>
			 </trkpt>
			 <trkpt lat="-26.661472" lon="28.00221">
				 <ele>1452.5</ele>
			 </trkpt>
			 <trkpt lat="-26.6615" lon="28.00222">
				 <ele>1453.9</ele>
			 </trkpt>
			 <trkpt lat="-26.66086" lon="28.00281">
				 <ele>1455.5</ele>
			 </trkpt>
			 <trkpt lat="-26.65938" lon="28.00422">
				 <ele>1457.4</ele>
			 </trkpt>
			 <trkpt lat="-26.659" lon="28.00459">
				 <ele>1458.2</ele>
			 </trkpt>
			 <trkpt lat="-26.6589" lon="28.00475">
				 <ele>1458.7</ele>
			 </trkpt>
			 <trkpt lat="-26.65863" lon="28.00518">
				 <ele>1459.5</ele>
			 </trkpt>
			 <trkpt lat="-26.65801" lon="28.00618">
				 <ele>1460.4</ele>
			 </trkpt>
			 <trkpt lat="-26.65734" lon="28.00724">
				 <ele>1461.1</ele>
			 </trkpt>
			 <trkpt lat="-26.65759" lon="28.00744">
				 <ele>1461.7</ele>
			 </trkpt>
			 <trkpt lat="-26.65839" lon="28.00808">
				 <ele>1462.3</ele>
			 </trkpt>
			 <trkpt lat="-26.65915" lon="28.00869">
				 <ele>1462.8</ele>
			 </trkpt>
			 <trkpt lat="-26.65881" lon="28.00924">
				 <ele>1463.1</ele>
			 </trkpt>
			 <trkpt lat="-26.65875" lon="28.00929">
				 <ele>1463.5</ele>
			 </trkpt>
			 <trkpt lat="-26.65798" lon="28.00971">
				 <ele>1463.6</ele>
			 </trkpt>
			 <trkpt lat="-26.65891" lon="28.01168">
				 <ele>1463.5</ele>
			 </trkpt>
			 <trkpt lat="-26.659" lon="28.01175">
				 <ele>1463.5</ele>
			 </trkpt>
			 <trkpt lat="-26.65975" lon="28.01233">
				 <ele>1463.4</ele>
			 </trkpt>
			 <trkpt lat="-26.66004" lon="28.01228">
				 <ele>1463.4</ele>
			 </trkpt>
			 <trkpt lat="-26.66105" lon="28.01211">
				 <ele>1463.1</ele>
			 </trkpt>
			 <trkpt lat="-26.66166" lon="28.01201">
				 <ele>1462.7</ele>
			 </trkpt>
			 <trkpt lat="-26.66197" lon="28.01184">
				 <ele>1461.9</ele>
			 </trkpt>
			 <trkpt lat="-26.66224" lon="28.01159">
				 <ele>1461.1</ele>
			 </trkpt>
			 <trkpt lat="-26.66263" lon="28.01112">
				 <ele>1460</ele>
			 </trkpt>
			 <trkpt lat="-26.66308" lon="28.01094">
				 <ele>1458.5</ele>
			 </trkpt>
			 <trkpt lat="-26.6637" lon="28.01069">
				 <ele>1457.5</ele>
			 </trkpt>
			 <trkpt lat="-26.66333" lon="28.0095">
				 <ele>1456.7</ele>
			 </trkpt>
			 <trkpt lat="-26.66358" lon="28.00942">
				 <ele>1456</ele>
			 </trkpt>
			 <trkpt lat="-26.66441" lon="28.00901">
				 <ele>1455.1</ele>
			 </trkpt>
			 <trkpt lat="-26.66413" lon="28.00815">
				 <ele>1454</ele>
			 </trkpt>
			 <trkpt lat="-26.66328" lon="28.00545">
				 <ele>1453.2</ele>
			 </trkpt>
			 <trkpt lat="-26.66319" lon="28.00506">
				 <ele>1452.5</ele>
			 </trkpt>
			 <trkpt lat="-26.66319" lon="28.00484">
				 <ele>1452.1</ele>
			 </trkpt>
			 <trkpt lat="-26.66334" lon="28.00386">
				 <ele>1451.6</ele>
			 </trkpt>
			 <trkpt lat="-26.66348" lon="28.00328">
				 <ele>1451.5</ele>
			 </trkpt>
			 <trkpt lat="-26.66358" lon="28.003">
				 <ele>1451.4</ele>
			 </trkpt>
			 <trkpt lat="-26.66377" lon="28.0025">
				 <ele>1450.8</ele>
			 </trkpt>
			 <trkpt lat="-26.66398" lon="28.0022">
				 <ele>1450.2</ele>
			 </trkpt>
			 <trkpt lat="-26.66428" lon="28.00185">
				 <ele>1449.4</ele>
			 </trkpt>
			 <trkpt lat="-26.6648" lon="28.00134">
				 <ele>1448.5</ele>
			 </trkpt>
			 <trkpt lat="-26.66511" lon="28.00103">
				 <ele>1447.4</ele>
			 </trkpt>
			 <trkpt lat="-26.6654" lon="28.00127">
				 <ele>1446.3</ele>
			 </trkpt>
			 <trkpt lat="-26.66561" lon="28.00139">
				 <ele>1445.2</ele>
			 </trkpt>
			 <trkpt lat="-26.66606" lon="28.00143">
				 <ele>1444.2</ele>
			 </trkpt>
			 <trkpt lat="-26.66641" lon="28.00137">
				 <ele>1443.4</ele>
			 </trkpt>
			 <trkpt lat="-26.66669" lon="28.00122">
				 <ele>1442.7</ele>
			 </trkpt>
			 <trkpt lat="-26.66687" lon="28.00103">
				 <ele>1442.5</ele>
			 </trkpt>
			 <trkpt lat="-26.666655" lon="28.001209">
				 <ele>1442.4</ele>
			 </trkpt>
			 <trkpt lat="-26.666513" lon="28.001295">
				 <ele>1442.4</ele>
			 </trkpt>
			 <trkpt lat="-26.666356" lon="28.001362">
				 <ele>1442.5</ele>
			 </trkpt>
			 <trkpt lat="-26.666216" lon="28.001403">
				 <ele>1442.8</ele>
			 </trkpt>
			 <trkpt lat="-26.666077" lon="28.001435">
				 <ele>1443.5</ele>
			 </trkpt>
			 <trkpt lat="-26.665806" lon="28.001421">
				 <ele>1444.1</ele>
			 </trkpt>
			 <trkpt lat="-26.665647" lon="28.001394">
				 <ele>1444.7</ele>
			 </trkpt>
			 <trkpt lat="-26.665459" lon="28.001321">
				 <ele>1445.3</ele>
			 </trkpt>
			 <trkpt lat="-26.665329" lon="28.001238">
				 <ele>1445.7</ele>
			 </trkpt>
			 <trkpt lat="-26.665199" lon="28.001118">
				 <ele>1446.1</ele>
			 </trkpt>
			 <trkpt lat="-26.665099" lon="28.001012">
				 <ele>1446.4</ele>
			 </trkpt>
			 <trkpt lat="-26.665208" lon="28.000866">
				 <ele>1446.5</ele>
			 </trkpt>
			 <trkpt lat="-26.665348" lon="28.000646">
				 <ele>1446.7</ele>
			 </trkpt>
			 <trkpt lat="-26.665401" lon="28.000548">
				 <ele>1446.9</ele>
			 </trkpt>
			 <trkpt lat="-26.665452" lon="28.000405">
				 <ele>1447.1</ele>
			 </trkpt>
			 <trkpt lat="-26.665478" lon="28.000296">
				 <ele>1447.2</ele>
			 </trkpt>
			 <trkpt lat="-26.665499" lon="28.000181">
				 <ele>1447.2</ele>
			 </trkpt>
			 <trkpt lat="-26.665507" lon="28.000079">
				 <ele>1447.2</ele>
			 </trkpt>
			 <trkpt lat="-26.665502" lon="27.999876">
				 <ele>1447.2</ele>
			 </trkpt>
			 <trkpt lat="-26.665487" lon="27.999756">
				 <ele>1447.2</ele>
			 </trkpt>
			 <trkpt lat="-26.665435" lon="27.999548">
				 <ele>1447.1</ele>
			 </trkpt>
			 <trkpt lat="-26.665374" lon="27.999373">
				 <ele>1446.8</ele>
			 </trkpt>
			 <trkpt lat="-26.665307" lon="27.999225">
				 <ele>1446.4</ele>
			 </trkpt>
			 <trkpt lat="-26.665078" lon="27.998769">
				 <ele>1445.9</ele>
			 </trkpt>
			 <trkpt lat="-26.66501" lon="27.998597">
				 <ele>1444.8</ele>
			 </trkpt>
			 <trkpt lat="-26.664945" lon="27.998405">
				 <ele>1443.9</ele>
			 </trkpt>
			 <trkpt lat="-26.664875" lon="27.998142">
				 <ele>1442.9</ele>
			 </trkpt>
			 <trkpt lat="-26.664823" lon="27.997867">
				 <ele>1441.9</ele>
			 </trkpt>
			 <trkpt lat="-26.664809" lon="27.99773">
				 <ele>1440.9</ele>
			 </trkpt>
			 <trkpt lat="-26.664804" lon="27.99638">
				 <ele>1439.9</ele>
			 </trkpt>
			 <trkpt lat="-26.664833" lon="27.994298">
				 <ele>1438.9</ele>
			 </trkpt>
			 <trkpt lat="-26.664834" lon="27.993823">
				 <ele>1438.1</ele>
			 </trkpt>
			 <trkpt lat="-26.664838" lon="27.993233">
				 <ele>1437.6</ele>
			 </trkpt>
			 <trkpt lat="-26.664829" lon="27.992944">
				 <ele>1437.5</ele>
			 </trkpt>
			 <trkpt lat="-26.664817" lon="27.992821">
				 <ele>1437.3</ele>
			 </trkpt>
			 <trkpt lat="-26.664787" lon="27.992733">
				 <ele>1437.8</ele>
			 </trkpt>
			 <trkpt lat="-26.664698" lon="27.992562">
				 <ele>1438.1</ele>
			 </trkpt>
			 <trkpt lat="-26.663237" lon="27.990698">
				 <ele>1438.5</ele>
			 </trkpt>
			 <trkpt lat="-26.662959" lon="27.990405">
				 <ele>1439.1</ele>
			 </trkpt>
			 <trkpt lat="-26.661909" lon="27.989386">
				 <ele>1439.6</ele>
			 </trkpt>
			 <trkpt lat="-26.661798" lon="27.989272">
				 <ele>1440.2</ele>
			 </trkpt>
			 <trkpt lat="-26.661717" lon="27.989143">
				 <ele>1440.7</ele>
			 </trkpt>
			 <trkpt lat="-26.661665" lon="27.989005">
				 <ele>1441.2</ele>
			 </trkpt>
			 <trkpt lat="-26.661651" lon="27.988881">
				 <ele>1441.5</ele>
			 </trkpt>
			 <trkpt lat="-26.661652" lon="27.988773">
				 <ele>1441</ele>
			 </trkpt>
			 <trkpt lat="-26.66169" lon="27.98863">
				 <ele>1440.5</ele>
			 </trkpt>
			 <trkpt lat="-26.661789" lon="27.988494">
				 <ele>1440.1</ele>
			 </trkpt>
			 <trkpt lat="-26.661894" lon="27.988414">
				 <ele>1439.7</ele>
			 </trkpt>
			 <trkpt lat="-26.662029" lon="27.988343">
				 <ele>1439.4</ele>
			 </trkpt>
			 <trkpt lat="-26.663187" lon="27.987916">
				 <ele>1438.7</ele>
			 </trkpt>
			 <trkpt lat="-26.6633" lon="27.987838">
				 <ele>1438</ele>
			 </trkpt>
			 <trkpt lat="-26.663385" lon="27.987738">
				 <ele>1437.3</ele>
			 </trkpt>
			 <trkpt lat="-26.663435" lon="27.987646">
				 <ele>1436.5</ele>
			 </trkpt>
			 <trkpt lat="-26.663706" lon="27.986968">
				 <ele>1435.8</ele>
			 </trkpt>
			 <trkpt lat="-26.664112" lon="27.985918">
				 <ele>1435.2</ele>
			 </trkpt>
			 <trkpt lat="-26.664466" lon="27.984972">
				 <ele>1435.5</ele>
			 </trkpt>
			 <trkpt lat="-26.664502" lon="27.984833">
				 <ele>1435.7</ele>
			 </trkpt>
			 <trkpt lat="-26.664519" lon="27.984715">
				 <ele>1435.8</ele>
			 </trkpt>
			 <trkpt lat="-26.664525" lon="27.984664">
				 <ele>1435.7</ele>
			 </trkpt>
			 <trkpt lat="-26.664527" lon="27.984562">
				 <ele>1435.5</ele>
			 </trkpt>
			 <trkpt lat="-26.664427" lon="27.983381">
				 <ele>1435.4</ele>
			 </trkpt>
			 <trkpt lat="-26.664273" lon="27.98106">
				 <ele>1435.4</ele>
			 </trkpt>
			 <trkpt lat="-26.664349" lon="27.981059">
				 <ele>1435.3</ele>
			 </trkpt>
			 <trkpt lat="-26.664425" lon="27.981047">
				 <ele>1435.2</ele>
			 </trkpt>
			 <trkpt lat="-26.664498" lon="27.981023">
				 <ele>1435.1</ele>
			 </trkpt>
			 <trkpt lat="-26.664567" lon="27.980988">
				 <ele>1434.9</ele>
			 </trkpt>
			 <trkpt lat="-26.664631" lon="27.980941">
				 <ele>1434.5</ele>
			 </trkpt>
			 <trkpt lat="-26.664709" lon="27.980861">
				 <ele>1434</ele>
			 </trkpt>
			 <trkpt lat="-26.664772" lon="27.980764">
				 <ele>1433.6</ele>
			 </trkpt>
			 <trkpt lat="-26.664809" lon="27.980673">
				 <ele>1433.5</ele>
			 </trkpt>
			 <trkpt lat="-26.66481" lon="27.98048">
				 <ele>1433.4</ele>
			 </trkpt>
			 <trkpt lat="-26.66481" lon="27.98042">
				 <ele>1433.2</ele>
			 </trkpt>
			 <trkpt lat="-26.66477" lon="27.9802">
				 <ele>1433.2</ele>
			 </trkpt>
			 <trkpt lat="-26.66467" lon="27.98005">
				 <ele>1433.4</ele>
			 </trkpt>
			 <trkpt lat="-26.66458" lon="27.97996">
				 <ele>1433.6</ele>
			 </trkpt>
			 <trkpt lat="-26.666034" lon="27.978125">
				 <ele>1433.9</ele>
			 </trkpt>
			 <trkpt lat="-26.666309" lon="27.977784">
				 <ele>1434.2</ele>
			 </trkpt>
			 <trkpt lat="-26.666716" lon="27.977278">
				 <ele>1434.5</ele>
			 </trkpt>
			 <trkpt lat="-26.666912" lon="27.977032">
				 <ele>1434.7</ele>
			 </trkpt>
			 <trkpt lat="-26.66698" lon="27.976937">
				 <ele>1435.1</ele>
			 </trkpt>
			 <trkpt lat="-26.667031" lon="27.976843">
				 <ele>1435.3</ele>
			 </trkpt>
			 <trkpt lat="-26.667065" lon="27.976765">
				 <ele>1435.3</ele>
			 </trkpt>
			 <trkpt lat="-26.667081" lon="27.976712">
				 <ele>1435.6</ele>
			 </trkpt>
			 <trkpt lat="-26.667097" lon="27.976656">
				 <ele>1435.5</ele>
			 </trkpt>
			 <trkpt lat="-26.66711" lon="27.976555">
				 <ele>1435.2</ele>
			 </trkpt>
			 <trkpt lat="-26.667109" lon="27.976435">
				 <ele>1434.8</ele>
			 </trkpt>
			 <trkpt lat="-26.667028" lon="27.975625">
				 <ele>1434.5</ele>
			 </trkpt>
			 <trkpt lat="-26.666977" lon="27.975113">
				 <ele>1434.1</ele>
			 </trkpt>
			 <trkpt lat="-26.666698" lon="27.972762">
				 <ele>1433.8</ele>
			 </trkpt>
			 <trkpt lat="-26.666554" lon="27.971564">
				 <ele>1433.5</ele>
			 </trkpt>
			 <trkpt lat="-26.66654" lon="27.971351">
				 <ele>1433.1</ele>
			 </trkpt>
			 <trkpt lat="-26.666538" lon="27.971156">
				 <ele>1432.7</ele>
			 </trkpt>
			 <trkpt lat="-26.666559" lon="27.97099">
				 <ele>1432.9</ele>
			 </trkpt>
			 <trkpt lat="-26.666588" lon="27.970848">
				 <ele>1432.9</ele>
			 </trkpt>
			 <trkpt lat="-26.666637" lon="27.970679">
				 <ele>1433.1</ele>
			 </trkpt>
			 <trkpt lat="-26.667147" lon="27.969473">
				 <ele>1433.3</ele>
			 </trkpt>
			 <trkpt lat="-26.667517" lon="27.968588">
				 <ele>1433.4</ele>
			 </trkpt>
			 <trkpt lat="-26.667733" lon="27.968085">
				 <ele>1433.4</ele>
			 </trkpt>
			 <trkpt lat="-26.667839" lon="27.96787">
				 <ele>1433.3</ele>
			 </trkpt>
			 <trkpt lat="-26.668157" lon="27.967386">
				 <ele>1432.9</ele>
			 </trkpt>
			 <trkpt lat="-26.668284" lon="27.967218">
				 <ele>1432.5</ele>
			 </trkpt>
			 <trkpt lat="-26.668452" lon="27.966994">
				 <ele>1432.3</ele>
			 </trkpt>
			 <trkpt lat="-26.668667" lon="27.966772">
				 <ele>1432</ele>
			 </trkpt>
			 <trkpt lat="-26.668735" lon="27.966714">
				 <ele>1431.4</ele>
			 </trkpt>
			 <trkpt lat="-26.669127" lon="27.966431">
				 <ele>1430.8</ele>
			 </trkpt>
			 <trkpt lat="-26.669186" lon="27.966375">
				 <ele>1430.5</ele>
			 </trkpt>
			 <trkpt lat="-26.669259" lon="27.966283">
				 <ele>1430.1</ele>
			 </trkpt>
			 <trkpt lat="-26.669302" lon="27.966218">
				 <ele>1430.3</ele>
			 </trkpt>
			 <trkpt lat="-26.669343" lon="27.966125">
				 <ele>1430.5</ele>
			 </trkpt>
			 <trkpt lat="-26.669381" lon="27.965983">
				 <ele>1430.9</ele>
			 </trkpt>
			 <trkpt lat="-26.669389" lon="27.965931">
				 <ele>1431.3</ele>
			 </trkpt>
			 <trkpt lat="-26.669405" lon="27.965828">
				 <ele>1431.5</ele>
			 </trkpt>
			 <trkpt lat="-26.669762" lon="27.963306">
				 <ele>1431.8</ele>
			 </trkpt>
			 <trkpt lat="-26.669908" lon="27.962036">
				 <ele>1432</ele>
			 </trkpt>
			 <trkpt lat="-26.670119" lon="27.959958">
				 <ele>1432.1</ele>
			 </trkpt>
			 <trkpt lat="-26.670348" lon="27.958155">
				 <ele>1432</ele>
			 </trkpt>
			 <trkpt lat="-26.670367" lon="27.957912">
				 <ele>1432</ele>
			 </trkpt>
			 <trkpt lat="-26.670364" lon="27.9578">
				 <ele>1432.2</ele>
			 </trkpt>
			 <trkpt lat="-26.67028" lon="27.95756">
				 <ele>1432</ele>
			 </trkpt>
			 <trkpt lat="-26.67016" lon="27.95742">
				 <ele>1431.8</ele>
			 </trkpt>
			 <trkpt lat="-26.67" lon="27.95733">
				 <ele>1431.6</ele>
			 </trkpt>
			 <trkpt lat="-26.66977" lon="27.95728">
				 <ele>1431.5</ele>
			 </trkpt>
			 <trkpt lat="-26.6695" lon="27.95732">
				 <ele>1431.6</ele>
			 </trkpt>
			 <trkpt lat="-26.66898" lon="27.95759">
				 <ele>1431.6</ele>
			 </trkpt>
			 <trkpt lat="-26.66882" lon="27.95767">
				 <ele>1431.6</ele>
			 </trkpt>
			 <trkpt lat="-26.66682" lon="27.95862">
				 <ele>1431.5</ele>
			 </trkpt>
			 <trkpt lat="-26.66641" lon="27.95881">
				 <ele>1431.3</ele>
			 </trkpt>
			 <trkpt lat="-26.66617" lon="27.95889">
				 <ele>1431.1</ele>
			 </trkpt>
			 <trkpt lat="-26.66601" lon="27.95888">
				 <ele>1431.2</ele>
			 </trkpt>
			 <trkpt lat="-26.66577" lon="27.95876">
				 <ele>1431.3</ele>
			 </trkpt>
			 <trkpt lat="-26.66543" lon="27.95853">
				 <ele>1431.6</ele>
			 </trkpt>
			 <trkpt lat="-26.66495" lon="27.95819">
				 <ele>1432</ele>
			 </trkpt>
			 <trkpt lat="-26.66458" lon="27.95792">
				 <ele>1432.5</ele>
			 </trkpt>
			 <trkpt lat="-26.66446" lon="27.95871">
				 <ele>1432.7</ele>
			 </trkpt>
			 <trkpt lat="-26.66439" lon="27.95917">
				 <ele>1433.3</ele>
			 </trkpt>
			 <trkpt lat="-26.66429" lon="27.95982">
				 <ele>1434.1</ele>
			 </trkpt>
			 <trkpt lat="-26.664" lon="27.96194">
				 <ele>1435.1</ele>
			 </trkpt>
			 <trkpt lat="-26.66387" lon="27.9628">
				 <ele>1436.5</ele>
			 </trkpt>
			 <trkpt lat="-26.66303" lon="27.96264">
				 <ele>1437.6</ele>
			 </trkpt>
			 <trkpt lat="-26.66194" lon="27.96243">
				 <ele>1438.5</ele>
			 </trkpt>
			 <trkpt lat="-26.66166" lon="27.96437">
				 <ele>1439.2</ele>
			 </trkpt>
			 <trkpt lat="-26.66152" lon="27.96533">
				 <ele>1439.6</ele>
			 </trkpt>
			 <trkpt lat="-26.66143" lon="27.96533">
				 <ele>1440.2</ele>
			 </trkpt>
			 <trkpt lat="-26.66128" lon="27.96539">
				 <ele>1440.2</ele>
			 </trkpt>
			 <trkpt lat="-26.66114" lon="27.96553">
				 <ele>1440.3</ele>
			 </trkpt>
			 <trkpt lat="-26.66108" lon="27.96563">
				 <ele>1440.3</ele>
			 </trkpt>
			 <trkpt lat="-26.66105" lon="27.96568">
				 <ele>1440.1</ele>
			 </trkpt>
			 <trkpt lat="-26.66054" lon="27.96559">
				 <ele>1439.9</ele>
			 </trkpt>
			 <trkpt lat="-26.65983" lon="27.96545">
				 <ele>1439.4</ele>
			 </trkpt>
			 <trkpt lat="-26.65945" lon="27.96538">
				 <ele>1439</ele>
			 </trkpt>
			 <trkpt lat="-26.6591" lon="27.96536">
				 <ele>1438.7</ele>
			 </trkpt>
			 <trkpt lat="-26.65871" lon="27.96551">
				 <ele>1438.4</ele>
			 </trkpt>
			 <trkpt lat="-26.65862" lon="27.9655">
				 <ele>1437.8</ele>
			 </trkpt>
			 <trkpt lat="-26.65811" lon="27.96569">
				 <ele>1437.2</ele>
			 </trkpt>
			 <trkpt lat="-26.65771" lon="27.96582">
				 <ele>1437.6</ele>
			 </trkpt>
			 <trkpt lat="-26.65748" lon="27.96588">
				 <ele>1438.2</ele>
			 </trkpt>
			 <trkpt lat="-26.65751" lon="27.96573">
				 <ele>1438.5</ele>
			 </trkpt>
			 <trkpt lat="-26.65764" lon="27.96543">
				 <ele>1438.5</ele>
			 </trkpt>
			 <trkpt lat="-26.65767" lon="27.96527">
				 <ele>1438.6</ele>
			 </trkpt>
			 <trkpt lat="-26.6573" lon="27.96404">
				 <ele>1438.9</ele>
			 </trkpt>
			 <trkpt lat="-26.65724" lon="27.96379">
				 <ele>1439</ele>
			 </trkpt>
			 <trkpt lat="-26.65722" lon="27.96348">
				 <ele>1438.9</ele>
			 </trkpt>
			 <trkpt lat="-26.65734" lon="27.96231">
				 <ele>1438.9</ele>
			 </trkpt>
			 <trkpt lat="-26.65733" lon="27.96219">
				 <ele>1439.1</ele>
			 </trkpt>
			 <trkpt lat="-26.65725" lon="27.96205">
				 <ele>1439.3</ele>
			 </trkpt>
			 <trkpt lat="-26.65721" lon="27.96202">
				 <ele>1438.6</ele>
			 </trkpt>
			 <trkpt lat="-26.65708" lon="27.96199">
				 <ele>1438.3</ele>
			 </trkpt>
			 <trkpt lat="-26.65691" lon="27.96202">
				 <ele>1438.3</ele>
			 </trkpt>
			 <trkpt lat="-26.65646" lon="27.96215">
				 <ele>1438.2</ele>
			 </trkpt>
			 <trkpt lat="-26.655635" lon="27.962334">
				 <ele>1437.9</ele>
			 </trkpt>
			 <trkpt lat="-26.655203" lon="27.962237">
				 <ele>1437.6</ele>
			 </trkpt>
			 <trkpt lat="-26.654983" lon="27.961829">
				 <ele>1437.2</ele>
			 </trkpt>
			 <trkpt lat="-26.654868" lon="27.961271">
				 <ele>1436.9</ele>
			 </trkpt>
			 <trkpt lat="-26.654398" lon="27.960778">
				 <ele>1436.6</ele>
			 </trkpt>
			 <trkpt lat="-26.653937" lon="27.960402">
				 <ele>1436.5</ele>
			 </trkpt>
			 <trkpt lat="-26.654051" lon="27.959915">
				 <ele>1436.3</ele>
			 </trkpt>
			 <trkpt lat="-26.654165" lon="27.959429">
				 <ele>1436.4</ele>
			 </trkpt>
			 <trkpt lat="-26.65428" lon="27.958942">
				 <ele>1436.1</ele>
			 </trkpt>
			 <trkpt lat="-26.65431" lon="27.958815">
				 <ele>1435.3</ele>
			 </trkpt>
		 </trkseg>
	 </trk>
</gpx>