<?xml version="1.0" encoding="UTF-8"?>
 <gpx creator="Garmin Connect" version="1.1"
	 xsi:schemaLocation="http://www.topografix.com/GPX/1/1 http://www.topografix.com/GPX/11.xsd"
	 xmlns:ns3="http://www.garmin.com/xmlschemas/TrackPointExtension/v1"
	 xmlns="http://www.topografix.com/GPX/1/1"
	 xmlns:xsi="http://www.w3.org/2001/XMLSchema-instance" xmlns:ns2="http://www.garmin.com/xmlschemas/GpxExtensions/v3">
	 <metadata>
		<name>Marató bp Castelló 2025 - 42.195 km</name>
		 <link href="https://www.goandrace.com">
		 <text>Garmin Connect</text>
		 </link>
	 <time>2026-08-10T03:11:11</time>
	 </metadata>
	 <trk>
		 <name>Marató bp Castelló 2025 - 42.195 km</name>
		 <trkseg>
			 <trkpt lat="39.986806" lon="-0.048126">
				 <ele>38.8</ele>
			 </trkpt>
			 <trkpt lat="39.99022" lon="-0.04506">
				 <ele>38.7</ele>
			 </trkpt>
			 <trkpt lat="39.99106" lon="-0.04434">
				 <ele>38.6</ele>
			 </trkpt>
			 <trkpt lat="39.99122" lon="-0.04417">
				 <ele>38.4</ele>
			 </trkpt>
			 <trkpt lat="39.99126" lon="-0.044">
				 <ele>38.1</ele>
			 </trkpt>
			 <trkpt lat="39.99132" lon="-0.04375">
				 <ele>37.6</ele>
			 </trkpt>
			 <trkpt lat="39.99154" lon="-0.04348">
				 <ele>36.9</ele>
			 </trkpt>
			 <trkpt lat="39.9917" lon="-0.04341">
				 <ele>36</ele>
			 </trkpt>
			 <trkpt lat="39.99186" lon="-0.04338">
				 <ele>35.2</ele>
			 </trkpt>
			 <trkpt lat="39.99224" lon="-0.04347">
				 <ele>34.3</ele>
			 </trkpt>
			 <trkpt lat="39.99255" lon="-0.04336">
				 <ele>33.4</ele>
			 </trkpt>
			 <trkpt lat="39.99382" lon="-0.04279">
				 <ele>32.4</ele>
			 </trkpt>
			 <trkpt lat="39.99432" lon="-0.04259">
				 <ele>31.5</ele>
			 </trkpt>
			 <trkpt lat="39.99463" lon="-0.04243">
				 <ele>30.5</ele>
			 </trkpt>
			 <trkpt lat="39.99463" lon="-0.04236">
				 <ele>29.4</ele>
			 </trkpt>
			 <trkpt lat="39.9947" lon="-0.0422">
				 <ele>28.6</ele>
			 </trkpt>
			 <trkpt lat="39.99492" lon="-0.04194">
				 <ele>28</ele>
			 </trkpt>
			 <trkpt lat="39.99536" lon="-0.04109">
				 <ele>27.5</ele>
			 </trkpt>
			 <trkpt lat="39.99704" lon="-0.03914">
				 <ele>27.1</ele>
			 </trkpt>
			 <trkpt lat="39.9973" lon="-0.03882">
				 <ele>26.7</ele>
			 </trkpt>
			 <trkpt lat="39.99825" lon="-0.03742">
				 <ele>26.4</ele>
			 </trkpt>
			 <trkpt lat="39.99834" lon="-0.03717">
				 <ele>25.8</ele>
			 </trkpt>
			 <trkpt lat="39.99834" lon="-0.03707">
				 <ele>25.4</ele>
			 </trkpt>
			 <trkpt lat="39.99825" lon="-0.03691">
				 <ele>24.8</ele>
			 </trkpt>
			 <trkpt lat="39.99814" lon="-0.03681">
				 <ele>24.5</ele>
			 </trkpt>
			 <trkpt lat="39.99705" lon="-0.03577">
				 <ele>24.3</ele>
			 </trkpt>
			 <trkpt lat="39.99681" lon="-0.03559">
				 <ele>24.2</ele>
			 </trkpt>
			 <trkpt lat="39.99678" lon="-0.03561">
				 <ele>24.2</ele>
			 </trkpt>
			 <trkpt lat="39.99674" lon="-0.03558">
				 <ele>24.2</ele>
			 </trkpt>
			 <trkpt lat="39.99673" lon="-0.03553">
				 <ele>24.4</ele>
			 </trkpt>
			 <trkpt lat="39.99645" lon="-0.03522">
				 <ele>24.7</ele>
			 </trkpt>
			 <trkpt lat="39.99558" lon="-0.03448">
				 <ele>25.3</ele>
			 </trkpt>
			 <trkpt lat="39.99553" lon="-0.03446">
				 <ele>26.2</ele>
			 </trkpt>
			 <trkpt lat="39.99551" lon="-0.0344">
				 <ele>27.2</ele>
			 </trkpt>
			 <trkpt lat="39.9945" lon="-0.03345">
				 <ele>28.1</ele>
			 </trkpt>
			 <trkpt lat="39.99438" lon="-0.03337">
				 <ele>28.6</ele>
			 </trkpt>
			 <trkpt lat="39.99432" lon="-0.03339">
				 <ele>29.7</ele>
			 </trkpt>
			 <trkpt lat="39.99411" lon="-0.03326">
				 <ele>30.3</ele>
			 </trkpt>
			 <trkpt lat="39.99402" lon="-0.03316">
				 <ele>30.6</ele>
			 </trkpt>
			 <trkpt lat="39.99379" lon="-0.03312">
				 <ele>31.2</ele>
			 </trkpt>
			 <trkpt lat="39.99281" lon="-0.03336">
				 <ele>31.5</ele>
			 </trkpt>
			 <trkpt lat="39.99163" lon="-0.03384">
				 <ele>31.5</ele>
			 </trkpt>
			 <trkpt lat="39.99079" lon="-0.034">
				 <ele>31.5</ele>
			 </trkpt>
			 <trkpt lat="39.98898" lon="-0.0342">
				 <ele>31.2</ele>
			 </trkpt>
			 <trkpt lat="39.98876" lon="-0.03451">
				 <ele>30.8</ele>
			 </trkpt>
			 <trkpt lat="39.98865" lon="-0.03478">
				 <ele>30.5</ele>
			 </trkpt>
			 <trkpt lat="39.98845" lon="-0.03486">
				 <ele>30.6</ele>
			 </trkpt>
			 <trkpt lat="39.98838" lon="-0.03484">
				 <ele>30.6</ele>
			 </trkpt>
			 <trkpt lat="39.98826" lon="-0.03472">
				 <ele>30.8</ele>
			 </trkpt>
			 <trkpt lat="39.98821" lon="-0.03455">
				 <ele>30.9</ele>
			 </trkpt>
			 <trkpt lat="39.98822" lon="-0.03443">
				 <ele>31</ele>
			 </trkpt>
			 <trkpt lat="39.98815" lon="-0.03428">
				 <ele>31.2</ele>
			 </trkpt>
			 <trkpt lat="39.98747" lon="-0.03377">
				 <ele>31.6</ele>
			 </trkpt>
			 <trkpt lat="39.98656" lon="-0.03401">
				 <ele>32.2</ele>
			 </trkpt>
			 <trkpt lat="39.98543" lon="-0.03474">
				 <ele>32.7</ele>
			 </trkpt>
			 <trkpt lat="39.98454" lon="-0.03531">
				 <ele>33.6</ele>
			 </trkpt>
			 <trkpt lat="39.98388" lon="-0.03547">
				 <ele>34.6</ele>
			 </trkpt>
			 <trkpt lat="39.98312" lon="-0.03565">
				 <ele>35.4</ele>
			 </trkpt>
			 <trkpt lat="39.98281" lon="-0.03573">
				 <ele>35.6</ele>
			 </trkpt>
			 <trkpt lat="39.98247" lon="-0.03581">
				 <ele>36</ele>
			 </trkpt>
			 <trkpt lat="39.98178" lon="-0.03602">
				 <ele>36.5</ele>
			 </trkpt>
			 <trkpt lat="39.981609" lon="-0.036123">
				 <ele>36.6</ele>
			 </trkpt>
			 <trkpt lat="39.981282" lon="-0.036526">
				 <ele>37</ele>
			 </trkpt>
			 <trkpt lat="39.981098" lon="-0.036753">
				 <ele>37.7</ele>
			 </trkpt>
			 <trkpt lat="39.980773" lon="-0.03716">
				 <ele>38.2</ele>
			 </trkpt>
			 <trkpt lat="39.980449" lon="-0.037566">
				 <ele>38.5</ele>
			 </trkpt>
			 <trkpt lat="39.980124" lon="-0.037972">
				 <ele>38.6</ele>
			 </trkpt>
			 <trkpt lat="39.979855" lon="-0.038309">
				 <ele>38.1</ele>
			 </trkpt>
			 <trkpt lat="39.979526" lon="-0.038709">
				 <ele>37.5</ele>
			 </trkpt>
			 <trkpt lat="39.979197" lon="-0.039109">
				 <ele>37.1</ele>
			 </trkpt>
			 <trkpt lat="39.978868" lon="-0.039509">
				 <ele>36.6</ele>
			 </trkpt>
			 <trkpt lat="39.978539" lon="-0.039909">
				 <ele>36.3</ele>
			 </trkpt>
			 <trkpt lat="39.97821" lon="-0.040309">
				 <ele>36.1</ele>
			 </trkpt>
			 <trkpt lat="39.977881" lon="-0.040709">
				 <ele>35.5</ele>
			 </trkpt>
			 <trkpt lat="39.977759" lon="-0.040856">
				 <ele>34.4</ele>
			 </trkpt>
			 <trkpt lat="39.977437" lon="-0.041265">
				 <ele>33.5</ele>
			 </trkpt>
			 <trkpt lat="39.977115" lon="-0.041674">
				 <ele>32.7</ele>
			 </trkpt>
			 <trkpt lat="39.976987" lon="-0.041837">
				 <ele>31.9</ele>
			 </trkpt>
			 <trkpt lat="39.976708" lon="-0.042297">
				 <ele>31.6</ele>
			 </trkpt>
			 <trkpt lat="39.976429" lon="-0.042757">
				 <ele>31.6</ele>
			 </trkpt>
			 <trkpt lat="39.97636" lon="-0.04287">
				 <ele>31.4</ele>
			 </trkpt>
			 <trkpt lat="39.97627" lon="-0.04321">
				 <ele>31.5</ele>
			 </trkpt>
			 <trkpt lat="39.97627" lon="-0.04335">
				 <ele>31.7</ele>
			 </trkpt>
			 <trkpt lat="39.97616" lon="-0.04345">
				 <ele>31.5</ele>
			 </trkpt>
			 <trkpt lat="39.97611" lon="-0.04344">
				 <ele>31.4</ele>
			 </trkpt>
			 <trkpt lat="39.97573" lon="-0.04398">
				 <ele>31.2</ele>
			 </trkpt>
			 <trkpt lat="39.9747" lon="-0.04574">
				 <ele>31.3</ele>
			 </trkpt>
			 <trkpt lat="39.97255" lon="-0.04938">
				 <ele>31.5</ele>
			 </trkpt>
			 <trkpt lat="39.97233" lon="-0.04975">
				 <ele>31.6</ele>
			 </trkpt>
			 <trkpt lat="39.97219" lon="-0.05007">
				 <ele>31.9</ele>
			 </trkpt>
			 <trkpt lat="39.97221" lon="-0.0503">
				 <ele>32.1</ele>
			 </trkpt>
			 <trkpt lat="39.97257" lon="-0.05115">
				 <ele>32.5</ele>
			 </trkpt>
			 <trkpt lat="39.97293" lon="-0.05187">
				 <ele>33.1</ele>
			 </trkpt>
			 <trkpt lat="39.97305" lon="-0.05204">
				 <ele>33.3</ele>
			 </trkpt>
			 <trkpt lat="39.97311" lon="-0.05206">
				 <ele>33.9</ele>
			 </trkpt>
			 <trkpt lat="39.97337" lon="-0.05187">
				 <ele>34.8</ele>
			 </trkpt>
			 <trkpt lat="39.97342" lon="-0.0518">
				 <ele>35.8</ele>
			 </trkpt>
			 <trkpt lat="39.97554" lon="-0.04883">
				 <ele>36.4</ele>
			 </trkpt>
			 <trkpt lat="39.97665" lon="-0.04731">
				 <ele>36.6</ele>
			 </trkpt>
			 <trkpt lat="39.97688" lon="-0.04696">
				 <ele>36.8</ele>
			 </trkpt>
			 <trkpt lat="39.97689" lon="-0.04689">
				 <ele>36.9</ele>
			 </trkpt>
			 <trkpt lat="39.97727" lon="-0.04642">
				 <ele>37.2</ele>
			 </trkpt>
			 <trkpt lat="39.97921" lon="-0.04382">
				 <ele>37.5</ele>
			 </trkpt>
			 <trkpt lat="39.97932" lon="-0.04365">
				 <ele>37.4</ele>
			 </trkpt>
			 <trkpt lat="39.97934" lon="-0.04358">
				 <ele>37.5</ele>
			 </trkpt>
			 <trkpt lat="39.97974" lon="-0.04316">
				 <ele>37.5</ele>
			 </trkpt>
			 <trkpt lat="39.97982" lon="-0.04312">
				 <ele>37.5</ele>
			 </trkpt>
			 <trkpt lat="39.97994" lon="-0.04305">
				 <ele>37.6</ele>
			 </trkpt>
			 <trkpt lat="39.98027" lon="-0.04289">
				 <ele>38.1</ele>
			 </trkpt>
			 <trkpt lat="39.98047" lon="-0.04292">
				 <ele>38.6</ele>
			 </trkpt>
			 <trkpt lat="39.98229" lon="-0.04324">
				 <ele>38.9</ele>
			 </trkpt>
			 <trkpt lat="39.98472" lon="-0.04363">
				 <ele>39</ele>
			 </trkpt>
			 <trkpt lat="39.98528" lon="-0.04343">
				 <ele>39.1</ele>
			 </trkpt>
			 <trkpt lat="39.98659" lon="-0.04282">
				 <ele>38.8</ele>
			 </trkpt>
			 <trkpt lat="39.98797" lon="-0.04206">
				 <ele>38</ele>
			 </trkpt>
			 <trkpt lat="39.98879" lon="-0.04138">
				 <ele>37.5</ele>
			 </trkpt>
			 <trkpt lat="39.98927" lon="-0.04097">
				 <ele>37.2</ele>
			 </trkpt>
			 <trkpt lat="39.98936" lon="-0.0409">
				 <ele>36.7</ele>
			 </trkpt>
			 <trkpt lat="39.99169" lon="-0.03925">
				 <ele>35.9</ele>
			 </trkpt>
			 <trkpt lat="39.99286" lon="-0.03851">
				 <ele>34.9</ele>
			 </trkpt>
			 <trkpt lat="39.99353" lon="-0.03818">
				 <ele>33.9</ele>
			 </trkpt>
			 <trkpt lat="39.99456" lon="-0.0378">
				 <ele>33.3</ele>
			 </trkpt>
			 <trkpt lat="39.99496" lon="-0.03764">
				 <ele>32.8</ele>
			 </trkpt>
			 <trkpt lat="39.99518" lon="-0.03751">
				 <ele>32</ele>
			 </trkpt>
			 <trkpt lat="39.99519" lon="-0.03732">
				 <ele>31.2</ele>
			 </trkpt>
			 <trkpt lat="39.99535" lon="-0.03719">
				 <ele>30.6</ele>
			 </trkpt>
			 <trkpt lat="39.9955" lon="-0.03703">
				 <ele>30.5</ele>
			 </trkpt>
			 <trkpt lat="39.99551" lon="-0.03676">
				 <ele>30.1</ele>
			 </trkpt>
			 <trkpt lat="39.99554" lon="-0.03466">
				 <ele>29.9</ele>
			 </trkpt>
			 <trkpt lat="39.99551" lon="-0.03441">
				 <ele>30.1</ele>
			 </trkpt>
			 <trkpt lat="39.995" lon="-0.0339">
				 <ele>30.2</ele>
			 </trkpt>
			 <trkpt lat="39.99439" lon="-0.03336">
				 <ele>29.9</ele>
			 </trkpt>
			 <trkpt lat="39.99436" lon="-0.03339">
				 <ele>30</ele>
			 </trkpt>
			 <trkpt lat="39.99429" lon="-0.03338">
				 <ele>30.2</ele>
			 </trkpt>
			 <trkpt lat="39.99405" lon="-0.03321">
				 <ele>30.9</ele>
			 </trkpt>
			 <trkpt lat="39.99391" lon="-0.03312">
				 <ele>31.7</ele>
			 </trkpt>
			 <trkpt lat="39.99329" lon="-0.03322">
				 <ele>32.3</ele>
			 </trkpt>
			 <trkpt lat="39.99207" lon="-0.03366">
				 <ele>32.5</ele>
			 </trkpt>
			 <trkpt lat="39.99137" lon="-0.03389">
				 <ele>32.5</ele>
			 </trkpt>
			 <trkpt lat="39.99001" lon="-0.03408">
				 <ele>32.5</ele>
			 </trkpt>
			 <trkpt lat="39.9897" lon="-0.03412">
				 <ele>32.2</ele>
			 </trkpt>
			 <trkpt lat="39.98898" lon="-0.0342">
				 <ele>31.9</ele>
			 </trkpt>
			 <trkpt lat="39.98876" lon="-0.03448">
				 <ele>32</ele>
			 </trkpt>
			 <trkpt lat="39.98875" lon="-0.03454">
				 <ele>31.8</ele>
			 </trkpt>
			 <trkpt lat="39.98867" lon="-0.03476">
				 <ele>31.8</ele>
			 </trkpt>
			 <trkpt lat="39.98848" lon="-0.03487">
				 <ele>31.8</ele>
			 </trkpt>
			 <trkpt lat="39.98825" lon="-0.03471">
				 <ele>31.5</ele>
			 </trkpt>
			 <trkpt lat="39.98822" lon="-0.03443">
				 <ele>31.6</ele>
			 </trkpt>
			 <trkpt lat="39.98809" lon="-0.03419">
				 <ele>31.8</ele>
			 </trkpt>
			 <trkpt lat="39.98747" lon="-0.03377">
				 <ele>32</ele>
			 </trkpt>
			 <trkpt lat="39.98715" lon="-0.0338">
				 <ele>32.1</ele>
			 </trkpt>
			 <trkpt lat="39.98582" lon="-0.03445">
				 <ele>32.4</ele>
			 </trkpt>
			 <trkpt lat="39.98463" lon="-0.03527">
				 <ele>32.8</ele>
			 </trkpt>
			 <trkpt lat="39.98428" lon="-0.03539">
				 <ele>33.3</ele>
			 </trkpt>
			 <trkpt lat="39.98417" lon="-0.03541">
				 <ele>33.5</ele>
			 </trkpt>
			 <trkpt lat="39.984022" lon="-0.034856">
				 <ele>33.2</ele>
			 </trkpt>
			 <trkpt lat="39.983875" lon="-0.034301">
				 <ele>32.5</ele>
			 </trkpt>
			 <trkpt lat="39.983727" lon="-0.033747">
				 <ele>32.5</ele>
			 </trkpt>
			 <trkpt lat="39.98358" lon="-0.033193">
				 <ele>32.5</ele>
			 </trkpt>
			 <trkpt lat="39.983432" lon="-0.032638">
				 <ele>32.3</ele>
			 </trkpt>
			 <trkpt lat="39.983285" lon="-0.032084">
				 <ele>32.1</ele>
			 </trkpt>
			 <trkpt lat="39.983137" lon="-0.03153">
				 <ele>32</ele>
			 </trkpt>
			 <trkpt lat="39.982989" lon="-0.030975">
				 <ele>31.9</ele>
			 </trkpt>
			 <trkpt lat="39.982842" lon="-0.030421">
				 <ele>31.7</ele>
			 </trkpt>
			 <trkpt lat="39.982694" lon="-0.029867">
				 <ele>31.3</ele>
			 </trkpt>
			 <trkpt lat="39.98255" lon="-0.029327">
				 <ele>30.9</ele>
			 </trkpt>
			 <trkpt lat="39.98248" lon="-0.02934">
				 <ele>30.7</ele>
			 </trkpt>
			 <trkpt lat="39.982057" lon="-0.02954">
				 <ele>30.5</ele>
			 </trkpt>
			 <trkpt lat="39.981634" lon="-0.029739">
				 <ele>30.5</ele>
			 </trkpt>
			 <trkpt lat="39.981211" lon="-0.029939">
				 <ele>30.2</ele>
			 </trkpt>
			 <trkpt lat="39.980789" lon="-0.030138">
				 <ele>29.5</ele>
			 </trkpt>
			 <trkpt lat="39.980366" lon="-0.030338">
				 <ele>28.9</ele>
			 </trkpt>
			 <trkpt lat="39.979943" lon="-0.030537">
				 <ele>28</ele>
			 </trkpt>
			 <trkpt lat="39.97952" lon="-0.030737">
				 <ele>27</ele>
			 </trkpt>
			 <trkpt lat="39.979097" lon="-0.030936">
				 <ele>25.9</ele>
			 </trkpt>
			 <trkpt lat="39.978674" lon="-0.031136">
				 <ele>25.1</ele>
			 </trkpt>
			 <trkpt lat="39.978623" lon="-0.03116">
				 <ele>24.5</ele>
			 </trkpt>
			 <trkpt lat="39.978198" lon="-0.03135">
				 <ele>23.9</ele>
			 </trkpt>
			 <trkpt lat="39.978096" lon="-0.031396">
				 <ele>23.6</ele>
			 </trkpt>
			 <trkpt lat="39.977694" lon="-0.031587">
				 <ele>23.2</ele>
			 </trkpt>
			 <trkpt lat="39.977584" lon="-0.031688">
				 <ele>23</ele>
			 </trkpt>
			 <trkpt lat="39.97746" lon="-0.031838">
				 <ele>23.2</ele>
			 </trkpt>
			 <trkpt lat="39.977228" lon="-0.03234">
				 <ele>23.2</ele>
			 </trkpt>
			 <trkpt lat="39.976996" lon="-0.032843">
				 <ele>23.3</ele>
			 </trkpt>
			 <trkpt lat="39.976764" lon="-0.033346">
				 <ele>23.9</ele>
			 </trkpt>
			 <trkpt lat="39.976572" lon="-0.033762">
				 <ele>24.6</ele>
			 </trkpt>
			 <trkpt lat="39.976313" lon="-0.034179">
				 <ele>25.5</ele>
			 </trkpt>
			 <trkpt lat="39.97623" lon="-0.03448">
				 <ele>26</ele>
			 </trkpt>
			 <trkpt lat="39.976413" lon="-0.035016">
				 <ele>26.5</ele>
			 </trkpt>
			 <trkpt lat="39.976597" lon="-0.035552">
				 <ele>26.6</ele>
			 </trkpt>
			 <trkpt lat="39.97678" lon="-0.036087">
				 <ele>26.9</ele>
			 </trkpt>
			 <trkpt lat="39.976963" lon="-0.036623">
				 <ele>27.5</ele>
			 </trkpt>
			 <trkpt lat="39.977147" lon="-0.037159">
				 <ele>28</ele>
			 </trkpt>
			 <trkpt lat="39.97733" lon="-0.037695">
				 <ele>29</ele>
			 </trkpt>
			 <trkpt lat="39.977513" lon="-0.038231">
				 <ele>29.9</ele>
			 </trkpt>
			 <trkpt lat="39.977697" lon="-0.038766">
				 <ele>30.3</ele>
			 </trkpt>
			 <trkpt lat="39.97788" lon="-0.039302">
				 <ele>30.5</ele>
			 </trkpt>
			 <trkpt lat="39.978063" lon="-0.039838">
				 <ele>30.7</ele>
			 </trkpt>
			 <trkpt lat="39.978227" lon="-0.040315">
				 <ele>31.1</ele>
			 </trkpt>
			 <trkpt lat="39.97789" lon="-0.040703">
				 <ele>31.5</ele>
			 </trkpt>
			 <trkpt lat="39.97778" lon="-0.04083">
				 <ele>31.9</ele>
			 </trkpt>
			 <trkpt lat="39.97698" lon="-0.04183">
				 <ele>32</ele>
			 </trkpt>
			 <trkpt lat="39.97625" lon="-0.04317">
				 <ele>31.9</ele>
			 </trkpt>
			 <trkpt lat="39.97627" lon="-0.04323">
				 <ele>31.5</ele>
			 </trkpt>
			 <trkpt lat="39.97626" lon="-0.04337">
				 <ele>30.8</ele>
			 </trkpt>
			 <trkpt lat="39.97614" lon="-0.04345">
				 <ele>30.4</ele>
			 </trkpt>
			 <trkpt lat="39.97573" lon="-0.04398">
				 <ele>29.9</ele>
			 </trkpt>
			 <trkpt lat="39.97241" lon="-0.04962">
				 <ele>29.5</ele>
			 </trkpt>
			 <trkpt lat="39.9722" lon="-0.05005">
				 <ele>29</ele>
			 </trkpt>
			 <trkpt lat="39.97212" lon="-0.05021">
				 <ele>28.5</ele>
			 </trkpt>
			 <trkpt lat="39.97204" lon="-0.05025">
				 <ele>28.1</ele>
			 </trkpt>
			 <trkpt lat="39.97197" lon="-0.05026">
				 <ele>27.8</ele>
			 </trkpt>
			 <trkpt lat="39.97184" lon="-0.05019">
				 <ele>28.3</ele>
			 </trkpt>
			 <trkpt lat="39.97177" lon="-0.04998">
				 <ele>28.5</ele>
			 </trkpt>
			 <trkpt lat="39.971803" lon="-0.049805">
				 <ele>28.5</ele>
			 </trkpt>
			 <trkpt lat="39.972036" lon="-0.049666">
				 <ele>28.7</ele>
			 </trkpt>
			 <trkpt lat="39.972274" lon="-0.049596">
				 <ele>29.4</ele>
			 </trkpt>
			 <trkpt lat="39.972556" lon="-0.049229">
				 <ele>30.3</ele>
			 </trkpt>
			 <trkpt lat="39.972827" lon="-0.048761">
				 <ele>31</ele>
			 </trkpt>
			 <trkpt lat="39.973099" lon="-0.048293">
				 <ele>31.7</ele>
			 </trkpt>
			 <trkpt lat="39.97337" lon="-0.047825">
				 <ele>32.4</ele>
			 </trkpt>
			 <trkpt lat="39.973642" lon="-0.047358">
				 <ele>33</ele>
			 </trkpt>
			 <trkpt lat="39.973913" lon="-0.04689">
				 <ele>33.3</ele>
			 </trkpt>
			 <trkpt lat="39.974185" lon="-0.046422">
				 <ele>32.7</ele>
			 </trkpt>
			 <trkpt lat="39.974421" lon="-0.046015">
				 <ele>32.3</ele>
			 </trkpt>
			 <trkpt lat="39.974699" lon="-0.045554">
				 <ele>32.5</ele>
			 </trkpt>
			 <trkpt lat="39.974977" lon="-0.045093">
				 <ele>32.7</ele>
			 </trkpt>
			 <trkpt lat="39.975256" lon="-0.044632">
				 <ele>32.5</ele>
			 </trkpt>
			 <trkpt lat="39.97552" lon="-0.044195">
				 <ele>31.9</ele>
			 </trkpt>
			 <trkpt lat="39.975796" lon="-0.043732">
				 <ele>31.5</ele>
			 </trkpt>
			 <trkpt lat="39.975947" lon="-0.043479">
				 <ele>31.1</ele>
			 </trkpt>
			 <trkpt lat="39.976054" lon="-0.043238">
				 <ele>30.9</ele>
			 </trkpt>
			 <trkpt lat="39.976098" lon="-0.043105">
				 <ele>30.8</ele>
			 </trkpt>
			 <trkpt lat="39.976224" lon="-0.043029">
				 <ele>30.9</ele>
			 </trkpt>
			 <trkpt lat="39.976511" lon="-0.042577">
				 <ele>31.3</ele>
			 </trkpt>
			 <trkpt lat="39.976799" lon="-0.042126">
				 <ele>31.9</ele>
			 </trkpt>
			 <trkpt lat="39.976987" lon="-0.041831">
				 <ele>32</ele>
			 </trkpt>
			 <trkpt lat="39.977311" lon="-0.041424">
				 <ele>32</ele>
			 </trkpt>
			 <trkpt lat="39.977635" lon="-0.041017">
				 <ele>31.6</ele>
			 </trkpt>
			 <trkpt lat="39.977959" lon="-0.040611">
				 <ele>31.2</ele>
			 </trkpt>
			 <trkpt lat="39.978211" lon="-0.040294">
				 <ele>31</ele>
			 </trkpt>
			 <trkpt lat="39.978023" lon="-0.039762">
				 <ele>30.7</ele>
			 </trkpt>
			 <trkpt lat="39.977835" lon="-0.039229">
				 <ele>30.5</ele>
			 </trkpt>
			 <trkpt lat="39.977646" lon="-0.038696">
				 <ele>30.1</ele>
			 </trkpt>
			 <trkpt lat="39.977458" lon="-0.038163">
				 <ele>29.5</ele>
			 </trkpt>
			 <trkpt lat="39.97727" lon="-0.03763">
				 <ele>28.5</ele>
			 </trkpt>
			 <trkpt lat="39.977081" lon="-0.037097">
				 <ele>27.4</ele>
			 </trkpt>
			 <trkpt lat="39.976893" lon="-0.036564">
				 <ele>26.3</ele>
			 </trkpt>
			 <trkpt lat="39.976705" lon="-0.036032">
				 <ele>25.1</ele>
			 </trkpt>
			 <trkpt lat="39.976516" lon="-0.035499">
				 <ele>24.4</ele>
			 </trkpt>
			 <trkpt lat="39.976328" lon="-0.034966">
				 <ele>23.8</ele>
			 </trkpt>
			 <trkpt lat="39.976282" lon="-0.034835">
				 <ele>23.5</ele>
			 </trkpt>
			 <trkpt lat="39.976023" lon="-0.034537">
				 <ele>23.3</ele>
			 </trkpt>
			 <trkpt lat="39.975944" lon="-0.034343">
				 <ele>22.9</ele>
			 </trkpt>
			 <trkpt lat="39.97596" lon="-0.03419">
				 <ele>22.6</ele>
			 </trkpt>
			 <trkpt lat="39.976055" lon="-0.034092">
				 <ele>22.5</ele>
			 </trkpt>
			 <trkpt lat="39.976204" lon="-0.03406">
				 <ele>22.5</ele>
			 </trkpt>
			 <trkpt lat="39.976389" lon="-0.033996">
				 <ele>22.5</ele>
			 </trkpt>
			 <trkpt lat="39.97655" lon="-0.033738">
				 <ele>22.7</ele>
			 </trkpt>
			 <trkpt lat="39.976783" lon="-0.033237">
				 <ele>22.9</ele>
			 </trkpt>
			 <trkpt lat="39.977016" lon="-0.032735">
				 <ele>23.3</ele>
			 </trkpt>
			 <trkpt lat="39.97725" lon="-0.032233">
				 <ele>24.2</ele>
			 </trkpt>
			 <trkpt lat="39.977437" lon="-0.031831">
				 <ele>24.5</ele>
			 </trkpt>
			 <trkpt lat="39.977544" lon="-0.031667">
				 <ele>24.8</ele>
			 </trkpt>
			 <trkpt lat="39.97769" lon="-0.03155">
				 <ele>25</ele>
			 </trkpt>
			 <trkpt lat="39.97858" lon="-0.03116">
				 <ele>25.2</ele>
			 </trkpt>
			 <trkpt lat="39.97941" lon="-0.03076">
				 <ele>25.3</ele>
			 </trkpt>
			 <trkpt lat="39.98089" lon="-0.03007">
				 <ele>25.6</ele>
			 </trkpt>
			 <trkpt lat="39.9834" lon="-0.02888">
				 <ele>26</ele>
			 </trkpt>
			 <trkpt lat="39.98388" lon="-0.02865">
				 <ele>25.6</ele>
			 </trkpt>
			 <trkpt lat="39.98401" lon="-0.02858">
				 <ele>25.2</ele>
			 </trkpt>
			 <trkpt lat="39.98414" lon="-0.02841">
				 <ele>24.5</ele>
			 </trkpt>
			 <trkpt lat="39.98434" lon="-0.02799">
				 <ele>23</ele>
			 </trkpt>
			 <trkpt lat="39.98434" lon="-0.02778">
				 <ele>21.6</ele>
			 </trkpt>
			 <trkpt lat="39.98387" lon="-0.02541">
				 <ele>20.3</ele>
			 </trkpt>
			 <trkpt lat="39.98377" lon="-0.02514">
				 <ele>19.1</ele>
			 </trkpt>
			 <trkpt lat="39.98372" lon="-0.02508">
				 <ele>18.3</ele>
			 </trkpt>
			 <trkpt lat="39.98363" lon="-0.02503">
				 <ele>17.2</ele>
			 </trkpt>
			 <trkpt lat="39.98355" lon="-0.0248">
				 <ele>15.8</ele>
			 </trkpt>
			 <trkpt lat="39.9836" lon="-0.02461">
				 <ele>14.5</ele>
			 </trkpt>
			 <trkpt lat="39.9836" lon="-0.0244">
				 <ele>13.9</ele>
			 </trkpt>
			 <trkpt lat="39.9834" lon="-0.02348">
				 <ele>13.5</ele>
			 </trkpt>
			 <trkpt lat="39.98313" lon="-0.02218">
				 <ele>13.1</ele>
			 </trkpt>
			 <trkpt lat="39.98248" lon="-0.01891">
				 <ele>12.8</ele>
			 </trkpt>
			 <trkpt lat="39.98222" lon="-0.01771">
				 <ele>12.2</ele>
			 </trkpt>
			 <trkpt lat="39.98208" lon="-0.01756">
				 <ele>11.3</ele>
			 </trkpt>
			 <trkpt lat="39.98207" lon="-0.01729">
				 <ele>10.3</ele>
			 </trkpt>
			 <trkpt lat="39.98216" lon="-0.01714">
				 <ele>9.1</ele>
			 </trkpt>
			 <trkpt lat="39.98182" lon="-0.01549">
				 <ele>8.3</ele>
			 </trkpt>
			 <trkpt lat="39.98089" lon="-0.01089">
				 <ele>7.7</ele>
			 </trkpt>
			 <trkpt lat="39.98076" lon="-0.01046">
				 <ele>7.1</ele>
			 </trkpt>
			 <trkpt lat="39.98068" lon="-0.01044">
				 <ele>6.5</ele>
			 </trkpt>
			 <trkpt lat="39.98054" lon="-0.01031">
				 <ele>5.7</ele>
			 </trkpt>
			 <trkpt lat="39.98046" lon="-0.01002">
				 <ele>5</ele>
			 </trkpt>
			 <trkpt lat="39.98055" lon="-0.00973">
				 <ele>4.2</ele>
			 </trkpt>
			 <trkpt lat="39.98061" lon="-0.00966">
				 <ele>3.8</ele>
			 </trkpt>
			 <trkpt lat="39.98055" lon="-0.00922">
				 <ele>3.6</ele>
			 </trkpt>
			 <trkpt lat="39.98024" lon="-0.00769">
				 <ele>3.3</ele>
			 </trkpt>
			 <trkpt lat="39.97965" lon="-0.00476">
				 <ele>2.9</ele>
			 </trkpt>
			 <trkpt lat="39.97951" lon="-0.00464">
				 <ele>2.5</ele>
			 </trkpt>
			 <trkpt lat="39.97954" lon="-0.00438">
				 <ele>2.2</ele>
			 </trkpt>
			 <trkpt lat="39.97932" lon="-0.00297">
				 <ele>2.2</ele>
			 </trkpt>
			 <trkpt lat="39.97878" lon="-0.00027">
				 <ele>2.1</ele>
			 </trkpt>
			 <trkpt lat="39.97804" lon="0.00338">
				 <ele>2.5</ele>
			 </trkpt>
			 <trkpt lat="39.97695" lon="0.00868">
				 <ele>2.8</ele>
			 </trkpt>
			 <trkpt lat="39.97672" lon="0.0098">
				 <ele>3.3</ele>
			 </trkpt>
			 <trkpt lat="39.97644" lon="0.01141">
				 <ele>3.7</ele>
			 </trkpt>
			 <trkpt lat="39.97636" lon="0.01163">
				 <ele>4.1</ele>
			 </trkpt>
			 <trkpt lat="39.97631" lon="0.01176">
				 <ele>4.7</ele>
			 </trkpt>
			 <trkpt lat="39.97614" lon="0.01185">
				 <ele>5.3</ele>
			 </trkpt>
			 <trkpt lat="39.9742" lon="0.01076">
				 <ele>5.9</ele>
			 </trkpt>
			 <trkpt lat="39.97328" lon="0.01031">
				 <ele>6.4</ele>
			 </trkpt>
			 <trkpt lat="39.9728" lon="0.0101">
				 <ele>6.5</ele>
			 </trkpt>
			 <trkpt lat="39.972511" lon="0.009972">
				 <ele>6.5</ele>
			 </trkpt>
			 <trkpt lat="39.972445" lon="0.009943">
				 <ele>6.4</ele>
			 </trkpt>
			 <trkpt lat="39.972351" lon="0.009904">
				 <ele>6.5</ele>
			 </trkpt>
			 <trkpt lat="39.972289" lon="0.010155">
				 <ele>6.6</ele>
			 </trkpt>
			 <trkpt lat="39.972188" lon="0.010561">
				 <ele>6.9</ele>
			 </trkpt>
			 <trkpt lat="39.972141" lon="0.010634">
				 <ele>7.4</ele>
			 </trkpt>
			 <trkpt lat="39.972125" lon="0.010697">
				 <ele>8</ele>
			 </trkpt>
			 <trkpt lat="39.972002" lon="0.011172">
				 <ele>8.6</ele>
			 </trkpt>
			 <trkpt lat="39.971981" lon="0.011252">
				 <ele>9.1</ele>
			 </trkpt>
			 <trkpt lat="39.971866" lon="0.011696">
				 <ele>9.2</ele>
			 </trkpt>
			 <trkpt lat="39.97185" lon="0.011821">
				 <ele>9.5</ele>
			 </trkpt>
			 <trkpt lat="39.971771" lon="0.012124">
				 <ele>9.6</ele>
			 </trkpt>
			 <trkpt lat="39.971703" lon="0.012384">
				 <ele>9.5</ele>
			 </trkpt>
			 <trkpt lat="39.971668" lon="0.012519">
				 <ele>8.8</ele>
			 </trkpt>
			 <trkpt lat="39.971526" lon="0.013066">
				 <ele>8.1</ele>
			 </trkpt>
			 <trkpt lat="39.971457" lon="0.01333">
				 <ele>7.3</ele>
			 </trkpt>
			 <trkpt lat="39.971436" lon="0.013408">
				 <ele>6.3</ele>
			 </trkpt>
			 <trkpt lat="39.971299" lon="0.013967">
				 <ele>5</ele>
			 </trkpt>
			 <trkpt lat="39.971157" lon="0.014524">
				 <ele>3.7</ele>
			 </trkpt>
			 <trkpt lat="39.971097" lon="0.014761">
				 <ele>2.7</ele>
			 </trkpt>
			 <trkpt lat="39.971489" lon="0.015049">
				 <ele>2.1</ele>
			 </trkpt>
			 <trkpt lat="39.97188" lon="0.015338">
				 <ele>1.5</ele>
			 </trkpt>
			 <trkpt lat="39.972272" lon="0.015626">
				 <ele>0.9</ele>
			 </trkpt>
			 <trkpt lat="39.972664" lon="0.015915">
				 <ele>0.7</ele>
			 </trkpt>
			 <trkpt lat="39.973055" lon="0.016203">
				 <ele>0.8</ele>
			 </trkpt>
			 <trkpt lat="39.973159" lon="0.01628">
				 <ele>0.9</ele>
			 </trkpt>
			 <trkpt lat="39.973552" lon="0.016564">
				 <ele>1</ele>
			 </trkpt>
			 <trkpt lat="39.973946" lon="0.016849">
				 <ele>1.2</ele>
			 </trkpt>
			 <trkpt lat="39.974339" lon="0.017133">
				 <ele>1.4</ele>
			 </trkpt>
			 <trkpt lat="39.974732" lon="0.017418">
				 <ele>1.5</ele>
			 </trkpt>
			 <trkpt lat="39.974838" lon="0.017494">
				 <ele>1.6</ele>
			 </trkpt>
			 <trkpt lat="39.974911" lon="0.0179">
				 <ele>1.6</ele>
			 </trkpt>
			 <trkpt lat="39.97506" lon="0.01795">
				 <ele>1.6</ele>
			 </trkpt>
			 <trkpt lat="39.97509" lon="0.01795">
				 <ele>1.7</ele>
			 </trkpt>
			 <trkpt lat="39.97522" lon="0.01782">
				 <ele>1.8</ele>
			 </trkpt>
			 <trkpt lat="39.97521" lon="0.01765">
				 <ele>1.9</ele>
			 </trkpt>
			 <trkpt lat="39.9751" lon="0.01755">
				 <ele>2.2</ele>
			 </trkpt>
			 <trkpt lat="39.97506" lon="0.01754">
				 <ele>2.5</ele>
			 </trkpt>
			 <trkpt lat="39.97489" lon="0.01735">
				 <ele>2.7</ele>
			 </trkpt>
			 <trkpt lat="39.97483" lon="0.01664">
				 <ele>2.8</ele>
			 </trkpt>
			 <trkpt lat="39.97487" lon="0.01638">
				 <ele>2.9</ele>
			 </trkpt>
			 <trkpt lat="39.97496" lon="0.01602">
				 <ele>3.4</ele>
			 </trkpt>
			 <trkpt lat="39.97502" lon="0.01596">
				 <ele>3.8</ele>
			 </trkpt>
			 <trkpt lat="39.97525" lon="0.01583">
				 <ele>4.1</ele>
			 </trkpt>
			 <trkpt lat="39.97594" lon="0.01626">
				 <ele>4.3</ele>
			 </trkpt>
			 <trkpt lat="39.97656" lon="0.01664">
				 <ele>4.4</ele>
			 </trkpt>
			 <trkpt lat="39.97788" lon="0.01745">
				 <ele>4.4</ele>
			 </trkpt>
			 <trkpt lat="39.97821" lon="0.01767">
				 <ele>4.2</ele>
			 </trkpt>
			 <trkpt lat="39.97831" lon="0.01788">
				 <ele>4</ele>
			 </trkpt>
			 <trkpt lat="39.97828" lon="0.01797">
				 <ele>3.8</ele>
			 </trkpt>
			 <trkpt lat="39.9783" lon="0.01817">
				 <ele>3.8</ele>
			 </trkpt>
			 <trkpt lat="39.97844" lon="0.0183">
				 <ele>4</ele>
			 </trkpt>
			 <trkpt lat="39.97856" lon="0.01828">
				 <ele>3.8</ele>
			 </trkpt>
			 <trkpt lat="39.97866" lon="0.01816">
				 <ele>3.6</ele>
			 </trkpt>
			 <trkpt lat="39.97867" lon="0.0181">
				 <ele>3.5</ele>
			 </trkpt>
			 <trkpt lat="39.97896" lon="0.01807">
				 <ele>3.7</ele>
			 </trkpt>
			 <trkpt lat="39.97937" lon="0.0183">
				 <ele>3.8</ele>
			 </trkpt>
			 <trkpt lat="39.9824" lon="0.01998">
				 <ele>3.7</ele>
			 </trkpt>
			 <trkpt lat="39.98305" lon="0.02032">
				 <ele>3.6</ele>
			 </trkpt>
			 <trkpt lat="39.98568" lon="0.02178">
				 <ele>3.5</ele>
			 </trkpt>
			 <trkpt lat="39.98841" lon="0.02328">
				 <ele>3.5</ele>
			 </trkpt>
			 <trkpt lat="39.99146" lon="0.02495">
				 <ele>3.4</ele>
			 </trkpt>
			 <trkpt lat="39.99359" lon="0.02612">
				 <ele>3.1</ele>
			 </trkpt>
			 <trkpt lat="39.99378" lon="0.02629">
				 <ele>2.8</ele>
			 </trkpt>
			 <trkpt lat="39.99379" lon="0.02645">
				 <ele>2.6</ele>
			 </trkpt>
			 <trkpt lat="39.99395" lon="0.02659">
				 <ele>2.5</ele>
			 </trkpt>
			 <trkpt lat="39.99408" lon="0.02653">
				 <ele>2.2</ele>
			 </trkpt>
			 <trkpt lat="39.99415" lon="0.02639">
				 <ele>2</ele>
			 </trkpt>
			 <trkpt lat="39.99413" lon="0.02624">
				 <ele>2.1</ele>
			 </trkpt>
			 <trkpt lat="39.99398" lon="0.02611">
				 <ele>2.3</ele>
			 </trkpt>
			 <trkpt lat="39.99386" lon="0.02614">
				 <ele>2.5</ele>
			 </trkpt>
			 <trkpt lat="39.99381" lon="0.02621">
				 <ele>2.7</ele>
			 </trkpt>
			 <trkpt lat="39.99359" lon="0.02612">
				 <ele>2.9</ele>
			 </trkpt>
			 <trkpt lat="39.99225" lon="0.0254">
				 <ele>3</ele>
			 </trkpt>
			 <trkpt lat="39.98788" lon="0.02299">
				 <ele>3.1</ele>
			 </trkpt>
			 <trkpt lat="39.98344" lon="0.02055">
				 <ele>3.2</ele>
			 </trkpt>
			 <trkpt lat="39.9828" lon="0.02018">
				 <ele>3.4</ele>
			 </trkpt>
			 <trkpt lat="39.98037" lon="0.01886">
				 <ele>3.5</ele>
			 </trkpt>
			 <trkpt lat="39.97887" lon="0.01799">
				 <ele>3.7</ele>
			 </trkpt>
			 <trkpt lat="39.97881" lon="0.01797">
				 <ele>3.9</ele>
			 </trkpt>
			 <trkpt lat="39.97867" lon="0.01796">
				 <ele>4.1</ele>
			 </trkpt>
			 <trkpt lat="39.97864" lon="0.0179">
				 <ele>4.3</ele>
			 </trkpt>
			 <trkpt lat="39.97858" lon="0.01782">
				 <ele>4.2</ele>
			 </trkpt>
			 <trkpt lat="39.97845" lon="0.01778">
				 <ele>4.3</ele>
			 </trkpt>
			 <trkpt lat="39.97828" lon="0.01768">
				 <ele>4.5</ele>
			 </trkpt>
			 <trkpt lat="39.97817" lon="0.01762">
				 <ele>4.7</ele>
			 </trkpt>
			 <trkpt lat="39.97781" lon="0.01741">
				 <ele>5.1</ele>
			 </trkpt>
			 <trkpt lat="39.97656" lon="0.01664">
				 <ele>5.5</ele>
			 </trkpt>
			 <trkpt lat="39.97529" lon="0.01586">
				 <ele>5.6</ele>
			 </trkpt>
			 <trkpt lat="39.97518" lon="0.0157">
				 <ele>5.8</ele>
			 </trkpt>
			 <trkpt lat="39.97515" lon="0.01539">
				 <ele>5.9</ele>
			 </trkpt>
			 <trkpt lat="39.97537" lon="0.01482">
				 <ele>5.8</ele>
			 </trkpt>
			 <trkpt lat="39.97565" lon="0.01403">
				 <ele>5.6</ele>
			 </trkpt>
			 <trkpt lat="39.97629" lon="0.0123">
				 <ele>5.7</ele>
			 </trkpt>
			 <trkpt lat="39.9764" lon="0.01205">
				 <ele>5.6</ele>
			 </trkpt>
			 <trkpt lat="39.97645" lon="0.0121">
				 <ele>5.5</ele>
			 </trkpt>
			 <trkpt lat="39.97658" lon="0.01211">
				 <ele>4.9</ele>
			 </trkpt>
			 <trkpt lat="39.97672" lon="0.01197">
				 <ele>4.3</ele>
			 </trkpt>
			 <trkpt lat="39.97675" lon="0.01173">
				 <ele>3.7</ele>
			 </trkpt>
			 <trkpt lat="39.97664" lon="0.01155">
				 <ele>3.4</ele>
			 </trkpt>
			 <trkpt lat="39.97655" lon="0.01118">
				 <ele>3</ele>
			 </trkpt>
			 <trkpt lat="39.97695" lon="0.00922">
				 <ele>2.6</ele>
			 </trkpt>
			 <trkpt lat="39.97754" lon="0.00642">
				 <ele>2.4</ele>
			 </trkpt>
			 <trkpt lat="39.97856" lon="0.00123">
				 <ele>2.2</ele>
			 </trkpt>
			 <trkpt lat="39.97925" lon="-0.00219">
				 <ele>2.1</ele>
			 </trkpt>
			 <trkpt lat="39.97969" lon="-0.00429">
				 <ele>2.1</ele>
			 </trkpt>
			 <trkpt lat="39.97977" lon="-0.00432">
				 <ele>2.1</ele>
			 </trkpt>
			 <trkpt lat="39.97984" lon="-0.00443">
				 <ele>2.4</ele>
			 </trkpt>
			 <trkpt lat="39.97982" lon="-0.00467">
				 <ele>2.6</ele>
			 </trkpt>
			 <trkpt lat="39.97996" lon="-0.00544">
				 <ele>2.8</ele>
			 </trkpt>
			 <trkpt lat="39.98075" lon="-0.00933">
				 <ele>3.2</ele>
			 </trkpt>
			 <trkpt lat="39.98089" lon="-0.00961">
				 <ele>3.5</ele>
			 </trkpt>
			 <trkpt lat="39.98104" lon="-0.00973">
				 <ele>4</ele>
			 </trkpt>
			 <trkpt lat="39.98112" lon="-0.01001">
				 <ele>4.5</ele>
			 </trkpt>
			 <trkpt lat="39.98099" lon="-0.01038">
				 <ele>5</ele>
			 </trkpt>
			 <trkpt lat="39.9811" lon="-0.01107">
				 <ele>5.7</ele>
			 </trkpt>
			 <trkpt lat="39.98111" lon="-0.01113">
				 <ele>6.4</ele>
			 </trkpt>
			 <trkpt lat="39.98127" lon="-0.01193">
				 <ele>7</ele>
			 </trkpt>
			 <trkpt lat="39.98142" lon="-0.01269">
				 <ele>7.7</ele>
			 </trkpt>
			 <trkpt lat="39.9822" lon="-0.01649">
				 <ele>9</ele>
			 </trkpt>
			 <trkpt lat="39.98234" lon="-0.01709">
				 <ele>9.9</ele>
			 </trkpt>
			 <trkpt lat="39.98248" lon="-0.0172">
				 <ele>10.8</ele>
			 </trkpt>
			 <trkpt lat="39.98254" lon="-0.01746">
				 <ele>11.8</ele>
			 </trkpt>
			 <trkpt lat="39.98245" lon="-0.01766">
				 <ele>12.8</ele>
			 </trkpt>
			 <trkpt lat="39.98356" lon="-0.02311">
				 <ele>14.5</ele>
			 </trkpt>
			 <trkpt lat="39.98389" lon="-0.02453">
				 <ele>16</ele>
			 </trkpt>
			 <trkpt lat="39.98399" lon="-0.0247">
				 <ele>17.3</ele>
			 </trkpt>
			 <trkpt lat="39.98398" lon="-0.02494">
				 <ele>18.5</ele>
			 </trkpt>
			 <trkpt lat="39.98392" lon="-0.02525">
				 <ele>19.5</ele>
			 </trkpt>
			 <trkpt lat="39.98443" lon="-0.02775">
				 <ele>20.4</ele>
			 </trkpt>
			 <trkpt lat="39.98452" lon="-0.02794">
				 <ele>20.6</ele>
			 </trkpt>
			 <trkpt lat="39.9846" lon="-0.028">
				 <ele>21.4</ele>
			 </trkpt>
			 <trkpt lat="39.98488" lon="-0.02791">
				 <ele>22.8</ele>
			 </trkpt>
			 <trkpt lat="39.98522" lon="-0.02783">
				 <ele>23.9</ele>
			 </trkpt>
			 <trkpt lat="39.98642" lon="-0.0274">
				 <ele>24.9</ele>
			 </trkpt>
			 <trkpt lat="39.98758" lon="-0.02698">
				 <ele>25.2</ele>
			 </trkpt>
			 <trkpt lat="39.98771" lon="-0.02774">
				 <ele>25.6</ele>
			 </trkpt>
			 <trkpt lat="39.98837" lon="-0.03171">
				 <ele>26.2</ele>
			 </trkpt>
			 <trkpt lat="39.98872" lon="-0.0339">
				 <ele>27.1</ele>
			 </trkpt>
			 <trkpt lat="39.988714" lon="-0.03411">
				 <ele>28.5</ele>
			 </trkpt>
			 <trkpt lat="39.988578" lon="-0.034172">
				 <ele>29.5</ele>
			 </trkpt>
			 <trkpt lat="39.988303" lon="-0.034229">
				 <ele>30.5</ele>
			 </trkpt>
			 <trkpt lat="39.987886" lon="-0.034007">
				 <ele>31.3</ele>
			 </trkpt>
			 <trkpt lat="39.987481" lon="-0.03379">
				 <ele>31.4</ele>
			 </trkpt>
			 <trkpt lat="39.98727" lon="-0.03377">
				 <ele>31.5</ele>
			 </trkpt>
			 <trkpt lat="39.98651" lon="-0.03403">
				 <ele>32.2</ele>
			 </trkpt>
			 <trkpt lat="39.98505" lon="-0.03501">
				 <ele>33.2</ele>
			 </trkpt>
			 <trkpt lat="39.98477" lon="-0.03518">
				 <ele>34.2</ele>
			 </trkpt>
			 <trkpt lat="39.98417" lon="-0.03541">
				 <ele>34.8</ele>
			 </trkpt>
			 <trkpt lat="39.98366" lon="-0.03555">
				 <ele>35.1</ele>
			 </trkpt>
			 <trkpt lat="39.98264" lon="-0.03577">
				 <ele>35.3</ele>
			 </trkpt>
			 <trkpt lat="39.98178" lon="-0.03602">
				 <ele>35.5</ele>
			 </trkpt>
			 <trkpt lat="39.981604" lon="-0.036093">
				 <ele>35.8</ele>
			 </trkpt>
			 <trkpt lat="39.981278" lon="-0.036497">
				 <ele>36.6</ele>
			 </trkpt>
			 <trkpt lat="39.980952" lon="-0.036901">
				 <ele>37.5</ele>
			 </trkpt>
			 <trkpt lat="39.980626" lon="-0.037306">
				 <ele>38.3</ele>
			 </trkpt>
			 <trkpt lat="39.9803" lon="-0.03771">
				 <ele>38.8</ele>
			 </trkpt>
			 <trkpt lat="39.979974" lon="-0.038114">
				 <ele>38.6</ele>
			 </trkpt>
			 <trkpt lat="39.979648" lon="-0.038519">
				 <ele>37.9</ele>
			 </trkpt>
			 <trkpt lat="39.979323" lon="-0.038923">
				 <ele>37.4</ele>
			 </trkpt>
			 <trkpt lat="39.978997" lon="-0.039327">
				 <ele>37</ele>
			 </trkpt>
			 <trkpt lat="39.978671" lon="-0.039732">
				 <ele>36.5</ele>
			 </trkpt>
			 <trkpt lat="39.978345" lon="-0.040136">
				 <ele>36.2</ele>
			 </trkpt>
			 <trkpt lat="39.978019" lon="-0.040541">
				 <ele>35.8</ele>
			 </trkpt>
			 <trkpt lat="39.977693" lon="-0.040945">
				 <ele>35.1</ele>
			 </trkpt>
			 <trkpt lat="39.977367" lon="-0.041349">
				 <ele>34.1</ele>
			 </trkpt>
			 <trkpt lat="39.977042" lon="-0.041754">
				 <ele>33.5</ele>
			 </trkpt>
			 <trkpt lat="39.97698" lon="-0.04183">
				 <ele>32.5</ele>
			 </trkpt>
			 <trkpt lat="39.97675" lon="-0.04221">
				 <ele>31.7</ele>
			 </trkpt>
			 <trkpt lat="39.97625" lon="-0.04317">
				 <ele>31.9</ele>
			 </trkpt>
			 <trkpt lat="39.97628" lon="-0.0433">
				 <ele>32.2</ele>
			 </trkpt>
			 <trkpt lat="39.97619" lon="-0.04344">
				 <ele>31.9</ele>
			 </trkpt>
			 <trkpt lat="39.97611" lon="-0.04344">
				 <ele>31.5</ele>
			 </trkpt>
			 <trkpt lat="39.97573" lon="-0.04398">
				 <ele>31.2</ele>
			 </trkpt>
			 <trkpt lat="39.9747" lon="-0.04574">
				 <ele>31.4</ele>
			 </trkpt>
			 <trkpt lat="39.97284" lon="-0.04891">
				 <ele>31.5</ele>
			 </trkpt>
			 <trkpt lat="39.97233" lon="-0.04975">
				 <ele>31.6</ele>
			 </trkpt>
			 <trkpt lat="39.97219" lon="-0.05007">
				 <ele>31.9</ele>
			 </trkpt>
			 <trkpt lat="39.97221" lon="-0.0503">
				 <ele>32.2</ele>
			 </trkpt>
			 <trkpt lat="39.97257" lon="-0.05115">
				 <ele>32.7</ele>
			 </trkpt>
			 <trkpt lat="39.97276" lon="-0.05155">
				 <ele>33.1</ele>
			 </trkpt>
			 <trkpt lat="39.973" lon="-0.05199">
				 <ele>33.3</ele>
			 </trkpt>
			 <trkpt lat="39.97309" lon="-0.05205">
				 <ele>33.9</ele>
			 </trkpt>
			 <trkpt lat="39.9733" lon="-0.05195">
				 <ele>34.8</ele>
			 </trkpt>
			 <trkpt lat="39.97464" lon="-0.05009">
				 <ele>35.6</ele>
			 </trkpt>
			 <trkpt lat="39.97532" lon="-0.04913">
				 <ele>36</ele>
			 </trkpt>
			 <trkpt lat="39.97688" lon="-0.04699">
				 <ele>36.5</ele>
			 </trkpt>
			 <trkpt lat="39.97688" lon="-0.04693">
				 <ele>36.9</ele>
			 </trkpt>
			 <trkpt lat="39.97693" lon="-0.04685">
				 <ele>37.5</ele>
			 </trkpt>
			 <trkpt lat="39.97704" lon="-0.0469">
				 <ele>38.2</ele>
			 </trkpt>
			 <trkpt lat="39.97705" lon="-0.04701">
				 <ele>38</ele>
			 </trkpt>
			 <trkpt lat="39.97803" lon="-0.04756">
				 <ele>37.9</ele>
			 </trkpt>
			 <trkpt lat="39.97834" lon="-0.04775">
				 <ele>38</ele>
			 </trkpt>
			 <trkpt lat="39.97894" lon="-0.04837">
				 <ele>38.2</ele>
			 </trkpt>
			 <trkpt lat="39.97916" lon="-0.0487">
				 <ele>38</ele>
			 </trkpt>
			 <trkpt lat="39.97973" lon="-0.0502">
				 <ele>38.4</ele>
			 </trkpt>
			 <trkpt lat="39.98036" lon="-0.05184">
				 <ele>38.6</ele>
			 </trkpt>
			 <trkpt lat="39.98024" lon="-0.05196">
				 <ele>38.8</ele>
			 </trkpt>
			 <trkpt lat="39.97914" lon="-0.05313">
				 <ele>38.6</ele>
			 </trkpt>
			 <trkpt lat="39.9785" lon="-0.05369">
				 <ele>38.1</ele>
			 </trkpt>
			 <trkpt lat="39.97744" lon="-0.05469">
				 <ele>37.5</ele>
			 </trkpt>
			 <trkpt lat="39.97639" lon="-0.05568">
				 <ele>38</ele>
			 </trkpt>
			 <trkpt lat="39.97578" lon="-0.05628">
				 <ele>38.1</ele>
			 </trkpt>
			 <trkpt lat="39.975448" lon="-0.056675">
				 <ele>38.3</ele>
			 </trkpt>
			 <trkpt lat="39.975263" lon="-0.056896">
				 <ele>38.5</ele>
			 </trkpt>
			 <trkpt lat="39.975479" lon="-0.05741">
				 <ele>38.6</ele>
			 </trkpt>
			 <trkpt lat="39.975673" lon="-0.057871">
				 <ele>38.8</ele>
			 </trkpt>
			 <trkpt lat="39.97591" lon="-0.05791">
				 <ele>39.1</ele>
			 </trkpt>
			 <trkpt lat="39.97641" lon="-0.05749">
				 <ele>39.1</ele>
			 </trkpt>
			 <trkpt lat="39.97755" lon="-0.05647">
				 <ele>39.4</ele>
			 </trkpt>
			 <trkpt lat="39.9794" lon="-0.05481">
				 <ele>39.7</ele>
			 </trkpt>
			 <trkpt lat="39.98163" lon="-0.0528">
				 <ele>40.2</ele>
			 </trkpt>
			 <trkpt lat="39.98212" lon="-0.05236">
				 <ele>40.4</ele>
			 </trkpt>
			 <trkpt lat="39.98219" lon="-0.05216">
				 <ele>40.7</ele>
			 </trkpt>
			 <trkpt lat="39.98234" lon="-0.05198">
				 <ele>40.8</ele>
			 </trkpt>
			 <trkpt lat="39.98243" lon="-0.052">
				 <ele>40.5</ele>
			 </trkpt>
			 <trkpt lat="39.9828" lon="-0.05175">
				 <ele>41</ele>
			 </trkpt>
			 <trkpt lat="39.98374" lon="-0.0509">
				 <ele>41</ele>
			 </trkpt>
			 <trkpt lat="39.98513" lon="-0.04966">
				 <ele>41</ele>
			 </trkpt>
			 <trkpt lat="39.98533" lon="-0.04949">
				 <ele>40.5</ele>
			 </trkpt>
			 <trkpt lat="39.98543" lon="-0.04932">
				 <ele>40.4</ele>
			 </trkpt>
			 <trkpt lat="39.98537" lon="-0.0484">
				 <ele>40.4</ele>
			 </trkpt>
			 <trkpt lat="39.98529" lon="-0.04749">
				 <ele>40.5</ele>
			 </trkpt>
			 <trkpt lat="39.98528" lon="-0.04712">
				 <ele>40.5</ele>
			 </trkpt>
			 <trkpt lat="39.98511" lon="-0.04566">
				 <ele>40.2</ele>
			 </trkpt>
			 <trkpt lat="39.98501" lon="-0.04466">
				 <ele>40.1</ele>
			 </trkpt>
			 <trkpt lat="39.98325" lon="-0.04499">
				 <ele>40.4</ele>
			 </trkpt>
			 <trkpt lat="39.98292" lon="-0.04507">
				 <ele>40.7</ele>
			 </trkpt>
			 <trkpt lat="39.98389" lon="-0.04811">
				 <ele>40.4</ele>
			 </trkpt>
			 <trkpt lat="39.98392" lon="-0.04812">
				 <ele>40.4</ele>
			 </trkpt>
			 <trkpt lat="39.98395" lon="-0.04818">
				 <ele>40.5</ele>
			 </trkpt>
			 <trkpt lat="39.98387" lon="-0.04829">
				 <ele>40.4</ele>
			 </trkpt>
			 <trkpt lat="39.98328" lon="-0.04889">
				 <ele>40</ele>
			 </trkpt>
			 <trkpt lat="39.98169" lon="-0.05041">
				 <ele>39.5</ele>
			 </trkpt>
			 <trkpt lat="39.9815" lon="-0.04988">
				 <ele>39.2</ele>
			 </trkpt>
			 <trkpt lat="39.97975" lon="-0.04486">
				 <ele>38.8</ele>
			 </trkpt>
			 <trkpt lat="39.9796" lon="-0.04431">
				 <ele>38.5</ele>
			 </trkpt>
			 <trkpt lat="39.9794" lon="-0.04373">
				 <ele>37.6</ele>
			 </trkpt>
			 <trkpt lat="39.97937" lon="-0.04372">
				 <ele>36.8</ele>
			 </trkpt>
			 <trkpt lat="39.97932" lon="-0.04364">
				 <ele>36.9</ele>
			 </trkpt>
			 <trkpt lat="39.97934" lon="-0.04358">
				 <ele>36.7</ele>
			 </trkpt>
			 <trkpt lat="39.9788" lon="-0.04202">
				 <ele>37</ele>
			 </trkpt>
			 <trkpt lat="39.97863" lon="-0.04154">
				 <ele>37.3</ele>
			 </trkpt>
			 <trkpt lat="39.97995" lon="-0.04064">
				 <ele>37.5</ele>
			 </trkpt>
			 <trkpt lat="39.98113" lon="-0.0398">
				 <ele>37.5</ele>
			 </trkpt>
			 <trkpt lat="39.98153" lon="-0.0395">
				 <ele>37.5</ele>
			 </trkpt>
			 <trkpt lat="39.98335" lon="-0.03811">
				 <ele>37.5</ele>
			 </trkpt>
			 <trkpt lat="39.98363" lon="-0.03797">
				 <ele>37.5</ele>
			 </trkpt>
			 <trkpt lat="39.98408" lon="-0.0377">
				 <ele>37.3</ele>
			 </trkpt>
			 <trkpt lat="39.98464" lon="-0.03726">
				 <ele>36.7</ele>
			 </trkpt>
			 <trkpt lat="39.98574" lon="-0.03646">
				 <ele>36.5</ele>
			 </trkpt>
			 <trkpt lat="39.98656" lon="-0.03583">
				 <ele>36.2</ele>
			 </trkpt>
			 <trkpt lat="39.98767" lon="-0.03503">
				 <ele>36.1</ele>
			 </trkpt>
			 <trkpt lat="39.988202" lon="-0.034688">
				 <ele>35.6</ele>
			 </trkpt>
			 <trkpt lat="39.988419" lon="-0.035583">
				 <ele>35.2</ele>
			 </trkpt>
			 <trkpt lat="39.98868" lon="-0.03716">
				 <ele>35.4</ele>
			 </trkpt>
			 <trkpt lat="39.98865" lon="-0.03724">
				 <ele>35.4</ele>
			 </trkpt>
			 <trkpt lat="39.988241" lon="-0.037483">
				 <ele>35.7</ele>
			 </trkpt>
			 <trkpt lat="39.987831" lon="-0.037725">
				 <ele>36.4</ele>
			 </trkpt>
			 <trkpt lat="39.987422" lon="-0.037968">
				 <ele>37.7</ele>
			 </trkpt>
			 <trkpt lat="39.987012" lon="-0.038211">
				 <ele>38.7</ele>
			 </trkpt>
			 <trkpt lat="39.986729" lon="-0.038378">
				 <ele>39.2</ele>
			 </trkpt>
			 <trkpt lat="39.986293" lon="-0.038517">
				 <ele>39.7</ele>
			 </trkpt>
			 <trkpt lat="39.985856" lon="-0.038656">
				 <ele>40</ele>
			 </trkpt>
			 <trkpt lat="39.985419" lon="-0.038794">
				 <ele>40.3</ele>
			 </trkpt>
			 <trkpt lat="39.984982" lon="-0.038933">
				 <ele>40.6</ele>
			 </trkpt>
			 <trkpt lat="39.984545" lon="-0.039071">
				 <ele>40.4</ele>
			 </trkpt>
			 <trkpt lat="39.984108" lon="-0.03921">
				 <ele>40.3</ele>
			 </trkpt>
			 <trkpt lat="39.983671" lon="-0.039349">
				 <ele>40.1</ele>
			 </trkpt>
			 <trkpt lat="39.983234" lon="-0.039487">
				 <ele>39.5</ele>
			 </trkpt>
			 <trkpt lat="39.98291" lon="-0.03959">
				 <ele>38.9</ele>
			 </trkpt>
			 <trkpt lat="39.98246" lon="-0.03992">
				 <ele>38.5</ele>
			 </trkpt>
			 <trkpt lat="39.98196" lon="-0.04042">
				 <ele>38</ele>
			 </trkpt>
			 <trkpt lat="39.98099" lon="-0.04147">
				 <ele>37.5</ele>
			 </trkpt>
			 <trkpt lat="39.981174" lon="-0.042005">
				 <ele>37.1</ele>
			 </trkpt>
			 <trkpt lat="39.981358" lon="-0.042541">
				 <ele>37.2</ele>
			 </trkpt>
			 <trkpt lat="39.981537" lon="-0.043061">
				 <ele>37.4</ele>
			 </trkpt>
			 <trkpt lat="39.98178" lon="-0.04316">
				 <ele>38.1</ele>
			 </trkpt>
			 <trkpt lat="39.9827" lon="-0.04331">
				 <ele>38.5</ele>
			 </trkpt>
			 <trkpt lat="39.9844" lon="-0.04359">
				 <ele>39</ele>
			 </trkpt>
			 <trkpt lat="39.98489" lon="-0.04363">
				 <ele>39.4</ele>
			 </trkpt>
			 <trkpt lat="39.984763" lon="-0.043067">
				 <ele>39.8</ele>
			 </trkpt>
			 <trkpt lat="39.984636" lon="-0.042504">
				 <ele>40.1</ele>
			 </trkpt>
			 <trkpt lat="39.984509" lon="-0.041941">
				 <ele>40.4</ele>
			 </trkpt>
			 <trkpt lat="39.984382" lon="-0.041378">
				 <ele>40.6</ele>
			 </trkpt>
			 <trkpt lat="39.984307" lon="-0.041045">
				 <ele>41.1</ele>
			 </trkpt>
			 <trkpt lat="39.984426" lon="-0.040741">
				 <ele>41.3</ele>
			 </trkpt>
			 <trkpt lat="39.984869" lon="-0.040638">
				 <ele>41.5</ele>
			 </trkpt>
			 <trkpt lat="39.984945" lon="-0.04062">
				 <ele>41.4</ele>
			 </trkpt>
			 <trkpt lat="39.985185" lon="-0.040663">
				 <ele>41.2</ele>
			 </trkpt>
			 <trkpt lat="39.985615" lon="-0.04049">
				 <ele>41</ele>
			 </trkpt>
			 <trkpt lat="39.986044" lon="-0.040317">
				 <ele>41.1</ele>
			 </trkpt>
			 <trkpt lat="39.986474" lon="-0.040144">
				 <ele>41.1</ele>
			 </trkpt>
			 <trkpt lat="39.986904" lon="-0.039971">
				 <ele>41.4</ele>
			 </trkpt>
			 <trkpt lat="39.98708" lon="-0.0399">
				 <ele>41.5</ele>
			 </trkpt>
			 <trkpt lat="39.98727" lon="-0.04077">
				 <ele>41.7</ele>
			 </trkpt>
			 <trkpt lat="39.98763" lon="-0.04235">
				 <ele>41.7</ele>
			 </trkpt>
			 <trkpt lat="39.98762" lon="-0.04268">
				 <ele>41.8</ele>
			 </trkpt>
			 <trkpt lat="39.98762" lon="-0.04278">
				 <ele>41.8</ele>
			 </trkpt>
			 <trkpt lat="39.98769" lon="-0.04287">
				 <ele>41.9</ele>
			 </trkpt>
			 <trkpt lat="39.98775" lon="-0.04287">
				 <ele>42.1</ele>
			 </trkpt>
			 <trkpt lat="39.98803" lon="-0.04406">
				 <ele>42.5</ele>
			 </trkpt>
		 </trkseg>
	 </trk>
</gpx>