<?xml version="1.0" encoding="UTF-8"?>
 <gpx creator="Garmin Connect" version="1.1"
	 xsi:schemaLocation="http://www.topografix.com/GPX/1/1 http://www.topografix.com/GPX/11.xsd"
	 xmlns:ns3="http://www.garmin.com/xmlschemas/TrackPointExtension/v1"
	 xmlns="http://www.topografix.com/GPX/1/1"
	 xmlns:xsi="http://www.w3.org/2001/XMLSchema-instance" xmlns:ns2="http://www.garmin.com/xmlschemas/GpxExtensions/v3">
	 <metadata>
		<name>Chelmsford Marathon &amp; Half Marathon 2025 - 42.195 km</name>
		 <link href="https://www.goandrace.com">
		 <text>Garmin Connect</text>
		 </link>
	 <time>2026-08-10T02:54:04</time>
	 </metadata>
	 <trk>
		 <name>Chelmsford Marathon &amp; Half Marathon 2025 - 42.195 km</name>
		 <trkseg>
			 <trkpt lat="51.732995" lon="0.466144">
				 <ele>24</ele>
			 </trkpt>
			 <trkpt lat="51.732661" lon="0.465549">
				 <ele>24</ele>
			 </trkpt>
			 <trkpt lat="51.732605" lon="0.465544">
				 <ele>23.9</ele>
			 </trkpt>
			 <trkpt lat="51.7326" lon="0.465428">
				 <ele>23.8</ele>
			 </trkpt>
			 <trkpt lat="51.732424" lon="0.465124">
				 <ele>23.7</ele>
			 </trkpt>
			 <trkpt lat="51.732183" lon="0.464559">
				 <ele>23.6</ele>
			 </trkpt>
			 <trkpt lat="51.732109" lon="0.464387">
				 <ele>23.5</ele>
			 </trkpt>
			 <trkpt lat="51.731962" lon="0.463953">
				 <ele>23.5</ele>
			 </trkpt>
			 <trkpt lat="51.731957" lon="0.463799">
				 <ele>23.5</ele>
			 </trkpt>
			 <trkpt lat="51.732157" lon="0.463101">
				 <ele>23.5</ele>
			 </trkpt>
			 <trkpt lat="51.732251" lon="0.462936">
				 <ele>23.5</ele>
			 </trkpt>
			 <trkpt lat="51.732361" lon="0.462821">
				 <ele>23.5</ele>
			 </trkpt>
			 <trkpt lat="51.732542" lon="0.462632">
				 <ele>23.5</ele>
			 </trkpt>
			 <trkpt lat="51.73265" lon="0.462469">
				 <ele>23.6</ele>
			 </trkpt>
			 <trkpt lat="51.732752" lon="0.462198">
				 <ele>23.7</ele>
			 </trkpt>
			 <trkpt lat="51.732809" lon="0.461967">
				 <ele>23.8</ele>
			 </trkpt>
			 <trkpt lat="51.732898" lon="0.461454">
				 <ele>24</ele>
			 </trkpt>
			 <trkpt lat="51.73312" lon="0.46046">
				 <ele>24.1</ele>
			 </trkpt>
			 <trkpt lat="51.733169" lon="0.460317">
				 <ele>24.1</ele>
			 </trkpt>
			 <trkpt lat="51.733318" lon="0.460108">
				 <ele>24.2</ele>
			 </trkpt>
			 <trkpt lat="51.733539" lon="0.459832">
				 <ele>24.2</ele>
			 </trkpt>
			 <trkpt lat="51.733813" lon="0.459176">
				 <ele>24.2</ele>
			 </trkpt>
			 <trkpt lat="51.733892" lon="0.458842">
				 <ele>24.2</ele>
			 </trkpt>
			 <trkpt lat="51.734072" lon="0.458306">
				 <ele>24.2</ele>
			 </trkpt>
			 <trkpt lat="51.734148" lon="0.458075">
				 <ele>24.3</ele>
			 </trkpt>
			 <trkpt lat="51.734218" lon="0.45792">
				 <ele>24.3</ele>
			 </trkpt>
			 <trkpt lat="51.734402" lon="0.457615">
				 <ele>24.2</ele>
			 </trkpt>
			 <trkpt lat="51.734478" lon="0.457514">
				 <ele>24</ele>
			 </trkpt>
			 <trkpt lat="51.734703" lon="0.457215">
				 <ele>23.9</ele>
			 </trkpt>
			 <trkpt lat="51.73495" lon="0.456953">
				 <ele>23.8</ele>
			 </trkpt>
			 <trkpt lat="51.735916" lon="0.456271">
				 <ele>23.7</ele>
			 </trkpt>
			 <trkpt lat="51.736143" lon="0.456075">
				 <ele>23.7</ele>
			 </trkpt>
			 <trkpt lat="51.736256" lon="0.455963">
				 <ele>23.7</ele>
			 </trkpt>
			 <trkpt lat="51.736352" lon="0.455829">
				 <ele>23.7</ele>
			 </trkpt>
			 <trkpt lat="51.736572" lon="0.455272">
				 <ele>23.7</ele>
			 </trkpt>
			 <trkpt lat="51.73669" lon="0.455059">
				 <ele>23.6</ele>
			 </trkpt>
			 <trkpt lat="51.736844" lon="0.454954">
				 <ele>23.6</ele>
			 </trkpt>
			 <trkpt lat="51.736912" lon="0.454874">
				 <ele>23.7</ele>
			 </trkpt>
			 <trkpt lat="51.737108" lon="0.454644">
				 <ele>23.8</ele>
			 </trkpt>
			 <trkpt lat="51.737638" lon="0.453802">
				 <ele>23.9</ele>
			 </trkpt>
			 <trkpt lat="51.737971" lon="0.453176">
				 <ele>24</ele>
			 </trkpt>
			 <trkpt lat="51.738077" lon="0.452897">
				 <ele>24</ele>
			 </trkpt>
			 <trkpt lat="51.738229" lon="0.452375">
				 <ele>24</ele>
			 </trkpt>
			 <trkpt lat="51.738317" lon="0.452159">
				 <ele>24</ele>
			 </trkpt>
			 <trkpt lat="51.738354" lon="0.452133">
				 <ele>24</ele>
			 </trkpt>
			 <trkpt lat="51.738354" lon="0.452077">
				 <ele>24</ele>
			 </trkpt>
			 <trkpt lat="51.738383" lon="0.452047">
				 <ele>24</ele>
			 </trkpt>
			 <trkpt lat="51.738369" lon="0.451989">
				 <ele>24</ele>
			 </trkpt>
			 <trkpt lat="51.738301" lon="0.451715">
				 <ele>24.1</ele>
			 </trkpt>
			 <trkpt lat="51.738145" lon="0.450779">
				 <ele>24.3</ele>
			 </trkpt>
			 <trkpt lat="51.738101" lon="0.45021">
				 <ele>24.4</ele>
			 </trkpt>
			 <trkpt lat="51.73793" lon="0.449579">
				 <ele>24.4</ele>
			 </trkpt>
			 <trkpt lat="51.737787" lon="0.449242">
				 <ele>24.5</ele>
			 </trkpt>
			 <trkpt lat="51.737426" lon="0.448284">
				 <ele>24.5</ele>
			 </trkpt>
			 <trkpt lat="51.737124" lon="0.447583">
				 <ele>24.5</ele>
			 </trkpt>
			 <trkpt lat="51.737175" lon="0.447333">
				 <ele>24.5</ele>
			 </trkpt>
			 <trkpt lat="51.737284" lon="0.447113">
				 <ele>24.6</ele>
			 </trkpt>
			 <trkpt lat="51.737637" lon="0.446457">
				 <ele>24.7</ele>
			 </trkpt>
			 <trkpt lat="51.737721" lon="0.446388">
				 <ele>24.9</ele>
			 </trkpt>
			 <trkpt lat="51.73781" lon="0.44635">
				 <ele>25</ele>
			 </trkpt>
			 <trkpt lat="51.737878" lon="0.446315">
				 <ele>24.9</ele>
			 </trkpt>
			 <trkpt lat="51.737862" lon="0.446197">
				 <ele>24.9</ele>
			 </trkpt>
			 <trkpt lat="51.737792" lon="0.445668">
				 <ele>25.1</ele>
			 </trkpt>
			 <trkpt lat="51.737737" lon="0.444574">
				 <ele>25.2</ele>
			 </trkpt>
			 <trkpt lat="51.737747" lon="0.444387">
				 <ele>25.4</ele>
			 </trkpt>
			 <trkpt lat="51.737777" lon="0.444197">
				 <ele>25.5</ele>
			 </trkpt>
			 <trkpt lat="51.737862" lon="0.443996">
				 <ele>25.6</ele>
			 </trkpt>
			 <trkpt lat="51.737945" lon="0.443909">
				 <ele>25.7</ele>
			 </trkpt>
			 <trkpt lat="51.738415" lon="0.443677">
				 <ele>25.8</ele>
			 </trkpt>
			 <trkpt lat="51.738509" lon="0.443597">
				 <ele>25.8</ele>
			 </trkpt>
			 <trkpt lat="51.738666" lon="0.443409">
				 <ele>25.8</ele>
			 </trkpt>
			 <trkpt lat="51.738811" lon="0.44326">
				 <ele>25.9</ele>
			 </trkpt>
			 <trkpt lat="51.738797" lon="0.443194">
				 <ele>26</ele>
			 </trkpt>
			 <trkpt lat="51.73875" lon="0.443097">
				 <ele>26</ele>
			 </trkpt>
			 <trkpt lat="51.738654" lon="0.442916">
				 <ele>26</ele>
			 </trkpt>
			 <trkpt lat="51.738585" lon="0.44248">
				 <ele>26</ele>
			 </trkpt>
			 <trkpt lat="51.73856" lon="0.442226">
				 <ele>26</ele>
			 </trkpt>
			 <trkpt lat="51.738571" lon="0.441913">
				 <ele>25.9</ele>
			 </trkpt>
			 <trkpt lat="51.738579" lon="0.441675">
				 <ele>25.8</ele>
			 </trkpt>
			 <trkpt lat="51.738645" lon="0.441098">
				 <ele>25.7</ele>
			 </trkpt>
			 <trkpt lat="51.738768" lon="0.440517">
				 <ele>25.6</ele>
			 </trkpt>
			 <trkpt lat="51.738641" lon="0.440476">
				 <ele>25.5</ele>
			 </trkpt>
			 <trkpt lat="51.738587" lon="0.440205">
				 <ele>25.5</ele>
			 </trkpt>
			 <trkpt lat="51.738446" lon="0.440029">
				 <ele>25.4</ele>
			 </trkpt>
			 <trkpt lat="51.738363" lon="0.439989">
				 <ele>25.3</ele>
			 </trkpt>
			 <trkpt lat="51.738287" lon="0.440006">
				 <ele>25.2</ele>
			 </trkpt>
			 <trkpt lat="51.738057" lon="0.439976">
				 <ele>25.2</ele>
			 </trkpt>
			 <trkpt lat="51.737917" lon="0.43999">
				 <ele>25.2</ele>
			 </trkpt>
			 <trkpt lat="51.737747" lon="0.440007">
				 <ele>25.3</ele>
			 </trkpt>
			 <trkpt lat="51.737469" lon="0.439939">
				 <ele>25.4</ele>
			 </trkpt>
			 <trkpt lat="51.737479" lon="0.439755">
				 <ele>25.5</ele>
			 </trkpt>
			 <trkpt lat="51.73758" lon="0.439328">
				 <ele>25.8</ele>
			 </trkpt>
			 <trkpt lat="51.737607" lon="0.43906">
				 <ele>26.3</ele>
			 </trkpt>
			 <trkpt lat="51.737604" lon="0.438876">
				 <ele>26.7</ele>
			 </trkpt>
			 <trkpt lat="51.737582" lon="0.438803">
				 <ele>27.2</ele>
			 </trkpt>
			 <trkpt lat="51.737492" lon="0.438507">
				 <ele>27.6</ele>
			 </trkpt>
			 <trkpt lat="51.736588" lon="0.436046">
				 <ele>28.1</ele>
			 </trkpt>
			 <trkpt lat="51.736508" lon="0.435788">
				 <ele>28.5</ele>
			 </trkpt>
			 <trkpt lat="51.736459" lon="0.435628">
				 <ele>28.8</ele>
			 </trkpt>
			 <trkpt lat="51.736204" lon="0.434319">
				 <ele>29.2</ele>
			 </trkpt>
			 <trkpt lat="51.736129" lon="0.433995">
				 <ele>29.6</ele>
			 </trkpt>
			 <trkpt lat="51.736095" lon="0.43397">
				 <ele>30.1</ele>
			 </trkpt>
			 <trkpt lat="51.736066" lon="0.433892">
				 <ele>30.2</ele>
			 </trkpt>
			 <trkpt lat="51.73604" lon="0.433742">
				 <ele>30.1</ele>
			 </trkpt>
			 <trkpt lat="51.735962" lon="0.433118">
				 <ele>29.9</ele>
			 </trkpt>
			 <trkpt lat="51.735908" lon="0.432316">
				 <ele>29.7</ele>
			 </trkpt>
			 <trkpt lat="51.735894" lon="0.431849">
				 <ele>29.7</ele>
			 </trkpt>
			 <trkpt lat="51.735782" lon="0.429744">
				 <ele>29.8</ele>
			 </trkpt>
			 <trkpt lat="51.735792" lon="0.429152">
				 <ele>29.9</ele>
			 </trkpt>
			 <trkpt lat="51.735852" lon="0.428935">
				 <ele>30.2</ele>
			 </trkpt>
			 <trkpt lat="51.73615" lon="0.429165">
				 <ele>30.5</ele>
			 </trkpt>
			 <trkpt lat="51.736314" lon="0.428311">
				 <ele>30.6</ele>
			 </trkpt>
			 <trkpt lat="51.736395" lon="0.427665">
				 <ele>30.9</ele>
			 </trkpt>
			 <trkpt lat="51.736415" lon="0.427509">
				 <ele>31.3</ele>
			 </trkpt>
			 <trkpt lat="51.736566" lon="0.426097">
				 <ele>31.8</ele>
			 </trkpt>
			 <trkpt lat="51.736581" lon="0.425938">
				 <ele>32.5</ele>
			 </trkpt>
			 <trkpt lat="51.736589" lon="0.425848">
				 <ele>33.4</ele>
			 </trkpt>
			 <trkpt lat="51.736661" lon="0.425204">
				 <ele>34.1</ele>
			 </trkpt>
			 <trkpt lat="51.736669" lon="0.425063">
				 <ele>34.7</ele>
			 </trkpt>
			 <trkpt lat="51.736723" lon="0.424363">
				 <ele>35.4</ele>
			 </trkpt>
			 <trkpt lat="51.736813" lon="0.422518">
				 <ele>35.7</ele>
			 </trkpt>
			 <trkpt lat="51.736842" lon="0.421928">
				 <ele>36.2</ele>
			 </trkpt>
			 <trkpt lat="51.737131" lon="0.418553">
				 <ele>36.6</ele>
			 </trkpt>
			 <trkpt lat="51.737142" lon="0.418434">
				 <ele>37</ele>
			 </trkpt>
			 <trkpt lat="51.737133" lon="0.418223">
				 <ele>37.5</ele>
			 </trkpt>
			 <trkpt lat="51.737258" lon="0.416955">
				 <ele>37.9</ele>
			 </trkpt>
			 <trkpt lat="51.737277" lon="0.416647">
				 <ele>38.3</ele>
			 </trkpt>
			 <trkpt lat="51.737277" lon="0.416584">
				 <ele>38.6</ele>
			 </trkpt>
			 <trkpt lat="51.737238" lon="0.416023">
				 <ele>38.9</ele>
			 </trkpt>
			 <trkpt lat="51.737268" lon="0.414997">
				 <ele>39.3</ele>
			 </trkpt>
			 <trkpt lat="51.737293" lon="0.414121">
				 <ele>39.6</ele>
			 </trkpt>
			 <trkpt lat="51.737292" lon="0.413876">
				 <ele>40.1</ele>
			 </trkpt>
			 <trkpt lat="51.737258" lon="0.413449">
				 <ele>40.5</ele>
			 </trkpt>
			 <trkpt lat="51.737278" lon="0.413069">
				 <ele>41</ele>
			 </trkpt>
			 <trkpt lat="51.737398" lon="0.412136">
				 <ele>41.5</ele>
			 </trkpt>
			 <trkpt lat="51.737355" lon="0.411884">
				 <ele>41.8</ele>
			 </trkpt>
			 <trkpt lat="51.737328" lon="0.41181">
				 <ele>42.1</ele>
			 </trkpt>
			 <trkpt lat="51.737256" lon="0.411711">
				 <ele>42.4</ele>
			 </trkpt>
			 <trkpt lat="51.736927" lon="0.411428">
				 <ele>42.5</ele>
			 </trkpt>
			 <trkpt lat="51.736876" lon="0.411273">
				 <ele>42.7</ele>
			 </trkpt>
			 <trkpt lat="51.736865" lon="0.411105">
				 <ele>42.8</ele>
			 </trkpt>
			 <trkpt lat="51.73688" lon="0.410983">
				 <ele>42.9</ele>
			 </trkpt>
			 <trkpt lat="51.736902" lon="0.410845">
				 <ele>43.1</ele>
			 </trkpt>
			 <trkpt lat="51.736967" lon="0.410629">
				 <ele>43.2</ele>
			 </trkpt>
			 <trkpt lat="51.736979" lon="0.410587">
				 <ele>43.4</ele>
			 </trkpt>
			 <trkpt lat="51.736972" lon="0.410501">
				 <ele>43.5</ele>
			 </trkpt>
			 <trkpt lat="51.736471" lon="0.409584">
				 <ele>43.7</ele>
			 </trkpt>
			 <trkpt lat="51.735783" lon="0.408623">
				 <ele>44</ele>
			 </trkpt>
			 <trkpt lat="51.735335" lon="0.408255">
				 <ele>44.3</ele>
			 </trkpt>
			 <trkpt lat="51.735116" lon="0.408132">
				 <ele>44.6</ele>
			 </trkpt>
			 <trkpt lat="51.735075" lon="0.408068">
				 <ele>45</ele>
			 </trkpt>
			 <trkpt lat="51.735099" lon="0.407957">
				 <ele>45.5</ele>
			 </trkpt>
			 <trkpt lat="51.73501" lon="0.40788">
				 <ele>46</ele>
			 </trkpt>
			 <trkpt lat="51.734808" lon="0.407705">
				 <ele>46.5</ele>
			 </trkpt>
			 <trkpt lat="51.734311" lon="0.407208">
				 <ele>46.9</ele>
			 </trkpt>
			 <trkpt lat="51.734105" lon="0.406885">
				 <ele>47.2</ele>
			 </trkpt>
			 <trkpt lat="51.733965" lon="0.406548">
				 <ele>47.5</ele>
			 </trkpt>
			 <trkpt lat="51.733731" lon="0.405863">
				 <ele>47.8</ele>
			 </trkpt>
			 <trkpt lat="51.733687" lon="0.405676">
				 <ele>48.2</ele>
			 </trkpt>
			 <trkpt lat="51.733166" lon="0.404444">
				 <ele>48.6</ele>
			 </trkpt>
			 <trkpt lat="51.732464" lon="0.403379">
				 <ele>49</ele>
			 </trkpt>
			 <trkpt lat="51.732457" lon="0.403308">
				 <ele>49.4</ele>
			 </trkpt>
			 <trkpt lat="51.73241" lon="0.402586">
				 <ele>49.6</ele>
			 </trkpt>
			 <trkpt lat="51.732433" lon="0.402355">
				 <ele>49.7</ele>
			 </trkpt>
			 <trkpt lat="51.732642" lon="0.402022">
				 <ele>49.8</ele>
			 </trkpt>
			 <trkpt lat="51.733004" lon="0.401883">
				 <ele>49.9</ele>
			 </trkpt>
			 <trkpt lat="51.733612" lon="0.401712">
				 <ele>50</ele>
			 </trkpt>
			 <trkpt lat="51.733897" lon="0.401609">
				 <ele>50</ele>
			 </trkpt>
			 <trkpt lat="51.734065" lon="0.401481">
				 <ele>49.8</ele>
			 </trkpt>
			 <trkpt lat="51.734425" lon="0.400934">
				 <ele>49.4</ele>
			 </trkpt>
			 <trkpt lat="51.734471" lon="0.400865">
				 <ele>48.6</ele>
			 </trkpt>
			 <trkpt lat="51.734745" lon="0.400576">
				 <ele>47.8</ele>
			 </trkpt>
			 <trkpt lat="51.735146" lon="0.40041">
				 <ele>47</ele>
			 </trkpt>
			 <trkpt lat="51.735477" lon="0.400344">
				 <ele>46.3</ele>
			 </trkpt>
			 <trkpt lat="51.735794" lon="0.400371">
				 <ele>45.7</ele>
			 </trkpt>
			 <trkpt lat="51.736102" lon="0.400344">
				 <ele>45.4</ele>
			 </trkpt>
			 <trkpt lat="51.736304" lon="0.400192">
				 <ele>45.1</ele>
			 </trkpt>
			 <trkpt lat="51.736396" lon="0.400055">
				 <ele>45</ele>
			 </trkpt>
			 <trkpt lat="51.736443" lon="0.399583">
				 <ele>45.1</ele>
			 </trkpt>
			 <trkpt lat="51.736511" lon="0.398351">
				 <ele>45.5</ele>
			 </trkpt>
			 <trkpt lat="51.736606" lon="0.397752">
				 <ele>46.2</ele>
			 </trkpt>
			 <trkpt lat="51.736731" lon="0.397175">
				 <ele>47.2</ele>
			 </trkpt>
			 <trkpt lat="51.73682" lon="0.396645">
				 <ele>48.3</ele>
			 </trkpt>
			 <trkpt lat="51.736818" lon="0.396286">
				 <ele>49.4</ele>
			 </trkpt>
			 <trkpt lat="51.73668" lon="0.394956">
				 <ele>50.4</ele>
			 </trkpt>
			 <trkpt lat="51.736328" lon="0.393347">
				 <ele>51.3</ele>
			 </trkpt>
			 <trkpt lat="51.736107" lon="0.392336">
				 <ele>52</ele>
			 </trkpt>
			 <trkpt lat="51.736124" lon="0.39209">
				 <ele>52.7</ele>
			 </trkpt>
			 <trkpt lat="51.736215" lon="0.391924">
				 <ele>53.4</ele>
			 </trkpt>
			 <trkpt lat="51.73649" lon="0.391235">
				 <ele>53.9</ele>
			 </trkpt>
			 <trkpt lat="51.736902" lon="0.390105">
				 <ele>54.3</ele>
			 </trkpt>
			 <trkpt lat="51.736969" lon="0.389957">
				 <ele>54.4</ele>
			 </trkpt>
			 <trkpt lat="51.737072" lon="0.389448">
				 <ele>54.3</ele>
			 </trkpt>
			 <trkpt lat="51.737047" lon="0.388708">
				 <ele>54.2</ele>
			 </trkpt>
			 <trkpt lat="51.736998" lon="0.387229">
				 <ele>54.1</ele>
			 </trkpt>
			 <trkpt lat="51.737025" lon="0.386867">
				 <ele>53.9</ele>
			 </trkpt>
			 <trkpt lat="51.737097" lon="0.386496">
				 <ele>53.6</ele>
			 </trkpt>
			 <trkpt lat="51.737228" lon="0.386415">
				 <ele>53.1</ele>
			 </trkpt>
			 <trkpt lat="51.737317" lon="0.386468">
				 <ele>52.5</ele>
			 </trkpt>
			 <trkpt lat="51.737438" lon="0.386601">
				 <ele>51.7</ele>
			 </trkpt>
			 <trkpt lat="51.737687" lon="0.386813">
				 <ele>50.9</ele>
			 </trkpt>
			 <trkpt lat="51.738233" lon="0.38728">
				 <ele>50.1</ele>
			 </trkpt>
			 <trkpt lat="51.73869" lon="0.387572">
				 <ele>49.4</ele>
			 </trkpt>
			 <trkpt lat="51.73903" lon="0.387889">
				 <ele>48.7</ele>
			 </trkpt>
			 <trkpt lat="51.739466" lon="0.388404">
				 <ele>48</ele>
			 </trkpt>
			 <trkpt lat="51.740043" lon="0.388976">
				 <ele>47.2</ele>
			 </trkpt>
			 <trkpt lat="51.740233" lon="0.389211">
				 <ele>46.5</ele>
			 </trkpt>
			 <trkpt lat="51.740422" lon="0.389509">
				 <ele>45.7</ele>
			 </trkpt>
			 <trkpt lat="51.740612" lon="0.389869">
				 <ele>45.2</ele>
			 </trkpt>
			 <trkpt lat="51.74111" lon="0.391006">
				 <ele>44.6</ele>
			 </trkpt>
			 <trkpt lat="51.741361" lon="0.391514">
				 <ele>44.1</ele>
			 </trkpt>
			 <trkpt lat="51.741514" lon="0.391874">
				 <ele>43.6</ele>
			 </trkpt>
			 <trkpt lat="51.741661" lon="0.392123">
				 <ele>43.2</ele>
			 </trkpt>
			 <trkpt lat="51.741994" lon="0.392539">
				 <ele>42.7</ele>
			 </trkpt>
			 <trkpt lat="51.742176" lon="0.392809">
				 <ele>42.1</ele>
			 </trkpt>
			 <trkpt lat="51.742258" lon="0.392963">
				 <ele>41.5</ele>
			 </trkpt>
			 <trkpt lat="51.742353" lon="0.393221">
				 <ele>41</ele>
			 </trkpt>
			 <trkpt lat="51.742498" lon="0.393949">
				 <ele>40.5</ele>
			 </trkpt>
			 <trkpt lat="51.742555" lon="0.394062">
				 <ele>40</ele>
			 </trkpt>
			 <trkpt lat="51.743028" lon="0.394644">
				 <ele>39.6</ele>
			 </trkpt>
			 <trkpt lat="51.743312" lon="0.395084">
				 <ele>39.3</ele>
			 </trkpt>
			 <trkpt lat="51.743609" lon="0.395629">
				 <ele>39.1</ele>
			 </trkpt>
			 <trkpt lat="51.743711" lon="0.395706">
				 <ele>38.9</ele>
			 </trkpt>
			 <trkpt lat="51.743993" lon="0.395764">
				 <ele>38.6</ele>
			 </trkpt>
			 <trkpt lat="51.744304" lon="0.396012">
				 <ele>38.2</ele>
			 </trkpt>
			 <trkpt lat="51.74483" lon="0.396216">
				 <ele>37.8</ele>
			 </trkpt>
			 <trkpt lat="51.74539" lon="0.396392">
				 <ele>37.4</ele>
			 </trkpt>
			 <trkpt lat="51.745688" lon="0.396548">
				 <ele>37.1</ele>
			 </trkpt>
			 <trkpt lat="51.746246" lon="0.39676">
				 <ele>36.9</ele>
			 </trkpt>
			 <trkpt lat="51.747153" lon="0.396999">
				 <ele>36.7</ele>
			 </trkpt>
			 <trkpt lat="51.747442" lon="0.397052">
				 <ele>36.5</ele>
			 </trkpt>
			 <trkpt lat="51.747681" lon="0.396987">
				 <ele>36.5</ele>
			 </trkpt>
			 <trkpt lat="51.747293" lon="0.396087">
				 <ele>36.3</ele>
			 </trkpt>
			 <trkpt lat="51.747249" lon="0.39593">
				 <ele>36.1</ele>
			 </trkpt>
			 <trkpt lat="51.747217" lon="0.395814">
				 <ele>36</ele>
			 </trkpt>
			 <trkpt lat="51.747169" lon="0.395368">
				 <ele>36.2</ele>
			 </trkpt>
			 <trkpt lat="51.747151" lon="0.394837">
				 <ele>36.5</ele>
			 </trkpt>
			 <trkpt lat="51.747215" lon="0.393848">
				 <ele>37</ele>
			 </trkpt>
			 <trkpt lat="51.747313" lon="0.393233">
				 <ele>37.7</ele>
			 </trkpt>
			 <trkpt lat="51.747337" lon="0.392809">
				 <ele>38.5</ele>
			 </trkpt>
			 <trkpt lat="51.747326" lon="0.391323">
				 <ele>39.2</ele>
			 </trkpt>
			 <trkpt lat="51.747366" lon="0.390926">
				 <ele>40</ele>
			 </trkpt>
			 <trkpt lat="51.747426" lon="0.390561">
				 <ele>40.7</ele>
			 </trkpt>
			 <trkpt lat="51.747945" lon="0.388723">
				 <ele>41.4</ele>
			 </trkpt>
			 <trkpt lat="51.74819" lon="0.387903">
				 <ele>42</ele>
			 </trkpt>
			 <trkpt lat="51.748529" lon="0.386534">
				 <ele>42.5</ele>
			 </trkpt>
			 <trkpt lat="51.74873" lon="0.385527">
				 <ele>42.9</ele>
			 </trkpt>
			 <trkpt lat="51.74877" lon="0.385441">
				 <ele>43.2</ele>
			 </trkpt>
			 <trkpt lat="51.749202" lon="0.384113">
				 <ele>43.4</ele>
			 </trkpt>
			 <trkpt lat="51.749308" lon="0.383958">
				 <ele>43</ele>
			 </trkpt>
			 <trkpt lat="51.749441" lon="0.383881">
				 <ele>42.5</ele>
			 </trkpt>
			 <trkpt lat="51.749632" lon="0.383889">
				 <ele>42.1</ele>
			 </trkpt>
			 <trkpt lat="51.749745" lon="0.383919">
				 <ele>41.5</ele>
			 </trkpt>
			 <trkpt lat="51.75036" lon="0.384027">
				 <ele>41</ele>
			 </trkpt>
			 <trkpt lat="51.751075" lon="0.383953">
				 <ele>40.5</ele>
			 </trkpt>
			 <trkpt lat="51.751189" lon="0.383941">
				 <ele>40.1</ele>
			 </trkpt>
			 <trkpt lat="51.75124" lon="0.383847">
				 <ele>39.6</ele>
			 </trkpt>
			 <trkpt lat="51.751241" lon="0.38363">
				 <ele>39.6</ele>
			 </trkpt>
			 <trkpt lat="51.751174" lon="0.382806">
				 <ele>39.8</ele>
			 </trkpt>
			 <trkpt lat="51.751188" lon="0.382384">
				 <ele>40.1</ele>
			 </trkpt>
			 <trkpt lat="51.751445" lon="0.381361">
				 <ele>40.6</ele>
			 </trkpt>
			 <trkpt lat="51.75161" lon="0.380734">
				 <ele>41.4</ele>
			 </trkpt>
			 <trkpt lat="51.750774" lon="0.38054">
				 <ele>42.3</ele>
			 </trkpt>
			 <trkpt lat="51.750366" lon="0.380419">
				 <ele>43</ele>
			 </trkpt>
			 <trkpt lat="51.750215" lon="0.38032">
				 <ele>43.6</ele>
			 </trkpt>
			 <trkpt lat="51.74992" lon="0.380072">
				 <ele>44.3</ele>
			 </trkpt>
			 <trkpt lat="51.74933" lon="0.379432">
				 <ele>44.9</ele>
			 </trkpt>
			 <trkpt lat="51.748564" lon="0.378602">
				 <ele>45.6</ele>
			 </trkpt>
			 <trkpt lat="51.749208" lon="0.376742">
				 <ele>46</ele>
			 </trkpt>
			 <trkpt lat="51.750047" lon="0.377552">
				 <ele>46.1</ele>
			 </trkpt>
			 <trkpt lat="51.750102" lon="0.377639">
				 <ele>45.7</ele>
			 </trkpt>
			 <trkpt lat="51.750138" lon="0.377854">
				 <ele>45.2</ele>
			 </trkpt>
			 <trkpt lat="51.750124" lon="0.378425">
				 <ele>44.5</ele>
			 </trkpt>
			 <trkpt lat="51.750167" lon="0.378485">
				 <ele>43.5</ele>
			 </trkpt>
			 <trkpt lat="51.750281" lon="0.37854">
				 <ele>42.6</ele>
			 </trkpt>
			 <trkpt lat="51.75152" lon="0.378764">
				 <ele>41.9</ele>
			 </trkpt>
			 <trkpt lat="51.751649" lon="0.378828">
				 <ele>41.2</ele>
			 </trkpt>
			 <trkpt lat="51.751766" lon="0.378949">
				 <ele>40.5</ele>
			 </trkpt>
			 <trkpt lat="51.751833" lon="0.379132">
				 <ele>40</ele>
			 </trkpt>
			 <trkpt lat="51.751895" lon="0.379368">
				 <ele>39.5</ele>
			 </trkpt>
			 <trkpt lat="51.751949" lon="0.379358">
				 <ele>39.2</ele>
			 </trkpt>
			 <trkpt lat="51.752449" lon="0.379651">
				 <ele>39.2</ele>
			 </trkpt>
			 <trkpt lat="51.752666" lon="0.379738">
				 <ele>39.3</ele>
			 </trkpt>
			 <trkpt lat="51.752769" lon="0.379714">
				 <ele>39.4</ele>
			 </trkpt>
			 <trkpt lat="51.752863" lon="0.379624">
				 <ele>39.5</ele>
			 </trkpt>
			 <trkpt lat="51.752923" lon="0.379496">
				 <ele>39.8</ele>
			 </trkpt>
			 <trkpt lat="51.752986" lon="0.379118">
				 <ele>40.1</ele>
			 </trkpt>
			 <trkpt lat="51.753001" lon="0.378319">
				 <ele>40.5</ele>
			 </trkpt>
			 <trkpt lat="51.752889" lon="0.377272">
				 <ele>40.7</ele>
			 </trkpt>
			 <trkpt lat="51.752842" lon="0.376533">
				 <ele>40.9</ele>
			 </trkpt>
			 <trkpt lat="51.752772" lon="0.375427">
				 <ele>41.2</ele>
			 </trkpt>
			 <trkpt lat="51.752581" lon="0.374757">
				 <ele>41.5</ele>
			 </trkpt>
			 <trkpt lat="51.752555" lon="0.374405">
				 <ele>42</ele>
			 </trkpt>
			 <trkpt lat="51.752608" lon="0.374027">
				 <ele>42.5</ele>
			 </trkpt>
			 <trkpt lat="51.75275" lon="0.373303">
				 <ele>43.1</ele>
			 </trkpt>
			 <trkpt lat="51.752843" lon="0.372626">
				 <ele>43.7</ele>
			 </trkpt>
			 <trkpt lat="51.7529" lon="0.371667">
				 <ele>44.4</ele>
			 </trkpt>
			 <trkpt lat="51.75294" lon="0.371275">
				 <ele>45.3</ele>
			 </trkpt>
			 <trkpt lat="51.752958" lon="0.370809">
				 <ele>46.7</ele>
			 </trkpt>
			 <trkpt lat="51.752935" lon="0.370343">
				 <ele>48.3</ele>
			 </trkpt>
			 <trkpt lat="51.752861" lon="0.369846">
				 <ele>49.9</ele>
			 </trkpt>
			 <trkpt lat="51.75274" lon="0.369247">
				 <ele>51.5</ele>
			 </trkpt>
			 <trkpt lat="51.752677" lon="0.366612">
				 <ele>53.1</ele>
			 </trkpt>
			 <trkpt lat="51.752419" lon="0.361401">
				 <ele>54.9</ele>
			 </trkpt>
			 <trkpt lat="51.752329" lon="0.360763">
				 <ele>56.6</ele>
			 </trkpt>
			 <trkpt lat="51.752241" lon="0.36014">
				 <ele>58.4</ele>
			 </trkpt>
			 <trkpt lat="51.752161" lon="0.35935">
				 <ele>59.8</ele>
			 </trkpt>
			 <trkpt lat="51.752119" lon="0.358072">
				 <ele>61</ele>
			 </trkpt>
			 <trkpt lat="51.752108" lon="0.356793">
				 <ele>61.8</ele>
			 </trkpt>
			 <trkpt lat="51.75205" lon="0.355462">
				 <ele>62</ele>
			 </trkpt>
			 <trkpt lat="51.752129" lon="0.354338">
				 <ele>62.1</ele>
			 </trkpt>
			 <trkpt lat="51.752229" lon="0.353724">
				 <ele>62.1</ele>
			 </trkpt>
			 <trkpt lat="51.752417" lon="0.353024">
				 <ele>62.1</ele>
			 </trkpt>
			 <trkpt lat="51.75248" lon="0.352555">
				 <ele>62</ele>
			 </trkpt>
			 <trkpt lat="51.752529" lon="0.351866">
				 <ele>62</ele>
			 </trkpt>
			 <trkpt lat="51.752542" lon="0.351242">
				 <ele>62</ele>
			 </trkpt>
			 <trkpt lat="51.752523" lon="0.350873">
				 <ele>62.3</ele>
			 </trkpt>
			 <trkpt lat="51.752347" lon="0.350417">
				 <ele>62.9</ele>
			 </trkpt>
			 <trkpt lat="51.7518" lon="0.349317">
				 <ele>63.7</ele>
			 </trkpt>
			 <trkpt lat="51.750462" lon="0.347394">
				 <ele>64.7</ele>
			 </trkpt>
			 <trkpt lat="51.750062" lon="0.346819">
				 <ele>65.9</ele>
			 </trkpt>
			 <trkpt lat="51.749478" lon="0.345712">
				 <ele>67.3</ele>
			 </trkpt>
			 <trkpt lat="51.748729" lon="0.344184">
				 <ele>68.6</ele>
			 </trkpt>
			 <trkpt lat="51.748309" lon="0.343206">
				 <ele>70</ele>
			 </trkpt>
			 <trkpt lat="51.748038" lon="0.34239">
				 <ele>71.3</ele>
			 </trkpt>
			 <trkpt lat="51.747906" lon="0.341516">
				 <ele>72.3</ele>
			 </trkpt>
			 <trkpt lat="51.747586" lon="0.339506">
				 <ele>73.4</ele>
			 </trkpt>
			 <trkpt lat="51.747568" lon="0.339021">
				 <ele>74</ele>
			 </trkpt>
			 <trkpt lat="51.74759" lon="0.338393">
				 <ele>74.5</ele>
			 </trkpt>
			 <trkpt lat="51.747576" lon="0.338101">
				 <ele>74.9</ele>
			 </trkpt>
			 <trkpt lat="51.747485" lon="0.337464">
				 <ele>75.1</ele>
			 </trkpt>
			 <trkpt lat="51.747443" lon="0.336494">
				 <ele>74.8</ele>
			 </trkpt>
			 <trkpt lat="51.747235" lon="0.334528">
				 <ele>74.3</ele>
			 </trkpt>
			 <trkpt lat="51.747225" lon="0.334269">
				 <ele>73.7</ele>
			 </trkpt>
			 <trkpt lat="51.747204" lon="0.333764">
				 <ele>73</ele>
			 </trkpt>
			 <trkpt lat="51.747212" lon="0.333043">
				 <ele>72.3</ele>
			 </trkpt>
			 <trkpt lat="51.747134" lon="0.33088">
				 <ele>71.5</ele>
			 </trkpt>
			 <trkpt lat="51.747108" lon="0.329524">
				 <ele>70.7</ele>
			 </trkpt>
			 <trkpt lat="51.747127" lon="0.329315">
				 <ele>70</ele>
			 </trkpt>
			 <trkpt lat="51.74713" lon="0.328801">
				 <ele>69.4</ele>
			 </trkpt>
			 <trkpt lat="51.747034" lon="0.328134">
				 <ele>68.6</ele>
			 </trkpt>
			 <trkpt lat="51.746826" lon="0.327361">
				 <ele>68.2</ele>
			 </trkpt>
			 <trkpt lat="51.746667" lon="0.326692">
				 <ele>67.9</ele>
			 </trkpt>
			 <trkpt lat="51.746566" lon="0.325938">
				 <ele>67.6</ele>
			 </trkpt>
			 <trkpt lat="51.746523" lon="0.325301">
				 <ele>67.4</ele>
			 </trkpt>
			 <trkpt lat="51.746534" lon="0.324607">
				 <ele>67.1</ele>
			 </trkpt>
			 <trkpt lat="51.746572" lon="0.324191">
				 <ele>66.8</ele>
			 </trkpt>
			 <trkpt lat="51.746848" lon="0.322806">
				 <ele>66.4</ele>
			 </trkpt>
			 <trkpt lat="51.747018" lon="0.322286">
				 <ele>65.8</ele>
			 </trkpt>
			 <trkpt lat="51.74715" lon="0.321812">
				 <ele>65.4</ele>
			 </trkpt>
			 <trkpt lat="51.747214" lon="0.320057">
				 <ele>64.9</ele>
			 </trkpt>
			 <trkpt lat="51.74732" lon="0.319371">
				 <ele>64.5</ele>
			 </trkpt>
			 <trkpt lat="51.747437" lon="0.318957">
				 <ele>64.1</ele>
			 </trkpt>
			 <trkpt lat="51.747493" lon="0.318634">
				 <ele>63.6</ele>
			 </trkpt>
			 <trkpt lat="51.747509" lon="0.318326">
				 <ele>63.3</ele>
			 </trkpt>
			 <trkpt lat="51.747612" lon="0.317336">
				 <ele>62.9</ele>
			 </trkpt>
			 <trkpt lat="51.747639" lon="0.316564">
				 <ele>62.5</ele>
			 </trkpt>
			 <trkpt lat="51.747581" lon="0.315894">
				 <ele>62.2</ele>
			 </trkpt>
			 <trkpt lat="51.747351" lon="0.314615">
				 <ele>62</ele>
			 </trkpt>
			 <trkpt lat="51.747316" lon="0.31431">
				 <ele>62</ele>
			 </trkpt>
			 <trkpt lat="51.747302" lon="0.314062">
				 <ele>62</ele>
			 </trkpt>
			 <trkpt lat="51.747295" lon="0.312994">
				 <ele>61.9</ele>
			 </trkpt>
			 <trkpt lat="51.74729" lon="0.312661">
				 <ele>61.8</ele>
			 </trkpt>
			 <trkpt lat="51.747337" lon="0.312066">
				 <ele>61.6</ele>
			 </trkpt>
			 <trkpt lat="51.747339" lon="0.311721">
				 <ele>61.5</ele>
			 </trkpt>
			 <trkpt lat="51.747305" lon="0.311394">
				 <ele>61.4</ele>
			 </trkpt>
			 <trkpt lat="51.747148" lon="0.310624">
				 <ele>61.2</ele>
			 </trkpt>
			 <trkpt lat="51.747125" lon="0.310262">
				 <ele>61</ele>
			 </trkpt>
			 <trkpt lat="51.747163" lon="0.310063">
				 <ele>60.8</ele>
			 </trkpt>
			 <trkpt lat="51.747213" lon="0.309911">
				 <ele>60.6</ele>
			 </trkpt>
			 <trkpt lat="51.747341" lon="0.309635">
				 <ele>60.3</ele>
			 </trkpt>
			 <trkpt lat="51.747372" lon="0.309513">
				 <ele>59.9</ele>
			 </trkpt>
			 <trkpt lat="51.747401" lon="0.309288">
				 <ele>59.5</ele>
			 </trkpt>
			 <trkpt lat="51.747399" lon="0.309039">
				 <ele>59.2</ele>
			 </trkpt>
			 <trkpt lat="51.747356" lon="0.308592">
				 <ele>58.7</ele>
			 </trkpt>
			 <trkpt lat="51.74722" lon="0.307985">
				 <ele>58.1</ele>
			 </trkpt>
			 <trkpt lat="51.74722" lon="0.307861">
				 <ele>57.6</ele>
			 </trkpt>
			 <trkpt lat="51.747243" lon="0.307692">
				 <ele>57.3</ele>
			 </trkpt>
			 <trkpt lat="51.74731" lon="0.307511">
				 <ele>57.5</ele>
			 </trkpt>
			 <trkpt lat="51.747415" lon="0.307309">
				 <ele>58</ele>
			 </trkpt>
			 <trkpt lat="51.747734" lon="0.306743">
				 <ele>58.6</ele>
			 </trkpt>
			 <trkpt lat="51.747919" lon="0.306365">
				 <ele>59.4</ele>
			 </trkpt>
			 <trkpt lat="51.748109" lon="0.306191">
				 <ele>60</ele>
			 </trkpt>
			 <trkpt lat="51.749166" lon="0.305442">
				 <ele>60.5</ele>
			 </trkpt>
			 <trkpt lat="51.750096" lon="0.305003">
				 <ele>61</ele>
			 </trkpt>
			 <trkpt lat="51.750937" lon="0.304519">
				 <ele>61.5</ele>
			 </trkpt>
			 <trkpt lat="51.751398" lon="0.304481">
				 <ele>62.2</ele>
			 </trkpt>
			 <trkpt lat="51.751747" lon="0.304514">
				 <ele>62.5</ele>
			 </trkpt>
			 <trkpt lat="51.752283" lon="0.304466">
				 <ele>62.5</ele>
			 </trkpt>
			 <trkpt lat="51.753241" lon="0.304307">
				 <ele>61.6</ele>
			 </trkpt>
			 <trkpt lat="51.754005" lon="0.303861">
				 <ele>60.5</ele>
			 </trkpt>
			 <trkpt lat="51.754292" lon="0.303732">
				 <ele>59.2</ele>
			 </trkpt>
			 <trkpt lat="51.754866" lon="0.303638">
				 <ele>57.9</ele>
			 </trkpt>
			 <trkpt lat="51.755397" lon="0.303355">
				 <ele>56.7</ele>
			 </trkpt>
			 <trkpt lat="51.756125" lon="0.302874">
				 <ele>55.6</ele>
			 </trkpt>
			 <trkpt lat="51.756216" lon="0.302618">
				 <ele>54.6</ele>
			 </trkpt>
			 <trkpt lat="51.756307" lon="0.301947">
				 <ele>53.8</ele>
			 </trkpt>
			 <trkpt lat="51.756307" lon="0.301716">
				 <ele>53.2</ele>
			 </trkpt>
			 <trkpt lat="51.756283" lon="0.301383">
				 <ele>52.6</ele>
			 </trkpt>
			 <trkpt lat="51.756199" lon="0.301046">
				 <ele>52.4</ele>
			 </trkpt>
			 <trkpt lat="51.755992" lon="0.299441">
				 <ele>52.3</ele>
			 </trkpt>
			 <trkpt lat="51.756012" lon="0.298875">
				 <ele>52.3</ele>
			 </trkpt>
			 <trkpt lat="51.756076" lon="0.298295">
				 <ele>52.4</ele>
			 </trkpt>
			 <trkpt lat="51.755812" lon="0.29806">
				 <ele>52.3</ele>
			 </trkpt>
			 <trkpt lat="51.755464" lon="0.297725">
				 <ele>52.2</ele>
			 </trkpt>
			 <trkpt lat="51.755081" lon="0.297412">
				 <ele>52.1</ele>
			 </trkpt>
			 <trkpt lat="51.754796" lon="0.297385">
				 <ele>52</ele>
			 </trkpt>
			 <trkpt lat="51.754555" lon="0.297405">
				 <ele>51.9</ele>
			 </trkpt>
			 <trkpt lat="51.754269" lon="0.297384">
				 <ele>51.7</ele>
			 </trkpt>
			 <trkpt lat="51.753914" lon="0.297244">
				 <ele>51.8</ele>
			 </trkpt>
			 <trkpt lat="51.753668" lon="0.297095">
				 <ele>52.1</ele>
			 </trkpt>
			 <trkpt lat="51.753185" lon="0.296674">
				 <ele>52.6</ele>
			 </trkpt>
			 <trkpt lat="51.752645" lon="0.296133">
				 <ele>52.9</ele>
			 </trkpt>
			 <trkpt lat="51.752439" lon="0.295956">
				 <ele>53.1</ele>
			 </trkpt>
			 <trkpt lat="51.751483" lon="0.295391">
				 <ele>53.4</ele>
			 </trkpt>
			 <trkpt lat="51.750277" lon="0.294429">
				 <ele>53.5</ele>
			 </trkpt>
			 <trkpt lat="51.749715" lon="0.293876">
				 <ele>53.5</ele>
			 </trkpt>
			 <trkpt lat="51.748849" lon="0.292588">
				 <ele>53.4</ele>
			 </trkpt>
			 <trkpt lat="51.74844" lon="0.291867">
				 <ele>53.2</ele>
			 </trkpt>
			 <trkpt lat="51.748197" lon="0.291181">
				 <ele>52.9</ele>
			 </trkpt>
			 <trkpt lat="51.748023" lon="0.291118">
				 <ele>52.5</ele>
			 </trkpt>
			 <trkpt lat="51.746881" lon="0.291512">
				 <ele>51.8</ele>
			 </trkpt>
			 <trkpt lat="51.746798" lon="0.291541">
				 <ele>51.1</ele>
			 </trkpt>
			 <trkpt lat="51.746612" lon="0.291455">
				 <ele>50.5</ele>
			 </trkpt>
			 <trkpt lat="51.746527" lon="0.291284">
				 <ele>50.5</ele>
			 </trkpt>
			 <trkpt lat="51.746399" lon="0.291198">
				 <ele>50.5</ele>
			 </trkpt>
			 <trkpt lat="51.746293" lon="0.291284">
				 <ele>50.6</ele>
			 </trkpt>
			 <trkpt lat="51.746196" lon="0.291453">
				 <ele>51.1</ele>
			 </trkpt>
			 <trkpt lat="51.746058" lon="0.291694">
				 <ele>51.5</ele>
			 </trkpt>
			 <trkpt lat="51.745315" lon="0.292897">
				 <ele>52.1</ele>
			 </trkpt>
			 <trkpt lat="51.745272" lon="0.293301">
				 <ele>52.7</ele>
			 </trkpt>
			 <trkpt lat="51.745299" lon="0.293936">
				 <ele>53.4</ele>
			 </trkpt>
			 <trkpt lat="51.745437" lon="0.295069">
				 <ele>54.1</ele>
			 </trkpt>
			 <trkpt lat="51.745458" lon="0.295421">
				 <ele>54.9</ele>
			 </trkpt>
			 <trkpt lat="51.745262" lon="0.296118">
				 <ele>55.7</ele>
			 </trkpt>
			 <trkpt lat="51.745197" lon="0.296228">
				 <ele>56.2</ele>
			 </trkpt>
			 <trkpt lat="51.745131" lon="0.296289">
				 <ele>56.5</ele>
			 </trkpt>
			 <trkpt lat="51.744953" lon="0.296347">
				 <ele>56.9</ele>
			 </trkpt>
			 <trkpt lat="51.744377" lon="0.296333">
				 <ele>57.3</ele>
			 </trkpt>
			 <trkpt lat="51.744199" lon="0.296262">
				 <ele>57.6</ele>
			 </trkpt>
			 <trkpt lat="51.744114" lon="0.296125">
				 <ele>58</ele>
			 </trkpt>
			 <trkpt lat="51.744082" lon="0.295996">
				 <ele>58.4</ele>
			 </trkpt>
			 <trkpt lat="51.744018" lon="0.295884">
				 <ele>58.7</ele>
			 </trkpt>
			 <trkpt lat="51.743869" lon="0.295756">
				 <ele>58.9</ele>
			 </trkpt>
			 <trkpt lat="51.743689" lon="0.295721">
				 <ele>59</ele>
			 </trkpt>
			 <trkpt lat="51.743398" lon="0.295836">
				 <ele>59.3</ele>
			 </trkpt>
			 <trkpt lat="51.742907" lon="0.29603">
				 <ele>59.5</ele>
			 </trkpt>
			 <trkpt lat="51.742261" lon="0.296166">
				 <ele>59.8</ele>
			 </trkpt>
			 <trkpt lat="51.741469" lon="0.296512">
				 <ele>60.1</ele>
			 </trkpt>
			 <trkpt lat="51.741084" lon="0.296608">
				 <ele>60.4</ele>
			 </trkpt>
			 <trkpt lat="51.74039" lon="0.296421">
				 <ele>60.6</ele>
			 </trkpt>
			 <trkpt lat="51.740276" lon="0.296491">
				 <ele>60.8</ele>
			 </trkpt>
			 <trkpt lat="51.740091" lon="0.296777">
				 <ele>61</ele>
			 </trkpt>
			 <trkpt lat="51.739634" lon="0.297873">
				 <ele>61.2</ele>
			 </trkpt>
			 <trkpt lat="51.739391" lon="0.298493">
				 <ele>61.5</ele>
			 </trkpt>
			 <trkpt lat="51.739325" lon="0.298828">
				 <ele>61.7</ele>
			 </trkpt>
			 <trkpt lat="51.739293" lon="0.29936">
				 <ele>61.7</ele>
			 </trkpt>
			 <trkpt lat="51.739198" lon="0.299815">
				 <ele>61.5</ele>
			 </trkpt>
			 <trkpt lat="51.73906" lon="0.30021">
				 <ele>61.5</ele>
			 </trkpt>
			 <trkpt lat="51.738863" lon="0.300476">
				 <ele>61.4</ele>
			 </trkpt>
			 <trkpt lat="51.738804" lon="0.300725">
				 <ele>61.5</ele>
			 </trkpt>
			 <trkpt lat="51.738863" lon="0.300914">
				 <ele>61.9</ele>
			 </trkpt>
			 <trkpt lat="51.73941" lon="0.301867">
				 <ele>62.4</ele>
			 </trkpt>
			 <trkpt lat="51.739756" lon="0.302725">
				 <ele>62.9</ele>
			 </trkpt>
			 <trkpt lat="51.739836" lon="0.303077">
				 <ele>63.5</ele>
			 </trkpt>
			 <trkpt lat="51.740186" lon="0.304013">
				 <ele>64.1</ele>
			 </trkpt>
			 <trkpt lat="51.740532" lon="0.30512">
				 <ele>64.7</ele>
			 </trkpt>
			 <trkpt lat="51.740785" lon="0.306127">
				 <ele>65.5</ele>
			 </trkpt>
			 <trkpt lat="51.740851" lon="0.30627">
				 <ele>66.9</ele>
			 </trkpt>
			 <trkpt lat="51.741036" lon="0.306516">
				 <ele>68.5</ele>
			 </trkpt>
			 <trkpt lat="51.741116" lon="0.306673">
				 <ele>70.1</ele>
			 </trkpt>
			 <trkpt lat="51.741149" lon="0.306873">
				 <ele>71.4</ele>
			 </trkpt>
			 <trkpt lat="51.741141" lon="0.307097">
				 <ele>72.5</ele>
			 </trkpt>
			 <trkpt lat="51.740984" lon="0.308828">
				 <ele>73.5</ele>
			 </trkpt>
			 <trkpt lat="51.740656" lon="0.3105">
				 <ele>74.5</ele>
			 </trkpt>
			 <trkpt lat="51.740559" lon="0.311094">
				 <ele>75.4</ele>
			 </trkpt>
			 <trkpt lat="51.740508" lon="0.311409">
				 <ele>76.2</ele>
			 </trkpt>
			 <trkpt lat="51.740451" lon="0.311631">
				 <ele>77</ele>
			 </trkpt>
			 <trkpt lat="51.740138" lon="0.312611">
				 <ele>77.6</ele>
			 </trkpt>
			 <trkpt lat="51.739887" lon="0.314138">
				 <ele>78</ele>
			 </trkpt>
			 <trkpt lat="51.73987" lon="0.314324">
				 <ele>77.9</ele>
			 </trkpt>
			 <trkpt lat="51.739861" lon="0.314434">
				 <ele>77.7</ele>
			 </trkpt>
			 <trkpt lat="51.739811" lon="0.315122">
				 <ele>77.5</ele>
			 </trkpt>
			 <trkpt lat="51.739652" lon="0.316478">
				 <ele>77.4</ele>
			 </trkpt>
			 <trkpt lat="51.739476" lon="0.317723">
				 <ele>77</ele>
			 </trkpt>
			 <trkpt lat="51.739365" lon="0.318847">
				 <ele>76.7</ele>
			 </trkpt>
			 <trkpt lat="51.739327" lon="0.320177">
				 <ele>76.5</ele>
			 </trkpt>
			 <trkpt lat="51.739418" lon="0.320478">
				 <ele>76.1</ele>
			 </trkpt>
			 <trkpt lat="51.739524" lon="0.320632">
				 <ele>75.7</ele>
			 </trkpt>
			 <trkpt lat="51.739689" lon="0.320667">
				 <ele>75.5</ele>
			 </trkpt>
			 <trkpt lat="51.739843" lon="0.32077">
				 <ele>75</ele>
			 </trkpt>
			 <trkpt lat="51.740267" lon="0.321681">
				 <ele>74.6</ele>
			 </trkpt>
			 <trkpt lat="51.740406" lon="0.32198">
				 <ele>74.3</ele>
			 </trkpt>
			 <trkpt lat="51.740534" lon="0.322357">
				 <ele>73.7</ele>
			 </trkpt>
			 <trkpt lat="51.740566" lon="0.322881">
				 <ele>73.2</ele>
			 </trkpt>
			 <trkpt lat="51.740725" lon="0.323516">
				 <ele>72.8</ele>
			 </trkpt>
			 <trkpt lat="51.740745" lon="0.324135">
				 <ele>72.5</ele>
			 </trkpt>
			 <trkpt lat="51.740688" lon="0.325276">
				 <ele>72.3</ele>
			 </trkpt>
			 <trkpt lat="51.74057" lon="0.326952">
				 <ele>72.1</ele>
			 </trkpt>
			 <trkpt lat="51.740502" lon="0.327387">
				 <ele>71.9</ele>
			 </trkpt>
			 <trkpt lat="51.740339" lon="0.328195">
				 <ele>71.7</ele>
			 </trkpt>
			 <trkpt lat="51.740021" lon="0.329248">
				 <ele>71.7</ele>
			 </trkpt>
			 <trkpt lat="51.739915" lon="0.329662">
				 <ele>71.7</ele>
			 </trkpt>
			 <trkpt lat="51.739894" lon="0.329744">
				 <ele>71.9</ele>
			 </trkpt>
			 <trkpt lat="51.739875" lon="0.329947">
				 <ele>72.3</ele>
			 </trkpt>
			 <trkpt lat="51.739864" lon="0.330348">
				 <ele>72.6</ele>
			 </trkpt>
			 <trkpt lat="51.739955" lon="0.331473">
				 <ele>72.9</ele>
			 </trkpt>
			 <trkpt lat="51.739912" lon="0.331842">
				 <ele>73.1</ele>
			 </trkpt>
			 <trkpt lat="51.7398" lon="0.332205">
				 <ele>73.4</ele>
			 </trkpt>
			 <trkpt lat="51.739476" lon="0.332872">
				 <ele>73.6</ele>
			 </trkpt>
			 <trkpt lat="51.739396" lon="0.333014">
				 <ele>73.9</ele>
			 </trkpt>
			 <trkpt lat="51.73933" lon="0.333035">
				 <ele>74.2</ele>
			 </trkpt>
			 <trkpt lat="51.739187" lon="0.333031">
				 <ele>74.4</ele>
			 </trkpt>
			 <trkpt lat="51.73843" lon="0.332727">
				 <ele>74.5</ele>
			 </trkpt>
			 <trkpt lat="51.737968" lon="0.332605">
				 <ele>74.6</ele>
			 </trkpt>
			 <trkpt lat="51.737754" lon="0.332588">
				 <ele>74.8</ele>
			 </trkpt>
			 <trkpt lat="51.737665" lon="0.33261">
				 <ele>75</ele>
			 </trkpt>
			 <trkpt lat="51.737573" lon="0.33276">
				 <ele>75.2</ele>
			 </trkpt>
			 <trkpt lat="51.73751" lon="0.333069">
				 <ele>75.5</ele>
			 </trkpt>
			 <trkpt lat="51.737281" lon="0.333987">
				 <ele>75.7</ele>
			 </trkpt>
			 <trkpt lat="51.736299" lon="0.335946">
				 <ele>76</ele>
			 </trkpt>
			 <trkpt lat="51.736045" lon="0.336641">
				 <ele>76.3</ele>
			 </trkpt>
			 <trkpt lat="51.735992" lon="0.336787">
				 <ele>76.5</ele>
			 </trkpt>
			 <trkpt lat="51.735664" lon="0.337941">
				 <ele>76.7</ele>
			 </trkpt>
			 <trkpt lat="51.735293" lon="0.338648">
				 <ele>77</ele>
			 </trkpt>
			 <trkpt lat="51.735212" lon="0.339042">
				 <ele>77.3</ele>
			 </trkpt>
			 <trkpt lat="51.735167" lon="0.339434">
				 <ele>77.5</ele>
			 </trkpt>
			 <trkpt lat="51.735043" lon="0.339609">
				 <ele>77.6</ele>
			 </trkpt>
			 <trkpt lat="51.734751" lon="0.339669">
				 <ele>77.8</ele>
			 </trkpt>
			 <trkpt lat="51.734469" lon="0.339575">
				 <ele>77.7</ele>
			 </trkpt>
			 <trkpt lat="51.734219" lon="0.33936">
				 <ele>77.5</ele>
			 </trkpt>
			 <trkpt lat="51.733799" lon="0.339064">
				 <ele>77.4</ele>
			 </trkpt>
			 <trkpt lat="51.732986" lon="0.338537">
				 <ele>77</ele>
			 </trkpt>
			 <trkpt lat="51.732258" lon="0.33821">
				 <ele>76.6</ele>
			 </trkpt>
			 <trkpt lat="51.731817" lon="0.33797">
				 <ele>76.2</ele>
			 </trkpt>
			 <trkpt lat="51.73171" lon="0.338039">
				 <ele>75.5</ele>
			 </trkpt>
			 <trkpt lat="51.731652" lon="0.338142">
				 <ele>74</ele>
			 </trkpt>
			 <trkpt lat="51.731088" lon="0.340802">
				 <ele>72.5</ele>
			 </trkpt>
			 <trkpt lat="51.730987" lon="0.341154">
				 <ele>71.2</ele>
			 </trkpt>
			 <trkpt lat="51.730876" lon="0.34124">
				 <ele>69.9</ele>
			 </trkpt>
			 <trkpt lat="51.729967" lon="0.341137">
				 <ele>68.8</ele>
			 </trkpt>
			 <trkpt lat="51.728284" lon="0.340483">
				 <ele>67.7</ele>
			 </trkpt>
			 <trkpt lat="51.727886" lon="0.340329">
				 <ele>66.6</ele>
			 </trkpt>
			 <trkpt lat="51.727751" lon="0.340191">
				 <ele>65.6</ele>
			 </trkpt>
			 <trkpt lat="51.727665" lon="0.339945">
				 <ele>64.7</ele>
			 </trkpt>
			 <trkpt lat="51.727625" lon="0.339787">
				 <ele>63.9</ele>
			 </trkpt>
			 <trkpt lat="51.727619" lon="0.339674">
				 <ele>63.4</ele>
			 </trkpt>
			 <trkpt lat="51.727642" lon="0.339234">
				 <ele>63.5</ele>
			 </trkpt>
			 <trkpt lat="51.727868" lon="0.338405">
				 <ele>63.8</ele>
			 </trkpt>
			 <trkpt lat="51.72795" lon="0.337758">
				 <ele>64.2</ele>
			 </trkpt>
			 <trkpt lat="51.72798" lon="0.337394">
				 <ele>64.5</ele>
			 </trkpt>
			 <trkpt lat="51.728003" lon="0.336542">
				 <ele>65</ele>
			 </trkpt>
			 <trkpt lat="51.728028" lon="0.336287">
				 <ele>65.5</ele>
			 </trkpt>
			 <trkpt lat="51.728236" lon="0.335296">
				 <ele>66.1</ele>
			 </trkpt>
			 <trkpt lat="51.728356" lon="0.334609">
				 <ele>66.9</ele>
			 </trkpt>
			 <trkpt lat="51.728387" lon="0.333556">
				 <ele>67.8</ele>
			 </trkpt>
			 <trkpt lat="51.728454" lon="0.333003">
				 <ele>68.7</ele>
			 </trkpt>
			 <trkpt lat="51.728503" lon="0.332598">
				 <ele>69.8</ele>
			 </trkpt>
			 <trkpt lat="51.728782" lon="0.33114">
				 <ele>70.9</ele>
			 </trkpt>
			 <trkpt lat="51.728863" lon="0.330601">
				 <ele>72</ele>
			 </trkpt>
			 <trkpt lat="51.72892" lon="0.330091">
				 <ele>73</ele>
			 </trkpt>
			 <trkpt lat="51.729065" lon="0.329347">
				 <ele>73.9</ele>
			 </trkpt>
			 <trkpt lat="51.729305" lon="0.328295">
				 <ele>74.7</ele>
			 </trkpt>
			 <trkpt lat="51.729364" lon="0.327603">
				 <ele>75.5</ele>
			 </trkpt>
			 <trkpt lat="51.729484" lon="0.327371">
				 <ele>76.3</ele>
			 </trkpt>
			 <trkpt lat="51.7296" lon="0.327327">
				 <ele>76.9</ele>
			 </trkpt>
			 <trkpt lat="51.729759" lon="0.327147">
				 <ele>77.5</ele>
			 </trkpt>
			 <trkpt lat="51.729924" lon="0.327018">
				 <ele>78.2</ele>
			 </trkpt>
			 <trkpt lat="51.730031" lon="0.327027">
				 <ele>78.5</ele>
			 </trkpt>
			 <trkpt lat="51.730541" lon="0.327215">
				 <ele>78.9</ele>
			 </trkpt>
			 <trkpt lat="51.731407" lon="0.327353">
				 <ele>79.2</ele>
			 </trkpt>
			 <trkpt lat="51.731881" lon="0.32737">
				 <ele>79.4</ele>
			 </trkpt>
			 <trkpt lat="51.732885" lon="0.327147">
				 <ele>79.5</ele>
			 </trkpt>
			 <trkpt lat="51.733361" lon="0.327082">
				 <ele>79.7</ele>
			 </trkpt>
			 <trkpt lat="51.733571" lon="0.327018">
				 <ele>79.9</ele>
			 </trkpt>
			 <trkpt lat="51.733683" lon="0.326838">
				 <ele>80</ele>
			 </trkpt>
			 <trkpt lat="51.733815" lon="0.326366">
				 <ele>80.1</ele>
			 </trkpt>
			 <trkpt lat="51.733984" lon="0.325267">
				 <ele>80.1</ele>
			 </trkpt>
			 <trkpt lat="51.734327" lon="0.323565">
				 <ele>80</ele>
			 </trkpt>
			 <trkpt lat="51.734373" lon="0.322751">
				 <ele>80</ele>
			 </trkpt>
			 <trkpt lat="51.734403" lon="0.321653">
				 <ele>80.1</ele>
			 </trkpt>
			 <trkpt lat="51.734431" lon="0.32119">
				 <ele>80.1</ele>
			 </trkpt>
			 <trkpt lat="51.734461" lon="0.32081">
				 <ele>80.2</ele>
			 </trkpt>
			 <trkpt lat="51.734555" lon="0.320035">
				 <ele>80.3</ele>
			 </trkpt>
			 <trkpt lat="51.734703" lon="0.319551">
				 <ele>80.4</ele>
			 </trkpt>
			 <trkpt lat="51.73491" lon="0.31895">
				 <ele>80.5</ele>
			 </trkpt>
			 <trkpt lat="51.735303" lon="0.318383">
				 <ele>80.5</ele>
			 </trkpt>
			 <trkpt lat="51.73553" lon="0.318096">
				 <ele>80.5</ele>
			 </trkpt>
			 <trkpt lat="51.735721" lon="0.317894">
				 <ele>80.5</ele>
			 </trkpt>
			 <trkpt lat="51.736104" lon="0.317544">
				 <ele>80.5</ele>
			 </trkpt>
			 <trkpt lat="51.736335" lon="0.317367">
				 <ele>80.5</ele>
			 </trkpt>
			 <trkpt lat="51.736672" lon="0.317051">
				 <ele>80.5</ele>
			 </trkpt>
			 <trkpt lat="51.737377" lon="0.316221">
				 <ele>80.5</ele>
			 </trkpt>
			 <trkpt lat="51.737664" lon="0.316032">
				 <ele>80.3</ele>
			 </trkpt>
			 <trkpt lat="51.738166" lon="0.315951">
				 <ele>80</ele>
			 </trkpt>
			 <trkpt lat="51.738307" lon="0.315929">
				 <ele>79.7</ele>
			 </trkpt>
			 <trkpt lat="51.738674" lon="0.315697">
				 <ele>79.5</ele>
			 </trkpt>
			 <trkpt lat="51.738993" lon="0.31539">
				 <ele>79.2</ele>
			 </trkpt>
			 <trkpt lat="51.739174" lon="0.315188">
				 <ele>78.9</ele>
			 </trkpt>
			 <trkpt lat="51.739588" lon="0.314641">
				 <ele>78.7</ele>
			 </trkpt>
			 <trkpt lat="51.73987" lon="0.314324">
				 <ele>78.5</ele>
			 </trkpt>
			 <trkpt lat="51.739863" lon="0.31441">
				 <ele>78.1</ele>
			 </trkpt>
			 <trkpt lat="51.739811" lon="0.315122">
				 <ele>77.7</ele>
			 </trkpt>
			 <trkpt lat="51.739652" lon="0.316478">
				 <ele>77.4</ele>
			 </trkpt>
			 <trkpt lat="51.739476" lon="0.317723">
				 <ele>77</ele>
			 </trkpt>
			 <trkpt lat="51.739365" lon="0.318847">
				 <ele>76.7</ele>
			 </trkpt>
			 <trkpt lat="51.739327" lon="0.320177">
				 <ele>76.4</ele>
			 </trkpt>
			 <trkpt lat="51.739418" lon="0.320478">
				 <ele>76</ele>
			 </trkpt>
			 <trkpt lat="51.739524" lon="0.320632">
				 <ele>75.6</ele>
			 </trkpt>
			 <trkpt lat="51.739689" lon="0.320667">
				 <ele>75.3</ele>
			 </trkpt>
			 <trkpt lat="51.739843" lon="0.32077">
				 <ele>74.8</ele>
			 </trkpt>
			 <trkpt lat="51.740406" lon="0.32198">
				 <ele>74.5</ele>
			 </trkpt>
			 <trkpt lat="51.740534" lon="0.322357">
				 <ele>74.1</ele>
			 </trkpt>
			 <trkpt lat="51.740566" lon="0.322881">
				 <ele>73.5</ele>
			 </trkpt>
			 <trkpt lat="51.740725" lon="0.323516">
				 <ele>73</ele>
			 </trkpt>
			 <trkpt lat="51.740745" lon="0.324135">
				 <ele>72.6</ele>
			 </trkpt>
			 <trkpt lat="51.740735" lon="0.324334">
				 <ele>72.4</ele>
			 </trkpt>
			 <trkpt lat="51.740688" lon="0.325276">
				 <ele>72.2</ele>
			 </trkpt>
			 <trkpt lat="51.74057" lon="0.326952">
				 <ele>72</ele>
			 </trkpt>
			 <trkpt lat="51.740502" lon="0.327387">
				 <ele>71.8</ele>
			 </trkpt>
			 <trkpt lat="51.740339" lon="0.328195">
				 <ele>71.8</ele>
			 </trkpt>
			 <trkpt lat="51.740021" lon="0.329248">
				 <ele>71.8</ele>
			 </trkpt>
			 <trkpt lat="51.739894" lon="0.329744">
				 <ele>71.9</ele>
			 </trkpt>
			 <trkpt lat="51.739875" lon="0.329947">
				 <ele>72.1</ele>
			 </trkpt>
			 <trkpt lat="51.739864" lon="0.330348">
				 <ele>72.5</ele>
			 </trkpt>
			 <trkpt lat="51.739955" lon="0.331473">
				 <ele>72.8</ele>
			 </trkpt>
			 <trkpt lat="51.739912" lon="0.331842">
				 <ele>73.1</ele>
			 </trkpt>
			 <trkpt lat="51.7398" lon="0.332205">
				 <ele>73.4</ele>
			 </trkpt>
			 <trkpt lat="51.739476" lon="0.332872">
				 <ele>73.6</ele>
			 </trkpt>
			 <trkpt lat="51.739396" lon="0.333014">
				 <ele>73.9</ele>
			 </trkpt>
			 <trkpt lat="51.73933" lon="0.333035">
				 <ele>74.2</ele>
			 </trkpt>
			 <trkpt lat="51.739187" lon="0.333031">
				 <ele>74.4</ele>
			 </trkpt>
			 <trkpt lat="51.738708" lon="0.332834">
				 <ele>74.5</ele>
			 </trkpt>
			 <trkpt lat="51.738488" lon="0.332743">
				 <ele>74.6</ele>
			 </trkpt>
			 <trkpt lat="51.737968" lon="0.332605">
				 <ele>74.7</ele>
			 </trkpt>
			 <trkpt lat="51.737754" lon="0.332588">
				 <ele>74.9</ele>
			 </trkpt>
			 <trkpt lat="51.737665" lon="0.33261">
				 <ele>75.1</ele>
			 </trkpt>
			 <trkpt lat="51.737573" lon="0.33276">
				 <ele>75.4</ele>
			 </trkpt>
			 <trkpt lat="51.73751" lon="0.333069">
				 <ele>75.6</ele>
			 </trkpt>
			 <trkpt lat="51.737281" lon="0.333987">
				 <ele>75.9</ele>
			 </trkpt>
			 <trkpt lat="51.736299" lon="0.335946">
				 <ele>76.2</ele>
			 </trkpt>
			 <trkpt lat="51.735992" lon="0.336787">
				 <ele>76.4</ele>
			 </trkpt>
			 <trkpt lat="51.735664" lon="0.337941">
				 <ele>76.6</ele>
			 </trkpt>
			 <trkpt lat="51.735293" lon="0.338648">
				 <ele>76.9</ele>
			 </trkpt>
			 <trkpt lat="51.735212" lon="0.339042">
				 <ele>77.2</ele>
			 </trkpt>
			 <trkpt lat="51.735167" lon="0.339434">
				 <ele>77.5</ele>
			 </trkpt>
			 <trkpt lat="51.735043" lon="0.339609">
				 <ele>77.6</ele>
			 </trkpt>
			 <trkpt lat="51.734751" lon="0.339669">
				 <ele>77.8</ele>
			 </trkpt>
			 <trkpt lat="51.734469" lon="0.339575">
				 <ele>77.7</ele>
			 </trkpt>
			 <trkpt lat="51.734261" lon="0.339397">
				 <ele>77.5</ele>
			 </trkpt>
			 <trkpt lat="51.733757" lon="0.339034">
				 <ele>77.4</ele>
			 </trkpt>
			 <trkpt lat="51.732986" lon="0.338537">
				 <ele>77</ele>
			 </trkpt>
			 <trkpt lat="51.732258" lon="0.33821">
				 <ele>76.6</ele>
			 </trkpt>
			 <trkpt lat="51.731817" lon="0.33797">
				 <ele>76.2</ele>
			 </trkpt>
			 <trkpt lat="51.73171" lon="0.338039">
				 <ele>75.5</ele>
			 </trkpt>
			 <trkpt lat="51.731652" lon="0.338142">
				 <ele>74.7</ele>
			 </trkpt>
			 <trkpt lat="51.731088" lon="0.340802">
				 <ele>73.3</ele>
			 </trkpt>
			 <trkpt lat="51.730987" lon="0.341154">
				 <ele>71.9</ele>
			 </trkpt>
			 <trkpt lat="51.730876" lon="0.34124">
				 <ele>70.6</ele>
			 </trkpt>
			 <trkpt lat="51.729967" lon="0.341137">
				 <ele>69.5</ele>
			 </trkpt>
			 <trkpt lat="51.729887" lon="0.341106">
				 <ele>68.5</ele>
			 </trkpt>
			 <trkpt lat="51.727886" lon="0.340329">
				 <ele>67.5</ele>
			 </trkpt>
			 <trkpt lat="51.727751" lon="0.340191">
				 <ele>66.6</ele>
			 </trkpt>
			 <trkpt lat="51.727665" lon="0.339945">
				 <ele>65.9</ele>
			 </trkpt>
			 <trkpt lat="51.727625" lon="0.339787">
				 <ele>65.3</ele>
			 </trkpt>
			 <trkpt lat="51.727619" lon="0.339674">
				 <ele>65</ele>
			 </trkpt>
			 <trkpt lat="51.727495" lon="0.339469">
				 <ele>64.9</ele>
			 </trkpt>
			 <trkpt lat="51.727428" lon="0.339416">
				 <ele>65.6</ele>
			 </trkpt>
			 <trkpt lat="51.726976" lon="0.339237">
				 <ele>66.4</ele>
			 </trkpt>
			 <trkpt lat="51.726726" lon="0.339177">
				 <ele>67.1</ele>
			 </trkpt>
			 <trkpt lat="51.726497" lon="0.33915">
				 <ele>67.9</ele>
			 </trkpt>
			 <trkpt lat="51.726225" lon="0.339118">
				 <ele>68.8</ele>
			 </trkpt>
			 <trkpt lat="51.72521" lon="0.339172">
				 <ele>69.7</ele>
			 </trkpt>
			 <trkpt lat="51.724757" lon="0.339131">
				 <ele>70.8</ele>
			 </trkpt>
			 <trkpt lat="51.724553" lon="0.339091">
				 <ele>72</ele>
			 </trkpt>
			 <trkpt lat="51.724037" lon="0.339057">
				 <ele>73.1</ele>
			 </trkpt>
			 <trkpt lat="51.723951" lon="0.339113">
				 <ele>74.1</ele>
			 </trkpt>
			 <trkpt lat="51.723878" lon="0.339303">
				 <ele>74.9</ele>
			 </trkpt>
			 <trkpt lat="51.723687" lon="0.340302">
				 <ele>75.6</ele>
			 </trkpt>
			 <trkpt lat="51.723627" lon="0.340519">
				 <ele>76.3</ele>
			 </trkpt>
			 <trkpt lat="51.723208" lon="0.341552">
				 <ele>76.7</ele>
			 </trkpt>
			 <trkpt lat="51.72303" lon="0.342129">
				 <ele>77.1</ele>
			 </trkpt>
			 <trkpt lat="51.722931" lon="0.342508">
				 <ele>77.4</ele>
			 </trkpt>
			 <trkpt lat="51.722708" lon="0.343133">
				 <ele>77.5</ele>
			 </trkpt>
			 <trkpt lat="51.722655" lon="0.343368">
				 <ele>77.4</ele>
			 </trkpt>
			 <trkpt lat="51.722612" lon="0.343662">
				 <ele>76.7</ele>
			 </trkpt>
			 <trkpt lat="51.722571" lon="0.344277">
				 <ele>75.7</ele>
			 </trkpt>
			 <trkpt lat="51.722507" lon="0.344623">
				 <ele>74.2</ele>
			 </trkpt>
			 <trkpt lat="51.722406" lon="0.344939">
				 <ele>72.4</ele>
			 </trkpt>
			 <trkpt lat="51.721926" lon="0.346031">
				 <ele>70.5</ele>
			 </trkpt>
			 <trkpt lat="51.723332" lon="0.347394">
				 <ele>68.6</ele>
			 </trkpt>
			 <trkpt lat="51.724502" lon="0.348587">
				 <ele>66.7</ele>
			 </trkpt>
			 <trkpt lat="51.725778" lon="0.35018">
				 <ele>64.8</ele>
			 </trkpt>
			 <trkpt lat="51.726357" lon="0.351333">
				 <ele>62.8</ele>
			 </trkpt>
			 <trkpt lat="51.726505" lon="0.35147">
				 <ele>60.9</ele>
			 </trkpt>
			 <trkpt lat="51.726799" lon="0.351531">
				 <ele>59.1</ele>
			 </trkpt>
			 <trkpt lat="51.72729" lon="0.35177">
				 <ele>57.8</ele>
			 </trkpt>
			 <trkpt lat="51.727607" lon="0.352038">
				 <ele>57</ele>
			 </trkpt>
			 <trkpt lat="51.727824" lon="0.352381">
				 <ele>56.6</ele>
			 </trkpt>
			 <trkpt lat="51.728041" lon="0.352465">
				 <ele>56.6</ele>
			 </trkpt>
			 <trkpt lat="51.729067" lon="0.352294">
				 <ele>56.7</ele>
			 </trkpt>
			 <trkpt lat="51.729448" lon="0.352304">
				 <ele>57.1</ele>
			 </trkpt>
			 <trkpt lat="51.729713" lon="0.35227">
				 <ele>57.5</ele>
			 </trkpt>
			 <trkpt lat="51.729939" lon="0.352178">
				 <ele>57.8</ele>
			 </trkpt>
			 <trkpt lat="51.730256" lon="0.351989">
				 <ele>58.3</ele>
			 </trkpt>
			 <trkpt lat="51.730746" lon="0.35178">
				 <ele>58.5</ele>
			 </trkpt>
			 <trkpt lat="51.731714" lon="0.351418">
				 <ele>58.6</ele>
			 </trkpt>
			 <trkpt lat="51.732566" lon="0.351136">
				 <ele>58.5</ele>
			 </trkpt>
			 <trkpt lat="51.732763" lon="0.351145">
				 <ele>58.2</ele>
			 </trkpt>
			 <trkpt lat="51.732917" lon="0.351188">
				 <ele>58.2</ele>
			 </trkpt>
			 <trkpt lat="51.733312" lon="0.351392">
				 <ele>58.2</ele>
			 </trkpt>
			 <trkpt lat="51.733733" lon="0.351609">
				 <ele>58.1</ele>
			 </trkpt>
			 <trkpt lat="51.734181" lon="0.351751">
				 <ele>57.8</ele>
			 </trkpt>
			 <trkpt lat="51.734602" lon="0.351926">
				 <ele>57.6</ele>
			 </trkpt>
			 <trkpt lat="51.734948" lon="0.352098">
				 <ele>57.4</ele>
			 </trkpt>
			 <trkpt lat="51.735264" lon="0.352379">
				 <ele>57.1</ele>
			 </trkpt>
			 <trkpt lat="51.735809" lon="0.35301">
				 <ele>56.9</ele>
			 </trkpt>
			 <trkpt lat="51.736257" lon="0.35368">
				 <ele>56.7</ele>
			 </trkpt>
			 <trkpt lat="51.736337" lon="0.353859">
				 <ele>56.7</ele>
			 </trkpt>
			 <trkpt lat="51.736531" lon="0.354598">
				 <ele>56.5</ele>
			 </trkpt>
			 <trkpt lat="51.736627" lon="0.354845">
				 <ele>56</ele>
			 </trkpt>
			 <trkpt lat="51.736941" lon="0.355351">
				 <ele>55.4</ele>
			 </trkpt>
			 <trkpt lat="51.737031" lon="0.355564">
				 <ele>54.7</ele>
			 </trkpt>
			 <trkpt lat="51.737092" lon="0.355892">
				 <ele>54.1</ele>
			 </trkpt>
			 <trkpt lat="51.73718" lon="0.356877">
				 <ele>53.5</ele>
			 </trkpt>
			 <trkpt lat="51.737303" lon="0.357385">
				 <ele>52.8</ele>
			 </trkpt>
			 <trkpt lat="51.737402" lon="0.357673">
				 <ele>52.1</ele>
			 </trkpt>
			 <trkpt lat="51.737795" lon="0.358392">
				 <ele>51.3</ele>
			 </trkpt>
			 <trkpt lat="51.737889" lon="0.358708">
				 <ele>50.5</ele>
			 </trkpt>
			 <trkpt lat="51.737978" lon="0.359213">
				 <ele>49.6</ele>
			 </trkpt>
			 <trkpt lat="51.738091" lon="0.359714">
				 <ele>49.1</ele>
			 </trkpt>
			 <trkpt lat="51.738318" lon="0.360586">
				 <ele>48.5</ele>
			 </trkpt>
			 <trkpt lat="51.738507" lon="0.361482">
				 <ele>48.2</ele>
			 </trkpt>
			 <trkpt lat="51.738796" lon="0.362442">
				 <ele>48.3</ele>
			 </trkpt>
			 <trkpt lat="51.738797" lon="0.362576">
				 <ele>48.9</ele>
			 </trkpt>
			 <trkpt lat="51.738774" lon="0.36265">
				 <ele>49.6</ele>
			 </trkpt>
			 <trkpt lat="51.738728" lon="0.362798">
				 <ele>50.5</ele>
			 </trkpt>
			 <trkpt lat="51.738381" lon="0.363245">
				 <ele>51.5</ele>
			 </trkpt>
			 <trkpt lat="51.73764" lon="0.364069">
				 <ele>53.1</ele>
			 </trkpt>
			 <trkpt lat="51.736726" lon="0.365379">
				 <ele>54.7</ele>
			 </trkpt>
			 <trkpt lat="51.736526" lon="0.365718">
				 <ele>56.5</ele>
			 </trkpt>
			 <trkpt lat="51.736201" lon="0.366198">
				 <ele>58.3</ele>
			 </trkpt>
			 <trkpt lat="51.735815" lon="0.366647">
				 <ele>60.2</ele>
			 </trkpt>
			 <trkpt lat="51.735017" lon="0.367479">
				 <ele>61.9</ele>
			 </trkpt>
			 <trkpt lat="51.73472" lon="0.367838">
				 <ele>63.2</ele>
			 </trkpt>
			 <trkpt lat="51.734546" lon="0.368124">
				 <ele>63.8</ele>
			 </trkpt>
			 <trkpt lat="51.734165" lon="0.368867">
				 <ele>64.3</ele>
			 </trkpt>
			 <trkpt lat="51.733749" lon="0.369512">
				 <ele>64.6</ele>
			 </trkpt>
			 <trkpt lat="51.734201" lon="0.370559">
				 <ele>65</ele>
			 </trkpt>
			 <trkpt lat="51.734602" lon="0.371366">
				 <ele>64.9</ele>
			 </trkpt>
			 <trkpt lat="51.734967" lon="0.372037">
				 <ele>64.8</ele>
			 </trkpt>
			 <trkpt lat="51.7353" lon="0.372527">
				 <ele>64.6</ele>
			 </trkpt>
			 <trkpt lat="51.735765" lon="0.373212">
				 <ele>64.4</ele>
			 </trkpt>
			 <trkpt lat="51.735763" lon="0.373329">
				 <ele>64</ele>
			 </trkpt>
			 <trkpt lat="51.735729" lon="0.373556">
				 <ele>63.6</ele>
			 </trkpt>
			 <trkpt lat="51.735648" lon="0.373853">
				 <ele>63.3</ele>
			 </trkpt>
			 <trkpt lat="51.73562" lon="0.374069">
				 <ele>63</ele>
			 </trkpt>
			 <trkpt lat="51.735668" lon="0.374321">
				 <ele>62.7</ele>
			 </trkpt>
			 <trkpt lat="51.735912" lon="0.374787">
				 <ele>62.4</ele>
			 </trkpt>
			 <trkpt lat="51.736218" lon="0.375581">
				 <ele>61.9</ele>
			 </trkpt>
			 <trkpt lat="51.736442" lon="0.375886">
				 <ele>61.5</ele>
			 </trkpt>
			 <trkpt lat="51.736593" lon="0.376154">
				 <ele>61.1</ele>
			 </trkpt>
			 <trkpt lat="51.736749" lon="0.37657">
				 <ele>60.7</ele>
			 </trkpt>
			 <trkpt lat="51.737199" lon="0.378116">
				 <ele>60.4</ele>
			 </trkpt>
			 <trkpt lat="51.73732" lon="0.378628">
				 <ele>60</ele>
			 </trkpt>
			 <trkpt lat="51.737383" lon="0.378896">
				 <ele>59.9</ele>
			 </trkpt>
			 <trkpt lat="51.737419" lon="0.379134">
				 <ele>59.5</ele>
			 </trkpt>
			 <trkpt lat="51.737443" lon="0.379445">
				 <ele>59.1</ele>
			 </trkpt>
			 <trkpt lat="51.737441" lon="0.37959">
				 <ele>58.5</ele>
			 </trkpt>
			 <trkpt lat="51.737354" lon="0.380223">
				 <ele>58</ele>
			 </trkpt>
			 <trkpt lat="51.737238" lon="0.381355">
				 <ele>57.5</ele>
			 </trkpt>
			 <trkpt lat="51.737067" lon="0.383361">
				 <ele>56.9</ele>
			 </trkpt>
			 <trkpt lat="51.736999" lon="0.383849">
				 <ele>56.5</ele>
			 </trkpt>
			 <trkpt lat="51.736908" lon="0.384847">
				 <ele>56.1</ele>
			 </trkpt>
			 <trkpt lat="51.736956" lon="0.385407">
				 <ele>55.6</ele>
			 </trkpt>
			 <trkpt lat="51.737072" lon="0.385915">
				 <ele>55.3</ele>
			 </trkpt>
			 <trkpt lat="51.737108" lon="0.386193">
				 <ele>54.7</ele>
			 </trkpt>
			 <trkpt lat="51.737097" lon="0.386496">
				 <ele>54.5</ele>
			 </trkpt>
			 <trkpt lat="51.737133" lon="0.386474">
				 <ele>54.2</ele>
			 </trkpt>
			 <trkpt lat="51.737097" lon="0.386496">
				 <ele>54.1</ele>
			 </trkpt>
			 <trkpt lat="51.737025" lon="0.386867">
				 <ele>54.1</ele>
			 </trkpt>
			 <trkpt lat="51.736998" lon="0.387229">
				 <ele>54.2</ele>
			 </trkpt>
			 <trkpt lat="51.737072" lon="0.389448">
				 <ele>54.3</ele>
			 </trkpt>
			 <trkpt lat="51.737064" lon="0.389526">
				 <ele>54.3</ele>
			 </trkpt>
			 <trkpt lat="51.736969" lon="0.389957">
				 <ele>54.3</ele>
			 </trkpt>
			 <trkpt lat="51.736902" lon="0.390105">
				 <ele>54.2</ele>
			 </trkpt>
			 <trkpt lat="51.73649" lon="0.391235">
				 <ele>53.8</ele>
			 </trkpt>
			 <trkpt lat="51.736215" lon="0.391924">
				 <ele>53.3</ele>
			 </trkpt>
			 <trkpt lat="51.736124" lon="0.39209">
				 <ele>52.6</ele>
			 </trkpt>
			 <trkpt lat="51.736107" lon="0.392336">
				 <ele>52</ele>
			 </trkpt>
			 <trkpt lat="51.736138" lon="0.392475">
				 <ele>51.3</ele>
			 </trkpt>
			 <trkpt lat="51.73668" lon="0.394956">
				 <ele>50.4</ele>
			 </trkpt>
			 <trkpt lat="51.736818" lon="0.396286">
				 <ele>49.4</ele>
			 </trkpt>
			 <trkpt lat="51.736821" lon="0.396676">
				 <ele>48.3</ele>
			 </trkpt>
			 <trkpt lat="51.736731" lon="0.397175">
				 <ele>47.2</ele>
			 </trkpt>
			 <trkpt lat="51.736606" lon="0.397752">
				 <ele>46.2</ele>
			 </trkpt>
			 <trkpt lat="51.736511" lon="0.398351">
				 <ele>45.5</ele>
			 </trkpt>
			 <trkpt lat="51.736443" lon="0.399583">
				 <ele>45.1</ele>
			 </trkpt>
			 <trkpt lat="51.736396" lon="0.400055">
				 <ele>45</ele>
			 </trkpt>
			 <trkpt lat="51.736314" lon="0.400184">
				 <ele>45.1</ele>
			 </trkpt>
			 <trkpt lat="51.736102" lon="0.400344">
				 <ele>45.4</ele>
			 </trkpt>
			 <trkpt lat="51.735794" lon="0.400371">
				 <ele>45.8</ele>
			 </trkpt>
			 <trkpt lat="51.735477" lon="0.400344">
				 <ele>46.4</ele>
			 </trkpt>
			 <trkpt lat="51.735146" lon="0.40041">
				 <ele>47.1</ele>
			 </trkpt>
			 <trkpt lat="51.734745" lon="0.400576">
				 <ele>47.9</ele>
			 </trkpt>
			 <trkpt lat="51.734471" lon="0.400865">
				 <ele>48.7</ele>
			 </trkpt>
			 <trkpt lat="51.734283" lon="0.401149">
				 <ele>49.5</ele>
			 </trkpt>
			 <trkpt lat="51.734065" lon="0.401481">
				 <ele>49.9</ele>
			 </trkpt>
			 <trkpt lat="51.733897" lon="0.401609">
				 <ele>50.1</ele>
			 </trkpt>
			 <trkpt lat="51.733612" lon="0.401712">
				 <ele>50.2</ele>
			 </trkpt>
			 <trkpt lat="51.732883" lon="0.401917">
				 <ele>50.1</ele>
			 </trkpt>
			 <trkpt lat="51.732642" lon="0.402022">
				 <ele>50</ele>
			 </trkpt>
			 <trkpt lat="51.732433" lon="0.402355">
				 <ele>49.8</ele>
			 </trkpt>
			 <trkpt lat="51.73241" lon="0.402586">
				 <ele>49.7</ele>
			 </trkpt>
			 <trkpt lat="51.732421" lon="0.40289">
				 <ele>49.5</ele>
			 </trkpt>
			 <trkpt lat="51.732464" lon="0.403379">
				 <ele>49.1</ele>
			 </trkpt>
			 <trkpt lat="51.733166" lon="0.404444">
				 <ele>48.7</ele>
			 </trkpt>
			 <trkpt lat="51.733687" lon="0.405676">
				 <ele>48.3</ele>
			 </trkpt>
			 <trkpt lat="51.733733" lon="0.40587">
				 <ele>47.8</ele>
			 </trkpt>
			 <trkpt lat="51.733965" lon="0.406548">
				 <ele>47.5</ele>
			 </trkpt>
			 <trkpt lat="51.734105" lon="0.406885">
				 <ele>47.1</ele>
			 </trkpt>
			 <trkpt lat="51.734311" lon="0.407208">
				 <ele>46.7</ele>
			 </trkpt>
			 <trkpt lat="51.734808" lon="0.407705">
				 <ele>46.3</ele>
			 </trkpt>
			 <trkpt lat="51.735099" lon="0.407957">
				 <ele>45.7</ele>
			 </trkpt>
			 <trkpt lat="51.735075" lon="0.408068">
				 <ele>45.2</ele>
			 </trkpt>
			 <trkpt lat="51.735116" lon="0.408132">
				 <ele>44.7</ele>
			 </trkpt>
			 <trkpt lat="51.735335" lon="0.408255">
				 <ele>44.4</ele>
			 </trkpt>
			 <trkpt lat="51.735783" lon="0.408623">
				 <ele>44</ele>
			 </trkpt>
			 <trkpt lat="51.736471" lon="0.409584">
				 <ele>43.7</ele>
			 </trkpt>
			 <trkpt lat="51.736841" lon="0.410262">
				 <ele>43.5</ele>
			 </trkpt>
			 <trkpt lat="51.736972" lon="0.410501">
				 <ele>43.4</ele>
			 </trkpt>
			 <trkpt lat="51.736979" lon="0.410587">
				 <ele>43.2</ele>
			 </trkpt>
			 <trkpt lat="51.736902" lon="0.410845">
				 <ele>43.1</ele>
			 </trkpt>
			 <trkpt lat="51.73688" lon="0.410983">
				 <ele>42.9</ele>
			 </trkpt>
			 <trkpt lat="51.736865" lon="0.411105">
				 <ele>42.8</ele>
			 </trkpt>
			 <trkpt lat="51.736876" lon="0.411273">
				 <ele>42.7</ele>
			 </trkpt>
			 <trkpt lat="51.736927" lon="0.411428">
				 <ele>42.5</ele>
			 </trkpt>
			 <trkpt lat="51.737256" lon="0.411711">
				 <ele>42.4</ele>
			 </trkpt>
			 <trkpt lat="51.737328" lon="0.41181">
				 <ele>42.1</ele>
			 </trkpt>
			 <trkpt lat="51.737355" lon="0.411884">
				 <ele>41.8</ele>
			 </trkpt>
			 <trkpt lat="51.737398" lon="0.412136">
				 <ele>41.4</ele>
			 </trkpt>
			 <trkpt lat="51.737278" lon="0.413069">
				 <ele>40.9</ele>
			 </trkpt>
			 <trkpt lat="51.737258" lon="0.413449">
				 <ele>40.5</ele>
			 </trkpt>
			 <trkpt lat="51.737292" lon="0.413876">
				 <ele>39.9</ele>
			 </trkpt>
			 <trkpt lat="51.737293" lon="0.414121">
				 <ele>39.5</ele>
			 </trkpt>
			 <trkpt lat="51.737238" lon="0.416023">
				 <ele>39.2</ele>
			 </trkpt>
			 <trkpt lat="51.737277" lon="0.416584">
				 <ele>38.7</ele>
			 </trkpt>
			 <trkpt lat="51.737277" lon="0.416647">
				 <ele>38.3</ele>
			 </trkpt>
			 <trkpt lat="51.737258" lon="0.416955">
				 <ele>37.7</ele>
			 </trkpt>
			 <trkpt lat="51.737133" lon="0.418223">
				 <ele>37.2</ele>
			 </trkpt>
			 <trkpt lat="51.737142" lon="0.418434">
				 <ele>36.6</ele>
			 </trkpt>
			 <trkpt lat="51.736842" lon="0.421928">
				 <ele>36.3</ele>
			 </trkpt>
			 <trkpt lat="51.736764" lon="0.423534">
				 <ele>36</ele>
			 </trkpt>
			 <trkpt lat="51.736723" lon="0.424363">
				 <ele>35.7</ele>
			 </trkpt>
			 <trkpt lat="51.736669" lon="0.425063">
				 <ele>35.5</ele>
			 </trkpt>
			 <trkpt lat="51.736663" lon="0.425173">
				 <ele>35.3</ele>
			 </trkpt>
			 <trkpt lat="51.736581" lon="0.425134">
				 <ele>35</ele>
			 </trkpt>
			 <trkpt lat="51.736385" lon="0.425089">
				 <ele>34.7</ele>
			 </trkpt>
			 <trkpt lat="51.736292" lon="0.425068">
				 <ele>34.5</ele>
			 </trkpt>
			 <trkpt lat="51.736057" lon="0.425015">
				 <ele>34.3</ele>
			 </trkpt>
			 <trkpt lat="51.735939" lon="0.424993">
				 <ele>34.2</ele>
			 </trkpt>
			 <trkpt lat="51.735921" lon="0.425163">
				 <ele>34</ele>
			 </trkpt>
			 <trkpt lat="51.735838" lon="0.425956">
				 <ele>33.8</ele>
			 </trkpt>
			 <trkpt lat="51.735836" lon="0.426126">
				 <ele>33.5</ele>
			 </trkpt>
			 <trkpt lat="51.735872" lon="0.42625">
				 <ele>33.3</ele>
			 </trkpt>
			 <trkpt lat="51.735934" lon="0.426339">
				 <ele>32.9</ele>
			 </trkpt>
			 <trkpt lat="51.735896" lon="0.426897">
				 <ele>32.5</ele>
			 </trkpt>
			 <trkpt lat="51.735888" lon="0.427094">
				 <ele>32.1</ele>
			 </trkpt>
			 <trkpt lat="51.735885" lon="0.427163">
				 <ele>31.5</ele>
			 </trkpt>
			 <trkpt lat="51.735883" lon="0.427335">
				 <ele>31.1</ele>
			 </trkpt>
			 <trkpt lat="51.736265" lon="0.427477">
				 <ele>30.6</ele>
			 </trkpt>
			 <trkpt lat="51.736407" lon="0.427508">
				 <ele>30.2</ele>
			 </trkpt>
			 <trkpt lat="51.736314" lon="0.428311">
				 <ele>29.9</ele>
			 </trkpt>
			 <trkpt lat="51.73616" lon="0.42911">
				 <ele>29.7</ele>
			 </trkpt>
			 <trkpt lat="51.73615" lon="0.429165">
				 <ele>29.6</ele>
			 </trkpt>
			 <trkpt lat="51.735862" lon="0.428899">
				 <ele>29.5</ele>
			 </trkpt>
			 <trkpt lat="51.73585" lon="0.428944">
				 <ele>29.5</ele>
			 </trkpt>
			 <trkpt lat="51.735792" lon="0.429152">
				 <ele>29.4</ele>
			 </trkpt>
			 <trkpt lat="51.735782" lon="0.429744">
				 <ele>29.4</ele>
			 </trkpt>
			 <trkpt lat="51.735864" lon="0.431287">
				 <ele>29.5</ele>
			 </trkpt>
			 <trkpt lat="51.735912" lon="0.432461">
				 <ele>29.7</ele>
			 </trkpt>
			 <trkpt lat="51.735962" lon="0.433118">
				 <ele>29.9</ele>
			 </trkpt>
			 <trkpt lat="51.73604" lon="0.433742">
				 <ele>30.1</ele>
			 </trkpt>
			 <trkpt lat="51.736066" lon="0.433892">
				 <ele>30.1</ele>
			 </trkpt>
			 <trkpt lat="51.736095" lon="0.43397">
				 <ele>29.7</ele>
			 </trkpt>
			 <trkpt lat="51.736129" lon="0.433995">
				 <ele>29.3</ele>
			 </trkpt>
			 <trkpt lat="51.736204" lon="0.434319">
				 <ele>28.8</ele>
			 </trkpt>
			 <trkpt lat="51.736459" lon="0.435628">
				 <ele>28.5</ele>
			 </trkpt>
			 <trkpt lat="51.736649" lon="0.436212">
				 <ele>28.1</ele>
			 </trkpt>
			 <trkpt lat="51.737492" lon="0.438507">
				 <ele>27.6</ele>
			 </trkpt>
			 <trkpt lat="51.737563" lon="0.438742">
				 <ele>27.2</ele>
			 </trkpt>
			 <trkpt lat="51.737604" lon="0.438876">
				 <ele>26.7</ele>
			 </trkpt>
			 <trkpt lat="51.737607" lon="0.43906">
				 <ele>26.3</ele>
			 </trkpt>
			 <trkpt lat="51.73758" lon="0.439328">
				 <ele>25.8</ele>
			 </trkpt>
			 <trkpt lat="51.737479" lon="0.439755">
				 <ele>25.5</ele>
			 </trkpt>
			 <trkpt lat="51.737469" lon="0.439939">
				 <ele>25.4</ele>
			 </trkpt>
			 <trkpt lat="51.737747" lon="0.440007">
				 <ele>25.3</ele>
			 </trkpt>
			 <trkpt lat="51.737813" lon="0.44">
				 <ele>25.2</ele>
			 </trkpt>
			 <trkpt lat="51.738057" lon="0.439976">
				 <ele>25.2</ele>
			 </trkpt>
			 <trkpt lat="51.738287" lon="0.440006">
				 <ele>25.2</ele>
			 </trkpt>
			 <trkpt lat="51.738363" lon="0.439989">
				 <ele>25.3</ele>
			 </trkpt>
			 <trkpt lat="51.738446" lon="0.440029">
				 <ele>25.4</ele>
			 </trkpt>
			 <trkpt lat="51.738587" lon="0.440205">
				 <ele>25.5</ele>
			 </trkpt>
			 <trkpt lat="51.738641" lon="0.440476">
				 <ele>25.5</ele>
			 </trkpt>
			 <trkpt lat="51.738768" lon="0.440517">
				 <ele>25.6</ele>
			 </trkpt>
			 <trkpt lat="51.738686" lon="0.440907">
				 <ele>25.7</ele>
			 </trkpt>
			 <trkpt lat="51.738645" lon="0.441098">
				 <ele>25.8</ele>
			 </trkpt>
			 <trkpt lat="51.738579" lon="0.441675">
				 <ele>25.9</ele>
			 </trkpt>
			 <trkpt lat="51.73856" lon="0.442226">
				 <ele>26</ele>
			 </trkpt>
			 <trkpt lat="51.738585" lon="0.44248">
				 <ele>26</ele>
			 </trkpt>
			 <trkpt lat="51.738654" lon="0.442916">
				 <ele>26</ele>
			 </trkpt>
			 <trkpt lat="51.73875" lon="0.443097">
				 <ele>26</ele>
			 </trkpt>
			 <trkpt lat="51.738797" lon="0.443194">
				 <ele>26</ele>
			 </trkpt>
			 <trkpt lat="51.738811" lon="0.44326">
				 <ele>25.9</ele>
			 </trkpt>
			 <trkpt lat="51.738666" lon="0.443409">
				 <ele>25.8</ele>
			 </trkpt>
			 <trkpt lat="51.738498" lon="0.443605">
				 <ele>25.8</ele>
			 </trkpt>
			 <trkpt lat="51.738401" lon="0.443689">
				 <ele>25.8</ele>
			 </trkpt>
			 <trkpt lat="51.737945" lon="0.443909">
				 <ele>25.7</ele>
			 </trkpt>
			 <trkpt lat="51.737862" lon="0.443996">
				 <ele>25.6</ele>
			 </trkpt>
			 <trkpt lat="51.737777" lon="0.444197">
				 <ele>25.5</ele>
			 </trkpt>
			 <trkpt lat="51.737747" lon="0.444387">
				 <ele>25.3</ele>
			 </trkpt>
			 <trkpt lat="51.737737" lon="0.444574">
				 <ele>25.2</ele>
			 </trkpt>
			 <trkpt lat="51.737792" lon="0.445668">
				 <ele>25</ele>
			 </trkpt>
			 <trkpt lat="51.737878" lon="0.446315">
				 <ele>24.9</ele>
			 </trkpt>
			 <trkpt lat="51.737823" lon="0.446343">
				 <ele>25</ele>
			 </trkpt>
			 <trkpt lat="51.737721" lon="0.446388">
				 <ele>25</ele>
			 </trkpt>
			 <trkpt lat="51.737637" lon="0.446457">
				 <ele>24.8</ele>
			 </trkpt>
			 <trkpt lat="51.737284" lon="0.447113">
				 <ele>24.6</ele>
			 </trkpt>
			 <trkpt lat="51.737175" lon="0.447333">
				 <ele>24.5</ele>
			 </trkpt>
			 <trkpt lat="51.737124" lon="0.447583">
				 <ele>24.5</ele>
			 </trkpt>
			 <trkpt lat="51.737426" lon="0.448284">
				 <ele>24.5</ele>
			 </trkpt>
			 <trkpt lat="51.7377" lon="0.449035">
				 <ele>24.5</ele>
			 </trkpt>
			 <trkpt lat="51.737847" lon="0.449383">
				 <ele>24.4</ele>
			 </trkpt>
			 <trkpt lat="51.73793" lon="0.449579">
				 <ele>24.4</ele>
			 </trkpt>
			 <trkpt lat="51.738004" lon="0.44982">
				 <ele>24.3</ele>
			 </trkpt>
			 <trkpt lat="51.738101" lon="0.45021">
				 <ele>24.1</ele>
			 </trkpt>
			 <trkpt lat="51.738145" lon="0.450779">
				 <ele>24</ele>
			 </trkpt>
			 <trkpt lat="51.738301" lon="0.451715">
				 <ele>24</ele>
			 </trkpt>
			 <trkpt lat="51.738383" lon="0.452047">
				 <ele>24</ele>
			 </trkpt>
			 <trkpt lat="51.738354" lon="0.452077">
				 <ele>24</ele>
			 </trkpt>
			 <trkpt lat="51.738354" lon="0.452133">
				 <ele>24</ele>
			 </trkpt>
			 <trkpt lat="51.738317" lon="0.452159">
				 <ele>24</ele>
			 </trkpt>
			 <trkpt lat="51.738229" lon="0.452375">
				 <ele>24</ele>
			 </trkpt>
			 <trkpt lat="51.738077" lon="0.452897">
				 <ele>24</ele>
			 </trkpt>
			 <trkpt lat="51.737971" lon="0.453176">
				 <ele>24</ele>
			 </trkpt>
			 <trkpt lat="51.737811" lon="0.453478">
				 <ele>23.9</ele>
			 </trkpt>
			 <trkpt lat="51.737638" lon="0.453802">
				 <ele>23.8</ele>
			 </trkpt>
			 <trkpt lat="51.737108" lon="0.454644">
				 <ele>23.7</ele>
			 </trkpt>
			 <trkpt lat="51.736844" lon="0.454954">
				 <ele>23.6</ele>
			 </trkpt>
			 <trkpt lat="51.73669" lon="0.455059">
				 <ele>23.6</ele>
			 </trkpt>
			 <trkpt lat="51.736572" lon="0.455272">
				 <ele>23.6</ele>
			 </trkpt>
			 <trkpt lat="51.736352" lon="0.455829">
				 <ele>23.7</ele>
			 </trkpt>
			 <trkpt lat="51.736256" lon="0.455963">
				 <ele>23.7</ele>
			 </trkpt>
			 <trkpt lat="51.736143" lon="0.456075">
				 <ele>23.7</ele>
			 </trkpt>
			 <trkpt lat="51.735934" lon="0.456259">
				 <ele>23.7</ele>
			 </trkpt>
			 <trkpt lat="51.7356" lon="0.456486">
				 <ele>23.8</ele>
			 </trkpt>
			 <trkpt lat="51.73495" lon="0.456953">
				 <ele>23.9</ele>
			 </trkpt>
			 <trkpt lat="51.734703" lon="0.457215">
				 <ele>24</ele>
			 </trkpt>
			 <trkpt lat="51.734402" lon="0.457615">
				 <ele>24.1</ele>
			 </trkpt>
			 <trkpt lat="51.734218" lon="0.45792">
				 <ele>24.3</ele>
			 </trkpt>
			 <trkpt lat="51.734148" lon="0.458075">
				 <ele>24.3</ele>
			 </trkpt>
			 <trkpt lat="51.734072" lon="0.458306">
				 <ele>24.3</ele>
			 </trkpt>
			 <trkpt lat="51.733955" lon="0.458653">
				 <ele>24.2</ele>
			 </trkpt>
			 <trkpt lat="51.733892" lon="0.458842">
				 <ele>24.2</ele>
			 </trkpt>
			 <trkpt lat="51.733813" lon="0.459176">
				 <ele>24.2</ele>
			 </trkpt>
			 <trkpt lat="51.733539" lon="0.459832">
				 <ele>24.2</ele>
			 </trkpt>
			 <trkpt lat="51.733226" lon="0.460223">
				 <ele>24.1</ele>
			 </trkpt>
			 <trkpt lat="51.733169" lon="0.460317">
				 <ele>24.1</ele>
			 </trkpt>
			 <trkpt lat="51.73312" lon="0.46046">
				 <ele>24.1</ele>
			 </trkpt>
			 <trkpt lat="51.732966" lon="0.461152">
				 <ele>24</ele>
			 </trkpt>
			 <trkpt lat="51.732809" lon="0.461967">
				 <ele>23.8</ele>
			 </trkpt>
			 <trkpt lat="51.732752" lon="0.462198">
				 <ele>23.7</ele>
			 </trkpt>
			 <trkpt lat="51.73265" lon="0.462469">
				 <ele>23.6</ele>
			 </trkpt>
			 <trkpt lat="51.732542" lon="0.462632">
				 <ele>23.5</ele>
			 </trkpt>
			 <trkpt lat="51.732251" lon="0.462936">
				 <ele>23.5</ele>
			 </trkpt>
			 <trkpt lat="51.732157" lon="0.463101">
				 <ele>23.5</ele>
			 </trkpt>
			 <trkpt lat="51.731957" lon="0.463799">
				 <ele>23.5</ele>
			 </trkpt>
			 <trkpt lat="51.731962" lon="0.463953">
				 <ele>23.5</ele>
			 </trkpt>
			 <trkpt lat="51.732028" lon="0.464147">
				 <ele>23.5</ele>
			 </trkpt>
			 <trkpt lat="51.732109" lon="0.464387">
				 <ele>23.5</ele>
			 </trkpt>
			 <trkpt lat="51.732424" lon="0.465124">
				 <ele>23.6</ele>
			 </trkpt>
			 <trkpt lat="51.7326" lon="0.465428">
				 <ele>23.7</ele>
			 </trkpt>
			 <trkpt lat="51.732589" lon="0.46551">
				 <ele>23.8</ele>
			 </trkpt>
			 <trkpt lat="51.732661" lon="0.465549">
				 <ele>23.9</ele>
			 </trkpt>
			 <trkpt lat="51.732983" lon="0.466121">
				 <ele>24</ele>
			 </trkpt>
		 </trkseg>
	 </trk>
</gpx>