<?xml version="1.0" encoding="UTF-8"?>
 <gpx creator="Garmin Connect" version="1.1"
	 xsi:schemaLocation="http://www.topografix.com/GPX/1/1 http://www.topografix.com/GPX/11.xsd"
	 xmlns:ns3="http://www.garmin.com/xmlschemas/TrackPointExtension/v1"
	 xmlns="http://www.topografix.com/GPX/1/1"
	 xmlns:xsi="http://www.w3.org/2001/XMLSchema-instance" xmlns:ns2="http://www.garmin.com/xmlschemas/GpxExtensions/v3">
	 <metadata>
		<name>Cummins Falls Marathon 2025 - 42.195 km</name>
		 <link href="https://www.goandrace.com">
		 <text>Garmin Connect</text>
		 </link>
	 <time>2026-08-09T16:48:41</time>
	 </metadata>
	 <trk>
		 <name>Cummins Falls Marathon 2025 - 42.195 km</name>
		 <trkseg>
			 <trkpt lat="36.253091" lon="-85.563627">
				 <ele>295</ele>
			 </trkpt>
			 <trkpt lat="36.253091" lon="-85.563242">
				 <ele>295.1</ele>
			 </trkpt>
			 <trkpt lat="36.253111" lon="-85.56311">
				 <ele>295.1</ele>
			 </trkpt>
			 <trkpt lat="36.253182" lon="-85.562989">
				 <ele>295.1</ele>
			 </trkpt>
			 <trkpt lat="36.253492" lon="-85.562679">
				 <ele>295.1</ele>
			 </trkpt>
			 <trkpt lat="36.253565" lon="-85.562577">
				 <ele>295.2</ele>
			 </trkpt>
			 <trkpt lat="36.253609" lon="-85.562474">
				 <ele>295.2</ele>
			 </trkpt>
			 <trkpt lat="36.253661" lon="-85.562105">
				 <ele>295.2</ele>
			 </trkpt>
			 <trkpt lat="36.253695" lon="-85.562027">
				 <ele>295.3</ele>
			 </trkpt>
			 <trkpt lat="36.253772" lon="-85.56193">
				 <ele>295.4</ele>
			 </trkpt>
			 <trkpt lat="36.253874" lon="-85.561855">
				 <ele>295.3</ele>
			 </trkpt>
			 <trkpt lat="36.254265" lon="-85.56161">
				 <ele>295.5</ele>
			 </trkpt>
			 <trkpt lat="36.254347" lon="-85.561535">
				 <ele>295.7</ele>
			 </trkpt>
			 <trkpt lat="36.254418" lon="-85.561397">
				 <ele>296.1</ele>
			 </trkpt>
			 <trkpt lat="36.254514" lon="-85.560827">
				 <ele>296.8</ele>
			 </trkpt>
			 <trkpt lat="36.254573" lon="-85.560316">
				 <ele>297.8</ele>
			 </trkpt>
			 <trkpt lat="36.254593" lon="-85.559554">
				 <ele>298.6</ele>
			 </trkpt>
			 <trkpt lat="36.254567" lon="-85.558939">
				 <ele>299.4</ele>
			 </trkpt>
			 <trkpt lat="36.25448" lon="-85.558088">
				 <ele>299.9</ele>
			 </trkpt>
			 <trkpt lat="36.254429" lon="-85.557827">
				 <ele>299.7</ele>
			 </trkpt>
			 <trkpt lat="36.254975" lon="-85.557554">
				 <ele>299.5</ele>
			 </trkpt>
			 <trkpt lat="36.256035" lon="-85.557457">
				 <ele>299.3</ele>
			 </trkpt>
			 <trkpt lat="36.257766" lon="-85.557427">
				 <ele>298.9</ele>
			 </trkpt>
			 <trkpt lat="36.258981" lon="-85.557375">
				 <ele>298.5</ele>
			 </trkpt>
			 <trkpt lat="36.260611" lon="-85.558222">
				 <ele>298.3</ele>
			 </trkpt>
			 <trkpt lat="36.260875" lon="-85.558404">
				 <ele>297.7</ele>
			 </trkpt>
			 <trkpt lat="36.261143" lon="-85.558672">
				 <ele>296.9</ele>
			 </trkpt>
			 <trkpt lat="36.261472" lon="-85.559058">
				 <ele>296.4</ele>
			 </trkpt>
			 <trkpt lat="36.26161" lon="-85.559289">
				 <ele>296</ele>
			 </trkpt>
			 <trkpt lat="36.261965" lon="-85.560035">
				 <ele>295.7</ele>
			 </trkpt>
			 <trkpt lat="36.262557" lon="-85.561724">
				 <ele>296.1</ele>
			 </trkpt>
			 <trkpt lat="36.262704" lon="-85.562036">
				 <ele>296.5</ele>
			 </trkpt>
			 <trkpt lat="36.262929" lon="-85.562433">
				 <ele>296.6</ele>
			 </trkpt>
			 <trkpt lat="36.263133" lon="-85.562679">
				 <ele>296.7</ele>
			 </trkpt>
			 <trkpt lat="36.263405" lon="-85.563103">
				 <ele>296.5</ele>
			 </trkpt>
			 <trkpt lat="36.263621" lon="-85.563495">
				 <ele>296.2</ele>
			 </trkpt>
			 <trkpt lat="36.263825" lon="-85.563768">
				 <ele>295.9</ele>
			 </trkpt>
			 <trkpt lat="36.264015" lon="-85.563919">
				 <ele>295.6</ele>
			 </trkpt>
			 <trkpt lat="36.264192" lon="-85.563988">
				 <ele>295.2</ele>
			 </trkpt>
			 <trkpt lat="36.264616" lon="-85.564037">
				 <ele>294.5</ele>
			 </trkpt>
			 <trkpt lat="36.266316" lon="-85.56387">
				 <ele>294</ele>
			 </trkpt>
			 <trkpt lat="36.266482" lon="-85.563895">
				 <ele>293.5</ele>
			 </trkpt>
			 <trkpt lat="36.266534" lon="-85.563941">
				 <ele>293</ele>
			 </trkpt>
			 <trkpt lat="36.266587" lon="-85.564044">
				 <ele>292.5</ele>
			 </trkpt>
			 <trkpt lat="36.266743" lon="-85.564505">
				 <ele>291.7</ele>
			 </trkpt>
			 <trkpt lat="36.266803" lon="-85.564563">
				 <ele>291.1</ele>
			 </trkpt>
			 <trkpt lat="36.26687" lon="-85.56458">
				 <ele>290.4</ele>
			 </trkpt>
			 <trkpt lat="36.267002" lon="-85.564525">
				 <ele>289.4</ele>
			 </trkpt>
			 <trkpt lat="36.267267" lon="-85.564321">
				 <ele>288.3</ele>
			 </trkpt>
			 <trkpt lat="36.267466" lon="-85.564208">
				 <ele>286</ele>
			 </trkpt>
			 <trkpt lat="36.268089" lon="-85.563979">
				 <ele>281.8</ele>
			 </trkpt>
			 <trkpt lat="36.268227" lon="-85.563944">
				 <ele>277.2</ele>
			 </trkpt>
			 <trkpt lat="36.268843" lon="-85.563879">
				 <ele>272.5</ele>
			 </trkpt>
			 <trkpt lat="36.269103" lon="-85.563823">
				 <ele>267.3</ele>
			 </trkpt>
			 <trkpt lat="36.269964" lon="-85.56355">
				 <ele>262</ele>
			 </trkpt>
			 <trkpt lat="36.271003" lon="-85.56333">
				 <ele>256.9</ele>
			 </trkpt>
			 <trkpt lat="36.271141" lon="-85.563341">
				 <ele>252.1</ele>
			 </trkpt>
			 <trkpt lat="36.271206" lon="-85.563374">
				 <ele>247.5</ele>
			 </trkpt>
			 <trkpt lat="36.271355" lon="-85.563544">
				 <ele>243.2</ele>
			 </trkpt>
			 <trkpt lat="36.271418" lon="-85.563674">
				 <ele>238.9</ele>
			 </trkpt>
			 <trkpt lat="36.27143" lon="-85.563766">
				 <ele>234.8</ele>
			 </trkpt>
			 <trkpt lat="36.271402" lon="-85.563998">
				 <ele>232.9</ele>
			 </trkpt>
			 <trkpt lat="36.271362" lon="-85.564129">
				 <ele>231.4</ele>
			 </trkpt>
			 <trkpt lat="36.271166" lon="-85.564443">
				 <ele>229.6</ele>
			 </trkpt>
			 <trkpt lat="36.270936" lon="-85.564739">
				 <ele>228.3</ele>
			 </trkpt>
			 <trkpt lat="36.269994" lon="-85.565726">
				 <ele>226.9</ele>
			 </trkpt>
			 <trkpt lat="36.26982" lon="-85.56596">
				 <ele>225.4</ele>
			 </trkpt>
			 <trkpt lat="36.269612" lon="-85.566302">
				 <ele>223.5</ele>
			 </trkpt>
			 <trkpt lat="36.269329" lon="-85.566835">
				 <ele>221.1</ele>
			 </trkpt>
			 <trkpt lat="36.269231" lon="-85.567069">
				 <ele>217.8</ele>
			 </trkpt>
			 <trkpt lat="36.269006" lon="-85.567666">
				 <ele>214.2</ele>
			 </trkpt>
			 <trkpt lat="36.268994" lon="-85.567798">
				 <ele>211.5</ele>
			 </trkpt>
			 <trkpt lat="36.269049" lon="-85.567873">
				 <ele>208.6</ele>
			 </trkpt>
			 <trkpt lat="36.269135" lon="-85.567842">
				 <ele>205.9</ele>
			 </trkpt>
			 <trkpt lat="36.269633" lon="-85.567463">
				 <ele>203.5</ele>
			 </trkpt>
			 <trkpt lat="36.269962" lon="-85.567248">
				 <ele>201.3</ele>
			 </trkpt>
			 <trkpt lat="36.270097" lon="-85.56714">
				 <ele>199.3</ele>
			 </trkpt>
			 <trkpt lat="36.270256" lon="-85.566964">
				 <ele>197.5</ele>
			 </trkpt>
			 <trkpt lat="36.270895" lon="-85.566018">
				 <ele>195.8</ele>
			 </trkpt>
			 <trkpt lat="36.271284" lon="-85.565245">
				 <ele>194.3</ele>
			 </trkpt>
			 <trkpt lat="36.271385" lon="-85.565078">
				 <ele>193.6</ele>
			 </trkpt>
			 <trkpt lat="36.27219" lon="-85.563981">
				 <ele>193.4</ele>
			 </trkpt>
			 <trkpt lat="36.272342" lon="-85.563655">
				 <ele>193.3</ele>
			 </trkpt>
			 <trkpt lat="36.272434" lon="-85.563507">
				 <ele>193.2</ele>
			 </trkpt>
			 <trkpt lat="36.272721" lon="-85.563225">
				 <ele>193.1</ele>
			 </trkpt>
			 <trkpt lat="36.272846" lon="-85.563164">
				 <ele>192.8</ele>
			 </trkpt>
			 <trkpt lat="36.272987" lon="-85.563202">
				 <ele>192.5</ele>
			 </trkpt>
			 <trkpt lat="36.27314" lon="-85.563287">
				 <ele>192.1</ele>
			 </trkpt>
			 <trkpt lat="36.273423" lon="-85.563487">
				 <ele>191.7</ele>
			 </trkpt>
			 <trkpt lat="36.27371" lon="-85.563815">
				 <ele>191.4</ele>
			 </trkpt>
			 <trkpt lat="36.274169" lon="-85.564491">
				 <ele>191.2</ele>
			 </trkpt>
			 <trkpt lat="36.274436" lon="-85.564742">
				 <ele>191.3</ele>
			 </trkpt>
			 <trkpt lat="36.275375" lon="-85.565331">
				 <ele>191.5</ele>
			 </trkpt>
			 <trkpt lat="36.276131" lon="-85.565637">
				 <ele>191.5</ele>
			 </trkpt>
			 <trkpt lat="36.276242" lon="-85.565667">
				 <ele>191.5</ele>
			 </trkpt>
			 <trkpt lat="36.276447" lon="-85.565677">
				 <ele>191.4</ele>
			 </trkpt>
			 <trkpt lat="36.277234" lon="-85.565608">
				 <ele>191.3</ele>
			 </trkpt>
			 <trkpt lat="36.27762" lon="-85.565551">
				 <ele>191.4</ele>
			 </trkpt>
			 <trkpt lat="36.278678" lon="-85.565269">
				 <ele>191.6</ele>
			 </trkpt>
			 <trkpt lat="36.280218" lon="-85.5651">
				 <ele>191.8</ele>
			 </trkpt>
			 <trkpt lat="36.280778" lon="-85.56505">
				 <ele>191.6</ele>
			 </trkpt>
			 <trkpt lat="36.281087" lon="-85.565051">
				 <ele>191.6</ele>
			 </trkpt>
			 <trkpt lat="36.281392" lon="-85.565108">
				 <ele>191.5</ele>
			 </trkpt>
			 <trkpt lat="36.281727" lon="-85.565237">
				 <ele>191.2</ele>
			 </trkpt>
			 <trkpt lat="36.281922" lon="-85.5654">
				 <ele>190.9</ele>
			 </trkpt>
			 <trkpt lat="36.28286" lon="-85.5665">
				 <ele>190.8</ele>
			 </trkpt>
			 <trkpt lat="36.283146" lon="-85.566737">
				 <ele>191.1</ele>
			 </trkpt>
			 <trkpt lat="36.283337" lon="-85.566826">
				 <ele>191</ele>
			 </trkpt>
			 <trkpt lat="36.283617" lon="-85.566903">
				 <ele>190.7</ele>
			 </trkpt>
			 <trkpt lat="36.283766" lon="-85.566878">
				 <ele>190.3</ele>
			 </trkpt>
			 <trkpt lat="36.284133" lon="-85.566678">
				 <ele>189.9</ele>
			 </trkpt>
			 <trkpt lat="36.284473" lon="-85.56639">
				 <ele>190</ele>
			 </trkpt>
			 <trkpt lat="36.28487" lon="-85.565999">
				 <ele>189.9</ele>
			 </trkpt>
			 <trkpt lat="36.285089" lon="-85.565753">
				 <ele>189.5</ele>
			 </trkpt>
			 <trkpt lat="36.285415" lon="-85.565302">
				 <ele>189.2</ele>
			 </trkpt>
			 <trkpt lat="36.285918" lon="-85.564459">
				 <ele>188.9</ele>
			 </trkpt>
			 <trkpt lat="36.28605" lon="-85.564198">
				 <ele>188.5</ele>
			 </trkpt>
			 <trkpt lat="36.286246" lon="-85.563633">
				 <ele>188</ele>
			 </trkpt>
			 <trkpt lat="36.28687" lon="-85.561606">
				 <ele>187.9</ele>
			 </trkpt>
			 <trkpt lat="36.28701" lon="-85.561289">
				 <ele>187.9</ele>
			 </trkpt>
			 <trkpt lat="36.287133" lon="-85.561133">
				 <ele>187.8</ele>
			 </trkpt>
			 <trkpt lat="36.287228" lon="-85.561075">
				 <ele>187.6</ele>
			 </trkpt>
			 <trkpt lat="36.287945" lon="-85.560949">
				 <ele>187.3</ele>
			 </trkpt>
			 <trkpt lat="36.288364" lon="-85.560948">
				 <ele>186.8</ele>
			 </trkpt>
			 <trkpt lat="36.288618" lon="-85.561002">
				 <ele>186.5</ele>
			 </trkpt>
			 <trkpt lat="36.288817" lon="-85.561163">
				 <ele>186</ele>
			 </trkpt>
			 <trkpt lat="36.289072" lon="-85.561469">
				 <ele>185.5</ele>
			 </trkpt>
			 <trkpt lat="36.289319" lon="-85.561879">
				 <ele>185.2</ele>
			 </trkpt>
			 <trkpt lat="36.289581" lon="-85.562457">
				 <ele>184.9</ele>
			 </trkpt>
			 <trkpt lat="36.289812" lon="-85.563167">
				 <ele>184.7</ele>
			 </trkpt>
			 <trkpt lat="36.289923" lon="-85.563609">
				 <ele>184.6</ele>
			 </trkpt>
			 <trkpt lat="36.290174" lon="-85.564341">
				 <ele>184.7</ele>
			 </trkpt>
			 <trkpt lat="36.290368" lon="-85.564709">
				 <ele>184.9</ele>
			 </trkpt>
			 <trkpt lat="36.290496" lon="-85.564845">
				 <ele>185.4</ele>
			 </trkpt>
			 <trkpt lat="36.290622" lon="-85.564929">
				 <ele>185.7</ele>
			 </trkpt>
			 <trkpt lat="36.290804" lon="-85.565011">
				 <ele>186.3</ele>
			 </trkpt>
			 <trkpt lat="36.291122" lon="-85.565099">
				 <ele>186.9</ele>
			 </trkpt>
			 <trkpt lat="36.29145" lon="-85.565073">
				 <ele>187.3</ele>
			 </trkpt>
			 <trkpt lat="36.291886" lon="-85.564897">
				 <ele>187.5</ele>
			 </trkpt>
			 <trkpt lat="36.292432" lon="-85.564473">
				 <ele>187.6</ele>
			 </trkpt>
			 <trkpt lat="36.292707" lon="-85.56414">
				 <ele>187.4</ele>
			 </trkpt>
			 <trkpt lat="36.292834" lon="-85.563903">
				 <ele>187</ele>
			 </trkpt>
			 <trkpt lat="36.293102" lon="-85.563281">
				 <ele>186.5</ele>
			 </trkpt>
			 <trkpt lat="36.293158" lon="-85.563108">
				 <ele>185.9</ele>
			 </trkpt>
			 <trkpt lat="36.293186" lon="-85.562849">
				 <ele>185.4</ele>
			 </trkpt>
			 <trkpt lat="36.293118" lon="-85.561798">
				 <ele>184.8</ele>
			 </trkpt>
			 <trkpt lat="36.293101" lon="-85.561257">
				 <ele>184.2</ele>
			 </trkpt>
			 <trkpt lat="36.293123" lon="-85.561062">
				 <ele>183.5</ele>
			 </trkpt>
			 <trkpt lat="36.293165" lon="-85.560897">
				 <ele>183.1</ele>
			 </trkpt>
			 <trkpt lat="36.293224" lon="-85.560762">
				 <ele>182.6</ele>
			 </trkpt>
			 <trkpt lat="36.293396" lon="-85.560527">
				 <ele>182.5</ele>
			 </trkpt>
			 <trkpt lat="36.293488" lon="-85.560439">
				 <ele>182.5</ele>
			 </trkpt>
			 <trkpt lat="36.293666" lon="-85.56031">
				 <ele>182.2</ele>
			 </trkpt>
			 <trkpt lat="36.294049" lon="-85.560201">
				 <ele>181.8</ele>
			 </trkpt>
			 <trkpt lat="36.294302" lon="-85.560184">
				 <ele>181.5</ele>
			 </trkpt>
			 <trkpt lat="36.294619" lon="-85.560202">
				 <ele>181.2</ele>
			 </trkpt>
			 <trkpt lat="36.295127" lon="-85.560354">
				 <ele>180.9</ele>
			 </trkpt>
			 <trkpt lat="36.296092" lon="-85.560948">
				 <ele>180.6</ele>
			 </trkpt>
			 <trkpt lat="36.296451" lon="-85.561224">
				 <ele>180.4</ele>
			 </trkpt>
			 <trkpt lat="36.297316" lon="-85.562057">
				 <ele>180.1</ele>
			 </trkpt>
			 <trkpt lat="36.298028" lon="-85.562875">
				 <ele>179.9</ele>
			 </trkpt>
			 <trkpt lat="36.298991" lon="-85.563932">
				 <ele>179.5</ele>
			 </trkpt>
			 <trkpt lat="36.299194" lon="-85.564137">
				 <ele>179.5</ele>
			 </trkpt>
			 <trkpt lat="36.299442" lon="-85.564342">
				 <ele>179.8</ele>
			 </trkpt>
			 <trkpt lat="36.299799" lon="-85.564622">
				 <ele>180.4</ele>
			 </trkpt>
			 <trkpt lat="36.30007" lon="-85.564764">
				 <ele>180.9</ele>
			 </trkpt>
			 <trkpt lat="36.300272" lon="-85.56484">
				 <ele>181.5</ele>
			 </trkpt>
			 <trkpt lat="36.300959" lon="-85.565021">
				 <ele>182.1</ele>
			 </trkpt>
			 <trkpt lat="36.301082" lon="-85.565032">
				 <ele>182.5</ele>
			 </trkpt>
			 <trkpt lat="36.301196" lon="-85.565012">
				 <ele>183</ele>
			 </trkpt>
			 <trkpt lat="36.301441" lon="-85.564919">
				 <ele>183.4</ele>
			 </trkpt>
			 <trkpt lat="36.302436" lon="-85.564396">
				 <ele>183.5</ele>
			 </trkpt>
			 <trkpt lat="36.303121" lon="-85.564124">
				 <ele>183.7</ele>
			 </trkpt>
			 <trkpt lat="36.303185" lon="-85.564069">
				 <ele>183.7</ele>
			 </trkpt>
			 <trkpt lat="36.303254" lon="-85.563968">
				 <ele>183.5</ele>
			 </trkpt>
			 <trkpt lat="36.303323" lon="-85.563826">
				 <ele>183.4</ele>
			 </trkpt>
			 <trkpt lat="36.303531" lon="-85.563277">
				 <ele>183.1</ele>
			 </trkpt>
			 <trkpt lat="36.303658" lon="-85.562776">
				 <ele>182.7</ele>
			 </trkpt>
			 <trkpt lat="36.303707" lon="-85.562287">
				 <ele>182.5</ele>
			 </trkpt>
			 <trkpt lat="36.303707" lon="-85.561964">
				 <ele>182.3</ele>
			 </trkpt>
			 <trkpt lat="36.30368" lon="-85.561645">
				 <ele>182</ele>
			 </trkpt>
			 <trkpt lat="36.303634" lon="-85.561367">
				 <ele>181.5</ele>
			 </trkpt>
			 <trkpt lat="36.303343" lon="-85.560405">
				 <ele>181.1</ele>
			 </trkpt>
			 <trkpt lat="36.303327" lon="-85.560241">
				 <ele>180.4</ele>
			 </trkpt>
			 <trkpt lat="36.303337" lon="-85.560102">
				 <ele>179.6</ele>
			 </trkpt>
			 <trkpt lat="36.303472" lon="-85.559992">
				 <ele>179.5</ele>
			 </trkpt>
			 <trkpt lat="36.304136" lon="-85.560088">
				 <ele>180.2</ele>
			 </trkpt>
			 <trkpt lat="36.304366" lon="-85.560033">
				 <ele>181</ele>
			 </trkpt>
			 <trkpt lat="36.30496" lon="-85.559775">
				 <ele>181.9</ele>
			 </trkpt>
			 <trkpt lat="36.305087" lon="-85.559682">
				 <ele>181.6</ele>
			 </trkpt>
			 <trkpt lat="36.305432" lon="-85.559336">
				 <ele>181.4</ele>
			 </trkpt>
			 <trkpt lat="36.305798" lon="-85.559223">
				 <ele>181.3</ele>
			 </trkpt>
			 <trkpt lat="36.306263" lon="-85.559316">
				 <ele>181</ele>
			 </trkpt>
			 <trkpt lat="36.306806" lon="-85.559279">
				 <ele>180.8</ele>
			 </trkpt>
			 <trkpt lat="36.309026" lon="-85.558778">
				 <ele>180.8</ele>
			 </trkpt>
			 <trkpt lat="36.309214" lon="-85.558838">
				 <ele>180.6</ele>
			 </trkpt>
			 <trkpt lat="36.309583" lon="-85.55921">
				 <ele>179.7</ele>
			 </trkpt>
			 <trkpt lat="36.310083" lon="-85.559462">
				 <ele>178.1</ele>
			 </trkpt>
			 <trkpt lat="36.310486" lon="-85.55962">
				 <ele>176.4</ele>
			 </trkpt>
			 <trkpt lat="36.310904" lon="-85.559679">
				 <ele>174.7</ele>
			 </trkpt>
			 <trkpt lat="36.311648" lon="-85.559534">
				 <ele>174.4</ele>
			 </trkpt>
			 <trkpt lat="36.312394" lon="-85.559094">
				 <ele>174.1</ele>
			 </trkpt>
			 <trkpt lat="36.313114" lon="-85.558578">
				 <ele>173.7</ele>
			 </trkpt>
			 <trkpt lat="36.313327" lon="-85.558486">
				 <ele>173.6</ele>
			 </trkpt>
			 <trkpt lat="36.31354" lon="-85.558494">
				 <ele>172.9</ele>
			 </trkpt>
			 <trkpt lat="36.313691" lon="-85.558656">
				 <ele>172.4</ele>
			 </trkpt>
			 <trkpt lat="36.313777" lon="-85.559031">
				 <ele>172</ele>
			 </trkpt>
			 <trkpt lat="36.314064" lon="-85.560948">
				 <ele>172</ele>
			 </trkpt>
			 <trkpt lat="36.314384" lon="-85.561994">
				 <ele>172.1</ele>
			 </trkpt>
			 <trkpt lat="36.314865" lon="-85.563098">
				 <ele>172</ele>
			 </trkpt>
			 <trkpt lat="36.315359" lon="-85.56402">
				 <ele>171.8</ele>
			 </trkpt>
			 <trkpt lat="36.315827" lon="-85.564173">
				 <ele>171.6</ele>
			 </trkpt>
			 <trkpt lat="36.316073" lon="-85.564214">
				 <ele>171.4</ele>
			 </trkpt>
			 <trkpt lat="36.316353" lon="-85.564198">
				 <ele>171.1</ele>
			 </trkpt>
			 <trkpt lat="36.318037" lon="-85.563103">
				 <ele>171</ele>
			 </trkpt>
			 <trkpt lat="36.318685" lon="-85.562753">
				 <ele>171.6</ele>
			 </trkpt>
			 <trkpt lat="36.319578" lon="-85.562369">
				 <ele>172.3</ele>
			 </trkpt>
			 <trkpt lat="36.320258" lon="-85.562119">
				 <ele>172.7</ele>
			 </trkpt>
			 <trkpt lat="36.320479" lon="-85.562076">
				 <ele>172.8</ele>
			 </trkpt>
			 <trkpt lat="36.320712" lon="-85.562061">
				 <ele>172.8</ele>
			 </trkpt>
			 <trkpt lat="36.321067" lon="-85.562112">
				 <ele>172.9</ele>
			 </trkpt>
			 <trkpt lat="36.321429" lon="-85.561921">
				 <ele>173</ele>
			 </trkpt>
			 <trkpt lat="36.321871" lon="-85.561567">
				 <ele>173</ele>
			 </trkpt>
			 <trkpt lat="36.322125" lon="-85.561433">
				 <ele>172.9</ele>
			 </trkpt>
			 <trkpt lat="36.322993" lon="-85.561266">
				 <ele>172.5</ele>
			 </trkpt>
			 <trkpt lat="36.323283" lon="-85.561336">
				 <ele>172</ele>
			 </trkpt>
			 <trkpt lat="36.323546" lon="-85.561495">
				 <ele>171.4</ele>
			 </trkpt>
			 <trkpt lat="36.32384" lon="-85.561824">
				 <ele>170.6</ele>
			 </trkpt>
			 <trkpt lat="36.324295" lon="-85.562463">
				 <ele>170.1</ele>
			 </trkpt>
			 <trkpt lat="36.324816" lon="-85.563456">
				 <ele>169.6</ele>
			 </trkpt>
			 <trkpt lat="36.325365" lon="-85.564176">
				 <ele>169.3</ele>
			 </trkpt>
			 <trkpt lat="36.325623" lon="-85.564449">
				 <ele>168.8</ele>
			 </trkpt>
			 <trkpt lat="36.325914" lon="-85.564681">
				 <ele>168.4</ele>
			 </trkpt>
			 <trkpt lat="36.326167" lon="-85.564795">
				 <ele>167.8</ele>
			 </trkpt>
			 <trkpt lat="36.326529" lon="-85.564883">
				 <ele>167.4</ele>
			 </trkpt>
			 <trkpt lat="36.326846" lon="-85.564839">
				 <ele>167.4</ele>
			 </trkpt>
			 <trkpt lat="36.327833" lon="-85.56455">
				 <ele>167.5</ele>
			 </trkpt>
			 <trkpt lat="36.32813" lon="-85.564527">
				 <ele>167.5</ele>
			 </trkpt>
			 <trkpt lat="36.328411" lon="-85.564422">
				 <ele>167.5</ele>
			 </trkpt>
			 <trkpt lat="36.32889" lon="-85.564143">
				 <ele>167.4</ele>
			 </trkpt>
			 <trkpt lat="36.331481" lon="-85.562899">
				 <ele>167.5</ele>
			 </trkpt>
			 <trkpt lat="36.332026" lon="-85.562523">
				 <ele>167.5</ele>
			 </trkpt>
			 <trkpt lat="36.332697" lon="-85.561868">
				 <ele>167.7</ele>
			 </trkpt>
			 <trkpt lat="36.333387" lon="-85.560862">
				 <ele>167.8</ele>
			 </trkpt>
			 <trkpt lat="36.333868" lon="-85.559786">
				 <ele>167.9</ele>
			 </trkpt>
			 <trkpt lat="36.334349" lon="-85.559191">
				 <ele>167.9</ele>
			 </trkpt>
			 <trkpt lat="36.334715" lon="-85.558937">
				 <ele>167.6</ele>
			 </trkpt>
			 <trkpt lat="36.33548" lon="-85.558529">
				 <ele>167.5</ele>
			 </trkpt>
			 <trkpt lat="36.335635" lon="-85.55854">
				 <ele>167.5</ele>
			 </trkpt>
			 <trkpt lat="36.335802" lon="-85.558582">
				 <ele>167.5</ele>
			 </trkpt>
			 <trkpt lat="36.336096" lon="-85.558803">
				 <ele>167.7</ele>
			 </trkpt>
			 <trkpt lat="36.33642" lon="-85.559117">
				 <ele>167.7</ele>
			 </trkpt>
			 <trkpt lat="36.336739" lon="-85.559482">
				 <ele>167.8</ele>
			 </trkpt>
			 <trkpt lat="36.337311" lon="-85.560465">
				 <ele>167.5</ele>
			 </trkpt>
			 <trkpt lat="36.337585" lon="-85.56102">
				 <ele>167.1</ele>
			 </trkpt>
			 <trkpt lat="36.337746" lon="-85.561252">
				 <ele>166.6</ele>
			 </trkpt>
			 <trkpt lat="36.338278" lon="-85.56182">
				 <ele>166.4</ele>
			 </trkpt>
			 <trkpt lat="36.338578" lon="-85.562228">
				 <ele>166.2</ele>
			 </trkpt>
			 <trkpt lat="36.339298" lon="-85.562926">
				 <ele>166</ele>
			 </trkpt>
			 <trkpt lat="36.33965" lon="-85.563143">
				 <ele>165.7</ele>
			 </trkpt>
			 <trkpt lat="36.340108" lon="-85.563326">
				 <ele>165.3</ele>
			 </trkpt>
			 <trkpt lat="36.34027" lon="-85.56344">
				 <ele>164.8</ele>
			 </trkpt>
			 <trkpt lat="36.340333" lon="-85.563548">
				 <ele>164.3</ele>
			 </trkpt>
			 <trkpt lat="36.340331" lon="-85.563877">
				 <ele>163.5</ele>
			 </trkpt>
			 <trkpt lat="36.340227" lon="-85.564175">
				 <ele>163</ele>
			 </trkpt>
			 <trkpt lat="36.340075" lon="-85.56439">
				 <ele>162.7</ele>
			 </trkpt>
			 <trkpt lat="36.339894" lon="-85.564589">
				 <ele>162.5</ele>
			 </trkpt>
			 <trkpt lat="36.33923" lon="-85.565186">
				 <ele>162.4</ele>
			 </trkpt>
			 <trkpt lat="36.339048" lon="-85.565391">
				 <ele>162.2</ele>
			 </trkpt>
			 <trkpt lat="36.338991" lon="-85.565482">
				 <ele>162.1</ele>
			 </trkpt>
			 <trkpt lat="36.338918" lon="-85.565709">
				 <ele>162</ele>
			 </trkpt>
			 <trkpt lat="36.338827" lon="-85.566139">
				 <ele>162.1</ele>
			 </trkpt>
			 <trkpt lat="36.338596" lon="-85.566441">
				 <ele>162.2</ele>
			 </trkpt>
			 <trkpt lat="36.338375" lon="-85.566759">
				 <ele>162.4</ele>
			 </trkpt>
			 <trkpt lat="36.338189" lon="-85.567079">
				 <ele>162.7</ele>
			 </trkpt>
			 <trkpt lat="36.338036" lon="-85.567439">
				 <ele>163.2</ele>
			 </trkpt>
			 <trkpt lat="36.337962" lon="-85.567798">
				 <ele>163.9</ele>
			 </trkpt>
			 <trkpt lat="36.337997" lon="-85.56806">
				 <ele>164.7</ele>
			 </trkpt>
			 <trkpt lat="36.338026" lon="-85.568124">
				 <ele>165.3</ele>
			 </trkpt>
			 <trkpt lat="36.338117" lon="-85.5682">
				 <ele>165.9</ele>
			 </trkpt>
			 <trkpt lat="36.338185" lon="-85.568223">
				 <ele>165.7</ele>
			 </trkpt>
			 <trkpt lat="36.338999" lon="-85.568283">
				 <ele>165.5</ele>
			 </trkpt>
			 <trkpt lat="36.340959" lon="-85.568365">
				 <ele>165.5</ele>
			 </trkpt>
			 <trkpt lat="36.341827" lon="-85.568488">
				 <ele>165.5</ele>
			 </trkpt>
			 <trkpt lat="36.343459" lon="-85.568768">
				 <ele>165.4</ele>
			 </trkpt>
			 <trkpt lat="36.344493" lon="-85.569012">
				 <ele>165.2</ele>
			 </trkpt>
			 <trkpt lat="36.345011" lon="-85.569003">
				 <ele>164.8</ele>
			 </trkpt>
			 <trkpt lat="36.345348" lon="-85.568794">
				 <ele>164.2</ele>
			 </trkpt>
			 <trkpt lat="36.346601" lon="-85.568168">
				 <ele>163.5</ele>
			 </trkpt>
			 <trkpt lat="36.346713" lon="-85.568082">
				 <ele>163</ele>
			 </trkpt>
			 <trkpt lat="36.346797" lon="-85.567981">
				 <ele>162.5</ele>
			 </trkpt>
			 <trkpt lat="36.346928" lon="-85.567785">
				 <ele>162.6</ele>
			 </trkpt>
			 <trkpt lat="36.346974" lon="-85.567666">
				 <ele>162.8</ele>
			 </trkpt>
			 <trkpt lat="36.346957" lon="-85.567592">
				 <ele>162.7</ele>
			 </trkpt>
			 <trkpt lat="36.346779" lon="-85.567386">
				 <ele>162.7</ele>
			 </trkpt>
			 <trkpt lat="36.346612" lon="-85.567123">
				 <ele>162.6</ele>
			 </trkpt>
			 <trkpt lat="36.346055" lon="-85.565516">
				 <ele>162.5</ele>
			 </trkpt>
			 <trkpt lat="36.346067" lon="-85.565368">
				 <ele>162.5</ele>
			 </trkpt>
			 <trkpt lat="36.346144" lon="-85.565233">
				 <ele>162.4</ele>
			 </trkpt>
			 <trkpt lat="36.346299" lon="-85.565397">
				 <ele>162.2</ele>
			 </trkpt>
			 <trkpt lat="36.346472" lon="-85.565529">
				 <ele>161.9</ele>
			 </trkpt>
			 <trkpt lat="36.346665" lon="-85.565622">
				 <ele>161.6</ele>
			 </trkpt>
			 <trkpt lat="36.34686" lon="-85.565675">
				 <ele>161.5</ele>
			 </trkpt>
			 <trkpt lat="36.34713" lon="-85.565667">
				 <ele>161.3</ele>
			 </trkpt>
			 <trkpt lat="36.347267" lon="-85.565637">
				 <ele>161.2</ele>
			 </trkpt>
			 <trkpt lat="36.348328" lon="-85.565297">
				 <ele>161.2</ele>
			 </trkpt>
			 <trkpt lat="36.348562" lon="-85.565256">
				 <ele>161.4</ele>
			 </trkpt>
			 <trkpt lat="36.348775" lon="-85.565284">
				 <ele>161.5</ele>
			 </trkpt>
			 <trkpt lat="36.348913" lon="-85.565371">
				 <ele>161.8</ele>
			 </trkpt>
			 <trkpt lat="36.349031" lon="-85.565498">
				 <ele>162.1</ele>
			 </trkpt>
			 <trkpt lat="36.349188" lon="-85.565813">
				 <ele>162.5</ele>
			 </trkpt>
			 <trkpt lat="36.34946" lon="-85.566492">
				 <ele>162.8</ele>
			 </trkpt>
			 <trkpt lat="36.350205" lon="-85.567703">
				 <ele>163.2</ele>
			 </trkpt>
			 <trkpt lat="36.35051" lon="-85.568395">
				 <ele>163.5</ele>
			 </trkpt>
			 <trkpt lat="36.350579" lon="-85.568618">
				 <ele>163.7</ele>
			 </trkpt>
			 <trkpt lat="36.350644" lon="-85.568902">
				 <ele>163.9</ele>
			 </trkpt>
			 <trkpt lat="36.350706" lon="-85.569331">
				 <ele>164</ele>
			 </trkpt>
			 <trkpt lat="36.350773" lon="-85.570254">
				 <ele>164</ele>
			 </trkpt>
			 <trkpt lat="36.350845" lon="-85.570576">
				 <ele>163.9</ele>
			 </trkpt>
			 <trkpt lat="36.35109" lon="-85.57143">
				 <ele>163.8</ele>
			 </trkpt>
			 <trkpt lat="36.351154" lon="-85.571751">
				 <ele>163.8</ele>
			 </trkpt>
			 <trkpt lat="36.351206" lon="-85.572169">
				 <ele>163.8</ele>
			 </trkpt>
			 <trkpt lat="36.351266" lon="-85.573046">
				 <ele>163.8</ele>
			 </trkpt>
			 <trkpt lat="36.351257" lon="-85.573341">
				 <ele>163.7</ele>
			 </trkpt>
			 <trkpt lat="36.351206" lon="-85.573818">
				 <ele>163.6</ele>
			 </trkpt>
			 <trkpt lat="36.35116" lon="-85.574079">
				 <ele>163.5</ele>
			 </trkpt>
			 <trkpt lat="36.35108" lon="-85.574366">
				 <ele>163.5</ele>
			 </trkpt>
			 <trkpt lat="36.350916" lon="-85.57479">
				 <ele>163.5</ele>
			 </trkpt>
			 <trkpt lat="36.350076" lon="-85.576656">
				 <ele>163.5</ele>
			 </trkpt>
			 <trkpt lat="36.349801" lon="-85.577218">
				 <ele>163.5</ele>
			 </trkpt>
			 <trkpt lat="36.349626" lon="-85.577449">
				 <ele>163.5</ele>
			 </trkpt>
			 <trkpt lat="36.349462" lon="-85.577723">
				 <ele>163.4</ele>
			 </trkpt>
			 <trkpt lat="36.349402" lon="-85.577892">
				 <ele>163.3</ele>
			 </trkpt>
			 <trkpt lat="36.349362" lon="-85.578053">
				 <ele>163.3</ele>
			 </trkpt>
			 <trkpt lat="36.34911" lon="-85.580318">
				 <ele>163.3</ele>
			 </trkpt>
			 <trkpt lat="36.349101" lon="-85.580572">
				 <ele>163.2</ele>
			 </trkpt>
			 <trkpt lat="36.349125" lon="-85.580688">
				 <ele>163.2</ele>
			 </trkpt>
			 <trkpt lat="36.349231" lon="-85.580841">
				 <ele>163.2</ele>
			 </trkpt>
			 <trkpt lat="36.349343" lon="-85.580918">
				 <ele>162.9</ele>
			 </trkpt>
			 <trkpt lat="36.349929" lon="-85.581125">
				 <ele>162.7</ele>
			 </trkpt>
			 <trkpt lat="36.350113" lon="-85.581275">
				 <ele>162.6</ele>
			 </trkpt>
			 <trkpt lat="36.350318" lon="-85.581669">
				 <ele>162.5</ele>
			 </trkpt>
			 <trkpt lat="36.35043" lon="-85.581994">
				 <ele>162.4</ele>
			 </trkpt>
			 <trkpt lat="36.350575" lon="-85.582717">
				 <ele>162</ele>
			 </trkpt>
			 <trkpt lat="36.350733" lon="-85.58307">
				 <ele>161.5</ele>
			 </trkpt>
			 <trkpt lat="36.350873" lon="-85.583259">
				 <ele>161.2</ele>
			 </trkpt>
			 <trkpt lat="36.351038" lon="-85.583412">
				 <ele>160.9</ele>
			 </trkpt>
			 <trkpt lat="36.351238" lon="-85.583547">
				 <ele>160.5</ele>
			 </trkpt>
			 <trkpt lat="36.35175" lon="-85.583757">
				 <ele>160.1</ele>
			 </trkpt>
			 <trkpt lat="36.35211" lon="-85.583836">
				 <ele>159.9</ele>
			 </trkpt>
			 <trkpt lat="36.352547" lon="-85.583839">
				 <ele>159.7</ele>
			 </trkpt>
			 <trkpt lat="36.352777" lon="-85.583818">
				 <ele>159.5</ele>
			 </trkpt>
			 <trkpt lat="36.354558" lon="-85.583501">
				 <ele>159.5</ele>
			 </trkpt>
			 <trkpt lat="36.354749" lon="-85.583489">
				 <ele>159.5</ele>
			 </trkpt>
			 <trkpt lat="36.355222" lon="-85.583504">
				 <ele>159.7</ele>
			 </trkpt>
			 <trkpt lat="36.355429" lon="-85.583538">
				 <ele>160.2</ele>
			 </trkpt>
			 <trkpt lat="36.355595" lon="-85.583595">
				 <ele>160.6</ele>
			 </trkpt>
			 <trkpt lat="36.355772" lon="-85.583709">
				 <ele>161.1</ele>
			 </trkpt>
			 <trkpt lat="36.355899" lon="-85.583846">
				 <ele>161.5</ele>
			 </trkpt>
			 <trkpt lat="36.355999" lon="-85.584039">
				 <ele>161.9</ele>
			 </trkpt>
			 <trkpt lat="36.356191" lon="-85.584726">
				 <ele>162.2</ele>
			 </trkpt>
			 <trkpt lat="36.356266" lon="-85.58514">
				 <ele>162</ele>
			 </trkpt>
			 <trkpt lat="36.356281" lon="-85.585446">
				 <ele>162</ele>
			 </trkpt>
			 <trkpt lat="36.356281" lon="-85.586454">
				 <ele>162.2</ele>
			 </trkpt>
			 <trkpt lat="36.356255" lon="-85.586879">
				 <ele>162.4</ele>
			 </trkpt>
			 <trkpt lat="36.356195" lon="-85.587323">
				 <ele>162.5</ele>
			 </trkpt>
			 <trkpt lat="36.356072" lon="-85.587872">
				 <ele>162.2</ele>
			 </trkpt>
			 <trkpt lat="36.355545" lon="-85.589668">
				 <ele>161.8</ele>
			 </trkpt>
			 <trkpt lat="36.353729" lon="-85.589049">
				 <ele>161.6</ele>
			 </trkpt>
			 <trkpt lat="36.352897" lon="-85.588852">
				 <ele>161.5</ele>
			 </trkpt>
			 <trkpt lat="36.351839" lon="-85.588827">
				 <ele>161.5</ele>
			 </trkpt>
			 <trkpt lat="36.351106" lon="-85.58858">
				 <ele>161.5</ele>
			 </trkpt>
			 <trkpt lat="36.350805" lon="-85.588562">
				 <ele>162</ele>
			 </trkpt>
			 <trkpt lat="36.350148" lon="-85.589149">
				 <ele>162.7</ele>
			 </trkpt>
			 <trkpt lat="36.349209" lon="-85.590265">
				 <ele>163.2</ele>
			 </trkpt>
			 <trkpt lat="36.348839" lon="-85.590507">
				 <ele>163.6</ele>
			 </trkpt>
			 <trkpt lat="36.348381" lon="-85.59058">
				 <ele>164.1</ele>
			 </trkpt>
			 <trkpt lat="36.346779" lon="-85.589897">
				 <ele>164.7</ele>
			 </trkpt>
			 <trkpt lat="36.345901" lon="-85.589597">
				 <ele>165.3</ele>
			 </trkpt>
			 <trkpt lat="36.345683" lon="-85.589566">
				 <ele>165.8</ele>
			 </trkpt>
			 <trkpt lat="36.345215" lon="-85.589351">
				 <ele>166.2</ele>
			 </trkpt>
			 <trkpt lat="36.344916" lon="-85.589312">
				 <ele>166.6</ele>
			 </trkpt>
			 <trkpt lat="36.344688" lon="-85.589387">
				 <ele>166.9</ele>
			 </trkpt>
			 <trkpt lat="36.344208" lon="-85.589669">
				 <ele>167.1</ele>
			 </trkpt>
			 <trkpt lat="36.343527" lon="-85.590575">
				 <ele>167.1</ele>
			 </trkpt>
			 <trkpt lat="36.342772" lon="-85.590915">
				 <ele>167.1</ele>
			 </trkpt>
			 <trkpt lat="36.341054" lon="-85.591418">
				 <ele>167.2</ele>
			 </trkpt>
			 <trkpt lat="36.340184" lon="-85.591593">
				 <ele>167.3</ele>
			 </trkpt>
			 <trkpt lat="36.339681" lon="-85.591876">
				 <ele>167.4</ele>
			 </trkpt>
			 <trkpt lat="36.338912" lon="-85.592781">
				 <ele>167.6</ele>
			 </trkpt>
			 <trkpt lat="36.338463" lon="-85.593199">
				 <ele>167.7</ele>
			 </trkpt>
			 <trkpt lat="36.337253" lon="-85.593884">
				 <ele>167.9</ele>
			 </trkpt>
			 <trkpt lat="36.336566" lon="-85.594054">
				 <ele>168</ele>
			 </trkpt>
			 <trkpt lat="36.335261" lon="-85.594095">
				 <ele>168.2</ele>
			 </trkpt>
			 <trkpt lat="36.334935" lon="-85.593984">
				 <ele>168.5</ele>
			 </trkpt>
			 <trkpt lat="36.334626" lon="-85.593793">
				 <ele>168.5</ele>
			 </trkpt>
			 <trkpt lat="36.333034" lon="-85.592999">
				 <ele>168.5</ele>
			 </trkpt>
			 <trkpt lat="36.332259" lon="-85.59279">
				 <ele>168.5</ele>
			 </trkpt>
			 <trkpt lat="36.331621" lon="-85.59256">
				 <ele>168.6</ele>
			 </trkpt>
			 <trkpt lat="36.331325" lon="-85.592593">
				 <ele>168.8</ele>
			 </trkpt>
			 <trkpt lat="36.330948" lon="-85.592725">
				 <ele>169.1</ele>
			 </trkpt>
			 <trkpt lat="36.330611" lon="-85.592959">
				 <ele>169.5</ele>
			 </trkpt>
			 <trkpt lat="36.330293" lon="-85.593373">
				 <ele>170.1</ele>
			 </trkpt>
			 <trkpt lat="36.329995" lon="-85.593996">
				 <ele>170.6</ele>
			 </trkpt>
			 <trkpt lat="36.329904" lon="-85.594958">
				 <ele>171.4</ele>
			 </trkpt>
			 <trkpt lat="36.329938" lon="-85.595382">
				 <ele>172</ele>
			 </trkpt>
			 <trkpt lat="36.329949" lon="-85.595948">
				 <ele>172.7</ele>
			 </trkpt>
			 <trkpt lat="36.329819" lon="-85.596199">
				 <ele>173.6</ele>
			 </trkpt>
			 <trkpt lat="36.329579" lon="-85.596416">
				 <ele>174.5</ele>
			 </trkpt>
			 <trkpt lat="36.328758" lon="-85.596938">
				 <ele>175.1</ele>
			 </trkpt>
			 <trkpt lat="36.327601" lon="-85.597328">
				 <ele>175.6</ele>
			 </trkpt>
			 <trkpt lat="36.326507" lon="-85.597643">
				 <ele>176.1</ele>
			 </trkpt>
			 <trkpt lat="36.32387" lon="-85.598112">
				 <ele>176.5</ele>
			 </trkpt>
			 <trkpt lat="36.323465" lon="-85.597999">
				 <ele>176.8</ele>
			 </trkpt>
			 <trkpt lat="36.323146" lon="-85.597817">
				 <ele>177.2</ele>
			 </trkpt>
			 <trkpt lat="36.323018" lon="-85.597815">
				 <ele>177.5</ele>
			 </trkpt>
			 <trkpt lat="36.32273" lon="-85.59799">
				 <ele>177.9</ele>
			 </trkpt>
			 <trkpt lat="36.322291" lon="-85.598176">
				 <ele>178.2</ele>
			 </trkpt>
			 <trkpt lat="36.321569" lon="-85.598265">
				 <ele>178.3</ele>
			 </trkpt>
			 <trkpt lat="36.321012" lon="-85.598392">
				 <ele>178.2</ele>
			 </trkpt>
			 <trkpt lat="36.320515" lon="-85.598604">
				 <ele>178.2</ele>
			 </trkpt>
			 <trkpt lat="36.320005" lon="-85.598956">
				 <ele>178.7</ele>
			 </trkpt>
			 <trkpt lat="36.319442" lon="-85.599763">
				 <ele>179.2</ele>
			 </trkpt>
			 <trkpt lat="36.319205" lon="-85.600022">
				 <ele>179.5</ele>
			 </trkpt>
			 <trkpt lat="36.318771" lon="-85.600352">
				 <ele>180.1</ele>
			 </trkpt>
			 <trkpt lat="36.31857" lon="-85.600673">
				 <ele>180.6</ele>
			 </trkpt>
			 <trkpt lat="36.318101" lon="-85.602668">
				 <ele>180.8</ele>
			 </trkpt>
			 <trkpt lat="36.317946" lon="-85.603059">
				 <ele>180.9</ele>
			 </trkpt>
			 <trkpt lat="36.317709" lon="-85.603333">
				 <ele>181.1</ele>
			 </trkpt>
			 <trkpt lat="36.317309" lon="-85.60344">
				 <ele>181.2</ele>
			 </trkpt>
			 <trkpt lat="36.316891" lon="-85.603459">
				 <ele>181.5</ele>
			 </trkpt>
			 <trkpt lat="36.316402" lon="-85.603377">
				 <ele>182.4</ele>
			 </trkpt>
			 <trkpt lat="36.316113" lon="-85.6033">
				 <ele>182.6</ele>
			 </trkpt>
			 <trkpt lat="36.315689" lon="-85.603029">
				 <ele>183</ele>
			 </trkpt>
			 <trkpt lat="36.315312" lon="-85.602633">
				 <ele>183.4</ele>
			 </trkpt>
			 <trkpt lat="36.314575" lon="-85.602066">
				 <ele>183.5</ele>
			 </trkpt>
			 <trkpt lat="36.314051" lon="-85.601813">
				 <ele>183.5</ele>
			 </trkpt>
			 <trkpt lat="36.313749" lon="-85.601729">
				 <ele>183.7</ele>
			 </trkpt>
			 <trkpt lat="36.313398" lon="-85.601771">
				 <ele>184.1</ele>
			 </trkpt>
			 <trkpt lat="36.313115" lon="-85.601911">
				 <ele>184.5</ele>
			 </trkpt>
			 <trkpt lat="36.312921" lon="-85.602153">
				 <ele>185.1</ele>
			 </trkpt>
			 <trkpt lat="36.312346" lon="-85.603241">
				 <ele>185.6</ele>
			 </trkpt>
			 <trkpt lat="36.312168" lon="-85.60352">
				 <ele>185.6</ele>
			 </trkpt>
			 <trkpt lat="36.311951" lon="-85.603805">
				 <ele>185.6</ele>
			 </trkpt>
			 <trkpt lat="36.311645" lon="-85.604047">
				 <ele>185.7</ele>
			 </trkpt>
			 <trkpt lat="36.310691" lon="-85.604681">
				 <ele>185.7</ele>
			 </trkpt>
			 <trkpt lat="36.310298" lon="-85.604884">
				 <ele>185.8</ele>
			 </trkpt>
			 <trkpt lat="36.310024" lon="-85.604926">
				 <ele>186.2</ele>
			 </trkpt>
			 <trkpt lat="36.309764" lon="-85.604922">
				 <ele>186.9</ele>
			 </trkpt>
			 <trkpt lat="36.308933" lon="-85.605017">
				 <ele>187.5</ele>
			 </trkpt>
			 <trkpt lat="36.308153" lon="-85.605002">
				 <ele>188</ele>
			 </trkpt>
			 <trkpt lat="36.306867" lon="-85.604902">
				 <ele>188.4</ele>
			 </trkpt>
			 <trkpt lat="36.306407" lon="-85.604948">
				 <ele>188.8</ele>
			 </trkpt>
			 <trkpt lat="36.306092" lon="-85.605131">
				 <ele>189.3</ele>
			 </trkpt>
			 <trkpt lat="36.305778" lon="-85.605428">
				 <ele>189.7</ele>
			 </trkpt>
			 <trkpt lat="36.305663" lon="-85.605626">
				 <ele>190.1</ele>
			 </trkpt>
			 <trkpt lat="36.305593" lon="-85.605845">
				 <ele>190.5</ele>
			 </trkpt>
			 <trkpt lat="36.305494" lon="-85.606291">
				 <ele>191.1</ele>
			 </trkpt>
			 <trkpt lat="36.305317" lon="-85.606809">
				 <ele>191.5</ele>
			 </trkpt>
			 <trkpt lat="36.305061" lon="-85.60727">
				 <ele>191.4</ele>
			 </trkpt>
			 <trkpt lat="36.304683" lon="-85.607769">
				 <ele>191.5</ele>
			 </trkpt>
			 <trkpt lat="36.304188" lon="-85.607998">
				 <ele>191.7</ele>
			 </trkpt>
			 <trkpt lat="36.303846" lon="-85.608039">
				 <ele>191.9</ele>
			 </trkpt>
			 <trkpt lat="36.30339" lon="-85.608008">
				 <ele>191.9</ele>
			 </trkpt>
			 <trkpt lat="36.302763" lon="-85.608126">
				 <ele>192</ele>
			 </trkpt>
			 <trkpt lat="36.302367" lon="-85.608054">
				 <ele>192.2</ele>
			 </trkpt>
			 <trkpt lat="36.301875" lon="-85.608026">
				 <ele>192.5</ele>
			 </trkpt>
			 <trkpt lat="36.301508" lon="-85.608029">
				 <ele>193.2</ele>
			 </trkpt>
			 <trkpt lat="36.301331" lon="-85.608091">
				 <ele>194.1</ele>
			 </trkpt>
			 <trkpt lat="36.301156" lon="-85.608277">
				 <ele>195</ele>
			 </trkpt>
			 <trkpt lat="36.300823" lon="-85.608784">
				 <ele>196.2</ele>
			 </trkpt>
			 <trkpt lat="36.300341" lon="-85.60923">
				 <ele>197.1</ele>
			 </trkpt>
			 <trkpt lat="36.29986" lon="-85.609779">
				 <ele>197.9</ele>
			 </trkpt>
			 <trkpt lat="36.299529" lon="-85.610381">
				 <ele>198.7</ele>
			 </trkpt>
			 <trkpt lat="36.299454" lon="-85.610683">
				 <ele>199.4</ele>
			 </trkpt>
			 <trkpt lat="36.299429" lon="-85.611076">
				 <ele>199.5</ele>
			 </trkpt>
			 <trkpt lat="36.299348" lon="-85.611035">
				 <ele>199.5</ele>
			 </trkpt>
			 <trkpt lat="36.299276" lon="-85.611028">
				 <ele>199.5</ele>
			 </trkpt>
			 <trkpt lat="36.299082" lon="-85.611152">
				 <ele>199.1</ele>
			 </trkpt>
			 <trkpt lat="36.298911" lon="-85.611157">
				 <ele>198.4</ele>
			 </trkpt>
			 <trkpt lat="36.298738" lon="-85.610955">
				 <ele>197.6</ele>
			 </trkpt>
			 <trkpt lat="36.29857" lon="-85.610435">
				 <ele>196.5</ele>
			 </trkpt>
			 <trkpt lat="36.298572" lon="-85.609925">
				 <ele>195.6</ele>
			 </trkpt>
			 <trkpt lat="36.298533" lon="-85.609565">
				 <ele>195.1</ele>
			 </trkpt>
			 <trkpt lat="36.298451" lon="-85.609256">
				 <ele>194.5</ele>
			 </trkpt>
			 <trkpt lat="36.2983" lon="-85.609002">
				 <ele>194</ele>
			 </trkpt>
			 <trkpt lat="36.297766" lon="-85.608232">
				 <ele>194.1</ele>
			 </trkpt>
			 <trkpt lat="36.297461" lon="-85.607937">
				 <ele>194.3</ele>
			 </trkpt>
			 <trkpt lat="36.296416" lon="-85.60725">
				 <ele>194.5</ele>
			 </trkpt>
			 <trkpt lat="36.296195" lon="-85.607048">
				 <ele>195.2</ele>
			 </trkpt>
			 <trkpt lat="36.296148" lon="-85.606805">
				 <ele>196.3</ele>
			 </trkpt>
			 <trkpt lat="36.29618" lon="-85.60676">
				 <ele>197.9</ele>
			 </trkpt>
			 <trkpt lat="36.296334" lon="-85.606648">
				 <ele>200.7</ele>
			 </trkpt>
			 <trkpt lat="36.296499" lon="-85.606615">
				 <ele>204.5</ele>
			 </trkpt>
			 <trkpt lat="36.296669" lon="-85.606515">
				 <ele>208.6</ele>
			 </trkpt>
			 <trkpt lat="36.296744" lon="-85.606313">
				 <ele>213.5</ele>
			 </trkpt>
			 <trkpt lat="36.296729" lon="-85.605922">
				 <ele>219</ele>
			 </trkpt>
			 <trkpt lat="36.296623" lon="-85.605021">
				 <ele>224.5</ele>
			 </trkpt>
			 <trkpt lat="36.296556" lon="-85.604161">
				 <ele>230.1</ele>
			 </trkpt>
			 <trkpt lat="36.296611" lon="-85.6036">
				 <ele>236.3</ele>
			 </trkpt>
			 <trkpt lat="36.29714" lon="-85.602968">
				 <ele>242.5</ele>
			 </trkpt>
			 <trkpt lat="36.297594" lon="-85.602492">
				 <ele>248.5</ele>
			 </trkpt>
			 <trkpt lat="36.297739" lon="-85.602253">
				 <ele>254.4</ele>
			 </trkpt>
			 <trkpt lat="36.297845" lon="-85.601891">
				 <ele>259.2</ele>
			 </trkpt>
			 <trkpt lat="36.29791" lon="-85.601306">
				 <ele>262.9</ele>
			 </trkpt>
			 <trkpt lat="36.297943" lon="-85.600835">
				 <ele>265.8</ele>
			 </trkpt>
			 <trkpt lat="36.297917" lon="-85.600376">
				 <ele>268.2</ele>
			 </trkpt>
			 <trkpt lat="36.297757" lon="-85.599612">
				 <ele>269.9</ele>
			 </trkpt>
			 <trkpt lat="36.297649" lon="-85.599419">
				 <ele>271.5</ele>
			 </trkpt>
			 <trkpt lat="36.297403" lon="-85.599074">
				 <ele>273</ele>
			 </trkpt>
			 <trkpt lat="36.296753" lon="-85.597988">
				 <ele>274</ele>
			 </trkpt>
			 <trkpt lat="36.29642" lon="-85.597345">
				 <ele>274.7</ele>
			 </trkpt>
			 <trkpt lat="36.296283" lon="-85.597039">
				 <ele>275.5</ele>
			 </trkpt>
			 <trkpt lat="36.29617" lon="-85.596869">
				 <ele>276</ele>
			 </trkpt>
			 <trkpt lat="36.296032" lon="-85.596814">
				 <ele>276.9</ele>
			 </trkpt>
			 <trkpt lat="36.295537" lon="-85.596726">
				 <ele>278.1</ele>
			 </trkpt>
			 <trkpt lat="36.295336" lon="-85.596556">
				 <ele>279.5</ele>
			 </trkpt>
			 <trkpt lat="36.295215" lon="-85.596049">
				 <ele>281</ele>
			 </trkpt>
			 <trkpt lat="36.295094" lon="-85.595354">
				 <ele>282.8</ele>
			 </trkpt>
			 <trkpt lat="36.294976" lon="-85.594078">
				 <ele>284.8</ele>
			 </trkpt>
			 <trkpt lat="36.295008" lon="-85.593622">
				 <ele>286.9</ele>
			 </trkpt>
			 <trkpt lat="36.295057" lon="-85.593371">
				 <ele>288.6</ele>
			 </trkpt>
			 <trkpt lat="36.295014" lon="-85.593127">
				 <ele>290.2</ele>
			 </trkpt>
			 <trkpt lat="36.294875" lon="-85.592879">
				 <ele>291.3</ele>
			 </trkpt>
			 <trkpt lat="36.294654" lon="-85.592696">
				 <ele>291.9</ele>
			 </trkpt>
			 <trkpt lat="36.294574" lon="-85.592543">
				 <ele>292.1</ele>
			 </trkpt>
			 <trkpt lat="36.294578" lon="-85.592348">
				 <ele>292.1</ele>
			 </trkpt>
			 <trkpt lat="36.294647" lon="-85.591893">
				 <ele>291.9</ele>
			 </trkpt>
			 <trkpt lat="36.294581" lon="-85.591691">
				 <ele>291.6</ele>
			 </trkpt>
			 <trkpt lat="36.294321" lon="-85.591192">
				 <ele>291.3</ele>
			 </trkpt>
			 <trkpt lat="36.294298" lon="-85.591039">
				 <ele>290.7</ele>
			 </trkpt>
			 <trkpt lat="36.294463" lon="-85.590117">
				 <ele>289.7</ele>
			 </trkpt>
			 <trkpt lat="36.29447" lon="-85.589884">
				 <ele>288.8</ele>
			 </trkpt>
			 <trkpt lat="36.294447" lon="-85.589683">
				 <ele>288.8</ele>
			 </trkpt>
			 <trkpt lat="36.294345" lon="-85.589449">
				 <ele>288.9</ele>
			 </trkpt>
			 <trkpt lat="36.294325" lon="-85.589174">
				 <ele>289.4</ele>
			 </trkpt>
			 <trkpt lat="36.29432" lon="-85.58865">
				 <ele>290.2</ele>
			 </trkpt>
			 <trkpt lat="36.294418" lon="-85.588414">
				 <ele>291.3</ele>
			 </trkpt>
			 <trkpt lat="36.295225" lon="-85.58761">
				 <ele>292.5</ele>
			 </trkpt>
			 <trkpt lat="36.294264" lon="-85.587317">
				 <ele>294.4</ele>
			 </trkpt>
			 <trkpt lat="36.293927" lon="-85.587424">
				 <ele>296.1</ele>
			 </trkpt>
			 <trkpt lat="36.29373" lon="-85.587694">
				 <ele>297.6</ele>
			 </trkpt>
			 <trkpt lat="36.293648" lon="-85.588119">
				 <ele>299.3</ele>
			 </trkpt>
			 <trkpt lat="36.293455" lon="-85.588495">
				 <ele>300.7</ele>
			 </trkpt>
			 <trkpt lat="36.292978" lon="-85.588817">
				 <ele>301</ele>
			 </trkpt>
			 <trkpt lat="36.292448" lon="-85.589025">
				 <ele>301.1</ele>
			 </trkpt>
			 <trkpt lat="36.292196" lon="-85.589179">
				 <ele>301.4</ele>
			 </trkpt>
			 <trkpt lat="36.291944" lon="-85.589153">
				 <ele>300.7</ele>
			 </trkpt>
			 <trkpt lat="36.291532" lon="-85.588905">
				 <ele>300.1</ele>
			 </trkpt>
			 <trkpt lat="36.291254" lon="-85.588823">
				 <ele>299.9</ele>
			 </trkpt>
			 <trkpt lat="36.29096" lon="-85.588834">
				 <ele>299.2</ele>
			 </trkpt>
			 <trkpt lat="36.290708" lon="-85.589088">
				 <ele>298.3</ele>
			 </trkpt>
			 <trkpt lat="36.290346" lon="-85.589687">
				 <ele>297.5</ele>
			 </trkpt>
			 <trkpt lat="36.290089" lon="-85.589904">
				 <ele>296.4</ele>
			 </trkpt>
			 <trkpt lat="36.289588" lon="-85.589988">
				 <ele>294.8</ele>
			 </trkpt>
			 <trkpt lat="36.289108" lon="-85.590025">
				 <ele>293.5</ele>
			 </trkpt>
			 <trkpt lat="36.288886" lon="-85.59024">
				 <ele>292.4</ele>
			 </trkpt>
			 <trkpt lat="36.288665" lon="-85.590559">
				 <ele>291</ele>
			 </trkpt>
			 <trkpt lat="36.288281" lon="-85.590972">
				 <ele>290.5</ele>
			 </trkpt>
			 <trkpt lat="36.287896" lon="-85.591324">
				 <ele>290.2</ele>
			 </trkpt>
			 <trkpt lat="36.287664" lon="-85.591335">
				 <ele>289.1</ele>
			 </trkpt>
			 <trkpt lat="36.287538" lon="-85.591272">
				 <ele>288.3</ele>
			 </trkpt>
			 <trkpt lat="36.287191" lon="-85.59082">
				 <ele>287.8</ele>
			 </trkpt>
			 <trkpt lat="36.28693" lon="-85.590586">
				 <ele>287.5</ele>
			 </trkpt>
			 <trkpt lat="36.286617" lon="-85.590493">
				 <ele>287.5</ele>
			 </trkpt>
			 <trkpt lat="36.286244" lon="-85.590564">
				 <ele>288.4</ele>
			 </trkpt>
			 <trkpt lat="36.28601" lon="-85.590822">
				 <ele>289.7</ele>
			 </trkpt>
			 <trkpt lat="36.285877" lon="-85.591151">
				 <ele>291.5</ele>
			 </trkpt>
			 <trkpt lat="36.285769" lon="-85.591335">
				 <ele>293.2</ele>
			 </trkpt>
			 <trkpt lat="36.285573" lon="-85.591385">
				 <ele>294.6</ele>
			 </trkpt>
			 <trkpt lat="36.285285" lon="-85.591174">
				 <ele>295.5</ele>
			 </trkpt>
			 <trkpt lat="36.285084" lon="-85.591066">
				 <ele>296.5</ele>
			 </trkpt>
			 <trkpt lat="36.284775" lon="-85.5911">
				 <ele>297.3</ele>
			 </trkpt>
			 <trkpt lat="36.284517" lon="-85.591221">
				 <ele>298.1</ele>
			 </trkpt>
			 <trkpt lat="36.284198" lon="-85.591497">
				 <ele>299.9</ele>
			 </trkpt>
			 <trkpt lat="36.284036" lon="-85.591693">
				 <ele>301.8</ele>
			 </trkpt>
			 <trkpt lat="36.283921" lon="-85.591932">
				 <ele>303.5</ele>
			 </trkpt>
			 <trkpt lat="36.283685" lon="-85.592294">
				 <ele>304.8</ele>
			 </trkpt>
			 <trkpt lat="36.283285" lon="-85.592612">
				 <ele>305.5</ele>
			 </trkpt>
			 <trkpt lat="36.282269" lon="-85.593639">
				 <ele>306</ele>
			 </trkpt>
			 <trkpt lat="36.281863" lon="-85.59389">
				 <ele>306.5</ele>
			 </trkpt>
			 <trkpt lat="36.281345" lon="-85.594006">
				 <ele>307.3</ele>
			 </trkpt>
			 <trkpt lat="36.280793" lon="-85.594035">
				 <ele>308</ele>
			 </trkpt>
			 <trkpt lat="36.279412" lon="-85.593805">
				 <ele>308.4</ele>
			 </trkpt>
			 <trkpt lat="36.278922" lon="-85.593795">
				 <ele>308.6</ele>
			 </trkpt>
			 <trkpt lat="36.278065" lon="-85.59432">
				 <ele>307.5</ele>
			 </trkpt>
			 <trkpt lat="36.277558" lon="-85.5948">
				 <ele>306.6</ele>
			 </trkpt>
			 <trkpt lat="36.277188" lon="-85.595338">
				 <ele>306.1</ele>
			 </trkpt>
			 <trkpt lat="36.276442" lon="-85.596351">
				 <ele>305.5</ele>
			 </trkpt>
			 <trkpt lat="36.276335" lon="-85.596525">
				 <ele>305.4</ele>
			 </trkpt>
			 <trkpt lat="36.275582" lon="-85.59747">
				 <ele>304.9</ele>
			 </trkpt>
			 <trkpt lat="36.271861" lon="-85.602598">
				 <ele>304.4</ele>
			 </trkpt>
			 <trkpt lat="36.271475" lon="-85.603591">
				 <ele>304.1</ele>
			 </trkpt>
			 <trkpt lat="36.271338" lon="-85.603858">
				 <ele>303.7</ele>
			 </trkpt>
			 <trkpt lat="36.271259" lon="-85.604218">
				 <ele>303.7</ele>
			 </trkpt>
			 <trkpt lat="36.270955" lon="-85.604808">
				 <ele>303.7</ele>
			 </trkpt>
			 <trkpt lat="36.270539" lon="-85.605243">
				 <ele>304.2</ele>
			 </trkpt>
			 <trkpt lat="36.269568" lon="-85.605774">
				 <ele>304.5</ele>
			 </trkpt>
			 <trkpt lat="36.267461" lon="-85.606619">
				 <ele>304.4</ele>
			 </trkpt>
			 <trkpt lat="36.266113" lon="-85.607227">
				 <ele>304.3</ele>
			 </trkpt>
			 <trkpt lat="36.26576" lon="-85.607433">
				 <ele>304.2</ele>
			 </trkpt>
			 <trkpt lat="36.265569" lon="-85.607578">
				 <ele>304.4</ele>
			 </trkpt>
			 <trkpt lat="36.264818" lon="-85.608234">
				 <ele>304.7</ele>
			 </trkpt>
			 <trkpt lat="36.264029" lon="-85.609068">
				 <ele>304.5</ele>
			 </trkpt>
			 <trkpt lat="36.26374" lon="-85.609322">
				 <ele>304.4</ele>
			 </trkpt>
			 <trkpt lat="36.263629" lon="-85.609221">
				 <ele>304.2</ele>
			 </trkpt>
			 <trkpt lat="36.263136" lon="-85.609011">
				 <ele>303.9</ele>
			 </trkpt>
			 <trkpt lat="36.262243" lon="-85.608728">
				 <ele>303.5</ele>
			 </trkpt>
			 <trkpt lat="36.260786" lon="-85.60866">
				 <ele>303.2</ele>
			 </trkpt>
			 <trkpt lat="36.26041" lon="-85.608838">
				 <ele>302.8</ele>
			 </trkpt>
			 <trkpt lat="36.259855" lon="-85.607746">
				 <ele>302.2</ele>
			 </trkpt>
			 <trkpt lat="36.259015" lon="-85.606501">
				 <ele>300.6</ele>
			 </trkpt>
			 <trkpt lat="36.258299" lon="-85.605608">
				 <ele>298.6</ele>
			 </trkpt>
			 <trkpt lat="36.257917" lon="-85.605098">
				 <ele>296.3</ele>
			 </trkpt>
			 <trkpt lat="36.257517" lon="-85.604753">
				 <ele>293.9</ele>
			 </trkpt>
			 <trkpt lat="36.256643" lon="-85.604239">
				 <ele>291.4</ele>
			 </trkpt>
			 <trkpt lat="36.255442" lon="-85.603811">
				 <ele>287.9</ele>
			 </trkpt>
			 <trkpt lat="36.254895" lon="-85.603482">
				 <ele>284.7</ele>
			 </trkpt>
			 <trkpt lat="36.254737" lon="-85.603318">
				 <ele>281.9</ele>
			 </trkpt>
			 <trkpt lat="36.254703" lon="-85.603144">
				 <ele>279.4</ele>
			 </trkpt>
			 <trkpt lat="36.254742" lon="-85.602918">
				 <ele>277.4</ele>
			 </trkpt>
			 <trkpt lat="36.255081" lon="-85.602173">
				 <ele>276</ele>
			 </trkpt>
			 <trkpt lat="36.255234" lon="-85.601773">
				 <ele>276.1</ele>
			 </trkpt>
			 <trkpt lat="36.255283" lon="-85.60133">
				 <ele>276.9</ele>
			 </trkpt>
			 <trkpt lat="36.255217" lon="-85.60106">
				 <ele>278.4</ele>
			 </trkpt>
			 <trkpt lat="36.255052" lon="-85.600882">
				 <ele>281</ele>
			 </trkpt>
			 <trkpt lat="36.25484" lon="-85.60083">
				 <ele>283.7</ele>
			 </trkpt>
			 <trkpt lat="36.25451" lon="-85.600817">
				 <ele>287.5</ele>
			 </trkpt>
			 <trkpt lat="36.254324" lon="-85.600751">
				 <ele>291</ele>
			 </trkpt>
			 <trkpt lat="36.254087" lon="-85.600593">
				 <ele>294</ele>
			 </trkpt>
			 <trkpt lat="36.252081" lon="-85.596652">
				 <ele>296.9</ele>
			 </trkpt>
			 <trkpt lat="36.25143" lon="-85.595982">
				 <ele>299.3</ele>
			 </trkpt>
			 <trkpt lat="36.251103" lon="-85.595874">
				 <ele>301.1</ele>
			 </trkpt>
			 <trkpt lat="36.250982" lon="-85.59586">
				 <ele>302.3</ele>
			 </trkpt>
			 <trkpt lat="36.250086" lon="-85.596005">
				 <ele>303.1</ele>
			 </trkpt>
			 <trkpt lat="36.248587" lon="-85.596098">
				 <ele>303.5</ele>
			 </trkpt>
			 <trkpt lat="36.248318" lon="-85.596074">
				 <ele>302.6</ele>
			 </trkpt>
			 <trkpt lat="36.248167" lon="-85.596021">
				 <ele>301.8</ele>
			 </trkpt>
			 <trkpt lat="36.248065" lon="-85.595951">
				 <ele>301.7</ele>
			 </trkpt>
			 <trkpt lat="36.247979" lon="-85.595846">
				 <ele>301.8</ele>
			 </trkpt>
			 <trkpt lat="36.247905" lon="-85.595664">
				 <ele>302.2</ele>
			 </trkpt>
			 <trkpt lat="36.247767" lon="-85.595452">
				 <ele>302.4</ele>
			 </trkpt>
			 <trkpt lat="36.247706" lon="-85.595299">
				 <ele>302.6</ele>
			 </trkpt>
			 <trkpt lat="36.247148" lon="-85.594639">
				 <ele>303.1</ele>
			 </trkpt>
			 <trkpt lat="36.247033" lon="-85.594427">
				 <ele>303.6</ele>
			 </trkpt>
			 <trkpt lat="36.246906" lon="-85.594025">
				 <ele>304.4</ele>
			 </trkpt>
			 <trkpt lat="36.246739" lon="-85.593352">
				 <ele>305.2</ele>
			 </trkpt>
			 <trkpt lat="36.246704" lon="-85.593052">
				 <ele>306.3</ele>
			 </trkpt>
			 <trkpt lat="36.246644" lon="-85.592927">
				 <ele>307.4</ele>
			 </trkpt>
			 <trkpt lat="36.24654" lon="-85.592811">
				 <ele>307.5</ele>
			 </trkpt>
			 <trkpt lat="36.247104" lon="-85.592195">
				 <ele>307.5</ele>
			 </trkpt>
			 <trkpt lat="36.247605" lon="-85.591418">
				 <ele>307.4</ele>
			 </trkpt>
			 <trkpt lat="36.248203" lon="-85.59038">
				 <ele>307.2</ele>
			 </trkpt>
			 <trkpt lat="36.248417" lon="-85.589845">
				 <ele>307</ele>
			 </trkpt>
			 <trkpt lat="36.248638" lon="-85.589119">
				 <ele>306.7</ele>
			 </trkpt>
			 <trkpt lat="36.248718" lon="-85.588795">
				 <ele>306.5</ele>
			 </trkpt>
			 <trkpt lat="36.248865" lon="-85.588062">
				 <ele>306.1</ele>
			 </trkpt>
			 <trkpt lat="36.248927" lon="-85.587603">
				 <ele>305.7</ele>
			 </trkpt>
			 <trkpt lat="36.248954" lon="-85.58722">
				 <ele>305.4</ele>
			 </trkpt>
			 <trkpt lat="36.248948" lon="-85.586096">
				 <ele>305.1</ele>
			 </trkpt>
			 <trkpt lat="36.248915" lon="-85.585662">
				 <ele>304.7</ele>
			 </trkpt>
			 <trkpt lat="36.248847" lon="-85.585227">
				 <ele>304.5</ele>
			 </trkpt>
			 <trkpt lat="36.248709" lon="-85.58454">
				 <ele>304.3</ele>
			 </trkpt>
			 <trkpt lat="36.248652" lon="-85.584067">
				 <ele>304.2</ele>
			 </trkpt>
			 <trkpt lat="36.248639" lon="-85.583722">
				 <ele>304.1</ele>
			 </trkpt>
			 <trkpt lat="36.248778" lon="-85.582958">
				 <ele>304.2</ele>
			 </trkpt>
			 <trkpt lat="36.249131" lon="-85.581768">
				 <ele>304.2</ele>
			 </trkpt>
			 <trkpt lat="36.249217" lon="-85.581373">
				 <ele>304.1</ele>
			 </trkpt>
			 <trkpt lat="36.24926" lon="-85.581035">
				 <ele>303.9</ele>
			 </trkpt>
			 <trkpt lat="36.249289" lon="-85.580616">
				 <ele>303.2</ele>
			 </trkpt>
			 <trkpt lat="36.249276" lon="-85.579851">
				 <ele>302.3</ele>
			 </trkpt>
			 <trkpt lat="36.249154" lon="-85.576577">
				 <ele>301.4</ele>
			 </trkpt>
			 <trkpt lat="36.249072" lon="-85.575787">
				 <ele>300.1</ele>
			 </trkpt>
			 <trkpt lat="36.248915" lon="-85.57505">
				 <ele>298.5</ele>
			 </trkpt>
			 <trkpt lat="36.248023" lon="-85.572187">
				 <ele>296.9</ele>
			 </trkpt>
			 <trkpt lat="36.247927" lon="-85.571839">
				 <ele>294.7</ele>
			 </trkpt>
			 <trkpt lat="36.24787" lon="-85.571546">
				 <ele>291.9</ele>
			 </trkpt>
			 <trkpt lat="36.247825" lon="-85.571261">
				 <ele>289</ele>
			 </trkpt>
			 <trkpt lat="36.247777" lon="-85.570698">
				 <ele>286.2</ele>
			 </trkpt>
			 <trkpt lat="36.24779" lon="-85.570144">
				 <ele>283.5</ele>
			 </trkpt>
			 <trkpt lat="36.247841" lon="-85.569613">
				 <ele>280.3</ele>
			 </trkpt>
			 <trkpt lat="36.24795" lon="-85.569063">
				 <ele>277.6</ele>
			 </trkpt>
			 <trkpt lat="36.248087" lon="-85.568588">
				 <ele>275.4</ele>
			 </trkpt>
			 <trkpt lat="36.248275" lon="-85.568128">
				 <ele>273.5</ele>
			 </trkpt>
			 <trkpt lat="36.248416" lon="-85.567847">
				 <ele>271.7</ele>
			 </trkpt>
			 <trkpt lat="36.250518" lon="-85.564525">
				 <ele>270.2</ele>
			 </trkpt>
			 <trkpt lat="36.250658" lon="-85.56426">
				 <ele>269.2</ele>
			 </trkpt>
			 <trkpt lat="36.250728" lon="-85.564062">
				 <ele>269.5</ele>
			 </trkpt>
			 <trkpt lat="36.250785" lon="-85.563828">
				 <ele>270.5</ele>
			 </trkpt>
			 <trkpt lat="36.250795" lon="-85.563585">
				 <ele>272.2</ele>
			 </trkpt>
			 <trkpt lat="36.250783" lon="-85.563372">
				 <ele>274.4</ele>
			 </trkpt>
			 <trkpt lat="36.250748" lon="-85.563165">
				 <ele>277.6</ele>
			 </trkpt>
			 <trkpt lat="36.250413" lon="-85.56232">
				 <ele>280.5</ele>
			 </trkpt>
			 <trkpt lat="36.250281" lon="-85.561926">
				 <ele>283.1</ele>
			 </trkpt>
			 <trkpt lat="36.250212" lon="-85.561592">
				 <ele>285.6</ele>
			 </trkpt>
			 <trkpt lat="36.250175" lon="-85.561227">
				 <ele>287.8</ele>
			 </trkpt>
			 <trkpt lat="36.250182" lon="-85.56089">
				 <ele>289.7</ele>
			 </trkpt>
			 <trkpt lat="36.250227" lon="-85.56057">
				 <ele>291.8</ele>
			 </trkpt>
			 <trkpt lat="36.250302" lon="-85.560265">
				 <ele>293.3</ele>
			 </trkpt>
			 <trkpt lat="36.251804" lon="-85.555434">
				 <ele>294.4</ele>
			 </trkpt>
			 <trkpt lat="36.252118" lon="-85.554715">
				 <ele>295</ele>
			 </trkpt>
			 <trkpt lat="36.252411" lon="-85.554228">
				 <ele>295.3</ele>
			 </trkpt>
			 <trkpt lat="36.253286" lon="-85.553148">
				 <ele>295.5</ele>
			 </trkpt>
			 <trkpt lat="36.253537" lon="-85.552797">
				 <ele>295.8</ele>
			 </trkpt>
			 <trkpt lat="36.253813" lon="-85.552339">
				 <ele>296.1</ele>
			 </trkpt>
			 <trkpt lat="36.253966" lon="-85.551982">
				 <ele>296.5</ele>
			 </trkpt>
			 <trkpt lat="36.25406" lon="-85.551647">
				 <ele>297.4</ele>
			 </trkpt>
			 <trkpt lat="36.254132" lon="-85.55125">
				 <ele>298.6</ele>
			 </trkpt>
			 <trkpt lat="36.254164" lon="-85.550858">
				 <ele>299.8</ele>
			 </trkpt>
			 <trkpt lat="36.254404" lon="-85.551094">
				 <ele>300.5</ele>
			 </trkpt>
			 <trkpt lat="36.258981" lon="-85.557375">
				 <ele>301</ele>
			 </trkpt>
			 <trkpt lat="36.257766" lon="-85.557427">
				 <ele>301.2</ele>
			 </trkpt>
			 <trkpt lat="36.256035" lon="-85.557457">
				 <ele>301.2</ele>
			 </trkpt>
			 <trkpt lat="36.254975" lon="-85.557554">
				 <ele>300.9</ele>
			 </trkpt>
			 <trkpt lat="36.254429" lon="-85.557827">
				 <ele>300.5</ele>
			 </trkpt>
			 <trkpt lat="36.25448" lon="-85.558088">
				 <ele>300.1</ele>
			 </trkpt>
			 <trkpt lat="36.254567" lon="-85.558939">
				 <ele>299.5</ele>
			 </trkpt>
			 <trkpt lat="36.254593" lon="-85.559554">
				 <ele>298.8</ele>
			 </trkpt>
			 <trkpt lat="36.254573" lon="-85.560316">
				 <ele>298</ele>
			 </trkpt>
			 <trkpt lat="36.254514" lon="-85.560827">
				 <ele>297</ele>
			 </trkpt>
			 <trkpt lat="36.254418" lon="-85.561397">
				 <ele>296.3</ele>
			 </trkpt>
			 <trkpt lat="36.254347" lon="-85.561535">
				 <ele>295.7</ele>
			 </trkpt>
			 <trkpt lat="36.254265" lon="-85.56161">
				 <ele>295.5</ele>
			 </trkpt>
			 <trkpt lat="36.253874" lon="-85.561855">
				 <ele>295.3</ele>
			 </trkpt>
			 <trkpt lat="36.253772" lon="-85.56193">
				 <ele>295.4</ele>
			 </trkpt>
			 <trkpt lat="36.253695" lon="-85.562027">
				 <ele>295.3</ele>
			 </trkpt>
			 <trkpt lat="36.253661" lon="-85.562105">
				 <ele>295.2</ele>
			 </trkpt>
			 <trkpt lat="36.253609" lon="-85.562474">
				 <ele>295.2</ele>
			 </trkpt>
			 <trkpt lat="36.253565" lon="-85.562577">
				 <ele>295.2</ele>
			 </trkpt>
			 <trkpt lat="36.253492" lon="-85.562679">
				 <ele>295.1</ele>
			 </trkpt>
			 <trkpt lat="36.253182" lon="-85.562989">
				 <ele>295.1</ele>
			 </trkpt>
			 <trkpt lat="36.253111" lon="-85.56311">
				 <ele>295.1</ele>
			 </trkpt>
			 <trkpt lat="36.253091" lon="-85.563242">
				 <ele>295.1</ele>
			 </trkpt>
			 <trkpt lat="36.253091" lon="-85.563621">
				 <ele>295</ele>
			 </trkpt>
		 </trkseg>
	 </trk>
</gpx>