<?xml version="1.0" encoding="UTF-8"?>
 <gpx creator="Garmin Connect" version="1.1"
	 xsi:schemaLocation="http://www.topografix.com/GPX/1/1 http://www.topografix.com/GPX/11.xsd"
	 xmlns:ns3="http://www.garmin.com/xmlschemas/TrackPointExtension/v1"
	 xmlns="http://www.topografix.com/GPX/1/1"
	 xmlns:xsi="http://www.w3.org/2001/XMLSchema-instance" xmlns:ns2="http://www.garmin.com/xmlschemas/GpxExtensions/v3">
	 <metadata>
		<name>Essentia Health Fargo Marathon 2026 - 42.195 km</name>
		 <link href="https://www.goandrace.com">
		 <text>Garmin Connect</text>
		 </link>
	 <time>2026-08-09T16:46:39</time>
	 </metadata>
	 <trk>
		 <name>Essentia Health Fargo Marathon 2026 - 42.195 km</name>
		 <trkseg>
			 <trkpt lat="46.901126" lon="-96.80129">
				 <ele>276.2</ele>
			 </trkpt>
			 <trkpt lat="46.901113" lon="-96.800388">
				 <ele>275.9</ele>
			 </trkpt>
			 <trkpt lat="46.901114" lon="-96.799855">
				 <ele>275.5</ele>
			 </trkpt>
			 <trkpt lat="46.901114" lon="-96.799286">
				 <ele>275.2</ele>
			 </trkpt>
			 <trkpt lat="46.90113" lon="-96.798048">
				 <ele>275</ele>
			 </trkpt>
			 <trkpt lat="46.901588" lon="-96.798041">
				 <ele>274.8</ele>
			 </trkpt>
			 <trkpt lat="46.902037" lon="-96.798035">
				 <ele>274.8</ele>
			 </trkpt>
			 <trkpt lat="46.902487" lon="-96.798028">
				 <ele>274.6</ele>
			 </trkpt>
			 <trkpt lat="46.902937" lon="-96.798022">
				 <ele>274.3</ele>
			 </trkpt>
			 <trkpt lat="46.903386" lon="-96.798015">
				 <ele>273.8</ele>
			 </trkpt>
			 <trkpt lat="46.903836" lon="-96.798009">
				 <ele>273.3</ele>
			 </trkpt>
			 <trkpt lat="46.904285" lon="-96.798002">
				 <ele>273.1</ele>
			 </trkpt>
			 <trkpt lat="46.904735" lon="-96.797996">
				 <ele>272.9</ele>
			 </trkpt>
			 <trkpt lat="46.905185" lon="-96.797989">
				 <ele>272.9</ele>
			 </trkpt>
			 <trkpt lat="46.905634" lon="-96.797983">
				 <ele>272.8</ele>
			 </trkpt>
			 <trkpt lat="46.906084" lon="-96.797976">
				 <ele>272.7</ele>
			 </trkpt>
			 <trkpt lat="46.906235" lon="-96.797974">
				 <ele>272.6</ele>
			 </trkpt>
			 <trkpt lat="46.906685" lon="-96.797972">
				 <ele>272.5</ele>
			 </trkpt>
			 <trkpt lat="46.907134" lon="-96.79797">
				 <ele>272.3</ele>
			 </trkpt>
			 <trkpt lat="46.907584" lon="-96.797967">
				 <ele>272.2</ele>
			 </trkpt>
			 <trkpt lat="46.908034" lon="-96.797965">
				 <ele>272.3</ele>
			 </trkpt>
			 <trkpt lat="46.908483" lon="-96.797963">
				 <ele>272.5</ele>
			 </trkpt>
			 <trkpt lat="46.908933" lon="-96.797961">
				 <ele>272.5</ele>
			 </trkpt>
			 <trkpt lat="46.909383" lon="-96.797959">
				 <ele>272.7</ele>
			 </trkpt>
			 <trkpt lat="46.909832" lon="-96.797956">
				 <ele>272.8</ele>
			 </trkpt>
			 <trkpt lat="46.909861" lon="-96.796172">
				 <ele>273</ele>
			 </trkpt>
			 <trkpt lat="46.909862" lon="-96.793575">
				 <ele>273.2</ele>
			 </trkpt>
			 <trkpt lat="46.909874" lon="-96.792221">
				 <ele>273.3</ele>
			 </trkpt>
			 <trkpt lat="46.909869" lon="-96.7915">
				 <ele>273.4</ele>
			 </trkpt>
			 <trkpt lat="46.909881" lon="-96.791026">
				 <ele>273.6</ele>
			 </trkpt>
			 <trkpt lat="46.909884" lon="-96.788679">
				 <ele>273.7</ele>
			 </trkpt>
			 <trkpt lat="46.909884" lon="-96.78738">
				 <ele>273.7</ele>
			 </trkpt>
			 <trkpt lat="46.909867" lon="-96.782826">
				 <ele>273.6</ele>
			 </trkpt>
			 <trkpt lat="46.910026" lon="-96.782826">
				 <ele>273.7</ele>
			 </trkpt>
			 <trkpt lat="46.911531" lon="-96.782829">
				 <ele>273.7</ele>
			 </trkpt>
			 <trkpt lat="46.913196" lon="-96.782809">
				 <ele>273.7</ele>
			 </trkpt>
			 <trkpt lat="46.913197" lon="-96.782669">
				 <ele>273.7</ele>
			 </trkpt>
			 <trkpt lat="46.913199" lon="-96.781981">
				 <ele>273.7</ele>
			 </trkpt>
			 <trkpt lat="46.91327" lon="-96.781806">
				 <ele>273.8</ele>
			 </trkpt>
			 <trkpt lat="46.913539" lon="-96.781352">
				 <ele>273.9</ele>
			 </trkpt>
			 <trkpt lat="46.913974" lon="-96.780765">
				 <ele>273.8</ele>
			 </trkpt>
			 <trkpt lat="46.914254" lon="-96.780402">
				 <ele>274</ele>
			 </trkpt>
			 <trkpt lat="46.914533" lon="-96.780101">
				 <ele>273.9</ele>
			 </trkpt>
			 <trkpt lat="46.914686" lon="-96.780022">
				 <ele>273.8</ele>
			 </trkpt>
			 <trkpt lat="46.915173" lon="-96.780003">
				 <ele>273.6</ele>
			 </trkpt>
			 <trkpt lat="46.916378" lon="-96.779975">
				 <ele>273.5</ele>
			 </trkpt>
			 <trkpt lat="46.917662" lon="-96.779976">
				 <ele>273.4</ele>
			 </trkpt>
			 <trkpt lat="46.918467" lon="-96.779948">
				 <ele>273.3</ele>
			 </trkpt>
			 <trkpt lat="46.918471" lon="-96.783443">
				 <ele>273.3</ele>
			 </trkpt>
			 <trkpt lat="46.919317" lon="-96.783455">
				 <ele>273.3</ele>
			 </trkpt>
			 <trkpt lat="46.919318" lon="-96.78323">
				 <ele>273.2</ele>
			 </trkpt>
			 <trkpt lat="46.919339" lon="-96.779458">
				 <ele>273.2</ele>
			 </trkpt>
			 <trkpt lat="46.919335" lon="-96.778087">
				 <ele>273</ele>
			 </trkpt>
			 <trkpt lat="46.919345" lon="-96.776789">
				 <ele>273</ele>
			 </trkpt>
			 <trkpt lat="46.919355" lon="-96.775424">
				 <ele>272.9</ele>
			 </trkpt>
			 <trkpt lat="46.919617" lon="-96.775418">
				 <ele>272.9</ele>
			 </trkpt>
			 <trkpt lat="46.920318" lon="-96.775402">
				 <ele>273</ele>
			 </trkpt>
			 <trkpt lat="46.920589" lon="-96.775332">
				 <ele>273</ele>
			 </trkpt>
			 <trkpt lat="46.920709" lon="-96.775273">
				 <ele>273</ele>
			 </trkpt>
			 <trkpt lat="46.921091" lon="-96.774869">
				 <ele>272.8</ele>
			 </trkpt>
			 <trkpt lat="46.921367" lon="-96.774297">
				 <ele>272.7</ele>
			 </trkpt>
			 <trkpt lat="46.921666" lon="-96.77359">
				 <ele>272.7</ele>
			 </trkpt>
			 <trkpt lat="46.921766" lon="-96.773473">
				 <ele>272.8</ele>
			 </trkpt>
			 <trkpt lat="46.922092" lon="-96.773463">
				 <ele>272.8</ele>
			 </trkpt>
			 <trkpt lat="46.923371" lon="-96.77342">
				 <ele>272.8</ele>
			 </trkpt>
			 <trkpt lat="46.92374" lon="-96.77342">
				 <ele>272.9</ele>
			 </trkpt>
			 <trkpt lat="46.923738" lon="-96.77379">
				 <ele>273</ele>
			 </trkpt>
			 <trkpt lat="46.923731" lon="-96.775396">
				 <ele>273</ele>
			 </trkpt>
			 <trkpt lat="46.924086" lon="-96.77539">
				 <ele>272.9</ele>
			 </trkpt>
			 <trkpt lat="46.92417" lon="-96.77536">
				 <ele>272.8</ele>
			 </trkpt>
			 <trkpt lat="46.92424" lon="-96.775299">
				 <ele>273</ele>
			 </trkpt>
			 <trkpt lat="46.924318" lon="-96.775164">
				 <ele>273.1</ele>
			 </trkpt>
			 <trkpt lat="46.924421" lon="-96.774902">
				 <ele>273.2</ele>
			 </trkpt>
			 <trkpt lat="46.92504" lon="-96.773332">
				 <ele>273.1</ele>
			 </trkpt>
			 <trkpt lat="46.925151" lon="-96.77317">
				 <ele>273.1</ele>
			 </trkpt>
			 <trkpt lat="46.925857" lon="-96.772386">
				 <ele>273.1</ele>
			 </trkpt>
			 <trkpt lat="46.926047" lon="-96.772139">
				 <ele>273.1</ele>
			 </trkpt>
			 <trkpt lat="46.926336" lon="-96.771693">
				 <ele>273.1</ele>
			 </trkpt>
			 <trkpt lat="46.926471" lon="-96.77134">
				 <ele>273.1</ele>
			 </trkpt>
			 <trkpt lat="46.92663" lon="-96.770737">
				 <ele>273.2</ele>
			 </trkpt>
			 <trkpt lat="46.926729" lon="-96.770132">
				 <ele>273.3</ele>
			 </trkpt>
			 <trkpt lat="46.926722" lon="-96.769911">
				 <ele>273.2</ele>
			 </trkpt>
			 <trkpt lat="46.926697" lon="-96.769741">
				 <ele>273.1</ele>
			 </trkpt>
			 <trkpt lat="46.926645" lon="-96.769612">
				 <ele>273.1</ele>
			 </trkpt>
			 <trkpt lat="46.926578" lon="-96.769511">
				 <ele>273.2</ele>
			 </trkpt>
			 <trkpt lat="46.926509" lon="-96.769468">
				 <ele>273.3</ele>
			 </trkpt>
			 <trkpt lat="46.926419" lon="-96.769472">
				 <ele>273.3</ele>
			 </trkpt>
			 <trkpt lat="46.925848" lon="-96.769498">
				 <ele>273.2</ele>
			 </trkpt>
			 <trkpt lat="46.922853" lon="-96.769525">
				 <ele>273.1</ele>
			 </trkpt>
			 <trkpt lat="46.922847" lon="-96.768688">
				 <ele>273</ele>
			 </trkpt>
			 <trkpt lat="46.922833" lon="-96.768624">
				 <ele>273</ele>
			 </trkpt>
			 <trkpt lat="46.92296" lon="-96.76849">
				 <ele>273</ele>
			 </trkpt>
			 <trkpt lat="46.92323" lon="-96.76823">
				 <ele>273</ele>
			 </trkpt>
			 <trkpt lat="46.92331" lon="-96.76815">
				 <ele>273</ele>
			 </trkpt>
			 <trkpt lat="46.92337" lon="-96.76805">
				 <ele>272.9</ele>
			 </trkpt>
			 <trkpt lat="46.92352" lon="-96.76814">
				 <ele>272.8</ele>
			 </trkpt>
			 <trkpt lat="46.92358" lon="-96.76815">
				 <ele>272.7</ele>
			 </trkpt>
			 <trkpt lat="46.92382" lon="-96.76815">
				 <ele>272.6</ele>
			 </trkpt>
			 <trkpt lat="46.92414" lon="-96.76814">
				 <ele>272.8</ele>
			 </trkpt>
			 <trkpt lat="46.92421" lon="-96.76811">
				 <ele>273</ele>
			 </trkpt>
			 <trkpt lat="46.92428" lon="-96.76805">
				 <ele>273.2</ele>
			 </trkpt>
			 <trkpt lat="46.92432" lon="-96.76796">
				 <ele>273.3</ele>
			 </trkpt>
			 <trkpt lat="46.92437" lon="-96.76775">
				 <ele>273.4</ele>
			 </trkpt>
			 <trkpt lat="46.92437" lon="-96.76637">
				 <ele>273.5</ele>
			 </trkpt>
			 <trkpt lat="46.9244" lon="-96.76616">
				 <ele>273.5</ele>
			 </trkpt>
			 <trkpt lat="46.92442" lon="-96.76611">
				 <ele>273.5</ele>
			 </trkpt>
			 <trkpt lat="46.92465" lon="-96.76571">
				 <ele>273.6</ele>
			 </trkpt>
			 <trkpt lat="46.92522" lon="-96.76641">
				 <ele>273.6</ele>
			 </trkpt>
			 <trkpt lat="46.92533" lon="-96.76652">
				 <ele>273.6</ele>
			 </trkpt>
			 <trkpt lat="46.92542" lon="-96.76659">
				 <ele>273.5</ele>
			 </trkpt>
			 <trkpt lat="46.92534" lon="-96.76682">
				 <ele>273.2</ele>
			 </trkpt>
			 <trkpt lat="46.92532" lon="-96.76694">
				 <ele>272.9</ele>
			 </trkpt>
			 <trkpt lat="46.92531" lon="-96.76782">
				 <ele>272.6</ele>
			 </trkpt>
			 <trkpt lat="46.92533" lon="-96.76795">
				 <ele>272.5</ele>
			 </trkpt>
			 <trkpt lat="46.92536" lon="-96.76804">
				 <ele>272.3</ele>
			 </trkpt>
			 <trkpt lat="46.92547" lon="-96.76818">
				 <ele>272.2</ele>
			 </trkpt>
			 <trkpt lat="46.92555" lon="-96.76821">
				 <ele>272</ele>
			 </trkpt>
			 <trkpt lat="46.9264" lon="-96.7682">
				 <ele>272</ele>
			 </trkpt>
			 <trkpt lat="46.92638" lon="-96.76794">
				 <ele>272.1</ele>
			 </trkpt>
			 <trkpt lat="46.92631" lon="-96.76741">
				 <ele>272.2</ele>
			 </trkpt>
			 <trkpt lat="46.92626" lon="-96.76729">
				 <ele>272.3</ele>
			 </trkpt>
			 <trkpt lat="46.92602" lon="-96.76707">
				 <ele>272.5</ele>
			 </trkpt>
			 <trkpt lat="46.92533" lon="-96.76652">
				 <ele>272.6</ele>
			 </trkpt>
			 <trkpt lat="46.92466" lon="-96.76573">
				 <ele>272.8</ele>
			 </trkpt>
			 <trkpt lat="46.92452" lon="-96.76554">
				 <ele>272.9</ele>
			 </trkpt>
			 <trkpt lat="46.92437" lon="-96.76541">
				 <ele>273</ele>
			 </trkpt>
			 <trkpt lat="46.92428" lon="-96.76539">
				 <ele>273.1</ele>
			 </trkpt>
			 <trkpt lat="46.92397" lon="-96.76548">
				 <ele>273.1</ele>
			 </trkpt>
			 <trkpt lat="46.92362" lon="-96.76561">
				 <ele>272.9</ele>
			 </trkpt>
			 <trkpt lat="46.92349" lon="-96.7657">
				 <ele>272.7</ele>
			 </trkpt>
			 <trkpt lat="46.92341" lon="-96.76589">
				 <ele>272.6</ele>
			 </trkpt>
			 <trkpt lat="46.92339" lon="-96.76664">
				 <ele>272.5</ele>
			 </trkpt>
			 <trkpt lat="46.92339" lon="-96.76718">
				 <ele>272.6</ele>
			 </trkpt>
			 <trkpt lat="46.92339" lon="-96.76784">
				 <ele>272.6</ele>
			 </trkpt>
			 <trkpt lat="46.92339" lon="-96.76797">
				 <ele>272.6</ele>
			 </trkpt>
			 <trkpt lat="46.92334" lon="-96.76811">
				 <ele>272.7</ele>
			 </trkpt>
			 <trkpt lat="46.92312" lon="-96.76834">
				 <ele>272.8</ele>
			 </trkpt>
			 <trkpt lat="46.92282" lon="-96.76863">
				 <ele>272.9</ele>
			 </trkpt>
			 <trkpt lat="46.92276" lon="-96.76843">
				 <ele>273.3</ele>
			 </trkpt>
			 <trkpt lat="46.92265" lon="-96.76828">
				 <ele>273.5</ele>
			 </trkpt>
			 <trkpt lat="46.92251" lon="-96.76819">
				 <ele>273.7</ele>
			 </trkpt>
			 <trkpt lat="46.9223" lon="-96.76821">
				 <ele>273.9</ele>
			 </trkpt>
			 <trkpt lat="46.92232" lon="-96.76811">
				 <ele>274.2</ele>
			 </trkpt>
			 <trkpt lat="46.92232" lon="-96.76741">
				 <ele>274.4</ele>
			 </trkpt>
			 <trkpt lat="46.92233" lon="-96.7666">
				 <ele>274.6</ele>
			 </trkpt>
			 <trkpt lat="46.92231" lon="-96.76609">
				 <ele>274.9</ele>
			 </trkpt>
			 <trkpt lat="46.92231" lon="-96.76516">
				 <ele>275.1</ele>
			 </trkpt>
			 <trkpt lat="46.92231" lon="-96.76502">
				 <ele>275.3</ele>
			 </trkpt>
			 <trkpt lat="46.92228" lon="-96.7649">
				 <ele>275.5</ele>
			 </trkpt>
			 <trkpt lat="46.92219" lon="-96.76477">
				 <ele>275.5</ele>
			 </trkpt>
			 <trkpt lat="46.92209" lon="-96.76475">
				 <ele>275.6</ele>
			 </trkpt>
			 <trkpt lat="46.92196" lon="-96.76476">
				 <ele>275.7</ele>
			 </trkpt>
			 <trkpt lat="46.92178" lon="-96.7648">
				 <ele>275.9</ele>
			 </trkpt>
			 <trkpt lat="46.92164" lon="-96.76484">
				 <ele>276.1</ele>
			 </trkpt>
			 <trkpt lat="46.92154" lon="-96.76486">
				 <ele>276.3</ele>
			 </trkpt>
			 <trkpt lat="46.92142" lon="-96.76495">
				 <ele>276.1</ele>
			 </trkpt>
			 <trkpt lat="46.9213" lon="-96.76502">
				 <ele>275.9</ele>
			 </trkpt>
			 <trkpt lat="46.92111" lon="-96.76522">
				 <ele>275.7</ele>
			 </trkpt>
			 <trkpt lat="46.92095" lon="-96.76543">
				 <ele>275.5</ele>
			 </trkpt>
			 <trkpt lat="46.92093" lon="-96.76546">
				 <ele>275.4</ele>
			 </trkpt>
			 <trkpt lat="46.920203" lon="-96.764401">
				 <ele>275.2</ele>
			 </trkpt>
			 <trkpt lat="46.920089" lon="-96.764279">
				 <ele>275.1</ele>
			 </trkpt>
			 <trkpt lat="46.91998" lon="-96.764225">
				 <ele>274.8</ele>
			 </trkpt>
			 <trkpt lat="46.919865" lon="-96.764198">
				 <ele>274.5</ele>
			 </trkpt>
			 <trkpt lat="46.919499" lon="-96.76422">
				 <ele>274.2</ele>
			 </trkpt>
			 <trkpt lat="46.919409" lon="-96.764226">
				 <ele>273.7</ele>
			 </trkpt>
			 <trkpt lat="46.919417" lon="-96.765298">
				 <ele>273.6</ele>
			 </trkpt>
			 <trkpt lat="46.919399" lon="-96.766178">
				 <ele>273.6</ele>
			 </trkpt>
			 <trkpt lat="46.919396" lon="-96.76692">
				 <ele>273.6</ele>
			 </trkpt>
			 <trkpt lat="46.919222" lon="-96.766919">
				 <ele>273.6</ele>
			 </trkpt>
			 <trkpt lat="46.91776" lon="-96.766887">
				 <ele>273.5</ele>
			 </trkpt>
			 <trkpt lat="46.917517" lon="-96.766933">
				 <ele>273.5</ele>
			 </trkpt>
			 <trkpt lat="46.917171" lon="-96.767133">
				 <ele>273.2</ele>
			 </trkpt>
			 <trkpt lat="46.917071" lon="-96.767214">
				 <ele>273.1</ele>
			 </trkpt>
			 <trkpt lat="46.91697" lon="-96.767317">
				 <ele>273</ele>
			 </trkpt>
			 <trkpt lat="46.916859" lon="-96.767466">
				 <ele>272.8</ele>
			 </trkpt>
			 <trkpt lat="46.91677" lon="-96.767616">
				 <ele>272.7</ele>
			 </trkpt>
			 <trkpt lat="46.916659" lon="-96.76785">
				 <ele>272.6</ele>
			 </trkpt>
			 <trkpt lat="46.916594" lon="-96.768028">
				 <ele>272.5</ele>
			 </trkpt>
			 <trkpt lat="46.916533" lon="-96.76823">
				 <ele>272.5</ele>
			 </trkpt>
			 <trkpt lat="46.916488" lon="-96.768466">
				 <ele>272.6</ele>
			 </trkpt>
			 <trkpt lat="46.916461" lon="-96.768955">
				 <ele>272.8</ele>
			 </trkpt>
			 <trkpt lat="46.916454" lon="-96.770839">
				 <ele>272.9</ele>
			 </trkpt>
			 <trkpt lat="46.916444" lon="-96.771419">
				 <ele>273</ele>
			 </trkpt>
			 <trkpt lat="46.91647" lon="-96.77143">
				 <ele>273.1</ele>
			 </trkpt>
			 <trkpt lat="46.91638" lon="-96.77148">
				 <ele>273.1</ele>
			 </trkpt>
			 <trkpt lat="46.91514" lon="-96.77152">
				 <ele>273.3</ele>
			 </trkpt>
			 <trkpt lat="46.91515" lon="-96.77095">
				 <ele>273.5</ele>
			 </trkpt>
			 <trkpt lat="46.91515" lon="-96.77053">
				 <ele>273.7</ele>
			 </trkpt>
			 <trkpt lat="46.91511" lon="-96.77019">
				 <ele>273.9</ele>
			 </trkpt>
			 <trkpt lat="46.91507" lon="-96.77008">
				 <ele>273.8</ele>
			 </trkpt>
			 <trkpt lat="46.91481" lon="-96.76961">
				 <ele>273.7</ele>
			 </trkpt>
			 <trkpt lat="46.91476" lon="-96.76948">
				 <ele>273.6</ele>
			 </trkpt>
			 <trkpt lat="46.91467" lon="-96.76903">
				 <ele>273.6</ele>
			 </trkpt>
			 <trkpt lat="46.91461" lon="-96.76768">
				 <ele>273.7</ele>
			 </trkpt>
			 <trkpt lat="46.91452" lon="-96.76737">
				 <ele>273.8</ele>
			 </trkpt>
			 <trkpt lat="46.91433" lon="-96.76714">
				 <ele>274</ele>
			 </trkpt>
			 <trkpt lat="46.914188" lon="-96.767062">
				 <ele>274.1</ele>
			 </trkpt>
			 <trkpt lat="46.914065" lon="-96.767076">
				 <ele>274.1</ele>
			 </trkpt>
			 <trkpt lat="46.913843" lon="-96.767139">
				 <ele>274</ele>
			 </trkpt>
			 <trkpt lat="46.913532" lon="-96.767342">
				 <ele>274</ele>
			 </trkpt>
			 <trkpt lat="46.913306" lon="-96.767505">
				 <ele>274</ele>
			 </trkpt>
			 <trkpt lat="46.913036" lon="-96.767651">
				 <ele>274</ele>
			 </trkpt>
			 <trkpt lat="46.912837" lon="-96.76793">
				 <ele>274</ele>
			 </trkpt>
			 <trkpt lat="46.912612" lon="-96.768418">
				 <ele>274</ele>
			 </trkpt>
			 <trkpt lat="46.912504" lon="-96.768622">
				 <ele>274</ele>
			 </trkpt>
			 <trkpt lat="46.912438" lon="-96.768715">
				 <ele>274</ele>
			 </trkpt>
			 <trkpt lat="46.912353" lon="-96.768772">
				 <ele>274</ele>
			 </trkpt>
			 <trkpt lat="46.912205" lon="-96.768824">
				 <ele>274.1</ele>
			 </trkpt>
			 <trkpt lat="46.911651" lon="-96.768826">
				 <ele>274.1</ele>
			 </trkpt>
			 <trkpt lat="46.911653" lon="-96.768619">
				 <ele>274.1</ele>
			 </trkpt>
			 <trkpt lat="46.911636" lon="-96.768345">
				 <ele>274.1</ele>
			 </trkpt>
			 <trkpt lat="46.911605" lon="-96.768221">
				 <ele>274</ele>
			 </trkpt>
			 <trkpt lat="46.911404" lon="-96.76788">
				 <ele>273.9</ele>
			 </trkpt>
			 <trkpt lat="46.911074" lon="-96.767362">
				 <ele>273.8</ele>
			 </trkpt>
			 <trkpt lat="46.910981" lon="-96.767215">
				 <ele>273.8</ele>
			 </trkpt>
			 <trkpt lat="46.910672" lon="-96.767073">
				 <ele>273.8</ele>
			 </trkpt>
			 <trkpt lat="46.910072" lon="-96.766829">
				 <ele>273.8</ele>
			 </trkpt>
			 <trkpt lat="46.90972" lon="-96.766893">
				 <ele>273.9</ele>
			 </trkpt>
			 <trkpt lat="46.909409" lon="-96.767031">
				 <ele>273.9</ele>
			 </trkpt>
			 <trkpt lat="46.909161" lon="-96.767208">
				 <ele>274</ele>
			 </trkpt>
			 <trkpt lat="46.909047" lon="-96.767315">
				 <ele>274</ele>
			 </trkpt>
			 <trkpt lat="46.908893" lon="-96.767468">
				 <ele>273.9</ele>
			 </trkpt>
			 <trkpt lat="46.908814" lon="-96.767576">
				 <ele>273.8</ele>
			 </trkpt>
			 <trkpt lat="46.908743" lon="-96.767674">
				 <ele>273.6</ele>
			 </trkpt>
			 <trkpt lat="46.908577" lon="-96.767956">
				 <ele>273.5</ele>
			 </trkpt>
			 <trkpt lat="46.90832" lon="-96.768508">
				 <ele>273.5</ele>
			 </trkpt>
			 <trkpt lat="46.908019" lon="-96.769194">
				 <ele>273.5</ele>
			 </trkpt>
			 <trkpt lat="46.907868" lon="-96.769633">
				 <ele>273.5</ele>
			 </trkpt>
			 <trkpt lat="46.907772" lon="-96.769945">
				 <ele>273.3</ele>
			 </trkpt>
			 <trkpt lat="46.907741" lon="-96.770437">
				 <ele>273.1</ele>
			 </trkpt>
			 <trkpt lat="46.90776" lon="-96.772783">
				 <ele>272.9</ele>
			 </trkpt>
			 <trkpt lat="46.907779" lon="-96.774149">
				 <ele>272.9</ele>
			 </trkpt>
			 <trkpt lat="46.907777" lon="-96.775024">
				 <ele>273</ele>
			 </trkpt>
			 <trkpt lat="46.9078" lon="-96.775187">
				 <ele>273.2</ele>
			 </trkpt>
			 <trkpt lat="46.907871" lon="-96.775358">
				 <ele>273.5</ele>
			 </trkpt>
			 <trkpt lat="46.907928" lon="-96.775427">
				 <ele>273.8</ele>
			 </trkpt>
			 <trkpt lat="46.907993" lon="-96.775461">
				 <ele>273.8</ele>
			 </trkpt>
			 <trkpt lat="46.908105" lon="-96.77548">
				 <ele>273.7</ele>
			 </trkpt>
			 <trkpt lat="46.908212" lon="-96.775481">
				 <ele>273.8</ele>
			 </trkpt>
			 <trkpt lat="46.90827" lon="-96.775646">
				 <ele>274.1</ele>
			 </trkpt>
			 <trkpt lat="46.908273" lon="-96.776659">
				 <ele>274.4</ele>
			 </trkpt>
			 <trkpt lat="46.908218" lon="-96.77683">
				 <ele>274.5</ele>
			 </trkpt>
			 <trkpt lat="46.908219" lon="-96.78289">
				 <ele>274.7</ele>
			 </trkpt>
			 <trkpt lat="46.90774" lon="-96.78288">
				 <ele>274.9</ele>
			 </trkpt>
			 <trkpt lat="46.90646" lon="-96.78288">
				 <ele>275.2</ele>
			 </trkpt>
			 <trkpt lat="46.90476" lon="-96.78286">
				 <ele>275.5</ele>
			 </trkpt>
			 <trkpt lat="46.90303" lon="-96.78293">
				 <ele>275.7</ele>
			 </trkpt>
			 <trkpt lat="46.90121" lon="-96.78297">
				 <ele>275.8</ele>
			 </trkpt>
			 <trkpt lat="46.8975" lon="-96.78304">
				 <ele>276.1</ele>
			 </trkpt>
			 <trkpt lat="46.89612" lon="-96.78308">
				 <ele>276.2</ele>
			 </trkpt>
			 <trkpt lat="46.8953" lon="-96.78308">
				 <ele>276.2</ele>
			 </trkpt>
			 <trkpt lat="46.89518" lon="-96.78308">
				 <ele>276.3</ele>
			 </trkpt>
			 <trkpt lat="46.89518" lon="-96.78233">
				 <ele>276.5</ele>
			 </trkpt>
			 <trkpt lat="46.89518" lon="-96.7816">
				 <ele>276.5</ele>
			 </trkpt>
			 <trkpt lat="46.89518" lon="-96.78114">
				 <ele>276.6</ele>
			 </trkpt>
			 <trkpt lat="46.89515" lon="-96.78105">
				 <ele>276.8</ele>
			 </trkpt>
			 <trkpt lat="46.89491" lon="-96.78016">
				 <ele>276.7</ele>
			 </trkpt>
			 <trkpt lat="46.89491" lon="-96.77868">
				 <ele>276.6</ele>
			 </trkpt>
			 <trkpt lat="46.89477" lon="-96.77859">
				 <ele>276.7</ele>
			 </trkpt>
			 <trkpt lat="46.89467" lon="-96.77856">
				 <ele>276.4</ele>
			 </trkpt>
			 <trkpt lat="46.89414" lon="-96.77858">
				 <ele>276.5</ele>
			 </trkpt>
			 <trkpt lat="46.89197" lon="-96.77862">
				 <ele>276.5</ele>
			 </trkpt>
			 <trkpt lat="46.89031" lon="-96.77866">
				 <ele>276.5</ele>
			 </trkpt>
			 <trkpt lat="46.88823" lon="-96.77865">
				 <ele>276.3</ele>
			 </trkpt>
			 <trkpt lat="46.88583" lon="-96.77863">
				 <ele>276.1</ele>
			 </trkpt>
			 <trkpt lat="46.88402" lon="-96.77863">
				 <ele>275.9</ele>
			 </trkpt>
			 <trkpt lat="46.88236" lon="-96.77862">
				 <ele>275.6</ele>
			 </trkpt>
			 <trkpt lat="46.88218" lon="-96.77862">
				 <ele>275.5</ele>
			 </trkpt>
			 <trkpt lat="46.88218" lon="-96.77938">
				 <ele>275.2</ele>
			 </trkpt>
			 <trkpt lat="46.88218" lon="-96.78088">
				 <ele>274.9</ele>
			 </trkpt>
			 <trkpt lat="46.88219" lon="-96.78116">
				 <ele>275</ele>
			 </trkpt>
			 <trkpt lat="46.88219" lon="-96.78159">
				 <ele>274.6</ele>
			 </trkpt>
			 <trkpt lat="46.88183" lon="-96.7816">
				 <ele>274.4</ele>
			 </trkpt>
			 <trkpt lat="46.88153" lon="-96.7816">
				 <ele>274.2</ele>
			 </trkpt>
			 <trkpt lat="46.88098" lon="-96.78162">
				 <ele>274.1</ele>
			 </trkpt>
			 <trkpt lat="46.88076" lon="-96.78164">
				 <ele>274</ele>
			 </trkpt>
			 <trkpt lat="46.88067" lon="-96.78168">
				 <ele>273.8</ele>
			 </trkpt>
			 <trkpt lat="46.8806" lon="-96.78178">
				 <ele>273.5</ele>
			 </trkpt>
			 <trkpt lat="46.88042" lon="-96.78193">
				 <ele>273.2</ele>
			 </trkpt>
			 <trkpt lat="46.88015" lon="-96.78216">
				 <ele>273.1</ele>
			 </trkpt>
			 <trkpt lat="46.88008" lon="-96.78219">
				 <ele>272.9</ele>
			 </trkpt>
			 <trkpt lat="46.87993" lon="-96.78227">
				 <ele>272.8</ele>
			 </trkpt>
			 <trkpt lat="46.87968" lon="-96.78232">
				 <ele>272.7</ele>
			 </trkpt>
			 <trkpt lat="46.87937" lon="-96.78234">
				 <ele>272.6</ele>
			 </trkpt>
			 <trkpt lat="46.8791" lon="-96.78233">
				 <ele>272.5</ele>
			 </trkpt>
			 <trkpt lat="46.87895" lon="-96.78233">
				 <ele>272.3</ele>
			 </trkpt>
			 <trkpt lat="46.87867" lon="-96.78229">
				 <ele>272.2</ele>
			 </trkpt>
			 <trkpt lat="46.87852" lon="-96.78226">
				 <ele>272.2</ele>
			 </trkpt>
			 <trkpt lat="46.87831" lon="-96.78213">
				 <ele>272.3</ele>
			 </trkpt>
			 <trkpt lat="46.87786" lon="-96.78186">
				 <ele>272.5</ele>
			 </trkpt>
			 <trkpt lat="46.87773" lon="-96.78179">
				 <ele>272.6</ele>
			 </trkpt>
			 <trkpt lat="46.877344" lon="-96.781637">
				 <ele>272.8</ele>
			 </trkpt>
			 <trkpt lat="46.877153" lon="-96.781637">
				 <ele>273.1</ele>
			 </trkpt>
			 <trkpt lat="46.87701" lon="-96.781637">
				 <ele>273.5</ele>
			 </trkpt>
			 <trkpt lat="46.876937" lon="-96.78175">
				 <ele>273.8</ele>
			 </trkpt>
			 <trkpt lat="46.876943" lon="-96.782408">
				 <ele>274.3</ele>
			 </trkpt>
			 <trkpt lat="46.876949" lon="-96.783066">
				 <ele>274.6</ele>
			 </trkpt>
			 <trkpt lat="46.87695" lon="-96.783201">
				 <ele>274.9</ele>
			 </trkpt>
			 <trkpt lat="46.876948" lon="-96.783858">
				 <ele>275.4</ele>
			 </trkpt>
			 <trkpt lat="46.876946" lon="-96.784516">
				 <ele>275.7</ele>
			 </trkpt>
			 <trkpt lat="46.876943" lon="-96.785174">
				 <ele>276.2</ele>
			 </trkpt>
			 <trkpt lat="46.876941" lon="-96.785832">
				 <ele>276.6</ele>
			 </trkpt>
			 <trkpt lat="46.876939" lon="-96.78649">
				 <ele>277.1</ele>
			 </trkpt>
			 <trkpt lat="46.876937" lon="-96.787147">
				 <ele>277.5</ele>
			 </trkpt>
			 <trkpt lat="46.876934" lon="-96.787805">
				 <ele>277.5</ele>
			 </trkpt>
			 <trkpt lat="46.876932" lon="-96.788463">
				 <ele>277.9</ele>
			 </trkpt>
			 <trkpt lat="46.87693" lon="-96.789121">
				 <ele>278.2</ele>
			 </trkpt>
			 <trkpt lat="46.876928" lon="-96.789779">
				 <ele>278.4</ele>
			 </trkpt>
			 <trkpt lat="46.876927" lon="-96.789902">
				 <ele>278.4</ele>
			 </trkpt>
			 <trkpt lat="46.877007" lon="-96.790549">
				 <ele>278</ele>
			 </trkpt>
			 <trkpt lat="46.877086" lon="-96.791197">
				 <ele>277.8</ele>
			 </trkpt>
			 <trkpt lat="46.877165" lon="-96.791844">
				 <ele>277.5</ele>
			 </trkpt>
			 <trkpt lat="46.877245" lon="-96.792492">
				 <ele>277.2</ele>
			 </trkpt>
			 <trkpt lat="46.877324" lon="-96.793139">
				 <ele>276.7</ele>
			 </trkpt>
			 <trkpt lat="46.877352" lon="-96.793369">
				 <ele>276.3</ele>
			 </trkpt>
			 <trkpt lat="46.87731" lon="-96.79396">
				 <ele>275.9</ele>
			 </trkpt>
			 <trkpt lat="46.87686" lon="-96.793977">
				 <ele>275.5</ele>
			 </trkpt>
			 <trkpt lat="46.876411" lon="-96.793993">
				 <ele>274.8</ele>
			 </trkpt>
			 <trkpt lat="46.875961" lon="-96.79401">
				 <ele>274.5</ele>
			 </trkpt>
			 <trkpt lat="46.875512" lon="-96.794027">
				 <ele>274.5</ele>
			 </trkpt>
			 <trkpt lat="46.875062" lon="-96.794043">
				 <ele>274.7</ele>
			 </trkpt>
			 <trkpt lat="46.874796" lon="-96.794053">
				 <ele>274.8</ele>
			 </trkpt>
			 <trkpt lat="46.874347" lon="-96.794102">
				 <ele>274.8</ele>
			 </trkpt>
			 <trkpt lat="46.873899" lon="-96.79415">
				 <ele>274.9</ele>
			 </trkpt>
			 <trkpt lat="46.873754" lon="-96.794166">
				 <ele>275.1</ele>
			 </trkpt>
			 <trkpt lat="46.873306" lon="-96.794222">
				 <ele>274.9</ele>
			 </trkpt>
			 <trkpt lat="46.872858" lon="-96.794278">
				 <ele>274.6</ele>
			 </trkpt>
			 <trkpt lat="46.87268" lon="-96.7943">
				 <ele>274.4</ele>
			 </trkpt>
			 <trkpt lat="46.87267" lon="-96.79416">
				 <ele>274.2</ele>
			 </trkpt>
			 <trkpt lat="46.87245" lon="-96.79067">
				 <ele>273.8</ele>
			 </trkpt>
			 <trkpt lat="46.87241" lon="-96.79008">
				 <ele>273.5</ele>
			 </trkpt>
			 <trkpt lat="46.8724" lon="-96.78981">
				 <ele>273.1</ele>
			 </trkpt>
			 <trkpt lat="46.87245" lon="-96.78981">
				 <ele>272.7</ele>
			 </trkpt>
			 <trkpt lat="46.87249" lon="-96.7898">
				 <ele>272.5</ele>
			 </trkpt>
			 <trkpt lat="46.87254" lon="-96.78979">
				 <ele>272.3</ele>
			 </trkpt>
			 <trkpt lat="46.87259" lon="-96.78979">
				 <ele>272.3</ele>
			 </trkpt>
			 <trkpt lat="46.87277" lon="-96.78976">
				 <ele>272.5</ele>
			 </trkpt>
			 <trkpt lat="46.87265" lon="-96.78978">
				 <ele>272.5</ele>
			 </trkpt>
			 <trkpt lat="46.87288" lon="-96.78975">
				 <ele>272.6</ele>
			 </trkpt>
			 <trkpt lat="46.87303" lon="-96.78973">
				 <ele>272.5</ele>
			 </trkpt>
			 <trkpt lat="46.87343" lon="-96.78967">
				 <ele>272.5</ele>
			 </trkpt>
			 <trkpt lat="46.87342" lon="-96.78942">
				 <ele>272.3</ele>
			 </trkpt>
			 <trkpt lat="46.8734" lon="-96.78907">
				 <ele>272.1</ele>
			 </trkpt>
			 <trkpt lat="46.87338" lon="-96.78868">
				 <ele>272</ele>
			 </trkpt>
			 <trkpt lat="46.87336" lon="-96.78807">
				 <ele>271.9</ele>
			 </trkpt>
			 <trkpt lat="46.87329" lon="-96.78807">
				 <ele>271.8</ele>
			 </trkpt>
			 <trkpt lat="46.87326" lon="-96.78803">
				 <ele>271.5</ele>
			 </trkpt>
			 <trkpt lat="46.873242" lon="-96.788061">
				 <ele>271.5</ele>
			 </trkpt>
			 <trkpt lat="46.873216" lon="-96.787954">
				 <ele>271.6</ele>
			 </trkpt>
			 <trkpt lat="46.873055" lon="-96.787884">
				 <ele>271.8</ele>
			 </trkpt>
			 <trkpt lat="46.872925" lon="-96.787863">
				 <ele>272.3</ele>
			 </trkpt>
			 <trkpt lat="46.87289" lon="-96.78789">
				 <ele>272.8</ele>
			 </trkpt>
			 <trkpt lat="46.87279" lon="-96.78765">
				 <ele>273.6</ele>
			 </trkpt>
			 <trkpt lat="46.8726" lon="-96.78742">
				 <ele>274.4</ele>
			 </trkpt>
			 <trkpt lat="46.87228" lon="-96.78718">
				 <ele>274.9</ele>
			 </trkpt>
			 <trkpt lat="46.87221" lon="-96.78714">
				 <ele>275.2</ele>
			 </trkpt>
			 <trkpt lat="46.87209" lon="-96.78703">
				 <ele>275.2</ele>
			 </trkpt>
			 <trkpt lat="46.87172" lon="-96.78661">
				 <ele>275.1</ele>
			 </trkpt>
			 <trkpt lat="46.87177" lon="-96.78649">
				 <ele>274.9</ele>
			 </trkpt>
			 <trkpt lat="46.8718" lon="-96.78642">
				 <ele>274.7</ele>
			 </trkpt>
			 <trkpt lat="46.87179" lon="-96.78626">
				 <ele>274.5</ele>
			 </trkpt>
			 <trkpt lat="46.87175" lon="-96.78606">
				 <ele>274.1</ele>
			 </trkpt>
			 <trkpt lat="46.87177" lon="-96.78595">
				 <ele>273.6</ele>
			 </trkpt>
			 <trkpt lat="46.87182" lon="-96.78582">
				 <ele>272.9</ele>
			 </trkpt>
			 <trkpt lat="46.8719" lon="-96.78567">
				 <ele>272.3</ele>
			 </trkpt>
			 <trkpt lat="46.87198" lon="-96.78557">
				 <ele>271.6</ele>
			 </trkpt>
			 <trkpt lat="46.87202" lon="-96.7855">
				 <ele>271.3</ele>
			 </trkpt>
			 <trkpt lat="46.87201" lon="-96.78538">
				 <ele>271.3</ele>
			 </trkpt>
			 <trkpt lat="46.871979" lon="-96.785142">
				 <ele>271.3</ele>
			 </trkpt>
			 <trkpt lat="46.872003" lon="-96.784975">
				 <ele>271.2</ele>
			 </trkpt>
			 <trkpt lat="46.872014" lon="-96.784808">
				 <ele>271.2</ele>
			 </trkpt>
			 <trkpt lat="46.872059" lon="-96.783769">
				 <ele>271.2</ele>
			 </trkpt>
			 <trkpt lat="46.872123" lon="-96.782495">
				 <ele>271.2</ele>
			 </trkpt>
			 <trkpt lat="46.872163" lon="-96.782237">
				 <ele>271.2</ele>
			 </trkpt>
			 <trkpt lat="46.872223" lon="-96.782032">
				 <ele>271.3</ele>
			 </trkpt>
			 <trkpt lat="46.87264" lon="-96.781233">
				 <ele>271.4</ele>
			 </trkpt>
			 <trkpt lat="46.872858" lon="-96.780853">
				 <ele>271.5</ele>
			 </trkpt>
			 <trkpt lat="46.872895" lon="-96.780788">
				 <ele>271.6</ele>
			 </trkpt>
			 <trkpt lat="46.873005" lon="-96.78065">
				 <ele>271.5</ele>
			 </trkpt>
			 <trkpt lat="46.87311" lon="-96.78058">
				 <ele>271.5</ele>
			 </trkpt>
			 <trkpt lat="46.873202" lon="-96.780542">
				 <ele>271.6</ele>
			 </trkpt>
			 <trkpt lat="46.873302" lon="-96.780516">
				 <ele>271.7</ele>
			 </trkpt>
			 <trkpt lat="46.873323" lon="-96.780492">
				 <ele>271.8</ele>
			 </trkpt>
			 <trkpt lat="46.873431" lon="-96.780364">
				 <ele>272.1</ele>
			 </trkpt>
			 <trkpt lat="46.873555" lon="-96.780147">
				 <ele>272.3</ele>
			 </trkpt>
			 <trkpt lat="46.873588" lon="-96.780075">
				 <ele>272.3</ele>
			 </trkpt>
			 <trkpt lat="46.873603" lon="-96.780022">
				 <ele>272.4</ele>
			 </trkpt>
			 <trkpt lat="46.873688" lon="-96.779698">
				 <ele>272.5</ele>
			 </trkpt>
			 <trkpt lat="46.873688" lon="-96.779033">
				 <ele>272.4</ele>
			 </trkpt>
			 <trkpt lat="46.873706" lon="-96.778376">
				 <ele>272.4</ele>
			 </trkpt>
			 <trkpt lat="46.873724" lon="-96.777718">
				 <ele>272.8</ele>
			 </trkpt>
			 <trkpt lat="46.873735" lon="-96.777337">
				 <ele>273.5</ele>
			 </trkpt>
			 <trkpt lat="46.873737" lon="-96.776679">
				 <ele>273.8</ele>
			 </trkpt>
			 <trkpt lat="46.873738" lon="-96.776021">
				 <ele>274.2</ele>
			 </trkpt>
			 <trkpt lat="46.873739" lon="-96.775751">
				 <ele>274.5</ele>
			 </trkpt>
			 <trkpt lat="46.873727" lon="-96.775093">
				 <ele>274.9</ele>
			 </trkpt>
			 <trkpt lat="46.873714" lon="-96.774436">
				 <ele>275.4</ele>
			 </trkpt>
			 <trkpt lat="46.873705" lon="-96.773935">
				 <ele>275.5</ele>
			 </trkpt>
			 <trkpt lat="46.873659" lon="-96.773925">
				 <ele>275.6</ele>
			 </trkpt>
			 <trkpt lat="46.873218" lon="-96.773931">
				 <ele>275.6</ele>
			 </trkpt>
			 <trkpt lat="46.872777" lon="-96.773938">
				 <ele>275.5</ele>
			 </trkpt>
			 <trkpt lat="46.872778" lon="-96.774595">
				 <ele>275</ele>
			 </trkpt>
			 <trkpt lat="46.872779" lon="-96.775253">
				 <ele>274.3</ele>
			 </trkpt>
			 <trkpt lat="46.872779" lon="-96.775911">
				 <ele>273.7</ele>
			 </trkpt>
			 <trkpt lat="46.87278" lon="-96.776454">
				 <ele>273.3</ele>
			 </trkpt>
			 <trkpt lat="46.87279" lon="-96.77651">
				 <ele>272.7</ele>
			 </trkpt>
			 <trkpt lat="46.872804" lon="-96.776598">
				 <ele>272.2</ele>
			 </trkpt>
			 <trkpt lat="46.872852" lon="-96.776683">
				 <ele>271.7</ele>
			 </trkpt>
			 <trkpt lat="46.872964" lon="-96.776817">
				 <ele>271.5</ele>
			 </trkpt>
			 <trkpt lat="46.872725" lon="-96.777375">
				 <ele>271.3</ele>
			 </trkpt>
			 <trkpt lat="46.87253" lon="-96.77783">
				 <ele>271.4</ele>
			 </trkpt>
			 <trkpt lat="46.87234" lon="-96.77817">
				 <ele>271.4</ele>
			 </trkpt>
			 <trkpt lat="46.87222" lon="-96.77838">
				 <ele>271.4</ele>
			 </trkpt>
			 <trkpt lat="46.8721" lon="-96.77849">
				 <ele>271.5</ele>
			 </trkpt>
			 <trkpt lat="46.87197" lon="-96.7786">
				 <ele>271.5</ele>
			 </trkpt>
			 <trkpt lat="46.87188" lon="-96.77863">
				 <ele>271.5</ele>
			 </trkpt>
			 <trkpt lat="46.87159" lon="-96.77871">
				 <ele>271.6</ele>
			 </trkpt>
			 <trkpt lat="46.87135" lon="-96.77867">
				 <ele>271.8</ele>
			 </trkpt>
			 <trkpt lat="46.87071" lon="-96.77841">
				 <ele>272.1</ele>
			 </trkpt>
			 <trkpt lat="46.87052" lon="-96.77828">
				 <ele>272.4</ele>
			 </trkpt>
			 <trkpt lat="46.87019" lon="-96.77813">
				 <ele>272.7</ele>
			 </trkpt>
			 <trkpt lat="46.86977" lon="-96.77807">
				 <ele>273.1</ele>
			 </trkpt>
			 <trkpt lat="46.86954" lon="-96.77807">
				 <ele>273.5</ele>
			 </trkpt>
			 <trkpt lat="46.8693" lon="-96.77811">
				 <ele>273.8</ele>
			 </trkpt>
			 <trkpt lat="46.86922" lon="-96.77814">
				 <ele>274.3</ele>
			 </trkpt>
			 <trkpt lat="46.86915" lon="-96.77809">
				 <ele>274.8</ele>
			 </trkpt>
			 <trkpt lat="46.86903" lon="-96.77798">
				 <ele>275.3</ele>
			 </trkpt>
			 <trkpt lat="46.86893" lon="-96.77792">
				 <ele>275.6</ele>
			 </trkpt>
			 <trkpt lat="46.86864" lon="-96.77792">
				 <ele>275.9</ele>
			 </trkpt>
			 <trkpt lat="46.8683" lon="-96.77792">
				 <ele>276.1</ele>
			 </trkpt>
			 <trkpt lat="46.86828" lon="-96.77838">
				 <ele>276.1</ele>
			 </trkpt>
			 <trkpt lat="46.86827" lon="-96.77853">
				 <ele>276.1</ele>
			 </trkpt>
			 <trkpt lat="46.86822" lon="-96.7786">
				 <ele>276.1</ele>
			 </trkpt>
			 <trkpt lat="46.86818" lon="-96.77861">
				 <ele>276.3</ele>
			 </trkpt>
			 <trkpt lat="46.86804" lon="-96.77862">
				 <ele>276.7</ele>
			 </trkpt>
			 <trkpt lat="46.86726" lon="-96.77866">
				 <ele>277</ele>
			 </trkpt>
			 <trkpt lat="46.86674" lon="-96.77891">
				 <ele>277</ele>
			 </trkpt>
			 <trkpt lat="46.86516" lon="-96.77969">
				 <ele>277.1</ele>
			 </trkpt>
			 <trkpt lat="46.86435" lon="-96.78029">
				 <ele>277.2</ele>
			 </trkpt>
			 <trkpt lat="46.864" lon="-96.78069">
				 <ele>277.1</ele>
			 </trkpt>
			 <trkpt lat="46.86388" lon="-96.78076">
				 <ele>277</ele>
			 </trkpt>
			 <trkpt lat="46.86309" lon="-96.78067">
				 <ele>277.3</ele>
			 </trkpt>
			 <trkpt lat="46.86285" lon="-96.78056">
				 <ele>277.5</ele>
			 </trkpt>
			 <trkpt lat="46.86262" lon="-96.78049">
				 <ele>277.5</ele>
			 </trkpt>
			 <trkpt lat="46.86219" lon="-96.78045">
				 <ele>277.4</ele>
			 </trkpt>
			 <trkpt lat="46.86212" lon="-96.78044">
				 <ele>276.9</ele>
			 </trkpt>
			 <trkpt lat="46.86212" lon="-96.77945">
				 <ele>276.6</ele>
			 </trkpt>
			 <trkpt lat="46.86212" lon="-96.77941">
				 <ele>276.6</ele>
			 </trkpt>
			 <trkpt lat="46.8613" lon="-96.77942">
				 <ele>276.6</ele>
			 </trkpt>
			 <trkpt lat="46.86016" lon="-96.77944">
				 <ele>276.6</ele>
			 </trkpt>
			 <trkpt lat="46.86012" lon="-96.77936">
				 <ele>276.8</ele>
			 </trkpt>
			 <trkpt lat="46.85972" lon="-96.77862">
				 <ele>276.8</ele>
			 </trkpt>
			 <trkpt lat="46.8594" lon="-96.77812">
				 <ele>276.8</ele>
			 </trkpt>
			 <trkpt lat="46.85898" lon="-96.77767">
				 <ele>276.8</ele>
			 </trkpt>
			 <trkpt lat="46.85849" lon="-96.77723">
				 <ele>277</ele>
			 </trkpt>
			 <trkpt lat="46.85851" lon="-96.77669">
				 <ele>277.4</ele>
			 </trkpt>
			 <trkpt lat="46.85824" lon="-96.77614">
				 <ele>277.7</ele>
			 </trkpt>
			 <trkpt lat="46.85777" lon="-96.77515">
				 <ele>277.6</ele>
			 </trkpt>
			 <trkpt lat="46.85707" lon="-96.77512">
				 <ele>277.6</ele>
			 </trkpt>
			 <trkpt lat="46.8567" lon="-96.77509">
				 <ele>277.6</ele>
			 </trkpt>
			 <trkpt lat="46.85664" lon="-96.77506">
				 <ele>277.5</ele>
			 </trkpt>
			 <trkpt lat="46.85661" lon="-96.77499">
				 <ele>277.2</ele>
			 </trkpt>
			 <trkpt lat="46.85661" lon="-96.77367">
				 <ele>277.1</ele>
			 </trkpt>
			 <trkpt lat="46.85498" lon="-96.77362">
				 <ele>276.9</ele>
			 </trkpt>
			 <trkpt lat="46.85491" lon="-96.77364">
				 <ele>276.7</ele>
			 </trkpt>
			 <trkpt lat="46.853335" lon="-96.773669">
				 <ele>276.5</ele>
			 </trkpt>
			 <trkpt lat="46.853333" lon="-96.775084">
				 <ele>276.2</ele>
			 </trkpt>
			 <trkpt lat="46.853302" lon="-96.773693">
				 <ele>275.9</ele>
			 </trkpt>
			 <trkpt lat="46.85334" lon="-96.77355">
				 <ele>275.9</ele>
			 </trkpt>
			 <trkpt lat="46.85344" lon="-96.77355">
				 <ele>275.8</ele>
			 </trkpt>
			 <trkpt lat="46.85414" lon="-96.77353">
				 <ele>275.7</ele>
			 </trkpt>
			 <trkpt lat="46.85504" lon="-96.77351">
				 <ele>276</ele>
			 </trkpt>
			 <trkpt lat="46.85604" lon="-96.77354">
				 <ele>276.4</ele>
			 </trkpt>
			 <trkpt lat="46.85657" lon="-96.77355">
				 <ele>276.7</ele>
			 </trkpt>
			 <trkpt lat="46.85661" lon="-96.77355">
				 <ele>277</ele>
			 </trkpt>
			 <trkpt lat="46.85661" lon="-96.77369">
				 <ele>277.3</ele>
			 </trkpt>
			 <trkpt lat="46.85661" lon="-96.77392">
				 <ele>277.5</ele>
			 </trkpt>
			 <trkpt lat="46.85661" lon="-96.77499">
				 <ele>277.5</ele>
			 </trkpt>
			 <trkpt lat="46.85664" lon="-96.77506">
				 <ele>277.5</ele>
			 </trkpt>
			 <trkpt lat="46.8567" lon="-96.77509">
				 <ele>277.5</ele>
			 </trkpt>
			 <trkpt lat="46.85675" lon="-96.7751">
				 <ele>277.7</ele>
			 </trkpt>
			 <trkpt lat="46.85777" lon="-96.77515">
				 <ele>277.8</ele>
			 </trkpt>
			 <trkpt lat="46.85791" lon="-96.77522">
				 <ele>277.7</ele>
			 </trkpt>
			 <trkpt lat="46.85839" lon="-96.77623">
				 <ele>277.5</ele>
			 </trkpt>
			 <trkpt lat="46.85847" lon="-96.77638">
				 <ele>277.4</ele>
			 </trkpt>
			 <trkpt lat="46.85851" lon="-96.77669">
				 <ele>277.1</ele>
			 </trkpt>
			 <trkpt lat="46.85849" lon="-96.77723">
				 <ele>276.7</ele>
			 </trkpt>
			 <trkpt lat="46.8588" lon="-96.77751">
				 <ele>276.5</ele>
			 </trkpt>
			 <trkpt lat="46.85898" lon="-96.77767">
				 <ele>276.6</ele>
			 </trkpt>
			 <trkpt lat="46.8594" lon="-96.77812">
				 <ele>276.7</ele>
			 </trkpt>
			 <trkpt lat="46.85997" lon="-96.77905">
				 <ele>276.7</ele>
			 </trkpt>
			 <trkpt lat="46.86016" lon="-96.77944">
				 <ele>276.6</ele>
			 </trkpt>
			 <trkpt lat="46.86065" lon="-96.77943">
				 <ele>276.6</ele>
			 </trkpt>
			 <trkpt lat="46.86212" lon="-96.77941">
				 <ele>276.6</ele>
			 </trkpt>
			 <trkpt lat="46.86212" lon="-96.77971">
				 <ele>276.6</ele>
			 </trkpt>
			 <trkpt lat="46.86212" lon="-96.78044">
				 <ele>276.6</ele>
			 </trkpt>
			 <trkpt lat="46.86243" lon="-96.78046">
				 <ele>277</ele>
			 </trkpt>
			 <trkpt lat="46.86262" lon="-96.78049">
				 <ele>277.5</ele>
			 </trkpt>
			 <trkpt lat="46.86285" lon="-96.78056">
				 <ele>277.5</ele>
			 </trkpt>
			 <trkpt lat="46.86309" lon="-96.78067">
				 <ele>277.4</ele>
			 </trkpt>
			 <trkpt lat="46.8635" lon="-96.78072">
				 <ele>277.3</ele>
			 </trkpt>
			 <trkpt lat="46.86388" lon="-96.78076">
				 <ele>277.3</ele>
			 </trkpt>
			 <trkpt lat="46.864" lon="-96.78069">
				 <ele>277.4</ele>
			 </trkpt>
			 <trkpt lat="46.86435" lon="-96.78029">
				 <ele>277.2</ele>
			 </trkpt>
			 <trkpt lat="46.86516" lon="-96.77969">
				 <ele>277</ele>
			 </trkpt>
			 <trkpt lat="46.86515" lon="-96.77961">
				 <ele>276.9</ele>
			 </trkpt>
			 <trkpt lat="46.86516" lon="-96.77969">
				 <ele>277.1</ele>
			 </trkpt>
			 <trkpt lat="46.8662" lon="-96.77917">
				 <ele>277</ele>
			 </trkpt>
			 <trkpt lat="46.86692" lon="-96.77882">
				 <ele>276.7</ele>
			 </trkpt>
			 <trkpt lat="46.86726" lon="-96.77866">
				 <ele>276.9</ele>
			 </trkpt>
			 <trkpt lat="46.86726" lon="-96.77857">
				 <ele>277.2</ele>
			 </trkpt>
			 <trkpt lat="46.86721" lon="-96.77107">
				 <ele>277.3</ele>
			 </trkpt>
			 <trkpt lat="46.86721" lon="-96.77093">
				 <ele>277.3</ele>
			 </trkpt>
			 <trkpt lat="46.86629" lon="-96.77097">
				 <ele>277.1</ele>
			 </trkpt>
			 <trkpt lat="46.86588" lon="-96.77099">
				 <ele>277.2</ele>
			 </trkpt>
			 <trkpt lat="46.86572" lon="-96.771">
				 <ele>277.3</ele>
			 </trkpt>
			 <trkpt lat="46.86545" lon="-96.77107">
				 <ele>277.5</ele>
			 </trkpt>
			 <trkpt lat="46.86518" lon="-96.77113">
				 <ele>277.3</ele>
			 </trkpt>
			 <trkpt lat="46.86507" lon="-96.7711">
				 <ele>277.1</ele>
			 </trkpt>
			 <trkpt lat="46.86504" lon="-96.77109">
				 <ele>277.2</ele>
			 </trkpt>
			 <trkpt lat="46.86504" lon="-96.77098">
				 <ele>277.1</ele>
			 </trkpt>
			 <trkpt lat="46.865036" lon="-96.769835">
				 <ele>277.1</ele>
			 </trkpt>
			 <trkpt lat="46.865027" lon="-96.769582">
				 <ele>277.3</ele>
			 </trkpt>
			 <trkpt lat="46.86495" lon="-96.7696">
				 <ele>277.5</ele>
			 </trkpt>
			 <trkpt lat="46.86436" lon="-96.7696">
				 <ele>277.5</ele>
			 </trkpt>
			 <trkpt lat="46.86429" lon="-96.76954">
				 <ele>277.6</ele>
			 </trkpt>
			 <trkpt lat="46.86427" lon="-96.76945">
				 <ele>278</ele>
			 </trkpt>
			 <trkpt lat="46.86429" lon="-96.76934">
				 <ele>278.3</ele>
			 </trkpt>
			 <trkpt lat="46.86437" lon="-96.76931">
				 <ele>278.7</ele>
			 </trkpt>
			 <trkpt lat="46.86444" lon="-96.76931">
				 <ele>279.3</ele>
			 </trkpt>
			 <trkpt lat="46.86492" lon="-96.76931">
				 <ele>279.7</ele>
			 </trkpt>
			 <trkpt lat="46.86532" lon="-96.76931">
				 <ele>280.3</ele>
			 </trkpt>
			 <trkpt lat="46.86552" lon="-96.76931">
				 <ele>280.7</ele>
			 </trkpt>
			 <trkpt lat="46.86557" lon="-96.76938">
				 <ele>281</ele>
			 </trkpt>
			 <trkpt lat="46.86561" lon="-96.76947">
				 <ele>281.5</ele>
			 </trkpt>
			 <trkpt lat="46.86563" lon="-96.76942">
				 <ele>281.8</ele>
			 </trkpt>
			 <trkpt lat="46.86574" lon="-96.76941">
				 <ele>282</ele>
			 </trkpt>
			 <trkpt lat="46.86642" lon="-96.7694">
				 <ele>281.9</ele>
			 </trkpt>
			 <trkpt lat="46.86665" lon="-96.7694">
				 <ele>281.8</ele>
			 </trkpt>
			 <trkpt lat="46.86663" lon="-96.76944">
				 <ele>281.6</ele>
			 </trkpt>
			 <trkpt lat="46.86676" lon="-96.76964">
				 <ele>281.5</ele>
			 </trkpt>
			 <trkpt lat="46.8669" lon="-96.76986">
				 <ele>281.3</ele>
			 </trkpt>
			 <trkpt lat="46.866986" lon="-96.769866">
				 <ele>280.9</ele>
			 </trkpt>
			 <trkpt lat="46.867031" lon="-96.769858">
				 <ele>280.3</ele>
			 </trkpt>
			 <trkpt lat="46.867058" lon="-96.769823">
				 <ele>279.9</ele>
			 </trkpt>
			 <trkpt lat="46.867121" lon="-96.769661">
				 <ele>279.5</ele>
			 </trkpt>
			 <trkpt lat="46.867211" lon="-96.769438">
				 <ele>279.3</ele>
			 </trkpt>
			 <trkpt lat="46.86721" lon="-96.76738">
				 <ele>279.3</ele>
			 </trkpt>
			 <trkpt lat="46.8672" lon="-96.76373">
				 <ele>279.9</ele>
			 </trkpt>
			 <trkpt lat="46.8672" lon="-96.7629">
				 <ele>280.6</ele>
			 </trkpt>
			 <trkpt lat="46.86715" lon="-96.76272">
				 <ele>281.4</ele>
			 </trkpt>
			 <trkpt lat="46.8671" lon="-96.76273">
				 <ele>281.9</ele>
			 </trkpt>
			 <trkpt lat="46.8671" lon="-96.76267">
				 <ele>282.5</ele>
			 </trkpt>
			 <trkpt lat="46.86702" lon="-96.76214">
				 <ele>283.1</ele>
			 </trkpt>
			 <trkpt lat="46.86696" lon="-96.76198">
				 <ele>283.5</ele>
			 </trkpt>
			 <trkpt lat="46.86681" lon="-96.76158">
				 <ele>283.9</ele>
			 </trkpt>
			 <trkpt lat="46.86677" lon="-96.76149">
				 <ele>284.3</ele>
			 </trkpt>
			 <trkpt lat="46.86677" lon="-96.76139">
				 <ele>284.5</ele>
			 </trkpt>
			 <trkpt lat="46.86677" lon="-96.76106">
				 <ele>284.6</ele>
			 </trkpt>
			 <trkpt lat="46.86677" lon="-96.76049">
				 <ele>284.2</ele>
			 </trkpt>
			 <trkpt lat="46.86677" lon="-96.76032">
				 <ele>283.6</ele>
			 </trkpt>
			 <trkpt lat="46.86677" lon="-96.76009">
				 <ele>283.1</ele>
			 </trkpt>
			 <trkpt lat="46.86705" lon="-96.7601">
				 <ele>282.6</ele>
			 </trkpt>
			 <trkpt lat="46.86717" lon="-96.7601">
				 <ele>282.4</ele>
			 </trkpt>
			 <trkpt lat="46.86757" lon="-96.76009">
				 <ele>282.1</ele>
			 </trkpt>
			 <trkpt lat="46.86757" lon="-96.76134">
				 <ele>282.2</ele>
			 </trkpt>
			 <trkpt lat="46.86757" lon="-96.76152">
				 <ele>281.9</ele>
			 </trkpt>
			 <trkpt lat="46.86754" lon="-96.76152">
				 <ele>281.6</ele>
			 </trkpt>
			 <trkpt lat="46.86743" lon="-96.76182">
				 <ele>281.4</ele>
			 </trkpt>
			 <trkpt lat="46.86738" lon="-96.76195">
				 <ele>281.1</ele>
			 </trkpt>
			 <trkpt lat="46.86731" lon="-96.76213">
				 <ele>280.7</ele>
			 </trkpt>
			 <trkpt lat="46.86731" lon="-96.76262">
				 <ele>280.6</ele>
			 </trkpt>
			 <trkpt lat="46.86731" lon="-96.76272">
				 <ele>280.5</ele>
			 </trkpt>
			 <trkpt lat="46.8672" lon="-96.76272">
				 <ele>280.4</ele>
			 </trkpt>
			 <trkpt lat="46.8672" lon="-96.7629">
				 <ele>279.7</ele>
			 </trkpt>
			 <trkpt lat="46.8672" lon="-96.76373">
				 <ele>278.9</ele>
			 </trkpt>
			 <trkpt lat="46.86721" lon="-96.7688">
				 <ele>278.3</ele>
			 </trkpt>
			 <trkpt lat="46.86721" lon="-96.77037">
				 <ele>278.1</ele>
			 </trkpt>
			 <trkpt lat="46.86722" lon="-96.77436">
				 <ele>277.8</ele>
			 </trkpt>
			 <trkpt lat="46.86725" lon="-96.77802">
				 <ele>277.6</ele>
			 </trkpt>
			 <trkpt lat="46.86726" lon="-96.77866">
				 <ele>277.5</ele>
			 </trkpt>
			 <trkpt lat="46.86731" lon="-96.77866">
				 <ele>277.4</ele>
			 </trkpt>
			 <trkpt lat="46.86814" lon="-96.77862">
				 <ele>276.9</ele>
			 </trkpt>
			 <trkpt lat="46.86822" lon="-96.7786">
				 <ele>276.4</ele>
			 </trkpt>
			 <trkpt lat="46.86828" lon="-96.77846">
				 <ele>275.9</ele>
			 </trkpt>
			 <trkpt lat="46.86828" lon="-96.77792">
				 <ele>275.6</ele>
			 </trkpt>
			 <trkpt lat="46.86893" lon="-96.77792">
				 <ele>275.4</ele>
			 </trkpt>
			 <trkpt lat="46.86913" lon="-96.77807">
				 <ele>274.9</ele>
			 </trkpt>
			 <trkpt lat="46.86922" lon="-96.77814">
				 <ele>274.3</ele>
			 </trkpt>
			 <trkpt lat="46.86934" lon="-96.7781">
				 <ele>273.8</ele>
			 </trkpt>
			 <trkpt lat="46.86954" lon="-96.77807">
				 <ele>273.5</ele>
			 </trkpt>
			 <trkpt lat="46.86977" lon="-96.77807">
				 <ele>272.9</ele>
			 </trkpt>
			 <trkpt lat="46.87008" lon="-96.77811">
				 <ele>272.5</ele>
			 </trkpt>
			 <trkpt lat="46.8703" lon="-96.77817">
				 <ele>272.2</ele>
			 </trkpt>
			 <trkpt lat="46.87052" lon="-96.77828">
				 <ele>271.9</ele>
			 </trkpt>
			 <trkpt lat="46.87071" lon="-96.77841">
				 <ele>271.6</ele>
			 </trkpt>
			 <trkpt lat="46.87135" lon="-96.77867">
				 <ele>271.4</ele>
			 </trkpt>
			 <trkpt lat="46.87159" lon="-96.77871">
				 <ele>271.3</ele>
			 </trkpt>
			 <trkpt lat="46.87197" lon="-96.7786">
				 <ele>271.2</ele>
			 </trkpt>
			 <trkpt lat="46.87222" lon="-96.77838">
				 <ele>271.3</ele>
			 </trkpt>
			 <trkpt lat="46.87236" lon="-96.77814">
				 <ele>271.3</ele>
			 </trkpt>
			 <trkpt lat="46.87253" lon="-96.77783">
				 <ele>271.2</ele>
			 </trkpt>
			 <trkpt lat="46.87289" lon="-96.77699">
				 <ele>271.5</ele>
			 </trkpt>
			 <trkpt lat="46.872966" lon="-96.776814">
				 <ele>271.8</ele>
			 </trkpt>
			 <trkpt lat="46.872852" lon="-96.776685">
				 <ele>272.3</ele>
			 </trkpt>
			 <trkpt lat="46.872803" lon="-96.776597">
				 <ele>272.8</ele>
			 </trkpt>
			 <trkpt lat="46.87278" lon="-96.77646">
				 <ele>273.3</ele>
			 </trkpt>
			 <trkpt lat="46.872779" lon="-96.775802">
				 <ele>273.7</ele>
			 </trkpt>
			 <trkpt lat="46.872778" lon="-96.775144">
				 <ele>274.2</ele>
			 </trkpt>
			 <trkpt lat="46.872777" lon="-96.774487">
				 <ele>274.7</ele>
			 </trkpt>
			 <trkpt lat="46.872776" lon="-96.773934">
				 <ele>275.5</ele>
			 </trkpt>
			 <trkpt lat="46.873225" lon="-96.773932">
				 <ele>275.6</ele>
			 </trkpt>
			 <trkpt lat="46.873675" lon="-96.773929">
				 <ele>275.7</ele>
			 </trkpt>
			 <trkpt lat="46.873709" lon="-96.773929">
				 <ele>275.7</ele>
			 </trkpt>
			 <trkpt lat="46.87371" lon="-96.77401">
				 <ele>275.6</ele>
			 </trkpt>
			 <trkpt lat="46.87371" lon="-96.77475">
				 <ele>275.4</ele>
			 </trkpt>
			 <trkpt lat="46.87375" lon="-96.77643">
				 <ele>275</ele>
			 </trkpt>
			 <trkpt lat="46.87374" lon="-96.77795">
				 <ele>274.5</ele>
			 </trkpt>
			 <trkpt lat="46.87374" lon="-96.77871">
				 <ele>274.2</ele>
			 </trkpt>
			 <trkpt lat="46.87369" lon="-96.77874">
				 <ele>273.8</ele>
			 </trkpt>
			 <trkpt lat="46.87369" lon="-96.77882">
				 <ele>273.5</ele>
			 </trkpt>
			 <trkpt lat="46.87369" lon="-96.77965">
				 <ele>272.8</ele>
			 </trkpt>
			 <trkpt lat="46.873676" lon="-96.779756">
				 <ele>272.7</ele>
			 </trkpt>
			 <trkpt lat="46.873589" lon="-96.780071">
				 <ele>272.7</ele>
			 </trkpt>
			 <trkpt lat="46.873555" lon="-96.780147">
				 <ele>272.5</ele>
			 </trkpt>
			 <trkpt lat="46.873431" lon="-96.780364">
				 <ele>272.2</ele>
			 </trkpt>
			 <trkpt lat="46.873342" lon="-96.780469">
				 <ele>271.9</ele>
			 </trkpt>
			 <trkpt lat="46.873302" lon="-96.780516">
				 <ele>271.6</ele>
			 </trkpt>
			 <trkpt lat="46.873202" lon="-96.780542">
				 <ele>271.5</ele>
			 </trkpt>
			 <trkpt lat="46.873081" lon="-96.780599">
				 <ele>271.5</ele>
			 </trkpt>
			 <trkpt lat="46.873005" lon="-96.78065">
				 <ele>271.4</ele>
			 </trkpt>
			 <trkpt lat="46.872895" lon="-96.780788">
				 <ele>271.3</ele>
			 </trkpt>
			 <trkpt lat="46.872831" lon="-96.780899">
				 <ele>271.4</ele>
			 </trkpt>
			 <trkpt lat="46.87264" lon="-96.781233">
				 <ele>271.3</ele>
			 </trkpt>
			 <trkpt lat="46.872223" lon="-96.782032">
				 <ele>271.1</ele>
			 </trkpt>
			 <trkpt lat="46.872181" lon="-96.782172">
				 <ele>271.1</ele>
			 </trkpt>
			 <trkpt lat="46.872165" lon="-96.782229">
				 <ele>271.1</ele>
			 </trkpt>
			 <trkpt lat="46.872123" lon="-96.782495">
				 <ele>271.3</ele>
			 </trkpt>
			 <trkpt lat="46.87206" lon="-96.783758">
				 <ele>271.5</ele>
			 </trkpt>
			 <trkpt lat="46.872014" lon="-96.784808">
				 <ele>271.6</ele>
			 </trkpt>
			 <trkpt lat="46.872003" lon="-96.784975">
				 <ele>271.8</ele>
			 </trkpt>
			 <trkpt lat="46.871982" lon="-96.785134">
				 <ele>272.3</ele>
			 </trkpt>
			 <trkpt lat="46.871402" lon="-96.785249">
				 <ele>272.9</ele>
			 </trkpt>
			 <trkpt lat="46.871328" lon="-96.785319">
				 <ele>273.4</ele>
			 </trkpt>
			 <trkpt lat="46.871286" lon="-96.78534">
				 <ele>274</ele>
			 </trkpt>
			 <trkpt lat="46.870838" lon="-96.785425">
				 <ele>274.5</ele>
			 </trkpt>
			 <trkpt lat="46.869228" lon="-96.785561">
				 <ele>274.9</ele>
			 </trkpt>
			 <trkpt lat="46.868727" lon="-96.785588">
				 <ele>275.2</ele>
			 </trkpt>
			 <trkpt lat="46.868747" lon="-96.785841">
				 <ele>275.1</ele>
			 </trkpt>
			 <trkpt lat="46.868702" lon="-96.786003">
				 <ele>275</ele>
			 </trkpt>
			 <trkpt lat="46.868749" lon="-96.786964">
				 <ele>274.9</ele>
			 </trkpt>
			 <trkpt lat="46.86877" lon="-96.78709">
				 <ele>274.8</ele>
			 </trkpt>
			 <trkpt lat="46.868868" lon="-96.787438">
				 <ele>274.5</ele>
			 </trkpt>
			 <trkpt lat="46.868918" lon="-96.787708">
				 <ele>273.9</ele>
			 </trkpt>
			 <trkpt lat="46.868939" lon="-96.78795">
				 <ele>273.4</ele>
			 </trkpt>
			 <trkpt lat="46.868925" lon="-96.788235">
				 <ele>272.8</ele>
			 </trkpt>
			 <trkpt lat="46.86896" lon="-96.788328">
				 <ele>272.5</ele>
			 </trkpt>
			 <trkpt lat="46.869027" lon="-96.788411">
				 <ele>272.5</ele>
			 </trkpt>
			 <trkpt lat="46.869047" lon="-96.788472">
				 <ele>272.5</ele>
			 </trkpt>
			 <trkpt lat="46.869041" lon="-96.788593">
				 <ele>272.7</ele>
			 </trkpt>
			 <trkpt lat="46.869021" lon="-96.788757">
				 <ele>273</ele>
			 </trkpt>
			 <trkpt lat="46.869054" lon="-96.78888">
				 <ele>273.4</ele>
			 </trkpt>
			 <trkpt lat="46.869101" lon="-96.789246">
				 <ele>273.7</ele>
			 </trkpt>
			 <trkpt lat="46.869184" lon="-96.789452">
				 <ele>273.8</ele>
			 </trkpt>
			 <trkpt lat="46.869255" lon="-96.789791">
				 <ele>273.9</ele>
			 </trkpt>
			 <trkpt lat="46.869296" lon="-96.790085">
				 <ele>274</ele>
			 </trkpt>
			 <trkpt lat="46.869301" lon="-96.790166">
				 <ele>274</ele>
			 </trkpt>
			 <trkpt lat="46.869303" lon="-96.790209">
				 <ele>274.3</ele>
			 </trkpt>
			 <trkpt lat="46.870972" lon="-96.790001">
				 <ele>274.5</ele>
			 </trkpt>
			 <trkpt lat="46.872009" lon="-96.789858">
				 <ele>275</ele>
			 </trkpt>
			 <trkpt lat="46.872403" lon="-96.789816">
				 <ele>275.5</ele>
			 </trkpt>
			 <trkpt lat="46.87241" lon="-96.79008">
				 <ele>276</ele>
			 </trkpt>
			 <trkpt lat="46.87245" lon="-96.79067">
				 <ele>276.4</ele>
			 </trkpt>
			 <trkpt lat="46.87249" lon="-96.79128">
				 <ele>276.9</ele>
			 </trkpt>
			 <trkpt lat="46.872042" lon="-96.791344">
				 <ele>277.5</ele>
			 </trkpt>
			 <trkpt lat="46.871595" lon="-96.791407">
				 <ele>278.1</ele>
			 </trkpt>
			 <trkpt lat="46.871147" lon="-96.791471">
				 <ele>278.5</ele>
			 </trkpt>
			 <trkpt lat="46.8707" lon="-96.791534">
				 <ele>279.5</ele>
			 </trkpt>
			 <trkpt lat="46.870252" lon="-96.791598">
				 <ele>280</ele>
			 </trkpt>
			 <trkpt lat="46.870044" lon="-96.791628">
				 <ele>280.4</ele>
			 </trkpt>
			 <trkpt lat="46.869596" lon="-96.791676">
				 <ele>280.6</ele>
			 </trkpt>
			 <trkpt lat="46.869329" lon="-96.791705">
				 <ele>281</ele>
			 </trkpt>
			 <trkpt lat="46.86888" lon="-96.791742">
				 <ele>281.2</ele>
			 </trkpt>
			 <trkpt lat="46.868521" lon="-96.791771">
				 <ele>281.5</ele>
			 </trkpt>
			 <trkpt lat="46.868072" lon="-96.791781">
				 <ele>281.3</ele>
			 </trkpt>
			 <trkpt lat="46.867622" lon="-96.79179">
				 <ele>281.3</ele>
			 </trkpt>
			 <trkpt lat="46.867173" lon="-96.791799">
				 <ele>281.5</ele>
			 </trkpt>
			 <trkpt lat="46.866723" lon="-96.791809">
				 <ele>281.9</ele>
			 </trkpt>
			 <trkpt lat="46.866352" lon="-96.791817">
				 <ele>281.7</ele>
			 </trkpt>
			 <trkpt lat="46.865902" lon="-96.791835">
				 <ele>281.5</ele>
			 </trkpt>
			 <trkpt lat="46.865453" lon="-96.791853">
				 <ele>281.1</ele>
			 </trkpt>
			 <trkpt lat="46.865003" lon="-96.791871">
				 <ele>280.9</ele>
			 </trkpt>
			 <trkpt lat="46.864554" lon="-96.791889">
				 <ele>280.4</ele>
			 </trkpt>
			 <trkpt lat="46.864104" lon="-96.791907">
				 <ele>280.2</ele>
			 </trkpt>
			 <trkpt lat="46.863894" lon="-96.791916">
				 <ele>280.3</ele>
			 </trkpt>
			 <trkpt lat="46.863444" lon="-96.79192">
				 <ele>280.4</ele>
			 </trkpt>
			 <trkpt lat="46.862994" lon="-96.791924">
				 <ele>280.2</ele>
			 </trkpt>
			 <trkpt lat="46.862545" lon="-96.791928">
				 <ele>279.6</ele>
			 </trkpt>
			 <trkpt lat="46.862095" lon="-96.791931">
				 <ele>279.8</ele>
			 </trkpt>
			 <trkpt lat="46.861645" lon="-96.791935">
				 <ele>280.1</ele>
			 </trkpt>
			 <trkpt lat="46.861196" lon="-96.791939">
				 <ele>280.5</ele>
			 </trkpt>
			 <trkpt lat="46.860746" lon="-96.791943">
				 <ele>280.7</ele>
			 </trkpt>
			 <trkpt lat="46.860296" lon="-96.791947">
				 <ele>281.2</ele>
			 </trkpt>
			 <trkpt lat="46.859847" lon="-96.791951">
				 <ele>281.7</ele>
			 </trkpt>
			 <trkpt lat="46.859397" lon="-96.791955">
				 <ele>281.7</ele>
			 </trkpt>
			 <trkpt lat="46.858948" lon="-96.791959">
				 <ele>281.5</ele>
			 </trkpt>
			 <trkpt lat="46.858498" lon="-96.791963">
				 <ele>281.3</ele>
			 </trkpt>
			 <trkpt lat="46.858048" lon="-96.791967">
				 <ele>281.4</ele>
			 </trkpt>
			 <trkpt lat="46.857599" lon="-96.791971">
				 <ele>282</ele>
			 </trkpt>
			 <trkpt lat="46.857149" lon="-96.791975">
				 <ele>281.9</ele>
			 </trkpt>
			 <trkpt lat="46.856699" lon="-96.791978">
				 <ele>281.7</ele>
			 </trkpt>
			 <trkpt lat="46.85625" lon="-96.791982">
				 <ele>281.5</ele>
			 </trkpt>
			 <trkpt lat="46.8558" lon="-96.791986">
				 <ele>281.5</ele>
			 </trkpt>
			 <trkpt lat="46.85535" lon="-96.79199">
				 <ele>281.3</ele>
			 </trkpt>
			 <trkpt lat="46.854901" lon="-96.791994">
				 <ele>281</ele>
			 </trkpt>
			 <trkpt lat="46.854451" lon="-96.791998">
				 <ele>281</ele>
			 </trkpt>
			 <trkpt lat="46.854001" lon="-96.792002">
				 <ele>280.8</ele>
			 </trkpt>
			 <trkpt lat="46.853552" lon="-96.792006">
				 <ele>280.6</ele>
			 </trkpt>
			 <trkpt lat="46.853102" lon="-96.79201">
				 <ele>280.5</ele>
			 </trkpt>
			 <trkpt lat="46.852652" lon="-96.792014">
				 <ele>280.2</ele>
			 </trkpt>
			 <trkpt lat="46.852203" lon="-96.792018">
				 <ele>279.8</ele>
			 </trkpt>
			 <trkpt lat="46.85193" lon="-96.79202">
				 <ele>279.5</ele>
			 </trkpt>
			 <trkpt lat="46.85192" lon="-96.79134">
				 <ele>279.3</ele>
			 </trkpt>
			 <trkpt lat="46.85192" lon="-96.79085">
				 <ele>279</ele>
			 </trkpt>
			 <trkpt lat="46.85192" lon="-96.79054">
				 <ele>278.6</ele>
			 </trkpt>
			 <trkpt lat="46.85151" lon="-96.79056">
				 <ele>278.5</ele>
			 </trkpt>
			 <trkpt lat="46.85134" lon="-96.79052">
				 <ele>278.4</ele>
			 </trkpt>
			 <trkpt lat="46.85124" lon="-96.79044">
				 <ele>278.3</ele>
			 </trkpt>
			 <trkpt lat="46.85105" lon="-96.79002">
				 <ele>278.4</ele>
			 </trkpt>
			 <trkpt lat="46.85081" lon="-96.78931">
				 <ele>278.5</ele>
			 </trkpt>
			 <trkpt lat="46.85058" lon="-96.78902">
				 <ele>278.5</ele>
			 </trkpt>
			 <trkpt lat="46.85035" lon="-96.78891">
				 <ele>278.5</ele>
			 </trkpt>
			 <trkpt lat="46.85023" lon="-96.78946">
				 <ele>278.4</ele>
			 </trkpt>
			 <trkpt lat="46.85012" lon="-96.79015">
				 <ele>278.4</ele>
			 </trkpt>
			 <trkpt lat="46.85011" lon="-96.79142">
				 <ele>278.4</ele>
			 </trkpt>
			 <trkpt lat="46.8501" lon="-96.79468">
				 <ele>278.2</ele>
			 </trkpt>
			 <trkpt lat="46.8501" lon="-96.79495">
				 <ele>277.9</ele>
			 </trkpt>
			 <trkpt lat="46.85012" lon="-96.79563">
				 <ele>277.7</ele>
			 </trkpt>
			 <trkpt lat="46.85019" lon="-96.79587">
				 <ele>277.7</ele>
			 </trkpt>
			 <trkpt lat="46.85031" lon="-96.79612">
				 <ele>277.6</ele>
			 </trkpt>
			 <trkpt lat="46.85049" lon="-96.79632">
				 <ele>277.6</ele>
			 </trkpt>
			 <trkpt lat="46.85061" lon="-96.7964">
				 <ele>277.5</ele>
			 </trkpt>
			 <trkpt lat="46.85073" lon="-96.79643">
				 <ele>277.5</ele>
			 </trkpt>
			 <trkpt lat="46.85151" lon="-96.79643">
				 <ele>277.5</ele>
			 </trkpt>
			 <trkpt lat="46.85192" lon="-96.79642">
				 <ele>277.9</ele>
			 </trkpt>
			 <trkpt lat="46.85193" lon="-96.79508">
				 <ele>278.4</ele>
			 </trkpt>
			 <trkpt lat="46.85193" lon="-96.79419">
				 <ele>278.9</ele>
			 </trkpt>
			 <trkpt lat="46.85193" lon="-96.79354">
				 <ele>279.6</ele>
			 </trkpt>
			 <trkpt lat="46.85295" lon="-96.79352">
				 <ele>280.5</ele>
			 </trkpt>
			 <trkpt lat="46.85461" lon="-96.79352">
				 <ele>281.1</ele>
			 </trkpt>
			 <trkpt lat="46.85764" lon="-96.79347">
				 <ele>281.4</ele>
			 </trkpt>
			 <trkpt lat="46.85854" lon="-96.79344">
				 <ele>281.7</ele>
			 </trkpt>
			 <trkpt lat="46.85905" lon="-96.79344">
				 <ele>281.9</ele>
			 </trkpt>
			 <trkpt lat="46.8602" lon="-96.79344">
				 <ele>282</ele>
			 </trkpt>
			 <trkpt lat="46.86166" lon="-96.79346">
				 <ele>282.5</ele>
			 </trkpt>
			 <trkpt lat="46.86263" lon="-96.79346">
				 <ele>282.5</ele>
			 </trkpt>
			 <trkpt lat="46.86408" lon="-96.79343">
				 <ele>282.1</ele>
			 </trkpt>
			 <trkpt lat="46.86486" lon="-96.79341">
				 <ele>281.5</ele>
			 </trkpt>
			 <trkpt lat="46.8661" lon="-96.79339">
				 <ele>281.2</ele>
			 </trkpt>
			 <trkpt lat="46.86655" lon="-96.79339">
				 <ele>280.2</ele>
			 </trkpt>
			 <trkpt lat="46.86728" lon="-96.79336">
				 <ele>279.5</ele>
			 </trkpt>
			 <trkpt lat="46.86792" lon="-96.79334">
				 <ele>279.1</ele>
			 </trkpt>
			 <trkpt lat="46.86816" lon="-96.79334">
				 <ele>278.5</ele>
			 </trkpt>
			 <trkpt lat="46.86903" lon="-96.79328">
				 <ele>278.3</ele>
			 </trkpt>
			 <trkpt lat="46.87075" lon="-96.79305">
				 <ele>278.1</ele>
			 </trkpt>
			 <trkpt lat="46.87214" lon="-96.79286">
				 <ele>277.5</ele>
			 </trkpt>
			 <trkpt lat="46.87249" lon="-96.79281">
				 <ele>277</ele>
			 </trkpt>
			 <trkpt lat="46.87258" lon="-96.7928">
				 <ele>276.8</ele>
			 </trkpt>
			 <trkpt lat="46.87263" lon="-96.7936">
				 <ele>276.5</ele>
			 </trkpt>
			 <trkpt lat="46.87264" lon="-96.79375">
				 <ele>275.8</ele>
			 </trkpt>
			 <trkpt lat="46.87268" lon="-96.7943">
				 <ele>275.6</ele>
			 </trkpt>
			 <trkpt lat="46.873128" lon="-96.794248">
				 <ele>275.5</ele>
			 </trkpt>
			 <trkpt lat="46.873576" lon="-96.794195">
				 <ele>275.2</ele>
			 </trkpt>
			 <trkpt lat="46.874025" lon="-96.794143">
				 <ele>275.1</ele>
			 </trkpt>
			 <trkpt lat="46.874473" lon="-96.794091">
				 <ele>274.9</ele>
			 </trkpt>
			 <trkpt lat="46.874748" lon="-96.794059">
				 <ele>274.7</ele>
			 </trkpt>
			 <trkpt lat="46.875198" lon="-96.794041">
				 <ele>274.6</ele>
			 </trkpt>
			 <trkpt lat="46.875647" lon="-96.794024">
				 <ele>274.5</ele>
			 </trkpt>
			 <trkpt lat="46.876097" lon="-96.794007">
				 <ele>274.5</ele>
			 </trkpt>
			 <trkpt lat="46.876546" lon="-96.793989">
				 <ele>275</ele>
			 </trkpt>
			 <trkpt lat="46.876996" lon="-96.793972">
				 <ele>275.6</ele>
			 </trkpt>
			 <trkpt lat="46.87731" lon="-96.79396">
				 <ele>276.1</ele>
			 </trkpt>
			 <trkpt lat="46.877344" lon="-96.793348">
				 <ele>276.5</ele>
			 </trkpt>
			 <trkpt lat="46.877267" lon="-96.7927">
				 <ele>277.1</ele>
			 </trkpt>
			 <trkpt lat="46.87719" lon="-96.792052">
				 <ele>277.5</ele>
			 </trkpt>
			 <trkpt lat="46.877113" lon="-96.791404">
				 <ele>277.7</ele>
			 </trkpt>
			 <trkpt lat="46.877036" lon="-96.790756">
				 <ele>278</ele>
			 </trkpt>
			 <trkpt lat="46.876959" lon="-96.790108">
				 <ele>278.2</ele>
			 </trkpt>
			 <trkpt lat="46.876934" lon="-96.789897">
				 <ele>278.8</ele>
			 </trkpt>
			 <trkpt lat="46.876936" lon="-96.789239">
				 <ele>279.2</ele>
			 </trkpt>
			 <trkpt lat="46.876939" lon="-96.788581">
				 <ele>278.9</ele>
			 </trkpt>
			 <trkpt lat="46.876941" lon="-96.787923">
				 <ele>278.6</ele>
			 </trkpt>
			 <trkpt lat="46.876942" lon="-96.787695">
				 <ele>278.5</ele>
			 </trkpt>
			 <trkpt lat="46.877392" lon="-96.787683">
				 <ele>278.5</ele>
			 </trkpt>
			 <trkpt lat="46.877841" lon="-96.787671">
				 <ele>278.2</ele>
			 </trkpt>
			 <trkpt lat="46.878291" lon="-96.787659">
				 <ele>278</ele>
			 </trkpt>
			 <trkpt lat="46.87874" lon="-96.787647">
				 <ele>277.8</ele>
			 </trkpt>
			 <trkpt lat="46.87919" lon="-96.787634">
				 <ele>277.5</ele>
			 </trkpt>
			 <trkpt lat="46.879639" lon="-96.787622">
				 <ele>277.5</ele>
			 </trkpt>
			 <trkpt lat="46.880089" lon="-96.78761">
				 <ele>277.1</ele>
			 </trkpt>
			 <trkpt lat="46.880091" lon="-96.786952">
				 <ele>276.5</ele>
			 </trkpt>
			 <trkpt lat="46.88009" lon="-96.786294">
				 <ele>276.5</ele>
			 </trkpt>
			 <trkpt lat="46.880088" lon="-96.785636">
				 <ele>276.2</ele>
			 </trkpt>
			 <trkpt lat="46.880087" lon="-96.784978">
				 <ele>275.8</ele>
			 </trkpt>
			 <trkpt lat="46.880085" lon="-96.784321">
				 <ele>275.5</ele>
			 </trkpt>
			 <trkpt lat="46.880083" lon="-96.783663">
				 <ele>275.2</ele>
			 </trkpt>
			 <trkpt lat="46.880082" lon="-96.783005">
				 <ele>274.8</ele>
			 </trkpt>
			 <trkpt lat="46.88008" lon="-96.782347">
				 <ele>274.5</ele>
			 </trkpt>
			 <trkpt lat="46.88008" lon="-96.78219">
				 <ele>274.3</ele>
			 </trkpt>
			 <trkpt lat="46.88014" lon="-96.78217">
				 <ele>274</ele>
			 </trkpt>
			 <trkpt lat="46.88053" lon="-96.78184">
				 <ele>273.6</ele>
			 </trkpt>
			 <trkpt lat="46.88064" lon="-96.78172">
				 <ele>273.8</ele>
			 </trkpt>
			 <trkpt lat="46.88071" lon="-96.78165">
				 <ele>273.9</ele>
			 </trkpt>
			 <trkpt lat="46.88081" lon="-96.78163">
				 <ele>274</ele>
			 </trkpt>
			 <trkpt lat="46.88117" lon="-96.78161">
				 <ele>274.1</ele>
			 </trkpt>
			 <trkpt lat="46.88146" lon="-96.7816">
				 <ele>274.3</ele>
			 </trkpt>
			 <trkpt lat="46.88201" lon="-96.78159">
				 <ele>274.5</ele>
			 </trkpt>
			 <trkpt lat="46.88219" lon="-96.78159">
				 <ele>275.2</ele>
			 </trkpt>
			 <trkpt lat="46.88218" lon="-96.78088">
				 <ele>275.3</ele>
			 </trkpt>
			 <trkpt lat="46.88218" lon="-96.77938">
				 <ele>275.2</ele>
			 </trkpt>
			 <trkpt lat="46.88218" lon="-96.77903">
				 <ele>275</ele>
			 </trkpt>
			 <trkpt lat="46.88218" lon="-96.77862">
				 <ele>275.2</ele>
			 </trkpt>
			 <trkpt lat="46.88312" lon="-96.77864">
				 <ele>275.3</ele>
			 </trkpt>
			 <trkpt lat="46.88464" lon="-96.77862">
				 <ele>275.3</ele>
			 </trkpt>
			 <trkpt lat="46.88568" lon="-96.77863">
				 <ele>275.4</ele>
			 </trkpt>
			 <trkpt lat="46.88672" lon="-96.77862">
				 <ele>275.5</ele>
			 </trkpt>
			 <trkpt lat="46.88855" lon="-96.77864">
				 <ele>275.6</ele>
			 </trkpt>
			 <trkpt lat="46.8904" lon="-96.77866">
				 <ele>275.7</ele>
			 </trkpt>
			 <trkpt lat="46.89275" lon="-96.7786">
				 <ele>275.5</ele>
			 </trkpt>
			 <trkpt lat="46.89345" lon="-96.77859">
				 <ele>275.7</ele>
			 </trkpt>
			 <trkpt lat="46.89366" lon="-96.77858">
				 <ele>276</ele>
			 </trkpt>
			 <trkpt lat="46.89467" lon="-96.77856">
				 <ele>276.5</ele>
			 </trkpt>
			 <trkpt lat="46.89477" lon="-96.77859">
				 <ele>276.7</ele>
			 </trkpt>
			 <trkpt lat="46.89491" lon="-96.77868">
				 <ele>276.7</ele>
			 </trkpt>
			 <trkpt lat="46.89491" lon="-96.78016">
				 <ele>276.7</ele>
			 </trkpt>
			 <trkpt lat="46.89518" lon="-96.78117">
				 <ele>276.9</ele>
			 </trkpt>
			 <trkpt lat="46.89518" lon="-96.78188">
				 <ele>276.8</ele>
			 </trkpt>
			 <trkpt lat="46.89518" lon="-96.78308">
				 <ele>276.7</ele>
			 </trkpt>
			 <trkpt lat="46.89612" lon="-96.78308">
				 <ele>276.7</ele>
			 </trkpt>
			 <trkpt lat="46.8975" lon="-96.78304">
				 <ele>276.5</ele>
			 </trkpt>
			 <trkpt lat="46.8994" lon="-96.783">
				 <ele>276.3</ele>
			 </trkpt>
			 <trkpt lat="46.90117" lon="-96.78297">
				 <ele>276.1</ele>
			 </trkpt>
			 <trkpt lat="46.90121" lon="-96.78304">
				 <ele>275.8</ele>
			 </trkpt>
			 <trkpt lat="46.901213" lon="-96.785188">
				 <ele>275.5</ele>
			 </trkpt>
			 <trkpt lat="46.901203" lon="-96.787353">
				 <ele>275.3</ele>
			 </trkpt>
			 <trkpt lat="46.901162" lon="-96.787661">
				 <ele>275.3</ele>
			 </trkpt>
			 <trkpt lat="46.901139" lon="-96.788285">
				 <ele>275.1</ele>
			 </trkpt>
			 <trkpt lat="46.901135" lon="-96.790561">
				 <ele>275.2</ele>
			 </trkpt>
			 <trkpt lat="46.901143" lon="-96.792754">
				 <ele>275.4</ele>
			 </trkpt>
			 <trkpt lat="46.901135" lon="-96.794346">
				 <ele>275.4</ele>
			 </trkpt>
			 <trkpt lat="46.901141" lon="-96.795879">
				 <ele>275.4</ele>
			 </trkpt>
			 <trkpt lat="46.901134" lon="-96.796553">
				 <ele>275.6</ele>
			 </trkpt>
			 <trkpt lat="46.901142" lon="-96.797307">
				 <ele>275.9</ele>
			 </trkpt>
			 <trkpt lat="46.901114" lon="-96.799286">
				 <ele>276.1</ele>
			 </trkpt>
			 <trkpt lat="46.901114" lon="-96.799875">
				 <ele>276.5</ele>
			 </trkpt>
		 </trkseg>
	 </trk>
</gpx>