<?xml version="1.0" encoding="UTF-8"?>
 <gpx creator="Garmin Connect" version="1.1"
	 xsi:schemaLocation="http://www.topografix.com/GPX/1/1 http://www.topografix.com/GPX/11.xsd"
	 xmlns:ns3="http://www.garmin.com/xmlschemas/TrackPointExtension/v1"
	 xmlns="http://www.topografix.com/GPX/1/1"
	 xmlns:xsi="http://www.w3.org/2001/XMLSchema-instance" xmlns:ns2="http://www.garmin.com/xmlschemas/GpxExtensions/v3">
	 <metadata>
		<name>Galveston Marathon - 42.195 km</name>
		 <link href="https://www.goandrace.com">
		 <text>Garmin Connect</text>
		 </link>
	 <time>2026-08-09T16:49:31</time>
	 </metadata>
	 <trk>
		 <name>Galveston Marathon - 42.195 km</name>
		 <trkseg>
			 <trkpt lat="29.306629" lon="-94.770044">
				 <ele>2</ele>
			 </trkpt>
			 <trkpt lat="29.30663" lon="-94.77005">
				 <ele>2</ele>
			 </trkpt>
			 <trkpt lat="29.30699" lon="-94.76975">
				 <ele>2</ele>
			 </trkpt>
			 <trkpt lat="29.30708" lon="-94.76966">
				 <ele>2</ele>
			 </trkpt>
			 <trkpt lat="29.30744" lon="-94.76915">
				 <ele>4</ele>
			 </trkpt>
			 <trkpt lat="29.30785" lon="-94.76854">
				 <ele>4</ele>
			 </trkpt>
			 <trkpt lat="29.30785" lon="-94.76854">
				 <ele>4</ele>
			 </trkpt>
			 <trkpt lat="29.30808" lon="-94.7682">
				 <ele>4</ele>
			 </trkpt>
			 <trkpt lat="29.30818" lon="-94.76804">
				 <ele>4</ele>
			 </trkpt>
			 <trkpt lat="29.30839" lon="-94.7682">
				 <ele>3</ele>
			 </trkpt>
			 <trkpt lat="29.30868" lon="-94.76839">
				 <ele>2</ele>
			 </trkpt>
			 <trkpt lat="29.30874" lon="-94.76846">
				 <ele>1</ele>
			 </trkpt>
			 <trkpt lat="29.3088" lon="-94.76861">
				 <ele>2</ele>
			 </trkpt>
			 <trkpt lat="29.30881" lon="-94.76869">
				 <ele>2</ele>
			 </trkpt>
			 <trkpt lat="29.30886" lon="-94.76874">
				 <ele>1</ele>
			 </trkpt>
			 <trkpt lat="29.30898" lon="-94.76887">
				 <ele>2</ele>
			 </trkpt>
			 <trkpt lat="29.30959" lon="-94.76837">
				 <ele>2</ele>
			 </trkpt>
			 <trkpt lat="29.31093" lon="-94.76726">
				 <ele>2</ele>
			 </trkpt>
			 <trkpt lat="29.31093" lon="-94.76726">
				 <ele>2</ele>
			 </trkpt>
			 <trkpt lat="29.3116" lon="-94.76671">
				 <ele>2</ele>
			 </trkpt>
			 <trkpt lat="29.31169" lon="-94.76666">
				 <ele>2</ele>
			 </trkpt>
			 <trkpt lat="29.31177" lon="-94.76661">
				 <ele>2</ele>
			 </trkpt>
			 <trkpt lat="29.31194" lon="-94.76647">
				 <ele>2</ele>
			 </trkpt>
			 <trkpt lat="29.31186" lon="-94.76633">
				 <ele>2</ele>
			 </trkpt>
			 <trkpt lat="29.31158" lon="-94.76588">
				 <ele>2</ele>
			 </trkpt>
			 <trkpt lat="29.31152" lon="-94.76577">
				 <ele>2</ele>
			 </trkpt>
			 <trkpt lat="29.31144" lon="-94.76564">
				 <ele>2</ele>
			 </trkpt>
			 <trkpt lat="29.31125" lon="-94.76533">
				 <ele>2</ele>
			 </trkpt>
			 <trkpt lat="29.31107" lon="-94.76487">
				 <ele>2</ele>
			 </trkpt>
			 <trkpt lat="29.31097" lon="-94.76464">
				 <ele>2</ele>
			 </trkpt>
			 <trkpt lat="29.3109" lon="-94.76442">
				 <ele>2</ele>
			 </trkpt>
			 <trkpt lat="29.31091" lon="-94.76415">
				 <ele>2</ele>
			 </trkpt>
			 <trkpt lat="29.31104" lon="-94.76387">
				 <ele>1</ele>
			 </trkpt>
			 <trkpt lat="29.31112" lon="-94.76379">
				 <ele>1</ele>
			 </trkpt>
			 <trkpt lat="29.31112" lon="-94.76379">
				 <ele>2</ele>
			 </trkpt>
			 <trkpt lat="29.31149" lon="-94.76347">
				 <ele>2</ele>
			 </trkpt>
			 <trkpt lat="29.31252" lon="-94.76263">
				 <ele>2</ele>
			 </trkpt>
			 <trkpt lat="29.31278" lon="-94.76234">
				 <ele>1</ele>
			 </trkpt>
			 <trkpt lat="29.31301" lon="-94.76199">
				 <ele>1</ele>
			 </trkpt>
			 <trkpt lat="29.31359" lon="-94.76072">
				 <ele>1</ele>
			 </trkpt>
			 <trkpt lat="29.31365" lon="-94.76036">
				 <ele>2</ele>
			 </trkpt>
			 <trkpt lat="29.31365" lon="-94.76002">
				 <ele>2</ele>
			 </trkpt>
			 <trkpt lat="29.3137" lon="-94.75969">
				 <ele>1</ele>
			 </trkpt>
			 <trkpt lat="29.31382" lon="-94.75936">
				 <ele>1</ele>
			 </trkpt>
			 <trkpt lat="29.31413" lon="-94.7589">
				 <ele>2</ele>
			 </trkpt>
			 <trkpt lat="29.31497" lon="-94.75768">
				 <ele>2</ele>
			 </trkpt>
			 <trkpt lat="29.31497" lon="-94.75768">
				 <ele>2</ele>
			 </trkpt>
			 <trkpt lat="29.319" lon="-94.75169">
				 <ele>1</ele>
			 </trkpt>
			 <trkpt lat="29.31928" lon="-94.75127">
				 <ele>1</ele>
			 </trkpt>
			 <trkpt lat="29.31938" lon="-94.75112">
				 <ele>1</ele>
			 </trkpt>
			 <trkpt lat="29.31939" lon="-94.75104">
				 <ele>1</ele>
			 </trkpt>
			 <trkpt lat="29.31944" lon="-94.7509">
				 <ele>1</ele>
			 </trkpt>
			 <trkpt lat="29.31948" lon="-94.75087">
				 <ele>1</ele>
			 </trkpt>
			 <trkpt lat="29.3195" lon="-94.75073">
				 <ele>1</ele>
			 </trkpt>
			 <trkpt lat="29.31959" lon="-94.75055">
				 <ele>2</ele>
			 </trkpt>
			 <trkpt lat="29.31971" lon="-94.75039">
				 <ele>1</ele>
			 </trkpt>
			 <trkpt lat="29.31988" lon="-94.75027">
				 <ele>2</ele>
			 </trkpt>
			 <trkpt lat="29.31989" lon="-94.75021">
				 <ele>1</ele>
			 </trkpt>
			 <trkpt lat="29.32" lon="-94.75012">
				 <ele>1</ele>
			 </trkpt>
			 <trkpt lat="29.32007" lon="-94.7501">
				 <ele>2</ele>
			 </trkpt>
			 <trkpt lat="29.32014" lon="-94.75001">
				 <ele>2</ele>
			 </trkpt>
			 <trkpt lat="29.3202" lon="-94.74991">
				 <ele>2</ele>
			 </trkpt>
			 <trkpt lat="29.32104" lon="-94.74867">
				 <ele>2</ele>
			 </trkpt>
			 <trkpt lat="29.32214" lon="-94.747">
				 <ele>1</ele>
			 </trkpt>
			 <trkpt lat="29.32309" lon="-94.7456">
				 <ele>1</ele>
			 </trkpt>
			 <trkpt lat="29.3236" lon="-94.74486">
				 <ele>1</ele>
			 </trkpt>
			 <trkpt lat="29.32376" lon="-94.74463">
				 <ele>4</ele>
			 </trkpt>
			 <trkpt lat="29.32398" lon="-94.74445">
				 <ele>4</ele>
			 </trkpt>
			 <trkpt lat="29.32423" lon="-94.74432">
				 <ele>4</ele>
			 </trkpt>
			 <trkpt lat="29.32448" lon="-94.74426">
				 <ele>4</ele>
			 </trkpt>
			 <trkpt lat="29.32504" lon="-94.74417">
				 <ele>4</ele>
			 </trkpt>
			 <trkpt lat="29.32504" lon="-94.74417">
				 <ele>4</ele>
			 </trkpt>
			 <trkpt lat="29.32541" lon="-94.74411">
				 <ele>4</ele>
			 </trkpt>
			 <trkpt lat="29.32584" lon="-94.74405">
				 <ele>4</ele>
			 </trkpt>
			 <trkpt lat="29.32594" lon="-94.74492">
				 <ele>4</ele>
			 </trkpt>
			 <trkpt lat="29.32611" lon="-94.74641">
				 <ele>4</ele>
			 </trkpt>
			 <trkpt lat="29.32613" lon="-94.74712">
				 <ele>4</ele>
			 </trkpt>
			 <trkpt lat="29.32605" lon="-94.74758">
				 <ele>4</ele>
			 </trkpt>
			 <trkpt lat="29.32593" lon="-94.74789">
				 <ele>4</ele>
			 </trkpt>
			 <trkpt lat="29.32576" lon="-94.74819">
				 <ele>4</ele>
			 </trkpt>
			 <trkpt lat="29.32441" lon="-94.75001">
				 <ele>4</ele>
			 </trkpt>
			 <trkpt lat="29.3235" lon="-94.75123">
				 <ele>4</ele>
			 </trkpt>
			 <trkpt lat="29.3235" lon="-94.75123">
				 <ele>4</ele>
			 </trkpt>
			 <trkpt lat="29.32104" lon="-94.75454">
				 <ele>4</ele>
			 </trkpt>
			 <trkpt lat="29.32077" lon="-94.75478">
				 <ele>4</ele>
			 </trkpt>
			 <trkpt lat="29.32034" lon="-94.75509">
				 <ele>4</ele>
			 </trkpt>
			 <trkpt lat="29.32029" lon="-94.75517">
				 <ele>4</ele>
			 </trkpt>
			 <trkpt lat="29.32019" lon="-94.75526">
				 <ele>4</ele>
			 </trkpt>
			 <trkpt lat="29.31979" lon="-94.75556">
				 <ele>4</ele>
			 </trkpt>
			 <trkpt lat="29.31933" lon="-94.7558">
				 <ele>4</ele>
			 </trkpt>
			 <trkpt lat="29.31904" lon="-94.7559">
				 <ele>4</ele>
			 </trkpt>
			 <trkpt lat="29.31881" lon="-94.75592">
				 <ele>1</ele>
			 </trkpt>
			 <trkpt lat="29.31857" lon="-94.75591">
				 <ele>1</ele>
			 </trkpt>
			 <trkpt lat="29.31836" lon="-94.75592">
				 <ele>0</ele>
			 </trkpt>
			 <trkpt lat="29.31816" lon="-94.75597">
				 <ele>1</ele>
			 </trkpt>
			 <trkpt lat="29.318" lon="-94.75602">
				 <ele>1</ele>
			 </trkpt>
			 <trkpt lat="29.31781" lon="-94.75612">
				 <ele>1</ele>
			 </trkpt>
			 <trkpt lat="29.31749" lon="-94.75639">
				 <ele>1</ele>
			 </trkpt>
			 <trkpt lat="29.31742" lon="-94.75649">
				 <ele>1</ele>
			 </trkpt>
			 <trkpt lat="29.31715" lon="-94.7569">
				 <ele>1</ele>
			 </trkpt>
			 <trkpt lat="29.31699" lon="-94.75711">
				 <ele>1</ele>
			 </trkpt>
			 <trkpt lat="29.3168" lon="-94.75728">
				 <ele>1</ele>
			 </trkpt>
			 <trkpt lat="29.31643" lon="-94.75753">
				 <ele>1</ele>
			 </trkpt>
			 <trkpt lat="29.31572" lon="-94.75794">
				 <ele>1</ele>
			 </trkpt>
			 <trkpt lat="29.31541" lon="-94.7581">
				 <ele>1</ele>
			 </trkpt>
			 <trkpt lat="29.31515" lon="-94.75838">
				 <ele>1</ele>
			 </trkpt>
			 <trkpt lat="29.315" lon="-94.75859">
				 <ele>1</ele>
			 </trkpt>
			 <trkpt lat="29.31485" lon="-94.75886">
				 <ele>1</ele>
			 </trkpt>
			 <trkpt lat="29.31478" lon="-94.75904">
				 <ele>1</ele>
			 </trkpt>
			 <trkpt lat="29.31473" lon="-94.75929">
				 <ele>0</ele>
			 </trkpt>
			 <trkpt lat="29.31473" lon="-94.75956">
				 <ele>1</ele>
			 </trkpt>
			 <trkpt lat="29.31479" lon="-94.75985">
				 <ele>1</ele>
			 </trkpt>
			 <trkpt lat="29.31491" lon="-94.76013">
				 <ele>1</ele>
			 </trkpt>
			 <trkpt lat="29.31497" lon="-94.76022">
				 <ele>1</ele>
			 </trkpt>
			 <trkpt lat="29.31507" lon="-94.76032">
				 <ele>0</ele>
			 </trkpt>
			 <trkpt lat="29.31536" lon="-94.76062">
				 <ele>1</ele>
			 </trkpt>
			 <trkpt lat="29.31553" lon="-94.76088">
				 <ele>1</ele>
			 </trkpt>
			 <trkpt lat="29.31561" lon="-94.76108">
				 <ele>1</ele>
			 </trkpt>
			 <trkpt lat="29.31568" lon="-94.76141">
				 <ele>1</ele>
			 </trkpt>
			 <trkpt lat="29.31573" lon="-94.76179">
				 <ele>1</ele>
			 </trkpt>
			 <trkpt lat="29.3158" lon="-94.76232">
				 <ele>0</ele>
			 </trkpt>
			 <trkpt lat="29.31588" lon="-94.76256">
				 <ele>1</ele>
			 </trkpt>
			 <trkpt lat="29.31612" lon="-94.76311">
				 <ele>1</ele>
			 </trkpt>
			 <trkpt lat="29.31622" lon="-94.7633">
				 <ele>4</ele>
			 </trkpt>
			 <trkpt lat="29.31743" lon="-94.76259">
				 <ele>6</ele>
			 </trkpt>
			 <trkpt lat="29.31935" lon="-94.76146">
				 <ele>6</ele>
			 </trkpt>
			 <trkpt lat="29.32012" lon="-94.76101">
				 <ele>6</ele>
			 </trkpt>
			 <trkpt lat="29.32175" lon="-94.76005">
				 <ele>6</ele>
			 </trkpt>
			 <trkpt lat="29.32198" lon="-94.75992">
				 <ele>6</ele>
			 </trkpt>
			 <trkpt lat="29.32198" lon="-94.75992">
				 <ele>6</ele>
			 </trkpt>
			 <trkpt lat="29.32421" lon="-94.75861">
				 <ele>6</ele>
			 </trkpt>
			 <trkpt lat="29.33409" lon="-94.752794">
				 <ele>6</ele>
			 </trkpt>
			 <trkpt lat="29.334335" lon="-94.751997">
				 <ele>6</ele>
			 </trkpt>
			 <trkpt lat="29.334255" lon="-94.751251">
				 <ele>6</ele>
			 </trkpt>
			 <trkpt lat="29.334185" lon="-94.750613">
				 <ele>6</ele>
			 </trkpt>
			 <trkpt lat="29.334297" lon="-94.750007">
				 <ele>6</ele>
			 </trkpt>
			 <trkpt lat="29.33405" lon="-94.747812">
				 <ele>7</ele>
			 </trkpt>
			 <trkpt lat="29.33376" lon="-94.744514">
				 <ele>7</ele>
			 </trkpt>
			 <trkpt lat="29.333631" lon="-94.743457">
				 <ele>6</ele>
			 </trkpt>
			 <trkpt lat="29.333309" lon="-94.741649">
				 <ele>6</ele>
			 </trkpt>
			 <trkpt lat="29.333143" lon="-94.741319">
				 <ele>6</ele>
			 </trkpt>
			 <trkpt lat="29.332409" lon="-94.739801">
				 <ele>6</ele>
			 </trkpt>
			 <trkpt lat="29.332328" lon="-94.73928">
				 <ele>6</ele>
			 </trkpt>
			 <trkpt lat="29.332313" lon="-94.738277">
				 <ele>5</ele>
			 </trkpt>
			 <trkpt lat="29.332332" lon="-94.737859">
				 <ele>5</ele>
			 </trkpt>
			 <trkpt lat="29.332203" lon="-94.737584">
				 <ele>5</ele>
			 </trkpt>
			 <trkpt lat="29.331925" lon="-94.737236">
				 <ele>5</ele>
			 </trkpt>
			 <trkpt lat="29.331968" lon="-94.737179">
				 <ele>5</ele>
			 </trkpt>
			 <trkpt lat="29.332216" lon="-94.737488">
				 <ele>5</ele>
			 </trkpt>
			 <trkpt lat="29.332348" lon="-94.737785">
				 <ele>5</ele>
			 </trkpt>
			 <trkpt lat="29.332368" lon="-94.738438">
				 <ele>5</ele>
			 </trkpt>
			 <trkpt lat="29.332376" lon="-94.739182">
				 <ele>5</ele>
			 </trkpt>
			 <trkpt lat="29.332434" lon="-94.73974">
				 <ele>5</ele>
			 </trkpt>
			 <trkpt lat="29.333036" lon="-94.740974">
				 <ele>5</ele>
			 </trkpt>
			 <trkpt lat="29.333273" lon="-94.741462">
				 <ele>5</ele>
			 </trkpt>
			 <trkpt lat="29.333502" lon="-94.742567">
				 <ele>5</ele>
			 </trkpt>
			 <trkpt lat="29.333736" lon="-94.74391">
				 <ele>5</ele>
			 </trkpt>
			 <trkpt lat="29.333816" lon="-94.744843">
				 <ele>5</ele>
			 </trkpt>
			 <trkpt lat="29.334092" lon="-94.747933">
				 <ele>4</ele>
			 </trkpt>
			 <trkpt lat="29.33433" lon="-94.749963">
				 <ele>4</ele>
			 </trkpt>
			 <trkpt lat="29.334297" lon="-94.750194">
				 <ele>4</ele>
			 </trkpt>
			 <trkpt lat="29.334234" lon="-94.75069">
				 <ele>5</ele>
			 </trkpt>
			 <trkpt lat="29.334314" lon="-94.751406">
				 <ele>5</ele>
			 </trkpt>
			 <trkpt lat="29.334375" lon="-94.751886">
				 <ele>4</ele>
			 </trkpt>
			 <trkpt lat="29.334227" lon="-94.752533">
				 <ele>5</ele>
			 </trkpt>
			 <trkpt lat="29.334017" lon="-94.753042">
				 <ele>5</ele>
			 </trkpt>
			 <trkpt lat="29.32418" lon="-94.758866">
				 <ele>5</ele>
			 </trkpt>
			 <trkpt lat="29.317272" lon="-94.762757">
				 <ele>5</ele>
			 </trkpt>
			 <trkpt lat="29.314903" lon="-94.764152">
				 <ele>5</ele>
			 </trkpt>
			 <trkpt lat="29.3149" lon="-94.76415">
				 <ele>5</ele>
			 </trkpt>
			 <trkpt lat="29.31346" lon="-94.76533">
				 <ele>5</ele>
			 </trkpt>
			 <trkpt lat="29.31182" lon="-94.76668">
				 <ele>4</ele>
			 </trkpt>
			 <trkpt lat="29.31177" lon="-94.76671">
				 <ele>5</ele>
			 </trkpt>
			 <trkpt lat="29.31177" lon="-94.76676">
				 <ele>5</ele>
			 </trkpt>
			 <trkpt lat="29.31174" lon="-94.76682">
				 <ele>5</ele>
			 </trkpt>
			 <trkpt lat="29.3112" lon="-94.76728">
				 <ele>5</ele>
			 </trkpt>
			 <trkpt lat="29.31029" lon="-94.76806">
				 <ele>5</ele>
			 </trkpt>
			 <trkpt lat="29.308718" lon="-94.769298">
				 <ele>5</ele>
			 </trkpt>
			 <trkpt lat="29.30872" lon="-94.7693">
				 <ele>5</ele>
			 </trkpt>
			 <trkpt lat="29.30766" lon="-94.77018">
				 <ele>5</ele>
			 </trkpt>
			 <trkpt lat="29.30766" lon="-94.77018">
				 <ele>5</ele>
			 </trkpt>
			 <trkpt lat="29.30554" lon="-94.77194">
				 <ele>5</ele>
			 </trkpt>
			 <trkpt lat="29.3054" lon="-94.7721">
				 <ele>4</ele>
			 </trkpt>
			 <trkpt lat="29.30535" lon="-94.77224">
				 <ele>4</ele>
			 </trkpt>
			 <trkpt lat="29.30524" lon="-94.77266">
				 <ele>4</ele>
			 </trkpt>
			 <trkpt lat="29.30508" lon="-94.77262">
				 <ele>4</ele>
			 </trkpt>
			 <trkpt lat="29.30484" lon="-94.77266">
				 <ele>4</ele>
			 </trkpt>
			 <trkpt lat="29.30456" lon="-94.77276">
				 <ele>4</ele>
			 </trkpt>
			 <trkpt lat="29.3042" lon="-94.77301">
				 <ele>4</ele>
			 </trkpt>
			 <trkpt lat="29.30411" lon="-94.77302">
				 <ele>4</ele>
			 </trkpt>
			 <trkpt lat="29.30384" lon="-94.77324">
				 <ele>4</ele>
			 </trkpt>
			 <trkpt lat="29.30287" lon="-94.77404">
				 <ele>4</ele>
			 </trkpt>
			 <trkpt lat="29.30112" lon="-94.77549">
				 <ele>4</ele>
			 </trkpt>
			 <trkpt lat="29.29902" lon="-94.7772">
				 <ele>4</ele>
			 </trkpt>
			 <trkpt lat="29.29798" lon="-94.77804">
				 <ele>4</ele>
			 </trkpt>
			 <trkpt lat="29.29774" lon="-94.77829">
				 <ele>4</ele>
			 </trkpt>
			 <trkpt lat="29.29671" lon="-94.77962">
				 <ele>4</ele>
			 </trkpt>
			 <trkpt lat="29.2954" lon="-94.7813">
				 <ele>4</ele>
			 </trkpt>
			 <trkpt lat="29.2954" lon="-94.7813">
				 <ele>4</ele>
			 </trkpt>
			 <trkpt lat="29.29349" lon="-94.78374">
				 <ele>4</ele>
			 </trkpt>
			 <trkpt lat="29.2931" lon="-94.78425">
				 <ele>4</ele>
			 </trkpt>
			 <trkpt lat="29.29254" lon="-94.78499">
				 <ele>4</ele>
			 </trkpt>
			 <trkpt lat="29.29129" lon="-94.78659">
				 <ele>4</ele>
			 </trkpt>
			 <trkpt lat="29.29079" lon="-94.7872">
				 <ele>4</ele>
			 </trkpt>
			 <trkpt lat="29.28982" lon="-94.78847">
				 <ele>5</ele>
			 </trkpt>
			 <trkpt lat="29.28924" lon="-94.7892">
				 <ele>5</ele>
			 </trkpt>
			 <trkpt lat="29.28829" lon="-94.79041">
				 <ele>5</ele>
			 </trkpt>
			 <trkpt lat="29.28819" lon="-94.79054">
				 <ele>5</ele>
			 </trkpt>
			 <trkpt lat="29.28771" lon="-94.79128">
				 <ele>5</ele>
			 </trkpt>
			 <trkpt lat="29.28762" lon="-94.79142">
				 <ele>5</ele>
			 </trkpt>
			 <trkpt lat="29.287562" lon="-94.791392">
				 <ele>5</ele>
			 </trkpt>
			 <trkpt lat="29.28819" lon="-94.790491">
				 <ele>5</ele>
			 </trkpt>
			 <trkpt lat="29.290813" lon="-94.78712">
				 <ele>4</ele>
			 </trkpt>
			 <trkpt lat="29.292286" lon="-94.785247">
				 <ele>4</ele>
			 </trkpt>
			 <trkpt lat="29.295366" lon="-94.781311">
				 <ele>4</ele>
			 </trkpt>
			 <trkpt lat="29.297774" lon="-94.778189">
				 <ele>5</ele>
			 </trkpt>
			 <trkpt lat="29.299716" lon="-94.776569">
				 <ele>4</ele>
			 </trkpt>
			 <trkpt lat="29.301575" lon="-94.775062">
				 <ele>5</ele>
			 </trkpt>
			 <trkpt lat="29.303466" lon="-94.773491">
				 <ele>5</ele>
			 </trkpt>
			 <trkpt lat="29.304078" lon="-94.772986">
				 <ele>4</ele>
			 </trkpt>
			 <trkpt lat="29.304981" lon="-94.772203">
				 <ele>4</ele>
			 </trkpt>
			 <trkpt lat="29.305322" lon="-94.771916">
				 <ele>4</ele>
			 </trkpt>
			 <trkpt lat="29.305495" lon="-94.771375">
				 <ele>2</ele>
			 </trkpt>
			 <trkpt lat="29.305723" lon="-94.770924">
				 <ele>2</ele>
			 </trkpt>
			 <trkpt lat="29.306632" lon="-94.770047">
				 <ele>2</ele>
			 </trkpt>
			 <trkpt lat="29.306629" lon="-94.770044">
				 <ele>2</ele>
			 </trkpt>
			 <trkpt lat="29.30663" lon="-94.77005">
				 <ele>2</ele>
			 </trkpt>
			 <trkpt lat="29.30699" lon="-94.76975">
				 <ele>2</ele>
			 </trkpt>
			 <trkpt lat="29.30708" lon="-94.76966">
				 <ele>2</ele>
			 </trkpt>
			 <trkpt lat="29.30744" lon="-94.76915">
				 <ele>4</ele>
			 </trkpt>
			 <trkpt lat="29.30785" lon="-94.76854">
				 <ele>4</ele>
			 </trkpt>
			 <trkpt lat="29.30785" lon="-94.76854">
				 <ele>4</ele>
			 </trkpt>
			 <trkpt lat="29.30808" lon="-94.7682">
				 <ele>4</ele>
			 </trkpt>
			 <trkpt lat="29.30818" lon="-94.76804">
				 <ele>4</ele>
			 </trkpt>
			 <trkpt lat="29.30839" lon="-94.7682">
				 <ele>3</ele>
			 </trkpt>
			 <trkpt lat="29.30868" lon="-94.76839">
				 <ele>2</ele>
			 </trkpt>
			 <trkpt lat="29.30874" lon="-94.76846">
				 <ele>1</ele>
			 </trkpt>
			 <trkpt lat="29.3088" lon="-94.76861">
				 <ele>2</ele>
			 </trkpt>
			 <trkpt lat="29.30881" lon="-94.76869">
				 <ele>2</ele>
			 </trkpt>
			 <trkpt lat="29.30886" lon="-94.76874">
				 <ele>1</ele>
			 </trkpt>
			 <trkpt lat="29.30898" lon="-94.76887">
				 <ele>2</ele>
			 </trkpt>
			 <trkpt lat="29.30959" lon="-94.76837">
				 <ele>2</ele>
			 </trkpt>
			 <trkpt lat="29.31093" lon="-94.76726">
				 <ele>2</ele>
			 </trkpt>
			 <trkpt lat="29.31093" lon="-94.76726">
				 <ele>2</ele>
			 </trkpt>
			 <trkpt lat="29.3116" lon="-94.76671">
				 <ele>2</ele>
			 </trkpt>
			 <trkpt lat="29.31169" lon="-94.76666">
				 <ele>2</ele>
			 </trkpt>
			 <trkpt lat="29.31177" lon="-94.76661">
				 <ele>2</ele>
			 </trkpt>
			 <trkpt lat="29.31194" lon="-94.76647">
				 <ele>2</ele>
			 </trkpt>
			 <trkpt lat="29.31186" lon="-94.76633">
				 <ele>2</ele>
			 </trkpt>
			 <trkpt lat="29.31158" lon="-94.76588">
				 <ele>2</ele>
			 </trkpt>
			 <trkpt lat="29.31152" lon="-94.76577">
				 <ele>2</ele>
			 </trkpt>
			 <trkpt lat="29.31144" lon="-94.76564">
				 <ele>2</ele>
			 </trkpt>
			 <trkpt lat="29.31125" lon="-94.76533">
				 <ele>2</ele>
			 </trkpt>
			 <trkpt lat="29.31107" lon="-94.76487">
				 <ele>2</ele>
			 </trkpt>
			 <trkpt lat="29.31097" lon="-94.76464">
				 <ele>2</ele>
			 </trkpt>
			 <trkpt lat="29.3109" lon="-94.76442">
				 <ele>2</ele>
			 </trkpt>
			 <trkpt lat="29.31091" lon="-94.76415">
				 <ele>2</ele>
			 </trkpt>
			 <trkpt lat="29.31104" lon="-94.76387">
				 <ele>1</ele>
			 </trkpt>
			 <trkpt lat="29.31112" lon="-94.76379">
				 <ele>1</ele>
			 </trkpt>
			 <trkpt lat="29.31112" lon="-94.76379">
				 <ele>2</ele>
			 </trkpt>
			 <trkpt lat="29.31149" lon="-94.76347">
				 <ele>2</ele>
			 </trkpt>
			 <trkpt lat="29.31252" lon="-94.76263">
				 <ele>2</ele>
			 </trkpt>
			 <trkpt lat="29.31278" lon="-94.76234">
				 <ele>1</ele>
			 </trkpt>
			 <trkpt lat="29.31301" lon="-94.76199">
				 <ele>1</ele>
			 </trkpt>
			 <trkpt lat="29.31359" lon="-94.76072">
				 <ele>1</ele>
			 </trkpt>
			 <trkpt lat="29.31365" lon="-94.76036">
				 <ele>2</ele>
			 </trkpt>
			 <trkpt lat="29.31365" lon="-94.76002">
				 <ele>2</ele>
			 </trkpt>
			 <trkpt lat="29.3137" lon="-94.75969">
				 <ele>1</ele>
			 </trkpt>
			 <trkpt lat="29.31382" lon="-94.75936">
				 <ele>1</ele>
			 </trkpt>
			 <trkpt lat="29.31413" lon="-94.7589">
				 <ele>2</ele>
			 </trkpt>
			 <trkpt lat="29.31497" lon="-94.75768">
				 <ele>2</ele>
			 </trkpt>
			 <trkpt lat="29.31497" lon="-94.75768">
				 <ele>2</ele>
			 </trkpt>
			 <trkpt lat="29.319" lon="-94.75169">
				 <ele>1</ele>
			 </trkpt>
			 <trkpt lat="29.31928" lon="-94.75127">
				 <ele>1</ele>
			 </trkpt>
			 <trkpt lat="29.31938" lon="-94.75112">
				 <ele>1</ele>
			 </trkpt>
			 <trkpt lat="29.31939" lon="-94.75104">
				 <ele>1</ele>
			 </trkpt>
			 <trkpt lat="29.31944" lon="-94.7509">
				 <ele>1</ele>
			 </trkpt>
			 <trkpt lat="29.31948" lon="-94.75087">
				 <ele>1</ele>
			 </trkpt>
			 <trkpt lat="29.3195" lon="-94.75073">
				 <ele>1</ele>
			 </trkpt>
			 <trkpt lat="29.31959" lon="-94.75055">
				 <ele>2</ele>
			 </trkpt>
			 <trkpt lat="29.31971" lon="-94.75039">
				 <ele>1</ele>
			 </trkpt>
			 <trkpt lat="29.31988" lon="-94.75027">
				 <ele>2</ele>
			 </trkpt>
			 <trkpt lat="29.31989" lon="-94.75021">
				 <ele>1</ele>
			 </trkpt>
			 <trkpt lat="29.32" lon="-94.75012">
				 <ele>1</ele>
			 </trkpt>
			 <trkpt lat="29.32007" lon="-94.7501">
				 <ele>2</ele>
			 </trkpt>
			 <trkpt lat="29.32014" lon="-94.75001">
				 <ele>2</ele>
			 </trkpt>
			 <trkpt lat="29.3202" lon="-94.74991">
				 <ele>2</ele>
			 </trkpt>
			 <trkpt lat="29.32104" lon="-94.74867">
				 <ele>2</ele>
			 </trkpt>
			 <trkpt lat="29.32214" lon="-94.747">
				 <ele>1</ele>
			 </trkpt>
			 <trkpt lat="29.32309" lon="-94.7456">
				 <ele>1</ele>
			 </trkpt>
			 <trkpt lat="29.3236" lon="-94.74486">
				 <ele>1</ele>
			 </trkpt>
			 <trkpt lat="29.32376" lon="-94.74463">
				 <ele>4</ele>
			 </trkpt>
			 <trkpt lat="29.32398" lon="-94.74445">
				 <ele>4</ele>
			 </trkpt>
			 <trkpt lat="29.32423" lon="-94.74432">
				 <ele>4</ele>
			 </trkpt>
			 <trkpt lat="29.32448" lon="-94.74426">
				 <ele>4</ele>
			 </trkpt>
			 <trkpt lat="29.32504" lon="-94.74417">
				 <ele>4</ele>
			 </trkpt>
			 <trkpt lat="29.32504" lon="-94.74417">
				 <ele>4</ele>
			 </trkpt>
			 <trkpt lat="29.32541" lon="-94.74411">
				 <ele>4</ele>
			 </trkpt>
			 <trkpt lat="29.32584" lon="-94.74405">
				 <ele>4</ele>
			 </trkpt>
			 <trkpt lat="29.32594" lon="-94.74492">
				 <ele>4</ele>
			 </trkpt>
			 <trkpt lat="29.32611" lon="-94.74641">
				 <ele>4</ele>
			 </trkpt>
			 <trkpt lat="29.32613" lon="-94.74712">
				 <ele>4</ele>
			 </trkpt>
			 <trkpt lat="29.32605" lon="-94.74758">
				 <ele>4</ele>
			 </trkpt>
			 <trkpt lat="29.32593" lon="-94.74789">
				 <ele>4</ele>
			 </trkpt>
			 <trkpt lat="29.32576" lon="-94.74819">
				 <ele>4</ele>
			 </trkpt>
			 <trkpt lat="29.32441" lon="-94.75001">
				 <ele>4</ele>
			 </trkpt>
			 <trkpt lat="29.3235" lon="-94.75123">
				 <ele>4</ele>
			 </trkpt>
			 <trkpt lat="29.3235" lon="-94.75123">
				 <ele>4</ele>
			 </trkpt>
			 <trkpt lat="29.32104" lon="-94.75454">
				 <ele>4</ele>
			 </trkpt>
			 <trkpt lat="29.32077" lon="-94.75478">
				 <ele>4</ele>
			 </trkpt>
			 <trkpt lat="29.32034" lon="-94.75509">
				 <ele>4</ele>
			 </trkpt>
			 <trkpt lat="29.32029" lon="-94.75517">
				 <ele>4</ele>
			 </trkpt>
			 <trkpt lat="29.32019" lon="-94.75526">
				 <ele>4</ele>
			 </trkpt>
			 <trkpt lat="29.31979" lon="-94.75556">
				 <ele>4</ele>
			 </trkpt>
			 <trkpt lat="29.31933" lon="-94.7558">
				 <ele>4</ele>
			 </trkpt>
			 <trkpt lat="29.31904" lon="-94.7559">
				 <ele>4</ele>
			 </trkpt>
			 <trkpt lat="29.31881" lon="-94.75592">
				 <ele>1</ele>
			 </trkpt>
			 <trkpt lat="29.31857" lon="-94.75591">
				 <ele>1</ele>
			 </trkpt>
			 <trkpt lat="29.31836" lon="-94.75592">
				 <ele>0</ele>
			 </trkpt>
			 <trkpt lat="29.31816" lon="-94.75597">
				 <ele>1</ele>
			 </trkpt>
			 <trkpt lat="29.318" lon="-94.75602">
				 <ele>1</ele>
			 </trkpt>
			 <trkpt lat="29.31781" lon="-94.75612">
				 <ele>1</ele>
			 </trkpt>
			 <trkpt lat="29.31749" lon="-94.75639">
				 <ele>1</ele>
			 </trkpt>
			 <trkpt lat="29.31742" lon="-94.75649">
				 <ele>1</ele>
			 </trkpt>
			 <trkpt lat="29.31715" lon="-94.7569">
				 <ele>1</ele>
			 </trkpt>
			 <trkpt lat="29.31699" lon="-94.75711">
				 <ele>1</ele>
			 </trkpt>
			 <trkpt lat="29.3168" lon="-94.75728">
				 <ele>1</ele>
			 </trkpt>
			 <trkpt lat="29.31643" lon="-94.75753">
				 <ele>1</ele>
			 </trkpt>
			 <trkpt lat="29.31572" lon="-94.75794">
				 <ele>1</ele>
			 </trkpt>
			 <trkpt lat="29.31541" lon="-94.7581">
				 <ele>1</ele>
			 </trkpt>
			 <trkpt lat="29.31515" lon="-94.75838">
				 <ele>1</ele>
			 </trkpt>
			 <trkpt lat="29.315" lon="-94.75859">
				 <ele>1</ele>
			 </trkpt>
			 <trkpt lat="29.31485" lon="-94.75886">
				 <ele>1</ele>
			 </trkpt>
			 <trkpt lat="29.31478" lon="-94.75904">
				 <ele>1</ele>
			 </trkpt>
			 <trkpt lat="29.31473" lon="-94.75929">
				 <ele>0</ele>
			 </trkpt>
			 <trkpt lat="29.31473" lon="-94.75956">
				 <ele>1</ele>
			 </trkpt>
			 <trkpt lat="29.31479" lon="-94.75985">
				 <ele>1</ele>
			 </trkpt>
			 <trkpt lat="29.31491" lon="-94.76013">
				 <ele>1</ele>
			 </trkpt>
			 <trkpt lat="29.31497" lon="-94.76022">
				 <ele>1</ele>
			 </trkpt>
			 <trkpt lat="29.31507" lon="-94.76032">
				 <ele>0</ele>
			 </trkpt>
			 <trkpt lat="29.31536" lon="-94.76062">
				 <ele>1</ele>
			 </trkpt>
			 <trkpt lat="29.31553" lon="-94.76088">
				 <ele>1</ele>
			 </trkpt>
			 <trkpt lat="29.31561" lon="-94.76108">
				 <ele>1</ele>
			 </trkpt>
			 <trkpt lat="29.31568" lon="-94.76141">
				 <ele>1</ele>
			 </trkpt>
			 <trkpt lat="29.31573" lon="-94.76179">
				 <ele>1</ele>
			 </trkpt>
			 <trkpt lat="29.3158" lon="-94.76232">
				 <ele>0</ele>
			 </trkpt>
			 <trkpt lat="29.31588" lon="-94.76256">
				 <ele>1</ele>
			 </trkpt>
			 <trkpt lat="29.31612" lon="-94.76311">
				 <ele>1</ele>
			 </trkpt>
			 <trkpt lat="29.31622" lon="-94.7633">
				 <ele>4</ele>
			 </trkpt>
			 <trkpt lat="29.31743" lon="-94.76259">
				 <ele>6</ele>
			 </trkpt>
			 <trkpt lat="29.31935" lon="-94.76146">
				 <ele>6</ele>
			 </trkpt>
			 <trkpt lat="29.32012" lon="-94.76101">
				 <ele>6</ele>
			 </trkpt>
			 <trkpt lat="29.32175" lon="-94.76005">
				 <ele>6</ele>
			 </trkpt>
			 <trkpt lat="29.32198" lon="-94.75992">
				 <ele>6</ele>
			 </trkpt>
			 <trkpt lat="29.32198" lon="-94.75992">
				 <ele>6</ele>
			 </trkpt>
			 <trkpt lat="29.32421" lon="-94.75861">
				 <ele>6</ele>
			 </trkpt>
			 <trkpt lat="29.33409" lon="-94.752794">
				 <ele>6</ele>
			 </trkpt>
			 <trkpt lat="29.334335" lon="-94.751997">
				 <ele>6</ele>
			 </trkpt>
			 <trkpt lat="29.334255" lon="-94.751251">
				 <ele>6</ele>
			 </trkpt>
			 <trkpt lat="29.334185" lon="-94.750613">
				 <ele>6</ele>
			 </trkpt>
			 <trkpt lat="29.334297" lon="-94.750007">
				 <ele>6</ele>
			 </trkpt>
			 <trkpt lat="29.33405" lon="-94.747812">
				 <ele>7</ele>
			 </trkpt>
			 <trkpt lat="29.33376" lon="-94.744514">
				 <ele>7</ele>
			 </trkpt>
			 <trkpt lat="29.333631" lon="-94.743457">
				 <ele>6</ele>
			 </trkpt>
			 <trkpt lat="29.333309" lon="-94.741649">
				 <ele>6</ele>
			 </trkpt>
			 <trkpt lat="29.333143" lon="-94.741319">
				 <ele>6</ele>
			 </trkpt>
			 <trkpt lat="29.332409" lon="-94.739801">
				 <ele>6</ele>
			 </trkpt>
			 <trkpt lat="29.332328" lon="-94.73928">
				 <ele>6</ele>
			 </trkpt>
			 <trkpt lat="29.332313" lon="-94.738277">
				 <ele>5</ele>
			 </trkpt>
			 <trkpt lat="29.332332" lon="-94.737859">
				 <ele>5</ele>
			 </trkpt>
			 <trkpt lat="29.332203" lon="-94.737584">
				 <ele>5</ele>
			 </trkpt>
			 <trkpt lat="29.331925" lon="-94.737236">
				 <ele>5</ele>
			 </trkpt>
			 <trkpt lat="29.331968" lon="-94.737179">
				 <ele>5</ele>
			 </trkpt>
			 <trkpt lat="29.332216" lon="-94.737488">
				 <ele>5</ele>
			 </trkpt>
			 <trkpt lat="29.332348" lon="-94.737785">
				 <ele>5</ele>
			 </trkpt>
			 <trkpt lat="29.332368" lon="-94.738438">
				 <ele>5</ele>
			 </trkpt>
			 <trkpt lat="29.332376" lon="-94.739182">
				 <ele>5</ele>
			 </trkpt>
			 <trkpt lat="29.332434" lon="-94.73974">
				 <ele>5</ele>
			 </trkpt>
			 <trkpt lat="29.333036" lon="-94.740974">
				 <ele>5</ele>
			 </trkpt>
			 <trkpt lat="29.333273" lon="-94.741462">
				 <ele>5</ele>
			 </trkpt>
			 <trkpt lat="29.333502" lon="-94.742567">
				 <ele>5</ele>
			 </trkpt>
			 <trkpt lat="29.333736" lon="-94.74391">
				 <ele>5</ele>
			 </trkpt>
			 <trkpt lat="29.333816" lon="-94.744843">
				 <ele>5</ele>
			 </trkpt>
			 <trkpt lat="29.334092" lon="-94.747933">
				 <ele>4</ele>
			 </trkpt>
			 <trkpt lat="29.33433" lon="-94.749963">
				 <ele>4</ele>
			 </trkpt>
			 <trkpt lat="29.334297" lon="-94.750194">
				 <ele>4</ele>
			 </trkpt>
			 <trkpt lat="29.334234" lon="-94.75069">
				 <ele>5</ele>
			 </trkpt>
			 <trkpt lat="29.334314" lon="-94.751406">
				 <ele>5</ele>
			 </trkpt>
			 <trkpt lat="29.334375" lon="-94.751886">
				 <ele>4</ele>
			 </trkpt>
			 <trkpt lat="29.334227" lon="-94.752533">
				 <ele>5</ele>
			 </trkpt>
			 <trkpt lat="29.334017" lon="-94.753042">
				 <ele>5</ele>
			 </trkpt>
			 <trkpt lat="29.32418" lon="-94.758866">
				 <ele>5</ele>
			 </trkpt>
			 <trkpt lat="29.317272" lon="-94.762757">
				 <ele>5</ele>
			 </trkpt>
			 <trkpt lat="29.314903" lon="-94.764152">
				 <ele>5</ele>
			 </trkpt>
			 <trkpt lat="29.3149" lon="-94.76415">
				 <ele>5</ele>
			 </trkpt>
			 <trkpt lat="29.31346" lon="-94.76533">
				 <ele>5</ele>
			 </trkpt>
			 <trkpt lat="29.31182" lon="-94.76668">
				 <ele>4</ele>
			 </trkpt>
			 <trkpt lat="29.31177" lon="-94.76671">
				 <ele>5</ele>
			 </trkpt>
			 <trkpt lat="29.31177" lon="-94.76676">
				 <ele>5</ele>
			 </trkpt>
			 <trkpt lat="29.31174" lon="-94.76682">
				 <ele>5</ele>
			 </trkpt>
			 <trkpt lat="29.3112" lon="-94.76728">
				 <ele>5</ele>
			 </trkpt>
			 <trkpt lat="29.31029" lon="-94.76806">
				 <ele>5</ele>
			 </trkpt>
			 <trkpt lat="29.308718" lon="-94.769298">
				 <ele>5</ele>
			 </trkpt>
			 <trkpt lat="29.30872" lon="-94.7693">
				 <ele>5</ele>
			 </trkpt>
			 <trkpt lat="29.30766" lon="-94.77018">
				 <ele>5</ele>
			 </trkpt>
			 <trkpt lat="29.30766" lon="-94.77018">
				 <ele>5</ele>
			 </trkpt>
			 <trkpt lat="29.30554" lon="-94.77194">
				 <ele>5</ele>
			 </trkpt>
			 <trkpt lat="29.3054" lon="-94.7721">
				 <ele>4</ele>
			 </trkpt>
			 <trkpt lat="29.30535" lon="-94.77224">
				 <ele>4</ele>
			 </trkpt>
			 <trkpt lat="29.30524" lon="-94.77266">
				 <ele>4</ele>
			 </trkpt>
			 <trkpt lat="29.30508" lon="-94.77262">
				 <ele>4</ele>
			 </trkpt>
			 <trkpt lat="29.30484" lon="-94.77266">
				 <ele>4</ele>
			 </trkpt>
			 <trkpt lat="29.30456" lon="-94.77276">
				 <ele>4</ele>
			 </trkpt>
			 <trkpt lat="29.3042" lon="-94.77301">
				 <ele>4</ele>
			 </trkpt>
			 <trkpt lat="29.30411" lon="-94.77302">
				 <ele>4</ele>
			 </trkpt>
			 <trkpt lat="29.30384" lon="-94.77324">
				 <ele>4</ele>
			 </trkpt>
			 <trkpt lat="29.30287" lon="-94.77404">
				 <ele>4</ele>
			 </trkpt>
			 <trkpt lat="29.30112" lon="-94.77549">
				 <ele>4</ele>
			 </trkpt>
			 <trkpt lat="29.29902" lon="-94.7772">
				 <ele>4</ele>
			 </trkpt>
			 <trkpt lat="29.29798" lon="-94.77804">
				 <ele>4</ele>
			 </trkpt>
			 <trkpt lat="29.29774" lon="-94.77829">
				 <ele>4</ele>
			 </trkpt>
			 <trkpt lat="29.29671" lon="-94.77962">
				 <ele>4</ele>
			 </trkpt>
			 <trkpt lat="29.2954" lon="-94.7813">
				 <ele>4</ele>
			 </trkpt>
			 <trkpt lat="29.2954" lon="-94.7813">
				 <ele>4</ele>
			 </trkpt>
			 <trkpt lat="29.29349" lon="-94.78374">
				 <ele>4</ele>
			 </trkpt>
			 <trkpt lat="29.2931" lon="-94.78425">
				 <ele>4</ele>
			 </trkpt>
			 <trkpt lat="29.29254" lon="-94.78499">
				 <ele>4</ele>
			 </trkpt>
			 <trkpt lat="29.29129" lon="-94.78659">
				 <ele>4</ele>
			 </trkpt>
			 <trkpt lat="29.29079" lon="-94.7872">
				 <ele>4</ele>
			 </trkpt>
			 <trkpt lat="29.28982" lon="-94.78847">
				 <ele>5</ele>
			 </trkpt>
			 <trkpt lat="29.28924" lon="-94.7892">
				 <ele>5</ele>
			 </trkpt>
			 <trkpt lat="29.28829" lon="-94.79041">
				 <ele>5</ele>
			 </trkpt>
			 <trkpt lat="29.28819" lon="-94.79054">
				 <ele>5</ele>
			 </trkpt>
			 <trkpt lat="29.28771" lon="-94.79128">
				 <ele>5</ele>
			 </trkpt>
			 <trkpt lat="29.28762" lon="-94.79142">
				 <ele>5</ele>
			 </trkpt>
			 <trkpt lat="29.287562" lon="-94.791392">
				 <ele>5</ele>
			 </trkpt>
			 <trkpt lat="29.28819" lon="-94.790491">
				 <ele>5</ele>
			 </trkpt>
			 <trkpt lat="29.290813" lon="-94.78712">
				 <ele>4</ele>
			 </trkpt>
			 <trkpt lat="29.292286" lon="-94.785247">
				 <ele>4</ele>
			 </trkpt>
			 <trkpt lat="29.295366" lon="-94.781311">
				 <ele>4</ele>
			 </trkpt>
			 <trkpt lat="29.297774" lon="-94.778189">
				 <ele>5</ele>
			 </trkpt>
			 <trkpt lat="29.299716" lon="-94.776569">
				 <ele>4</ele>
			 </trkpt>
			 <trkpt lat="29.301575" lon="-94.775062">
				 <ele>5</ele>
			 </trkpt>
			 <trkpt lat="29.303466" lon="-94.773491">
				 <ele>5</ele>
			 </trkpt>
			 <trkpt lat="29.304078" lon="-94.772986">
				 <ele>4</ele>
			 </trkpt>
			 <trkpt lat="29.304981" lon="-94.772203">
				 <ele>4</ele>
			 </trkpt>
			 <trkpt lat="29.305322" lon="-94.771916">
				 <ele>4</ele>
			 </trkpt>
			 <trkpt lat="29.305495" lon="-94.771375">
				 <ele>2</ele>
			 </trkpt>
			 <trkpt lat="29.305723" lon="-94.770924">
				 <ele>2</ele>
			 </trkpt>
			 <trkpt lat="29.306632" lon="-94.770047">
				 <ele>2</ele>
			 </trkpt>
		 </trkseg>
	 </trk>
</gpx>