<?xml version="1.0" encoding="UTF-8"?>
 <gpx creator="Garmin Connect" version="1.1"
	 xsi:schemaLocation="http://www.topografix.com/GPX/1/1 http://www.topografix.com/GPX/11.xsd"
	 xmlns:ns3="http://www.garmin.com/xmlschemas/TrackPointExtension/v1"
	 xmlns="http://www.topografix.com/GPX/1/1"
	 xmlns:xsi="http://www.w3.org/2001/XMLSchema-instance" xmlns:ns2="http://www.garmin.com/xmlschemas/GpxExtensions/v3">
	 <metadata>
		<name>Grandma’s Marathon - 42.195 km</name>
		 <link href="https://www.goandrace.com">
		 <text>Garmin Connect</text>
		 </link>
	 <time>2026-08-09T16:49:36</time>
	 </metadata>
	 <trk>
		 <name>Grandma’s Marathon - 42.195 km</name>
		 <trkseg>
			 <trkpt lat="47.006947" lon="-91.711901">
				 <ele>221.7</ele>
			 </trkpt>
			 <trkpt lat="47.00694" lon="-91.71188">
				 <ele>221.6</ele>
			 </trkpt>
			 <trkpt lat="47.0062" lon="-91.71284">
				 <ele>221.6</ele>
			 </trkpt>
			 <trkpt lat="47.0062" lon="-91.71284">
				 <ele>221.7</ele>
			 </trkpt>
			 <trkpt lat="47.00172" lon="-91.71863">
				 <ele>221.5</ele>
			 </trkpt>
			 <trkpt lat="47.00058" lon="-91.72012">
				 <ele>221.2</ele>
			 </trkpt>
			 <trkpt lat="47.0001" lon="-91.72074">
				 <ele>220.8</ele>
			 </trkpt>
			 <trkpt lat="46.99843" lon="-91.7229">
				 <ele>220.4</ele>
			 </trkpt>
			 <trkpt lat="46.99717" lon="-91.72457">
				 <ele>219.8</ele>
			 </trkpt>
			 <trkpt lat="46.99669" lon="-91.72519">
				 <ele>218.8</ele>
			 </trkpt>
			 <trkpt lat="46.99635" lon="-91.72559">
				 <ele>217.7</ele>
			 </trkpt>
			 <trkpt lat="46.99609" lon="-91.72593">
				 <ele>217</ele>
			 </trkpt>
			 <trkpt lat="46.99416" lon="-91.72844">
				 <ele>216.6</ele>
			 </trkpt>
			 <trkpt lat="46.99331" lon="-91.72953">
				 <ele>216.4</ele>
			 </trkpt>
			 <trkpt lat="46.99166" lon="-91.73166">
				 <ele>216</ele>
			 </trkpt>
			 <trkpt lat="46.99042" lon="-91.73329">
				 <ele>215.6</ele>
			 </trkpt>
			 <trkpt lat="46.98948" lon="-91.73451">
				 <ele>215.3</ele>
			 </trkpt>
			 <trkpt lat="46.98877" lon="-91.7354">
				 <ele>214.9</ele>
			 </trkpt>
			 <trkpt lat="46.98794" lon="-91.73634">
				 <ele>214.6</ele>
			 </trkpt>
			 <trkpt lat="46.98761" lon="-91.73667">
				 <ele>214.2</ele>
			 </trkpt>
			 <trkpt lat="46.98736" lon="-91.73697">
				 <ele>213.6</ele>
			 </trkpt>
			 <trkpt lat="46.98682" lon="-91.73756">
				 <ele>212.9</ele>
			 </trkpt>
			 <trkpt lat="46.98668" lon="-91.73771">
				 <ele>211.9</ele>
			 </trkpt>
			 <trkpt lat="46.98668" lon="-91.73771">
				 <ele>210.5</ele>
			 </trkpt>
			 <trkpt lat="46.9813" lon="-91.74352">
				 <ele>209</ele>
			 </trkpt>
			 <trkpt lat="46.97988" lon="-91.74501">
				 <ele>207.5</ele>
			 </trkpt>
			 <trkpt lat="46.97972" lon="-91.74519">
				 <ele>206.1</ele>
			 </trkpt>
			 <trkpt lat="46.97892" lon="-91.74604">
				 <ele>204.8</ele>
			 </trkpt>
			 <trkpt lat="46.97764" lon="-91.74745">
				 <ele>203.6</ele>
			 </trkpt>
			 <trkpt lat="46.97725" lon="-91.74796">
				 <ele>202.5</ele>
			 </trkpt>
			 <trkpt lat="46.97704" lon="-91.7483">
				 <ele>201.6</ele>
			 </trkpt>
			 <trkpt lat="46.97613" lon="-91.74996">
				 <ele>201.5</ele>
			 </trkpt>
			 <trkpt lat="46.97391" lon="-91.75403">
				 <ele>201.2</ele>
			 </trkpt>
			 <trkpt lat="46.97316" lon="-91.75539">
				 <ele>201.1</ele>
			 </trkpt>
			 <trkpt lat="46.97301" lon="-91.75561">
				 <ele>201.1</ele>
			 </trkpt>
			 <trkpt lat="46.97237" lon="-91.75676">
				 <ele>201</ele>
			 </trkpt>
			 <trkpt lat="46.97206" lon="-91.75723">
				 <ele>200.9</ele>
			 </trkpt>
			 <trkpt lat="46.9716" lon="-91.75778">
				 <ele>200.9</ele>
			 </trkpt>
			 <trkpt lat="46.97124" lon="-91.75813">
				 <ele>200.9</ele>
			 </trkpt>
			 <trkpt lat="46.97103" lon="-91.75831">
				 <ele>200.8</ele>
			 </trkpt>
			 <trkpt lat="46.97081" lon="-91.75848">
				 <ele>200.7</ele>
			 </trkpt>
			 <trkpt lat="46.97067" lon="-91.75856">
				 <ele>200.5</ele>
			 </trkpt>
			 <trkpt lat="46.97028" lon="-91.75878">
				 <ele>200.4</ele>
			 </trkpt>
			 <trkpt lat="46.96968" lon="-91.75909">
				 <ele>200.3</ele>
			 </trkpt>
			 <trkpt lat="46.96761" lon="-91.76013">
				 <ele>200.2</ele>
			 </trkpt>
			 <trkpt lat="46.96656" lon="-91.76066">
				 <ele>200.1</ele>
			 </trkpt>
			 <trkpt lat="46.96612" lon="-91.76089">
				 <ele>200.1</ele>
			 </trkpt>
			 <trkpt lat="46.96515" lon="-91.76138">
				 <ele>200.2</ele>
			 </trkpt>
			 <trkpt lat="46.96505" lon="-91.76138">
				 <ele>200.3</ele>
			 </trkpt>
			 <trkpt lat="46.96451" lon="-91.76166">
				 <ele>200.4</ele>
			 </trkpt>
			 <trkpt lat="46.96443" lon="-91.76177">
				 <ele>200.5</ele>
			 </trkpt>
			 <trkpt lat="46.96387" lon="-91.76206">
				 <ele>200.7</ele>
			 </trkpt>
			 <trkpt lat="46.96349" lon="-91.7623">
				 <ele>200.9</ele>
			 </trkpt>
			 <trkpt lat="46.96315" lon="-91.76255">
				 <ele>200.6</ele>
			 </trkpt>
			 <trkpt lat="46.96283" lon="-91.76281">
				 <ele>200.3</ele>
			 </trkpt>
			 <trkpt lat="46.96247" lon="-91.76318">
				 <ele>199.9</ele>
			 </trkpt>
			 <trkpt lat="46.96198" lon="-91.76382">
				 <ele>199.5</ele>
			 </trkpt>
			 <trkpt lat="46.96102" lon="-91.76523">
				 <ele>199.2</ele>
			 </trkpt>
			 <trkpt lat="46.95875" lon="-91.76858">
				 <ele>198.7</ele>
			 </trkpt>
			 <trkpt lat="46.95848" lon="-91.76898">
				 <ele>198.3</ele>
			 </trkpt>
			 <trkpt lat="46.95769" lon="-91.77015">
				 <ele>197.8</ele>
			 </trkpt>
			 <trkpt lat="46.95762" lon="-91.7703">
				 <ele>197.4</ele>
			 </trkpt>
			 <trkpt lat="46.95714" lon="-91.771">
				 <ele>196.9</ele>
			 </trkpt>
			 <trkpt lat="46.95669" lon="-91.77167">
				 <ele>196.4</ele>
			 </trkpt>
			 <trkpt lat="46.95548" lon="-91.77345">
				 <ele>196.1</ele>
			 </trkpt>
			 <trkpt lat="46.95548" lon="-91.77345">
				 <ele>195.9</ele>
			 </trkpt>
			 <trkpt lat="46.95473" lon="-91.77457">
				 <ele>195.6</ele>
			 </trkpt>
			 <trkpt lat="46.95403" lon="-91.77559">
				 <ele>195.4</ele>
			 </trkpt>
			 <trkpt lat="46.95393" lon="-91.77571">
				 <ele>195.2</ele>
			 </trkpt>
			 <trkpt lat="46.95312" lon="-91.77698">
				 <ele>195</ele>
			 </trkpt>
			 <trkpt lat="46.95277" lon="-91.77751">
				 <ele>194.8</ele>
			 </trkpt>
			 <trkpt lat="46.95266" lon="-91.77762">
				 <ele>194.6</ele>
			 </trkpt>
			 <trkpt lat="46.95207" lon="-91.77849">
				 <ele>194.5</ele>
			 </trkpt>
			 <trkpt lat="46.95119" lon="-91.77976">
				 <ele>194</ele>
			 </trkpt>
			 <trkpt lat="46.95109" lon="-91.77989">
				 <ele>193.4</ele>
			 </trkpt>
			 <trkpt lat="46.95088" lon="-91.78019">
				 <ele>192.7</ele>
			 </trkpt>
			 <trkpt lat="46.95079" lon="-91.78035">
				 <ele>192.2</ele>
			 </trkpt>
			 <trkpt lat="46.95071" lon="-91.78046">
				 <ele>191.7</ele>
			 </trkpt>
			 <trkpt lat="46.95012" lon="-91.78124">
				 <ele>191.3</ele>
			 </trkpt>
			 <trkpt lat="46.94919" lon="-91.78239">
				 <ele>190.8</ele>
			 </trkpt>
			 <trkpt lat="46.94822" lon="-91.78357">
				 <ele>190.4</ele>
			 </trkpt>
			 <trkpt lat="46.94782" lon="-91.78409">
				 <ele>190.2</ele>
			 </trkpt>
			 <trkpt lat="46.94744" lon="-91.7846">
				 <ele>190.4</ele>
			 </trkpt>
			 <trkpt lat="46.94734" lon="-91.78468">
				 <ele>190.6</ele>
			 </trkpt>
			 <trkpt lat="46.9472" lon="-91.78483">
				 <ele>191.3</ele>
			 </trkpt>
			 <trkpt lat="46.94713" lon="-91.78496">
				 <ele>192.2</ele>
			 </trkpt>
			 <trkpt lat="46.94647" lon="-91.78572">
				 <ele>193.1</ele>
			 </trkpt>
			 <trkpt lat="46.94576" lon="-91.78659">
				 <ele>193.9</ele>
			 </trkpt>
			 <trkpt lat="46.94553" lon="-91.78691">
				 <ele>194.6</ele>
			 </trkpt>
			 <trkpt lat="46.94414" lon="-91.78902">
				 <ele>195.4</ele>
			 </trkpt>
			 <trkpt lat="46.94394" lon="-91.78934">
				 <ele>196.1</ele>
			 </trkpt>
			 <trkpt lat="46.94377" lon="-91.78965">
				 <ele>196.8</ele>
			 </trkpt>
			 <trkpt lat="46.94367" lon="-91.78986">
				 <ele>197.3</ele>
			 </trkpt>
			 <trkpt lat="46.94355" lon="-91.7902">
				 <ele>197.3</ele>
			 </trkpt>
			 <trkpt lat="46.94343" lon="-91.79066">
				 <ele>197.1</ele>
			 </trkpt>
			 <trkpt lat="46.94338" lon="-91.79101">
				 <ele>196.8</ele>
			 </trkpt>
			 <trkpt lat="46.94333" lon="-91.79113">
				 <ele>196.5</ele>
			 </trkpt>
			 <trkpt lat="46.94327" lon="-91.79157">
				 <ele>196.2</ele>
			 </trkpt>
			 <trkpt lat="46.94322" lon="-91.79193">
				 <ele>195.9</ele>
			 </trkpt>
			 <trkpt lat="46.94316" lon="-91.79213">
				 <ele>195.5</ele>
			 </trkpt>
			 <trkpt lat="46.94306" lon="-91.79234">
				 <ele>195.1</ele>
			 </trkpt>
			 <trkpt lat="46.94297" lon="-91.79249">
				 <ele>194.6</ele>
			 </trkpt>
			 <trkpt lat="46.94284" lon="-91.79265">
				 <ele>194.1</ele>
			 </trkpt>
			 <trkpt lat="46.94273" lon="-91.79274">
				 <ele>193.7</ele>
			 </trkpt>
			 <trkpt lat="46.94249" lon="-91.79285">
				 <ele>193.5</ele>
			 </trkpt>
			 <trkpt lat="46.9424" lon="-91.79285">
				 <ele>193.4</ele>
			 </trkpt>
			 <trkpt lat="46.94234" lon="-91.79282">
				 <ele>193.3</ele>
			 </trkpt>
			 <trkpt lat="46.94181" lon="-91.79302">
				 <ele>193.2</ele>
			 </trkpt>
			 <trkpt lat="46.94155" lon="-91.79317">
				 <ele>193.2</ele>
			 </trkpt>
			 <trkpt lat="46.94139" lon="-91.7933">
				 <ele>193.2</ele>
			 </trkpt>
			 <trkpt lat="46.94122" lon="-91.79348">
				 <ele>193.4</ele>
			 </trkpt>
			 <trkpt lat="46.94097" lon="-91.79389">
				 <ele>193.5</ele>
			 </trkpt>
			 <trkpt lat="46.94077" lon="-91.7943">
				 <ele>193.5</ele>
			 </trkpt>
			 <trkpt lat="46.94" lon="-91.7959">
				 <ele>193.7</ele>
			 </trkpt>
			 <trkpt lat="46.93969" lon="-91.79654">
				 <ele>193.8</ele>
			 </trkpt>
			 <trkpt lat="46.93828" lon="-91.79947">
				 <ele>193.8</ele>
			 </trkpt>
			 <trkpt lat="46.93821" lon="-91.79968">
				 <ele>193.6</ele>
			 </trkpt>
			 <trkpt lat="46.93742" lon="-91.80125">
				 <ele>193.5</ele>
			 </trkpt>
			 <trkpt lat="46.9373" lon="-91.80143">
				 <ele>193.5</ele>
			 </trkpt>
			 <trkpt lat="46.93703" lon="-91.802">
				 <ele>193.3</ele>
			 </trkpt>
			 <trkpt lat="46.93659" lon="-91.80288">
				 <ele>193.2</ele>
			 </trkpt>
			 <trkpt lat="46.93657" lon="-91.80291">
				 <ele>193.2</ele>
			 </trkpt>
			 <trkpt lat="46.93621" lon="-91.80357">
				 <ele>193.2</ele>
			 </trkpt>
			 <trkpt lat="46.93577" lon="-91.8043">
				 <ele>193.2</ele>
			 </trkpt>
			 <trkpt lat="46.93478" lon="-91.8059">
				 <ele>193</ele>
			 </trkpt>
			 <trkpt lat="46.9337" lon="-91.80758">
				 <ele>192.6</ele>
			 </trkpt>
			 <trkpt lat="46.93309" lon="-91.80851">
				 <ele>192.5</ele>
			 </trkpt>
			 <trkpt lat="46.93239" lon="-91.80952">
				 <ele>192.5</ele>
			 </trkpt>
			 <trkpt lat="46.93116" lon="-91.81129">
				 <ele>192.4</ele>
			 </trkpt>
			 <trkpt lat="46.93102" lon="-91.81149">
				 <ele>192.2</ele>
			 </trkpt>
			 <trkpt lat="46.93063" lon="-91.81202">
				 <ele>192.2</ele>
			 </trkpt>
			 <trkpt lat="46.93028" lon="-91.81254">
				 <ele>192</ele>
			 </trkpt>
			 <trkpt lat="46.93023" lon="-91.81269">
				 <ele>191.9</ele>
			 </trkpt>
			 <trkpt lat="46.92998" lon="-91.81314">
				 <ele>191.9</ele>
			 </trkpt>
			 <trkpt lat="46.92974" lon="-91.81367">
				 <ele>192</ele>
			 </trkpt>
			 <trkpt lat="46.92949" lon="-91.81438">
				 <ele>192.4</ele>
			 </trkpt>
			 <trkpt lat="46.9293" lon="-91.81512">
				 <ele>193.1</ele>
			 </trkpt>
			 <trkpt lat="46.9292" lon="-91.8157">
				 <ele>193.8</ele>
			 </trkpt>
			 <trkpt lat="46.92914" lon="-91.81626">
				 <ele>194.5</ele>
			 </trkpt>
			 <trkpt lat="46.92911" lon="-91.81672">
				 <ele>195.2</ele>
			 </trkpt>
			 <trkpt lat="46.92911" lon="-91.81728">
				 <ele>195.9</ele>
			 </trkpt>
			 <trkpt lat="46.92914" lon="-91.81806">
				 <ele>196.5</ele>
			 </trkpt>
			 <trkpt lat="46.92922" lon="-91.81947">
				 <ele>197.3</ele>
			 </trkpt>
			 <trkpt lat="46.92926" lon="-91.82069">
				 <ele>198.1</ele>
			 </trkpt>
			 <trkpt lat="46.92926" lon="-91.8216">
				 <ele>198.8</ele>
			 </trkpt>
			 <trkpt lat="46.92926" lon="-91.82242">
				 <ele>199.5</ele>
			 </trkpt>
			 <trkpt lat="46.92926" lon="-91.82242">
				 <ele>200.1</ele>
			 </trkpt>
			 <trkpt lat="46.92924" lon="-91.82459">
				 <ele>200.6</ele>
			 </trkpt>
			 <trkpt lat="46.92921" lon="-91.82761">
				 <ele>200.5</ele>
			 </trkpt>
			 <trkpt lat="46.92918" lon="-91.83047">
				 <ele>200.7</ele>
			 </trkpt>
			 <trkpt lat="46.92917" lon="-91.83094">
				 <ele>201.1</ele>
			 </trkpt>
			 <trkpt lat="46.9291" lon="-91.83178">
				 <ele>201.6</ele>
			 </trkpt>
			 <trkpt lat="46.92899" lon="-91.83239">
				 <ele>202.5</ele>
			 </trkpt>
			 <trkpt lat="46.92864" lon="-91.83405">
				 <ele>203.5</ele>
			 </trkpt>
			 <trkpt lat="46.92795" lon="-91.83728">
				 <ele>204</ele>
			 </trkpt>
			 <trkpt lat="46.92741" lon="-91.83978">
				 <ele>204.5</ele>
			 </trkpt>
			 <trkpt lat="46.92719" lon="-91.84068">
				 <ele>204.9</ele>
			 </trkpt>
			 <trkpt lat="46.92581" lon="-91.84604">
				 <ele>205.3</ele>
			 </trkpt>
			 <trkpt lat="46.92561" lon="-91.84686">
				 <ele>205.4</ele>
			 </trkpt>
			 <trkpt lat="46.92545" lon="-91.84748">
				 <ele>206</ele>
			 </trkpt>
			 <trkpt lat="46.92529" lon="-91.84799">
				 <ele>206.3</ele>
			 </trkpt>
			 <trkpt lat="46.92507" lon="-91.84871">
				 <ele>206.4</ele>
			 </trkpt>
			 <trkpt lat="46.92488" lon="-91.84921">
				 <ele>206.3</ele>
			 </trkpt>
			 <trkpt lat="46.9247" lon="-91.84959">
				 <ele>205.8</ele>
			 </trkpt>
			 <trkpt lat="46.92448" lon="-91.84998">
				 <ele>205.5</ele>
			 </trkpt>
			 <trkpt lat="46.92413" lon="-91.85051">
				 <ele>205.2</ele>
			 </trkpt>
			 <trkpt lat="46.92402" lon="-91.85065">
				 <ele>204.9</ele>
			 </trkpt>
			 <trkpt lat="46.92377" lon="-91.85087">
				 <ele>204.7</ele>
			 </trkpt>
			 <trkpt lat="46.92345" lon="-91.85117">
				 <ele>204.5</ele>
			 </trkpt>
			 <trkpt lat="46.92323" lon="-91.85136">
				 <ele>204.5</ele>
			 </trkpt>
			 <trkpt lat="46.92279" lon="-91.85166">
				 <ele>204.3</ele>
			 </trkpt>
			 <trkpt lat="46.92243" lon="-91.85184">
				 <ele>203.7</ele>
			 </trkpt>
			 <trkpt lat="46.92218" lon="-91.85194">
				 <ele>203</ele>
			 </trkpt>
			 <trkpt lat="46.92183" lon="-91.85204">
				 <ele>202.1</ele>
			 </trkpt>
			 <trkpt lat="46.92169" lon="-91.85207">
				 <ele>201.1</ele>
			 </trkpt>
			 <trkpt lat="46.92123" lon="-91.85212">
				 <ele>199.6</ele>
			 </trkpt>
			 <trkpt lat="46.92009" lon="-91.8521">
				 <ele>198.2</ele>
			 </trkpt>
			 <trkpt lat="46.91962" lon="-91.85214">
				 <ele>196.7</ele>
			 </trkpt>
			 <trkpt lat="46.91925" lon="-91.85222">
				 <ele>195.3</ele>
			 </trkpt>
			 <trkpt lat="46.91883" lon="-91.85235">
				 <ele>193.9</ele>
			 </trkpt>
			 <trkpt lat="46.91846" lon="-91.85252">
				 <ele>192.5</ele>
			 </trkpt>
			 <trkpt lat="46.91785" lon="-91.85288">
				 <ele>191.1</ele>
			 </trkpt>
			 <trkpt lat="46.91655" lon="-91.85369">
				 <ele>190.2</ele>
			 </trkpt>
			 <trkpt lat="46.91565" lon="-91.85428">
				 <ele>189.5</ele>
			 </trkpt>
			 <trkpt lat="46.91538" lon="-91.8545">
				 <ele>188.9</ele>
			 </trkpt>
			 <trkpt lat="46.91492" lon="-91.85492">
				 <ele>188.5</ele>
			 </trkpt>
			 <trkpt lat="46.9144" lon="-91.85552">
				 <ele>188.4</ele>
			 </trkpt>
			 <trkpt lat="46.91403" lon="-91.85602">
				 <ele>188.3</ele>
			 </trkpt>
			 <trkpt lat="46.91377" lon="-91.85642">
				 <ele>188.3</ele>
			 </trkpt>
			 <trkpt lat="46.91355" lon="-91.85681">
				 <ele>188.3</ele>
			 </trkpt>
			 <trkpt lat="46.91334" lon="-91.85718">
				 <ele>188.3</ele>
			 </trkpt>
			 <trkpt lat="46.91254" lon="-91.85876">
				 <ele>188.4</ele>
			 </trkpt>
			 <trkpt lat="46.91237" lon="-91.85908">
				 <ele>188.5</ele>
			 </trkpt>
			 <trkpt lat="46.9118" lon="-91.85996">
				 <ele>188.5</ele>
			 </trkpt>
			 <trkpt lat="46.91093" lon="-91.86128">
				 <ele>188.8</ele>
			 </trkpt>
			 <trkpt lat="46.91068" lon="-91.86173">
				 <ele>189.2</ele>
			 </trkpt>
			 <trkpt lat="46.9105" lon="-91.86214">
				 <ele>189.5</ele>
			 </trkpt>
			 <trkpt lat="46.91035" lon="-91.86257">
				 <ele>190</ele>
			 </trkpt>
			 <trkpt lat="46.91024" lon="-91.86295">
				 <ele>190.4</ele>
			 </trkpt>
			 <trkpt lat="46.90917" lon="-91.86657">
				 <ele>190.7</ele>
			 </trkpt>
			 <trkpt lat="46.90905" lon="-91.86697">
				 <ele>191.3</ele>
			 </trkpt>
			 <trkpt lat="46.90893" lon="-91.86746">
				 <ele>191.8</ele>
			 </trkpt>
			 <trkpt lat="46.90887" lon="-91.86779">
				 <ele>192.4</ele>
			 </trkpt>
			 <trkpt lat="46.90882" lon="-91.86833">
				 <ele>192.9</ele>
			 </trkpt>
			 <trkpt lat="46.90879" lon="-91.86896">
				 <ele>193.5</ele>
			 </trkpt>
			 <trkpt lat="46.90871" lon="-91.87146">
				 <ele>193.8</ele>
			 </trkpt>
			 <trkpt lat="46.90866" lon="-91.87235">
				 <ele>194</ele>
			 </trkpt>
			 <trkpt lat="46.90857" lon="-91.8733">
				 <ele>194.4</ele>
			 </trkpt>
			 <trkpt lat="46.9084" lon="-91.8744">
				 <ele>194.7</ele>
			 </trkpt>
			 <trkpt lat="46.90827" lon="-91.87507">
				 <ele>195.2</ele>
			 </trkpt>
			 <trkpt lat="46.90799" lon="-91.8764">
				 <ele>195.6</ele>
			 </trkpt>
			 <trkpt lat="46.90767" lon="-91.8777">
				 <ele>195.6</ele>
			 </trkpt>
			 <trkpt lat="46.90746" lon="-91.87847">
				 <ele>195.5</ele>
			 </trkpt>
			 <trkpt lat="46.90717" lon="-91.87942">
				 <ele>195.8</ele>
			 </trkpt>
			 <trkpt lat="46.907" lon="-91.8799">
				 <ele>196</ele>
			 </trkpt>
			 <trkpt lat="46.90671" lon="-91.8806">
				 <ele>196.2</ele>
			 </trkpt>
			 <trkpt lat="46.90583" lon="-91.88242">
				 <ele>196.2</ele>
			 </trkpt>
			 <trkpt lat="46.90527" lon="-91.8836">
				 <ele>196.4</ele>
			 </trkpt>
			 <trkpt lat="46.9037" lon="-91.88688">
				 <ele>196.3</ele>
			 </trkpt>
			 <trkpt lat="46.90357" lon="-91.88716">
				 <ele>196</ele>
			 </trkpt>
			 <trkpt lat="46.90357" lon="-91.88716">
				 <ele>195.6</ele>
			 </trkpt>
			 <trkpt lat="46.90312" lon="-91.88807">
				 <ele>195</ele>
			 </trkpt>
			 <trkpt lat="46.90272" lon="-91.8889">
				 <ele>194.5</ele>
			 </trkpt>
			 <trkpt lat="46.9025" lon="-91.88927">
				 <ele>194.1</ele>
			 </trkpt>
			 <trkpt lat="46.90232" lon="-91.88952">
				 <ele>193.1</ele>
			 </trkpt>
			 <trkpt lat="46.90194" lon="-91.88997">
				 <ele>192.4</ele>
			 </trkpt>
			 <trkpt lat="46.90075" lon="-91.89114">
				 <ele>191.9</ele>
			 </trkpt>
			 <trkpt lat="46.90038" lon="-91.89157">
				 <ele>191.8</ele>
			 </trkpt>
			 <trkpt lat="46.90002" lon="-91.89206">
				 <ele>191.7</ele>
			 </trkpt>
			 <trkpt lat="46.89971" lon="-91.89252">
				 <ele>191.6</ele>
			 </trkpt>
			 <trkpt lat="46.8995" lon="-91.89288">
				 <ele>191.6</ele>
			 </trkpt>
			 <trkpt lat="46.89905" lon="-91.89365">
				 <ele>191.6</ele>
			 </trkpt>
			 <trkpt lat="46.89865" lon="-91.89436">
				 <ele>191.8</ele>
			 </trkpt>
			 <trkpt lat="46.8981" lon="-91.89527">
				 <ele>192</ele>
			 </trkpt>
			 <trkpt lat="46.89786" lon="-91.89564">
				 <ele>192.4</ele>
			 </trkpt>
			 <trkpt lat="46.89761" lon="-91.89596">
				 <ele>192.9</ele>
			 </trkpt>
			 <trkpt lat="46.89685" lon="-91.89679">
				 <ele>193.2</ele>
			 </trkpt>
			 <trkpt lat="46.89652" lon="-91.89723">
				 <ele>193.2</ele>
			 </trkpt>
			 <trkpt lat="46.89634" lon="-91.89752">
				 <ele>192.9</ele>
			 </trkpt>
			 <trkpt lat="46.89553" lon="-91.8989">
				 <ele>192.5</ele>
			 </trkpt>
			 <trkpt lat="46.89464" lon="-91.90042">
				 <ele>192.3</ele>
			 </trkpt>
			 <trkpt lat="46.8934" lon="-91.90255">
				 <ele>191.9</ele>
			 </trkpt>
			 <trkpt lat="46.89292" lon="-91.90336">
				 <ele>191.6</ele>
			 </trkpt>
			 <trkpt lat="46.89272" lon="-91.90372">
				 <ele>191.5</ele>
			 </trkpt>
			 <trkpt lat="46.89194" lon="-91.90493">
				 <ele>191.5</ele>
			 </trkpt>
			 <trkpt lat="46.89119" lon="-91.906">
				 <ele>191.3</ele>
			 </trkpt>
			 <trkpt lat="46.89087" lon="-91.90638">
				 <ele>191.1</ele>
			 </trkpt>
			 <trkpt lat="46.89053" lon="-91.90681">
				 <ele>190.9</ele>
			 </trkpt>
			 <trkpt lat="46.89043" lon="-91.90698">
				 <ele>190.5</ele>
			 </trkpt>
			 <trkpt lat="46.89023" lon="-91.90723">
				 <ele>190.3</ele>
			 </trkpt>
			 <trkpt lat="46.88991" lon="-91.90761">
				 <ele>189.9</ele>
			 </trkpt>
			 <trkpt lat="46.88942" lon="-91.90817">
				 <ele>189.5</ele>
			 </trkpt>
			 <trkpt lat="46.88925" lon="-91.90833">
				 <ele>189.3</ele>
			 </trkpt>
			 <trkpt lat="46.88875" lon="-91.90886">
				 <ele>189.1</ele>
			 </trkpt>
			 <trkpt lat="46.88747" lon="-91.91012">
				 <ele>188.8</ele>
			 </trkpt>
			 <trkpt lat="46.88687" lon="-91.91069">
				 <ele>188.5</ele>
			 </trkpt>
			 <trkpt lat="46.88591" lon="-91.91159">
				 <ele>188.2</ele>
			 </trkpt>
			 <trkpt lat="46.88528" lon="-91.9122">
				 <ele>188</ele>
			 </trkpt>
			 <trkpt lat="46.88477" lon="-91.91281">
				 <ele>187.9</ele>
			 </trkpt>
			 <trkpt lat="46.8842" lon="-91.91364">
				 <ele>188</ele>
			 </trkpt>
			 <trkpt lat="46.88385" lon="-91.91425">
				 <ele>188.1</ele>
			 </trkpt>
			 <trkpt lat="46.88336" lon="-91.91524">
				 <ele>188.3</ele>
			 </trkpt>
			 <trkpt lat="46.88264" lon="-91.9168">
				 <ele>188.6</ele>
			 </trkpt>
			 <trkpt lat="46.88257" lon="-91.91689">
				 <ele>188.8</ele>
			 </trkpt>
			 <trkpt lat="46.88192" lon="-91.91832">
				 <ele>188.8</ele>
			 </trkpt>
			 <trkpt lat="46.88181" lon="-91.91857">
				 <ele>188.7</ele>
			 </trkpt>
			 <trkpt lat="46.88155" lon="-91.91925">
				 <ele>188.9</ele>
			 </trkpt>
			 <trkpt lat="46.88131" lon="-91.92027">
				 <ele>189.2</ele>
			 </trkpt>
			 <trkpt lat="46.88114" lon="-91.92089">
				 <ele>189.4</ele>
			 </trkpt>
			 <trkpt lat="46.88098" lon="-91.92128">
				 <ele>189.5</ele>
			 </trkpt>
			 <trkpt lat="46.88091" lon="-91.92147">
				 <ele>189.8</ele>
			 </trkpt>
			 <trkpt lat="46.88061" lon="-91.92228">
				 <ele>190.1</ele>
			 </trkpt>
			 <trkpt lat="46.88055" lon="-91.92263">
				 <ele>190.4</ele>
			 </trkpt>
			 <trkpt lat="46.88053" lon="-91.92327">
				 <ele>190.5</ele>
			 </trkpt>
			 <trkpt lat="46.88053" lon="-91.92383">
				 <ele>190.7</ele>
			 </trkpt>
			 <trkpt lat="46.88048" lon="-91.92433">
				 <ele>190.9</ele>
			 </trkpt>
			 <trkpt lat="46.88043" lon="-91.92472">
				 <ele>191.1</ele>
			 </trkpt>
			 <trkpt lat="46.88032" lon="-91.92509">
				 <ele>191</ele>
			 </trkpt>
			 <trkpt lat="46.88008" lon="-91.92566">
				 <ele>190.8</ele>
			 </trkpt>
			 <trkpt lat="46.88003" lon="-91.9258">
				 <ele>190.6</ele>
			 </trkpt>
			 <trkpt lat="46.87915" lon="-91.9273">
				 <ele>190.5</ele>
			 </trkpt>
			 <trkpt lat="46.87657" lon="-91.93168">
				 <ele>190.2</ele>
			 </trkpt>
			 <trkpt lat="46.87634" lon="-91.93208">
				 <ele>189.9</ele>
			 </trkpt>
			 <trkpt lat="46.87592" lon="-91.93278">
				 <ele>189.6</ele>
			 </trkpt>
			 <trkpt lat="46.8758" lon="-91.93294">
				 <ele>189.4</ele>
			 </trkpt>
			 <trkpt lat="46.87553" lon="-91.93344">
				 <ele>189</ele>
			 </trkpt>
			 <trkpt lat="46.87538" lon="-91.93359">
				 <ele>188.9</ele>
			 </trkpt>
			 <trkpt lat="46.87412" lon="-91.93546">
				 <ele>189</ele>
			 </trkpt>
			 <trkpt lat="46.874" lon="-91.9357">
				 <ele>189.2</ele>
			 </trkpt>
			 <trkpt lat="46.8738" lon="-91.93625">
				 <ele>189.3</ele>
			 </trkpt>
			 <trkpt lat="46.87372" lon="-91.9366">
				 <ele>189.5</ele>
			 </trkpt>
			 <trkpt lat="46.87365" lon="-91.93714">
				 <ele>189.9</ele>
			 </trkpt>
			 <trkpt lat="46.87364" lon="-91.93731">
				 <ele>190.2</ele>
			 </trkpt>
			 <trkpt lat="46.87348" lon="-91.93813">
				 <ele>190.1</ele>
			 </trkpt>
			 <trkpt lat="46.87343" lon="-91.93838">
				 <ele>190</ele>
			 </trkpt>
			 <trkpt lat="46.87316" lon="-91.93929">
				 <ele>189.9</ele>
			 </trkpt>
			 <trkpt lat="46.87282" lon="-91.94011">
				 <ele>189.9</ele>
			 </trkpt>
			 <trkpt lat="46.87254" lon="-91.94064">
				 <ele>190</ele>
			 </trkpt>
			 <trkpt lat="46.87084" lon="-91.94326">
				 <ele>189.8</ele>
			 </trkpt>
			 <trkpt lat="46.87055" lon="-91.94395">
				 <ele>189.8</ele>
			 </trkpt>
			 <trkpt lat="46.87025" lon="-91.94484">
				 <ele>190.1</ele>
			 </trkpt>
			 <trkpt lat="46.8702" lon="-91.94507">
				 <ele>190</ele>
			 </trkpt>
			 <trkpt lat="46.87007" lon="-91.94545">
				 <ele>190</ele>
			 </trkpt>
			 <trkpt lat="46.86997" lon="-91.9456">
				 <ele>189.7</ele>
			 </trkpt>
			 <trkpt lat="46.86938" lon="-91.9474">
				 <ele>190</ele>
			 </trkpt>
			 <trkpt lat="46.86906" lon="-91.94839">
				 <ele>190.3</ele>
			 </trkpt>
			 <trkpt lat="46.86893" lon="-91.94872">
				 <ele>190.7</ele>
			 </trkpt>
			 <trkpt lat="46.86849" lon="-91.94967">
				 <ele>191.1</ele>
			 </trkpt>
			 <trkpt lat="46.86749" lon="-91.95185">
				 <ele>191.2</ele>
			 </trkpt>
			 <trkpt lat="46.86729" lon="-91.95229">
				 <ele>191.4</ele>
			 </trkpt>
			 <trkpt lat="46.86712" lon="-91.95264">
				 <ele>191.2</ele>
			 </trkpt>
			 <trkpt lat="46.8668" lon="-91.95314">
				 <ele>190.7</ele>
			 </trkpt>
			 <trkpt lat="46.86663" lon="-91.9534">
				 <ele>190.5</ele>
			 </trkpt>
			 <trkpt lat="46.86616" lon="-91.95406">
				 <ele>190</ele>
			 </trkpt>
			 <trkpt lat="46.86541" lon="-91.9551">
				 <ele>189.9</ele>
			 </trkpt>
			 <trkpt lat="46.86439" lon="-91.95658">
				 <ele>189.7</ele>
			 </trkpt>
			 <trkpt lat="46.86426" lon="-91.95676">
				 <ele>189.7</ele>
			 </trkpt>
			 <trkpt lat="46.86344" lon="-91.95793">
				 <ele>189.5</ele>
			 </trkpt>
			 <trkpt lat="46.86325" lon="-91.95827">
				 <ele>189.5</ele>
			 </trkpt>
			 <trkpt lat="46.863" lon="-91.95874">
				 <ele>189.6</ele>
			 </trkpt>
			 <trkpt lat="46.86262" lon="-91.95944">
				 <ele>189.8</ele>
			 </trkpt>
			 <trkpt lat="46.86202" lon="-91.96053">
				 <ele>190.2</ele>
			 </trkpt>
			 <trkpt lat="46.8619" lon="-91.96073">
				 <ele>190.5</ele>
			 </trkpt>
			 <trkpt lat="46.86127" lon="-91.96165">
				 <ele>190.5</ele>
			 </trkpt>
			 <trkpt lat="46.86123" lon="-91.96176">
				 <ele>190.7</ele>
			 </trkpt>
			 <trkpt lat="46.86109" lon="-91.96196">
				 <ele>190.8</ele>
			 </trkpt>
			 <trkpt lat="46.86036" lon="-91.96299">
				 <ele>190.8</ele>
			 </trkpt>
			 <trkpt lat="46.85871" lon="-91.96534">
				 <ele>190.7</ele>
			 </trkpt>
			 <trkpt lat="46.85818" lon="-91.96618">
				 <ele>190.6</ele>
			 </trkpt>
			 <trkpt lat="46.85806" lon="-91.96642">
				 <ele>190.5</ele>
			 </trkpt>
			 <trkpt lat="46.85784" lon="-91.9669">
				 <ele>190.5</ele>
			 </trkpt>
			 <trkpt lat="46.8576" lon="-91.96755">
				 <ele>190.7</ele>
			 </trkpt>
			 <trkpt lat="46.85698" lon="-91.96916">
				 <ele>191</ele>
			 </trkpt>
			 <trkpt lat="46.85682" lon="-91.96964">
				 <ele>191.5</ele>
			 </trkpt>
			 <trkpt lat="46.85657" lon="-91.97062">
				 <ele>191.8</ele>
			 </trkpt>
			 <trkpt lat="46.85613" lon="-91.9724">
				 <ele>192.1</ele>
			 </trkpt>
			 <trkpt lat="46.85561" lon="-91.97449">
				 <ele>192.6</ele>
			 </trkpt>
			 <trkpt lat="46.85539" lon="-91.9752">
				 <ele>193.2</ele>
			 </trkpt>
			 <trkpt lat="46.85512" lon="-91.9758">
				 <ele>193.9</ele>
			 </trkpt>
			 <trkpt lat="46.85487" lon="-91.97625">
				 <ele>194.6</ele>
			 </trkpt>
			 <trkpt lat="46.85443" lon="-91.97689">
				 <ele>195.4</ele>
			 </trkpt>
			 <trkpt lat="46.85357" lon="-91.97805">
				 <ele>195.8</ele>
			 </trkpt>
			 <trkpt lat="46.85337" lon="-91.9784">
				 <ele>196.1</ele>
			 </trkpt>
			 <trkpt lat="46.8519" lon="-91.98137">
				 <ele>196.2</ele>
			 </trkpt>
			 <trkpt lat="46.8519" lon="-91.98137">
				 <ele>196.3</ele>
			 </trkpt>
			 <trkpt lat="46.85047" lon="-91.98428">
				 <ele>196.6</ele>
			 </trkpt>
			 <trkpt lat="46.84979" lon="-91.98561">
				 <ele>197.1</ele>
			 </trkpt>
			 <trkpt lat="46.84949" lon="-91.98612">
				 <ele>197.4</ele>
			 </trkpt>
			 <trkpt lat="46.84911" lon="-91.98671">
				 <ele>197.7</ele>
			 </trkpt>
			 <trkpt lat="46.84908" lon="-91.98682">
				 <ele>197.7</ele>
			 </trkpt>
			 <trkpt lat="46.84867" lon="-91.98749">
				 <ele>197.7</ele>
			 </trkpt>
			 <trkpt lat="46.84819" lon="-91.98822">
				 <ele>197.7</ele>
			 </trkpt>
			 <trkpt lat="46.84812" lon="-91.9883">
				 <ele>197.7</ele>
			 </trkpt>
			 <trkpt lat="46.84758" lon="-91.98908">
				 <ele>197.6</ele>
			 </trkpt>
			 <trkpt lat="46.84676" lon="-91.99028">
				 <ele>197.6</ele>
			 </trkpt>
			 <trkpt lat="46.84655" lon="-91.99057">
				 <ele>197.6</ele>
			 </trkpt>
			 <trkpt lat="46.84649" lon="-91.9907">
				 <ele>197.6</ele>
			 </trkpt>
			 <trkpt lat="46.84587" lon="-91.9916">
				 <ele>197.6</ele>
			 </trkpt>
			 <trkpt lat="46.84588" lon="-91.99161">
				 <ele>197.6</ele>
			 </trkpt>
			 <trkpt lat="46.84313" lon="-91.99557">
				 <ele>197.5</ele>
			 </trkpt>
			 <trkpt lat="46.843" lon="-91.99572">
				 <ele>197.4</ele>
			 </trkpt>
			 <trkpt lat="46.84283" lon="-91.99586">
				 <ele>197.4</ele>
			 </trkpt>
			 <trkpt lat="46.84244" lon="-91.99612">
				 <ele>197.4</ele>
			 </trkpt>
			 <trkpt lat="46.84228" lon="-91.99624">
				 <ele>197.5</ele>
			 </trkpt>
			 <trkpt lat="46.84218" lon="-91.99635">
				 <ele>197.5</ele>
			 </trkpt>
			 <trkpt lat="46.84205" lon="-91.99662">
				 <ele>197.5</ele>
			 </trkpt>
			 <trkpt lat="46.84202" lon="-91.99681">
				 <ele>197.4</ele>
			 </trkpt>
			 <trkpt lat="46.84203" lon="-91.99703">
				 <ele>197.3</ele>
			 </trkpt>
			 <trkpt lat="46.84213" lon="-91.99727">
				 <ele>197</ele>
			 </trkpt>
			 <trkpt lat="46.84172" lon="-91.9977">
				 <ele>196.6</ele>
			 </trkpt>
			 <trkpt lat="46.84141" lon="-91.99811">
				 <ele>196.2</ele>
			 </trkpt>
			 <trkpt lat="46.84103" lon="-91.99862">
				 <ele>195.5</ele>
			 </trkpt>
			 <trkpt lat="46.84079" lon="-91.99888">
				 <ele>194.8</ele>
			 </trkpt>
			 <trkpt lat="46.8403" lon="-91.99929">
				 <ele>194.1</ele>
			 </trkpt>
			 <trkpt lat="46.84006" lon="-91.99942">
				 <ele>193.5</ele>
			 </trkpt>
			 <trkpt lat="46.83948" lon="-91.99987">
				 <ele>192.9</ele>
			 </trkpt>
			 <trkpt lat="46.839" lon="-92.00035">
				 <ele>192.3</ele>
			 </trkpt>
			 <trkpt lat="46.83879" lon="-92.00061">
				 <ele>191.5</ele>
			 </trkpt>
			 <trkpt lat="46.83846" lon="-92.00109">
				 <ele>190.8</ele>
			 </trkpt>
			 <trkpt lat="46.83825" lon="-92.00145">
				 <ele>190.2</ele>
			 </trkpt>
			 <trkpt lat="46.83794" lon="-92.00211">
				 <ele>189.7</ele>
			 </trkpt>
			 <trkpt lat="46.83768" lon="-92.00281">
				 <ele>189.5</ele>
			 </trkpt>
			 <trkpt lat="46.8374" lon="-92.00371">
				 <ele>189.4</ele>
			 </trkpt>
			 <trkpt lat="46.83716" lon="-92.00448">
				 <ele>189.3</ele>
			 </trkpt>
			 <trkpt lat="46.83716" lon="-92.00448">
				 <ele>189.3</ele>
			 </trkpt>
			 <trkpt lat="46.83682" lon="-92.00559">
				 <ele>189.3</ele>
			 </trkpt>
			 <trkpt lat="46.83674" lon="-92.00592">
				 <ele>189.4</ele>
			 </trkpt>
			 <trkpt lat="46.8366" lon="-92.00673">
				 <ele>189.7</ele>
			 </trkpt>
			 <trkpt lat="46.83656" lon="-92.00719">
				 <ele>190.5</ele>
			 </trkpt>
			 <trkpt lat="46.83655" lon="-92.00813">
				 <ele>191.5</ele>
			 </trkpt>
			 <trkpt lat="46.83648" lon="-92.00849">
				 <ele>192.4</ele>
			 </trkpt>
			 <trkpt lat="46.83621" lon="-92.00949">
				 <ele>193.2</ele>
			 </trkpt>
			 <trkpt lat="46.83459" lon="-92.015">
				 <ele>193.9</ele>
			 </trkpt>
			 <trkpt lat="46.83376" lon="-92.018">
				 <ele>194.7</ele>
			 </trkpt>
			 <trkpt lat="46.83356" lon="-92.01873">
				 <ele>195.6</ele>
			 </trkpt>
			 <trkpt lat="46.83341" lon="-92.01908">
				 <ele>196.5</ele>
			 </trkpt>
			 <trkpt lat="46.83341" lon="-92.01908">
				 <ele>197.3</ele>
			 </trkpt>
			 <trkpt lat="46.83252" lon="-92.02079">
				 <ele>198</ele>
			 </trkpt>
			 <trkpt lat="46.83106" lon="-92.02339">
				 <ele>198.5</ele>
			 </trkpt>
			 <trkpt lat="46.83047" lon="-92.02428">
				 <ele>198.5</ele>
			 </trkpt>
			 <trkpt lat="46.82978" lon="-92.02538">
				 <ele>198.5</ele>
			 </trkpt>
			 <trkpt lat="46.82902" lon="-92.02661">
				 <ele>198.3</ele>
			 </trkpt>
			 <trkpt lat="46.82883" lon="-92.02688">
				 <ele>197.9</ele>
			 </trkpt>
			 <trkpt lat="46.82854" lon="-92.02721">
				 <ele>197.7</ele>
			 </trkpt>
			 <trkpt lat="46.82796" lon="-92.02783">
				 <ele>197.5</ele>
			 </trkpt>
			 <trkpt lat="46.82796" lon="-92.02783">
				 <ele>197.1</ele>
			 </trkpt>
			 <trkpt lat="46.82675" lon="-92.02911">
				 <ele>196.7</ele>
			 </trkpt>
			 <trkpt lat="46.82622" lon="-92.02971">
				 <ele>196.4</ele>
			 </trkpt>
			 <trkpt lat="46.82518" lon="-92.03097">
				 <ele>196</ele>
			 </trkpt>
			 <trkpt lat="46.82497" lon="-92.03124">
				 <ele>195.8</ele>
			 </trkpt>
			 <trkpt lat="46.82482" lon="-92.03149">
				 <ele>195.7</ele>
			 </trkpt>
			 <trkpt lat="46.82457" lon="-92.032">
				 <ele>195.5</ele>
			 </trkpt>
			 <trkpt lat="46.82456" lon="-92.0321">
				 <ele>195.6</ele>
			 </trkpt>
			 <trkpt lat="46.82418" lon="-92.03294">
				 <ele>195.9</ele>
			 </trkpt>
			 <trkpt lat="46.82362" lon="-92.03402">
				 <ele>196.5</ele>
			 </trkpt>
			 <trkpt lat="46.82314" lon="-92.03505">
				 <ele>197.5</ele>
			 </trkpt>
			 <trkpt lat="46.82232" lon="-92.03681">
				 <ele>198.5</ele>
			 </trkpt>
			 <trkpt lat="46.82226" lon="-92.03709">
				 <ele>199.5</ele>
			 </trkpt>
			 <trkpt lat="46.82224" lon="-92.03748">
				 <ele>200.4</ele>
			 </trkpt>
			 <trkpt lat="46.82224" lon="-92.04092">
				 <ele>201.2</ele>
			 </trkpt>
			 <trkpt lat="46.82225" lon="-92.04279">
				 <ele>201.9</ele>
			 </trkpt>
			 <trkpt lat="46.8222" lon="-92.04323">
				 <ele>202.5</ele>
			 </trkpt>
			 <trkpt lat="46.82214" lon="-92.04348">
				 <ele>203.3</ele>
			 </trkpt>
			 <trkpt lat="46.82203" lon="-92.04381">
				 <ele>203.5</ele>
			 </trkpt>
			 <trkpt lat="46.8219" lon="-92.04405">
				 <ele>203.5</ele>
			 </trkpt>
			 <trkpt lat="46.82173" lon="-92.04429">
				 <ele>203</ele>
			 </trkpt>
			 <trkpt lat="46.82046" lon="-92.04597">
				 <ele>202.3</ele>
			 </trkpt>
			 <trkpt lat="46.82046" lon="-92.04597">
				 <ele>201.5</ele>
			 </trkpt>
			 <trkpt lat="46.81612" lon="-92.05172">
				 <ele>200.9</ele>
			 </trkpt>
			 <trkpt lat="46.81476" lon="-92.0535">
				 <ele>200.3</ele>
			 </trkpt>
			 <trkpt lat="46.81375" lon="-92.05484">
				 <ele>199.7</ele>
			 </trkpt>
			 <trkpt lat="46.81375" lon="-92.05484">
				 <ele>199.3</ele>
			 </trkpt>
			 <trkpt lat="46.81192" lon="-92.05724">
				 <ele>198.7</ele>
			 </trkpt>
			 <trkpt lat="46.81156" lon="-92.05778">
				 <ele>198.3</ele>
			 </trkpt>
			 <trkpt lat="46.81142" lon="-92.05798">
				 <ele>199.1</ele>
			 </trkpt>
			 <trkpt lat="46.81134" lon="-92.05816">
				 <ele>200.2</ele>
			 </trkpt>
			 <trkpt lat="46.811" lon="-92.05865">
				 <ele>201.4</ele>
			 </trkpt>
			 <trkpt lat="46.81068" lon="-92.05911">
				 <ele>202.6</ele>
			 </trkpt>
			 <trkpt lat="46.81012" lon="-92.05989">
				 <ele>203.9</ele>
			 </trkpt>
			 <trkpt lat="46.80954" lon="-92.06066">
				 <ele>205.1</ele>
			 </trkpt>
			 <trkpt lat="46.80889" lon="-92.06149">
				 <ele>206.4</ele>
			 </trkpt>
			 <trkpt lat="46.80859" lon="-92.06189">
				 <ele>207.6</ele>
			 </trkpt>
			 <trkpt lat="46.8082" lon="-92.06246">
				 <ele>208.8</ele>
			 </trkpt>
			 <trkpt lat="46.80806" lon="-92.06263">
				 <ele>210.2</ele>
			 </trkpt>
			 <trkpt lat="46.8079" lon="-92.0629">
				 <ele>211.5</ele>
			 </trkpt>
			 <trkpt lat="46.80772" lon="-92.06322">
				 <ele>211.7</ele>
			 </trkpt>
			 <trkpt lat="46.80763" lon="-92.0633">
				 <ele>212</ele>
			 </trkpt>
			 <trkpt lat="46.80746" lon="-92.06363">
				 <ele>211.4</ele>
			 </trkpt>
			 <trkpt lat="46.80656" lon="-92.06534">
				 <ele>210.4</ele>
			 </trkpt>
			 <trkpt lat="46.80614" lon="-92.06614">
				 <ele>209.2</ele>
			 </trkpt>
			 <trkpt lat="46.80556" lon="-92.06724">
				 <ele>208.1</ele>
			 </trkpt>
			 <trkpt lat="46.80556" lon="-92.06724">
				 <ele>206.9</ele>
			 </trkpt>
			 <trkpt lat="46.80313" lon="-92.07188">
				 <ele>205.7</ele>
			 </trkpt>
			 <trkpt lat="46.80153" lon="-92.07492">
				 <ele>204.5</ele>
			 </trkpt>
			 <trkpt lat="46.80075" lon="-92.07643">
				 <ele>203.5</ele>
			 </trkpt>
			 <trkpt lat="46.79961" lon="-92.0786">
				 <ele>202.3</ele>
			 </trkpt>
			 <trkpt lat="46.7991" lon="-92.07959">
				 <ele>201.2</ele>
			 </trkpt>
			 <trkpt lat="46.79862" lon="-92.08049">
				 <ele>200</ele>
			 </trkpt>
			 <trkpt lat="46.79862" lon="-92.08049">
				 <ele>199.5</ele>
			 </trkpt>
			 <trkpt lat="46.79713" lon="-92.08336">
				 <ele>199.6</ele>
			 </trkpt>
			 <trkpt lat="46.79656" lon="-92.08441">
				 <ele>200</ele>
			 </trkpt>
			 <trkpt lat="46.79647" lon="-92.0846">
				 <ele>200</ele>
			 </trkpt>
			 <trkpt lat="46.7964" lon="-92.08481">
				 <ele>200</ele>
			 </trkpt>
			 <trkpt lat="46.79638" lon="-92.08499">
				 <ele>200.1</ele>
			 </trkpt>
			 <trkpt lat="46.7964" lon="-92.08541">
				 <ele>200</ele>
			 </trkpt>
			 <trkpt lat="46.7965" lon="-92.08576">
				 <ele>199.8</ele>
			 </trkpt>
			 <trkpt lat="46.79545" lon="-92.08707">
				 <ele>199.7</ele>
			 </trkpt>
			 <trkpt lat="46.79517" lon="-92.08745">
				 <ele>199.7</ele>
			 </trkpt>
			 <trkpt lat="46.7949" lon="-92.08784">
				 <ele>199.7</ele>
			 </trkpt>
			 <trkpt lat="46.79455" lon="-92.0885">
				 <ele>199.5</ele>
			 </trkpt>
			 <trkpt lat="46.79442" lon="-92.08872">
				 <ele>199.3</ele>
			 </trkpt>
			 <trkpt lat="46.79426" lon="-92.08888">
				 <ele>198.7</ele>
			 </trkpt>
			 <trkpt lat="46.79415" lon="-92.08896">
				 <ele>198.4</ele>
			 </trkpt>
			 <trkpt lat="46.79385" lon="-92.0892">
				 <ele>198.1</ele>
			 </trkpt>
			 <trkpt lat="46.79334" lon="-92.0899">
				 <ele>197.9</ele>
			 </trkpt>
			 <trkpt lat="46.79249" lon="-92.09097">
				 <ele>198</ele>
			 </trkpt>
			 <trkpt lat="46.7924" lon="-92.09108">
				 <ele>198</ele>
			 </trkpt>
			 <trkpt lat="46.79226" lon="-92.09138">
				 <ele>198</ele>
			 </trkpt>
			 <trkpt lat="46.79217" lon="-92.09168">
				 <ele>197.8</ele>
			 </trkpt>
			 <trkpt lat="46.79207" lon="-92.09193">
				 <ele>197.7</ele>
			 </trkpt>
			 <trkpt lat="46.79197" lon="-92.0921">
				 <ele>197.7</ele>
			 </trkpt>
			 <trkpt lat="46.79189" lon="-92.09219">
				 <ele>197.1</ele>
			 </trkpt>
			 <trkpt lat="46.79165" lon="-92.09241">
				 <ele>196.5</ele>
			 </trkpt>
			 <trkpt lat="46.79132" lon="-92.09259">
				 <ele>196.2</ele>
			 </trkpt>
			 <trkpt lat="46.79113" lon="-92.09272">
				 <ele>195.8</ele>
			 </trkpt>
			 <trkpt lat="46.78978" lon="-92.09446">
				 <ele>195.5</ele>
			 </trkpt>
			 <trkpt lat="46.78821" lon="-92.09653">
				 <ele>195.1</ele>
			 </trkpt>
			 <trkpt lat="46.78821" lon="-92.09653">
				 <ele>194.7</ele>
			 </trkpt>
			 <trkpt lat="46.7869" lon="-92.09822">
				 <ele>194.3</ele>
			 </trkpt>
			 <trkpt lat="46.78597" lon="-92.09945">
				 <ele>194.1</ele>
			 </trkpt>
			 <trkpt lat="46.78428" lon="-92.10165">
				 <ele>193.6</ele>
			 </trkpt>
			 <trkpt lat="46.78369" lon="-92.10242">
				 <ele>193.2</ele>
			 </trkpt>
			 <trkpt lat="46.78369" lon="-92.10242">
				 <ele>193.2</ele>
			 </trkpt>
			 <trkpt lat="46.78265" lon="-92.10378">
				 <ele>192.9</ele>
			 </trkpt>
			 <trkpt lat="46.7821" lon="-92.1045">
				 <ele>192.5</ele>
			 </trkpt>
			 <trkpt lat="46.78185" lon="-92.10404">
				 <ele>192.1</ele>
			 </trkpt>
			 <trkpt lat="46.78178" lon="-92.10395">
				 <ele>191.3</ele>
			 </trkpt>
			 <trkpt lat="46.78174" lon="-92.10373">
				 <ele>190.5</ele>
			 </trkpt>
			 <trkpt lat="46.78152" lon="-92.10335">
				 <ele>189.8</ele>
			 </trkpt>
			 <trkpt lat="46.78133" lon="-92.103">
				 <ele>189.1</ele>
			 </trkpt>
			 <trkpt lat="46.78122" lon="-92.10273">
				 <ele>188.2</ele>
			 </trkpt>
			 <trkpt lat="46.78115" lon="-92.10254">
				 <ele>187.6</ele>
			 </trkpt>
			 <trkpt lat="46.78115" lon="-92.10254">
				 <ele>187.4</ele>
			 </trkpt>
			 <trkpt lat="46.78116" lon="-92.10255">
				 <ele>187</ele>
			 </trkpt>
			 <trkpt lat="46.78109" lon="-92.10238">
				 <ele>186.9</ele>
			 </trkpt>
			 <trkpt lat="46.78091" lon="-92.10193">
				 <ele>186.7</ele>
			 </trkpt>
			 <trkpt lat="46.78069" lon="-92.10148">
				 <ele>186.5</ele>
			 </trkpt>
			 <trkpt lat="46.78046" lon="-92.1011">
				 <ele>186.5</ele>
			 </trkpt>
			 <trkpt lat="46.78039" lon="-92.10099">
				 <ele>186.3</ele>
			 </trkpt>
			 <trkpt lat="46.78026" lon="-92.10093">
				 <ele>186.1</ele>
			 </trkpt>
			 <trkpt lat="46.78023" lon="-92.10088">
				 <ele>186</ele>
			 </trkpt>
			 <trkpt lat="46.7802" lon="-92.10068">
				 <ele>186</ele>
			 </trkpt>
			 <trkpt lat="46.78012" lon="-92.10056">
				 <ele>185.9</ele>
			 </trkpt>
			 <trkpt lat="46.77984" lon="-92.10014">
				 <ele>185.6</ele>
			 </trkpt>
			 <trkpt lat="46.77967" lon="-92.09999">
				 <ele>185.5</ele>
			 </trkpt>
			 <trkpt lat="46.7794" lon="-92.0998">
				 <ele>185.4</ele>
			 </trkpt>
			 <trkpt lat="46.7792" lon="-92.09961">
				 <ele>185.3</ele>
			 </trkpt>
			 <trkpt lat="46.77913" lon="-92.09949">
				 <ele>185.2</ele>
			 </trkpt>
			 <trkpt lat="46.77911" lon="-92.09933">
				 <ele>185.1</ele>
			 </trkpt>
			 <trkpt lat="46.77916" lon="-92.09918">
				 <ele>185.1</ele>
			 </trkpt>
			 <trkpt lat="46.77969" lon="-92.09848">
				 <ele>185.2</ele>
			 </trkpt>
			 <trkpt lat="46.77992" lon="-92.09818">
				 <ele>185.2</ele>
			 </trkpt>
			 <trkpt lat="46.77992" lon="-92.09818">
				 <ele>185.2</ele>
			 </trkpt>
			 <trkpt lat="46.78043" lon="-92.09753">
				 <ele>185.2</ele>
			 </trkpt>
			 <trkpt lat="46.78078" lon="-92.09709">
				 <ele>185.2</ele>
			 </trkpt>
			 <trkpt lat="46.78106" lon="-92.09674">
				 <ele>185.2</ele>
			 </trkpt>
			 <trkpt lat="46.78123" lon="-92.09665">
				 <ele>185.1</ele>
			 </trkpt>
			 <trkpt lat="46.78128" lon="-92.09665">
				 <ele>185.1</ele>
			 </trkpt>
			 <trkpt lat="46.78156" lon="-92.09679">
				 <ele>185</ele>
			 </trkpt>
			 <trkpt lat="46.78279" lon="-92.09761">
				 <ele>185</ele>
			 </trkpt>
			 <trkpt lat="46.78279" lon="-92.09761">
				 <ele>185</ele>
			 </trkpt>
			 <trkpt lat="46.78351" lon="-92.09809">
				 <ele>184.8</ele>
			 </trkpt>
			 <trkpt lat="46.7837" lon="-92.09835">
				 <ele>184.8</ele>
			 </trkpt>
			 <trkpt lat="46.78432" lon="-92.09754">
				 <ele>184.8</ele>
			 </trkpt>
			 <trkpt lat="46.78451" lon="-92.09723">
				 <ele>184.9</ele>
			 </trkpt>
			 <trkpt lat="46.78471" lon="-92.09667">
				 <ele>185</ele>
			 </trkpt>
			 <trkpt lat="46.78477" lon="-92.09636">
				 <ele>185.1</ele>
			 </trkpt>
			 <trkpt lat="46.78477" lon="-92.09619">
				 <ele>185.2</ele>
			 </trkpt>
			 <trkpt lat="46.78478" lon="-92.09619">
				 <ele>185.3</ele>
			 </trkpt>
			 <trkpt lat="46.78479" lon="-92.0955">
				 <ele>185.5</ele>
			 </trkpt>
			 <trkpt lat="46.78483" lon="-92.09532">
				 <ele>185.5</ele>
			 </trkpt>
			 <trkpt lat="46.78485" lon="-92.09521">
				 <ele>185.6</ele>
			 </trkpt>
			 <trkpt lat="46.78461" lon="-92.09504">
				 <ele>185.8</ele>
			 </trkpt>
			 <trkpt lat="46.78452" lon="-92.09492">
				 <ele>185.9</ele>
			 </trkpt>
			 <trkpt lat="46.78432" lon="-92.09483">
				 <ele>186</ele>
			 </trkpt>
			 <trkpt lat="46.78398" lon="-92.09468">
				 <ele>186</ele>
			 </trkpt>
			 <trkpt lat="46.78398" lon="-92.09468">
				 <ele>186</ele>
			 </trkpt>
			 <trkpt lat="46.78266" lon="-92.09413">
				 <ele>186</ele>
			 </trkpt>
			 <trkpt lat="46.78266" lon="-92.09413">
				 <ele>186</ele>
			 </trkpt>
			 <trkpt lat="46.78233" lon="-92.09394">
				 <ele>186</ele>
			 </trkpt>
			 <trkpt lat="46.78197" lon="-92.09373">
				 <ele>186</ele>
			 </trkpt>
			 <trkpt lat="46.78194" lon="-92.0937">
				 <ele>186</ele>
			 </trkpt>
		 </trkseg>
	 </trk>
</gpx>