<?xml version="1.0" encoding="UTF-8"?>
<!--
  course: Heart of America Marathon
  geometry: https://drive.google.com/uc?export=download&amp;id=1ZQH8Oww35ucXiw71MihqX61U8ntwXkim
  vouched: organizer — Linked from the &apos;Map 2026&apos; item in heartofamericamarathon.com&apos;s Course Overview nav — hosted on Google Drive rather than the organizer&apos;s own domain, but it is the file the organizer&apos;s own site links to as the current course. File is titled &apos;Heart of America Marathon (2021 and later)&apos;, single track, no elevation (DEM-filled). Measured 42.466 km before parsing. Retrieved 2026-08-18. Confirmed running 2026-09-07 via runsignup.com/Race/MO/Columbia/heartofamericamarathon.
  elevation: dem:srtm30m
  format in: gpx-trk
-->
<gpx version="1.1" creator="eveneffort-course-importer" xmlns="http://www.topografix.com/GPX/1/1">
  <trk>
    <name>Heart of America Marathon</name>
    <trkseg>
      <trkpt lat="38.9062352" lon="-92.2930101"><ele>238.0</ele></trkpt>
      <trkpt lat="38.9059910" lon="-92.2930021"><ele>240.0</ele></trkpt>
      <trkpt lat="38.9059575" lon="-92.2930058"><ele>240.0</ele></trkpt>
      <trkpt lat="38.9059294" lon="-92.2930044"><ele>240.0</ele></trkpt>
      <trkpt lat="38.9058896" lon="-92.2929997"><ele>241.0</ele></trkpt>
      <trkpt lat="38.9058534" lon="-92.2929877"><ele>241.0</ele></trkpt>
      <trkpt lat="38.9058386" lon="-92.2929709"><ele>241.0</ele></trkpt>
      <trkpt lat="38.9058150" lon="-92.2929347"><ele>241.0</ele></trkpt>
      <trkpt lat="38.9058062" lon="-92.2928991"><ele>242.0</ele></trkpt>
      <trkpt lat="38.9057995" lon="-92.2924693"><ele>243.0</ele></trkpt>
      <trkpt lat="38.9056851" lon="-92.2921233"><ele>242.0</ele></trkpt>
      <trkpt lat="38.9057110" lon="-92.2919369"><ele>241.0</ele></trkpt>
      <trkpt lat="38.9057039" lon="-92.2919087"><ele>241.0</ele></trkpt>
      <trkpt lat="38.9056744" lon="-92.2918846"><ele>241.0</ele></trkpt>
      <trkpt lat="38.9056800" lon="-92.2918600"><ele>241.0</ele></trkpt>
      <trkpt lat="38.9053800" lon="-92.2915800"><ele>243.0</ele></trkpt>
      <trkpt lat="38.9051000" lon="-92.2913100"><ele>244.0</ele></trkpt>
      <trkpt lat="38.9049800" lon="-92.2911900"><ele>245.0</ele></trkpt>
      <trkpt lat="38.9045800" lon="-92.2907600"><ele>246.0</ele></trkpt>
      <trkpt lat="38.9043600" lon="-92.2905400"><ele>245.0</ele></trkpt>
      <trkpt lat="38.9042800" lon="-92.2904500"><ele>245.0</ele></trkpt>
      <trkpt lat="38.9042400" lon="-92.2904600"><ele>245.0</ele></trkpt>
      <trkpt lat="38.9041900" lon="-92.2904700"><ele>246.0</ele></trkpt>
      <trkpt lat="38.9040700" lon="-92.2904500"><ele>246.0</ele></trkpt>
      <trkpt lat="38.9040200" lon="-92.2904500"><ele>246.0</ele></trkpt>
      <trkpt lat="38.9039800" lon="-92.2903900"><ele>246.0</ele></trkpt>
      <trkpt lat="38.9039500" lon="-92.2904100"><ele>246.0</ele></trkpt>
      <trkpt lat="38.9039000" lon="-92.2904300"><ele>246.0</ele></trkpt>
      <trkpt lat="38.9038700" lon="-92.2904300"><ele>246.0</ele></trkpt>
      <trkpt lat="38.9038000" lon="-92.2904600"><ele>246.0</ele></trkpt>
      <trkpt lat="38.9037800" lon="-92.2904400"><ele>246.0</ele></trkpt>
      <trkpt lat="38.9037500" lon="-92.2904200"><ele>246.0</ele></trkpt>
      <trkpt lat="38.9037300" lon="-92.2903900"><ele>245.0</ele></trkpt>
      <trkpt lat="38.9037300" lon="-92.2902500"><ele>245.0</ele></trkpt>
      <trkpt lat="38.9037100" lon="-92.2901600"><ele>245.0</ele></trkpt>
      <trkpt lat="38.9037200" lon="-92.2901200"><ele>245.0</ele></trkpt>
      <trkpt lat="38.9037700" lon="-92.2900600"><ele>245.0</ele></trkpt>
      <trkpt lat="38.9037800" lon="-92.2900500"><ele>245.0</ele></trkpt>
      <trkpt lat="38.9038000" lon="-92.2900300"><ele>245.0</ele></trkpt>
      <trkpt lat="38.9038500" lon="-92.2900600"><ele>245.0</ele></trkpt>
      <trkpt lat="38.9038900" lon="-92.2900600"><ele>245.0</ele></trkpt>
      <trkpt lat="38.9039300" lon="-92.2900700"><ele>245.0</ele></trkpt>
      <trkpt lat="38.9040000" lon="-92.2901400"><ele>245.0</ele></trkpt>
      <trkpt lat="38.9040200" lon="-92.2902000"><ele>245.0</ele></trkpt>
      <trkpt lat="38.9040200" lon="-92.2902100"><ele>245.0</ele></trkpt>
      <trkpt lat="38.9040900" lon="-92.2901800"><ele>245.0</ele></trkpt>
      <trkpt lat="38.9041400" lon="-92.2902400"><ele>245.0</ele></trkpt>
      <trkpt lat="38.9042500" lon="-92.2903500"><ele>245.0</ele></trkpt>
      <trkpt lat="38.9042800" lon="-92.2904500"><ele>245.0</ele></trkpt>
      <trkpt lat="38.9051900" lon="-92.2914100"><ele>244.0</ele></trkpt>
      <trkpt lat="38.9056600" lon="-92.2918400"><ele>241.0</ele></trkpt>
      <trkpt lat="38.9059400" lon="-92.2920800"><ele>240.0</ele></trkpt>
      <trkpt lat="38.9065000" lon="-92.2925300"><ele>237.0</ele></trkpt>
      <trkpt lat="38.9068200" lon="-92.2927600"><ele>237.0</ele></trkpt>
      <trkpt lat="38.9071200" lon="-92.2929500"><ele>238.0</ele></trkpt>
      <trkpt lat="38.9078100" lon="-92.2933000"><ele>239.0</ele></trkpt>
      <trkpt lat="38.9083800" lon="-92.2936500"><ele>239.0</ele></trkpt>
      <trkpt lat="38.9085700" lon="-92.2938400"><ele>241.0</ele></trkpt>
      <trkpt lat="38.9089500" lon="-92.2944100"><ele>240.0</ele></trkpt>
      <trkpt lat="38.9095100" lon="-92.2953800"><ele>238.0</ele></trkpt>
      <trkpt lat="38.9095700" lon="-92.2954800"><ele>237.0</ele></trkpt>
      <trkpt lat="38.9093100" lon="-92.2957600"><ele>238.0</ele></trkpt>
      <trkpt lat="38.9093100" lon="-92.2957500"><ele>238.0</ele></trkpt>
      <trkpt lat="38.9085200" lon="-92.2965600"><ele>236.0</ele></trkpt>
      <trkpt lat="38.9085200" lon="-92.2965700"><ele>235.0</ele></trkpt>
      <trkpt lat="38.9080900" lon="-92.2970600"><ele>233.0</ele></trkpt>
      <trkpt lat="38.9079200" lon="-92.2973000"><ele>234.0</ele></trkpt>
      <trkpt lat="38.9077700" lon="-92.2975900"><ele>236.0</ele></trkpt>
      <trkpt lat="38.9075000" lon="-92.2982800"><ele>237.0</ele></trkpt>
      <trkpt lat="38.9074600" lon="-92.2984800"><ele>238.0</ele></trkpt>
      <trkpt lat="38.9074200" lon="-92.2986800"><ele>239.0</ele></trkpt>
      <trkpt lat="38.9074000" lon="-92.2990500"><ele>240.0</ele></trkpt>
      <trkpt lat="38.9073800" lon="-92.2994900"><ele>243.0</ele></trkpt>
      <trkpt lat="38.9073800" lon="-92.2995700"><ele>244.0</ele></trkpt>
      <trkpt lat="38.9073600" lon="-92.3004800"><ele>242.0</ele></trkpt>
      <trkpt lat="38.9073900" lon="-92.3025500"><ele>242.0</ele></trkpt>
      <trkpt lat="38.9074300" lon="-92.3071600"><ele>240.0</ele></trkpt>
      <trkpt lat="38.9074600" lon="-92.3133500"><ele>233.0</ele></trkpt>
      <trkpt lat="38.9075300" lon="-92.3211300"><ele>233.0</ele></trkpt>
      <trkpt lat="38.9075600" lon="-92.3252900"><ele>235.0</ele></trkpt>
      <trkpt lat="38.9075198" lon="-92.3254518"><ele>234.0</ele></trkpt>
      <trkpt lat="38.9074253" lon="-92.3256101"><ele>234.0</ele></trkpt>
      <trkpt lat="38.9073220" lon="-92.3256289"><ele>235.0</ele></trkpt>
      <trkpt lat="38.9071863" lon="-92.3256342"><ele>235.0</ele></trkpt>
      <trkpt lat="38.9066756" lon="-92.3256503"><ele>237.0</ele></trkpt>
      <trkpt lat="38.9057605" lon="-92.3256825"><ele>236.0</ele></trkpt>
      <trkpt lat="38.9053384" lon="-92.3258676"><ele>238.0</ele></trkpt>
      <trkpt lat="38.9048726" lon="-92.3261533"><ele>234.0</ele></trkpt>
      <trkpt lat="38.9047182" lon="-92.3262415"><ele>234.0</ele></trkpt>
      <trkpt lat="38.9045661" lon="-92.3263113"><ele>234.0</ele></trkpt>
      <trkpt lat="38.9043580" lon="-92.3263434"><ele>233.0</ele></trkpt>
      <trkpt lat="38.9040968" lon="-92.3263609"><ele>232.0</ele></trkpt>
      <trkpt lat="38.9033790" lon="-92.3263784"><ele>230.0</ele></trkpt>
      <trkpt lat="38.9025856" lon="-92.3264039"><ele>233.0</ele></trkpt>
      <trkpt lat="38.9015864" lon="-92.3264401"><ele>226.0</ele></trkpt>
      <trkpt lat="38.9013680" lon="-92.3264428"><ele>227.0</ele></trkpt>
      <trkpt lat="38.9011908" lon="-92.3264388"><ele>227.0</ele></trkpt>
      <trkpt lat="38.9011067" lon="-92.3264106"><ele>227.0</ele></trkpt>
      <trkpt lat="38.9010506" lon="-92.3263583"><ele>226.0</ele></trkpt>
      <trkpt lat="38.9010329" lon="-92.3262805"><ele>226.0</ele></trkpt>
      <trkpt lat="38.9010226" lon="-92.3262215"><ele>226.0</ele></trkpt>
      <trkpt lat="38.9008720" lon="-92.3262269"><ele>225.0</ele></trkpt>
      <trkpt lat="38.9008587" lon="-92.3262229"><ele>225.0</ele></trkpt>
      <trkpt lat="38.9008499" lon="-92.3263060"><ele>225.0</ele></trkpt>
      <trkpt lat="38.9008233" lon="-92.3263677"><ele>225.0</ele></trkpt>
      <trkpt lat="38.9007731" lon="-92.3264294"><ele>225.0</ele></trkpt>
      <trkpt lat="38.9006964" lon="-92.3264589"><ele>225.0</ele></trkpt>
      <trkpt lat="38.9006993" lon="-92.3266601"><ele>226.0</ele></trkpt>
      <trkpt lat="38.9007672" lon="-92.3266922"><ele>226.0</ele></trkpt>
      <trkpt lat="38.9008218" lon="-92.3267311"><ele>226.0</ele></trkpt>
      <trkpt lat="38.9008425" lon="-92.3267687"><ele>226.0</ele></trkpt>
      <trkpt lat="38.9008706" lon="-92.3268465"><ele>227.0</ele></trkpt>
      <trkpt lat="38.9008691" lon="-92.3270651"><ele>227.0</ele></trkpt>
      <trkpt lat="38.9008661" lon="-92.3273132"><ele>226.0</ele></trkpt>
      <trkpt lat="38.9008587" lon="-92.3275063"><ele>226.0</ele></trkpt>
      <trkpt lat="38.9008454" lon="-92.3276230"><ele>226.0</ele></trkpt>
      <trkpt lat="38.9008248" lon="-92.3277383"><ele>227.0</ele></trkpt>
      <trkpt lat="38.9007731" lon="-92.3279354"><ele>227.0</ele></trkpt>
      <trkpt lat="38.9007097" lon="-92.3281138"><ele>228.0</ele></trkpt>
      <trkpt lat="38.9006462" lon="-92.3282788"><ele>229.0</ele></trkpt>
      <trkpt lat="38.9005931" lon="-92.3284303"><ele>230.0</ele></trkpt>
      <trkpt lat="38.9005015" lon="-92.3286476"><ele>230.0</ele></trkpt>
      <trkpt lat="38.9004440" lon="-92.3288219"><ele>230.0</ele></trkpt>
      <trkpt lat="38.9003716" lon="-92.3291049"><ele>229.0</ele></trkpt>
      <trkpt lat="38.9003466" lon="-92.3292618"><ele>229.0</ele></trkpt>
      <trkpt lat="38.9003333" lon="-92.3295783"><ele>231.0</ele></trkpt>
      <trkpt lat="38.9003377" lon="-92.3297754"><ele>232.0</ele></trkpt>
      <trkpt lat="38.9003362" lon="-92.3299887"><ele>233.0</ele></trkpt>
      <trkpt lat="38.9003377" lon="-92.3302822"><ele>235.0</ele></trkpt>
      <trkpt lat="38.9003414" lon="-92.3304881"><ele>235.0</ele></trkpt>
      <trkpt lat="38.9003355" lon="-92.3309199"><ele>235.0</ele></trkpt>
      <trkpt lat="38.9003266" lon="-92.3312471"><ele>234.0</ele></trkpt>
      <trkpt lat="38.9002705" lon="-92.3315609"><ele>234.0</ele></trkpt>
      <trkpt lat="38.9002321" lon="-92.3317192"><ele>234.0</ele></trkpt>
      <trkpt lat="38.9001790" lon="-92.3318774"><ele>234.0</ele></trkpt>
      <trkpt lat="38.9001406" lon="-92.3319901"><ele>234.0</ele></trkpt>
      <trkpt lat="38.9000845" lon="-92.3320893"><ele>235.0</ele></trkpt>
      <trkpt lat="38.9000137" lon="-92.3322369"><ele>235.0</ele></trkpt>
      <trkpt lat="38.8999020" lon="-92.3324277"><ele>235.0</ele></trkpt>
      <trkpt lat="38.8998164" lon="-92.3325833"><ele>235.0</ele></trkpt>
      <trkpt lat="38.8997278" lon="-92.3327281"><ele>235.0</ele></trkpt>
      <trkpt lat="38.8996687" lon="-92.3328488"><ele>234.0</ele></trkpt>
      <trkpt lat="38.8996127" lon="-92.3329695"><ele>234.0</ele></trkpt>
      <trkpt lat="38.8995477" lon="-92.3331492"><ele>233.0</ele></trkpt>
      <trkpt lat="38.8995005" lon="-92.3333397"><ele>233.0</ele></trkpt>
      <trkpt lat="38.8994739" lon="-92.3334443"><ele>232.0</ele></trkpt>
      <trkpt lat="38.8994532" lon="-92.3335757"><ele>231.0</ele></trkpt>
      <trkpt lat="38.8994355" lon="-92.3339083"><ele>229.0</ele></trkpt>
      <trkpt lat="38.8994296" lon="-92.3341926"><ele>230.0</ele></trkpt>
      <trkpt lat="38.8994296" lon="-92.3343911"><ele>231.0</ele></trkpt>
      <trkpt lat="38.8994326" lon="-92.3346459"><ele>230.0</ele></trkpt>
      <trkpt lat="38.8994267" lon="-92.3348283"><ele>229.0</ele></trkpt>
      <trkpt lat="38.8994178" lon="-92.3349168"><ele>228.0</ele></trkpt>
      <trkpt lat="38.8994119" lon="-92.3349785"><ele>228.0</ele></trkpt>
      <trkpt lat="38.8994100" lon="-92.3349900"><ele>228.0</ele></trkpt>
      <trkpt lat="38.8992600" lon="-92.3350000"><ele>227.0</ele></trkpt>
      <trkpt lat="38.8986900" lon="-92.3350100"><ele>227.0</ele></trkpt>
      <trkpt lat="38.8986100" lon="-92.3350300"><ele>227.0</ele></trkpt>
      <trkpt lat="38.8983934" lon="-92.3350187"><ele>225.0</ele></trkpt>
      <trkpt lat="38.8975151" lon="-92.3350268"><ele>227.0</ele></trkpt>
      <trkpt lat="38.8957468" lon="-92.3350804"><ele>231.0</ele></trkpt>
      <trkpt lat="38.8954279" lon="-92.3350885"><ele>227.0</ele></trkpt>
      <trkpt lat="38.8948375" lon="-92.3351394"><ele>225.0</ele></trkpt>
      <trkpt lat="38.8937156" lon="-92.3353835"><ele>225.0</ele></trkpt>
      <trkpt lat="38.8930691" lon="-92.3356249"><ele>227.0</ele></trkpt>
      <trkpt lat="38.8926262" lon="-92.3358207"><ele>231.0</ele></trkpt>
      <trkpt lat="38.8922513" lon="-92.3360406"><ele>232.0</ele></trkpt>
      <trkpt lat="38.8918940" lon="-92.3362794"><ele>232.0</ele></trkpt>
      <trkpt lat="38.8912066" lon="-92.3368210"><ele>232.0</ele></trkpt>
      <trkpt lat="38.8904833" lon="-92.3375023"><ele>232.0</ele></trkpt>
      <trkpt lat="38.8889374" lon="-92.3390308"><ele>230.0</ele></trkpt>
      <trkpt lat="38.8880723" lon="-92.3398381"><ele>230.0</ele></trkpt>
      <trkpt lat="38.8876826" lon="-92.3402244"><ele>227.0</ele></trkpt>
      <trkpt lat="38.8862299" lon="-92.3415816"><ele>227.0</ele></trkpt>
      <trkpt lat="38.8859996" lon="-92.3418364"><ele>226.0</ele></trkpt>
      <trkpt lat="38.8856099" lon="-92.3422199"><ele>225.0</ele></trkpt>
      <trkpt lat="38.8850725" lon="-92.3427135"><ele>225.0</ele></trkpt>
      <trkpt lat="38.8847418" lon="-92.3430219"><ele>221.0</ele></trkpt>
      <trkpt lat="38.8841690" lon="-92.3435664"><ele>223.0</ele></trkpt>
      <trkpt lat="38.8833688" lon="-92.3443201"><ele>224.0</ele></trkpt>
      <trkpt lat="38.8829140" lon="-92.3447600"><ele>226.0</ele></trkpt>
      <trkpt lat="38.8826508" lon="-92.3449772"><ele>226.0</ele></trkpt>
      <trkpt lat="38.8823083" lon="-92.3451811"><ele>227.0</ele></trkpt>
      <trkpt lat="38.8819923" lon="-92.3452857"><ele>227.0</ele></trkpt>
      <trkpt lat="38.8814697" lon="-92.3453742"><ele>226.0</ele></trkpt>
      <trkpt lat="38.8810873" lon="-92.3453662"><ele>227.0</ele></trkpt>
      <trkpt lat="38.8806503" lon="-92.3453903"><ele>227.0</ele></trkpt>
      <trkpt lat="38.8802900" lon="-92.3454547"><ele>227.0</ele></trkpt>
      <trkpt lat="38.8799002" lon="-92.3456398"><ele>230.0</ele></trkpt>
      <trkpt lat="38.8794514" lon="-92.3460206"><ele>233.0</ele></trkpt>
      <trkpt lat="38.8791532" lon="-92.3464256"><ele>233.0</ele></trkpt>
      <trkpt lat="38.8784947" lon="-92.3475173"><ele>231.0</ele></trkpt>
      <trkpt lat="38.8782208" lon="-92.3479555"><ele>233.0</ele></trkpt>
      <trkpt lat="38.8779344" lon="-92.3483417"><ele>232.0</ele></trkpt>
      <trkpt lat="38.8775593" lon="-92.3487575"><ele>232.0</ele></trkpt>
      <trkpt lat="38.8772042" lon="-92.3491203"><ele>234.0</ele></trkpt>
      <trkpt lat="38.8769325" lon="-92.3493858"><ele>233.0</ele></trkpt>
      <trkpt lat="38.8767494" lon="-92.3496245"><ele>232.0</ele></trkpt>
      <trkpt lat="38.8764246" lon="-92.3500859"><ele>230.0</ele></trkpt>
      <trkpt lat="38.8762356" lon="-92.3504104"><ele>228.0</ele></trkpt>
      <trkpt lat="38.8761057" lon="-92.3506411"><ele>227.0</ele></trkpt>
      <trkpt lat="38.8758428" lon="-92.3512017"><ele>226.0</ele></trkpt>
      <trkpt lat="38.8756952" lon="-92.3514940"><ele>225.0</ele></trkpt>
      <trkpt lat="38.8754855" lon="-92.3519205"><ele>222.0</ele></trkpt>
      <trkpt lat="38.8752915" lon="-92.3522542"><ele>220.0</ele></trkpt>
      <trkpt lat="38.8751557" lon="-92.3525117"><ele>217.0</ele></trkpt>
      <trkpt lat="38.8750050" lon="-92.3528336"><ele>215.0</ele></trkpt>
      <trkpt lat="38.8747511" lon="-92.3533861"><ele>212.0</ele></trkpt>
      <trkpt lat="38.8746211" lon="-92.3537616"><ele>209.0</ele></trkpt>
      <trkpt lat="38.8744781" lon="-92.3542008"><ele>209.0</ele></trkpt>
      <trkpt lat="38.8743688" lon="-92.3546916"><ele>208.0</ele></trkpt>
      <trkpt lat="38.8742212" lon="-92.3552495"><ele>208.0</ele></trkpt>
      <trkpt lat="38.8740794" lon="-92.3558181"><ele>209.0</ele></trkpt>
      <trkpt lat="38.8739997" lon="-92.3563465"><ele>206.0</ele></trkpt>
      <trkpt lat="38.8739465" lon="-92.3566684"><ele>201.0</ele></trkpt>
      <trkpt lat="38.8739052" lon="-92.3573523"><ele>199.0</ele></trkpt>
      <trkpt lat="38.8738816" lon="-92.3587230"><ele>195.0</ele></trkpt>
      <trkpt lat="38.8738963" lon="-92.3595974"><ele>193.0</ele></trkpt>
      <trkpt lat="38.8739215" lon="-92.3598622"><ele>194.0</ele></trkpt>
      <trkpt lat="38.8740898" lon="-92.3606669"><ele>190.0</ele></trkpt>
      <trkpt lat="38.8745298" lon="-92.3618873"><ele>190.0</ele></trkpt>
      <trkpt lat="38.8750360" lon="-92.3630593"><ele>189.0</ele></trkpt>
      <trkpt lat="38.8753963" lon="-92.3639712"><ele>187.0</ele></trkpt>
      <trkpt lat="38.8755292" lon="-92.3644165"><ele>188.0</ele></trkpt>
      <trkpt lat="38.8755883" lon="-92.3648537"><ele>188.0</ele></trkpt>
      <trkpt lat="38.8756444" lon="-92.3654759"><ele>190.0</ele></trkpt>
      <trkpt lat="38.8756060" lon="-92.3658380"><ele>191.0</ele></trkpt>
      <trkpt lat="38.8755528" lon="-92.3661089"><ele>191.0</ele></trkpt>
      <trkpt lat="38.8754347" lon="-92.3665462"><ele>192.0</ele></trkpt>
      <trkpt lat="38.8749238" lon="-92.3677747"><ele>192.0</ele></trkpt>
      <trkpt lat="38.8745871" lon="-92.3685739"><ele>190.0</ele></trkpt>
      <trkpt lat="38.8742652" lon="-92.3694430"><ele>191.0</ele></trkpt>
      <trkpt lat="38.8740378" lon="-92.3700063"><ele>190.0</ele></trkpt>
      <trkpt lat="38.8732848" lon="-92.3715861"><ele>186.0</ele></trkpt>
      <trkpt lat="38.8727953" lon="-92.3725196"><ele>190.0</ele></trkpt>
      <trkpt lat="38.8724557" lon="-92.3731419"><ele>190.0</ele></trkpt>
      <trkpt lat="38.8722017" lon="-92.3738339"><ele>195.0</ele></trkpt>
      <trkpt lat="38.8719596" lon="-92.3750677"><ele>194.0</ele></trkpt>
      <trkpt lat="38.8718326" lon="-92.3757731"><ele>194.0</ele></trkpt>
      <trkpt lat="38.8717292" lon="-92.3762532"><ele>193.0</ele></trkpt>
      <trkpt lat="38.8716081" lon="-92.3768728"><ele>191.0</ele></trkpt>
      <trkpt lat="38.8714723" lon="-92.3775648"><ele>194.0</ele></trkpt>
      <trkpt lat="38.8713866" lon="-92.3779645"><ele>193.0</ele></trkpt>
      <trkpt lat="38.8712597" lon="-92.3786243"><ele>193.0</ele></trkpt>
      <trkpt lat="38.8711120" lon="-92.3791661"><ele>188.0</ele></trkpt>
      <trkpt lat="38.8709643" lon="-92.3797321"><ele>182.0</ele></trkpt>
      <trkpt lat="38.8708019" lon="-92.3804187"><ele>180.0</ele></trkpt>
      <trkpt lat="38.8705981" lon="-92.3813682"><ele>180.0</ele></trkpt>
      <trkpt lat="38.8705509" lon="-92.3817893"><ele>179.0</ele></trkpt>
      <trkpt lat="38.8705302" lon="-92.3820629"><ele>180.0</ele></trkpt>
      <trkpt lat="38.8704298" lon="-92.3822426"><ele>181.0</ele></trkpt>
      <trkpt lat="38.8702467" lon="-92.3823687"><ele>182.0</ele></trkpt>
      <trkpt lat="38.8702900" lon="-92.3824400"><ele>183.0</ele></trkpt>
      <trkpt lat="38.8701300" lon="-92.3826700"><ele>185.0</ele></trkpt>
      <trkpt lat="38.8699700" lon="-92.3829600"><ele>185.0</ele></trkpt>
      <trkpt lat="38.8699700" lon="-92.3829800"><ele>185.0</ele></trkpt>
      <trkpt lat="38.8697000" lon="-92.3836100"><ele>189.0</ele></trkpt>
      <trkpt lat="38.8694500" lon="-92.3841000"><ele>189.0</ele></trkpt>
      <trkpt lat="38.8691700" lon="-92.3846000"><ele>186.0</ele></trkpt>
      <trkpt lat="38.8689400" lon="-92.3850800"><ele>187.0</ele></trkpt>
      <trkpt lat="38.8687200" lon="-92.3860000"><ele>188.0</ele></trkpt>
      <trkpt lat="38.8686800" lon="-92.3864700"><ele>191.0</ele></trkpt>
      <trkpt lat="38.8686800" lon="-92.3867400"><ele>191.0</ele></trkpt>
      <trkpt lat="38.8686900" lon="-92.3869800"><ele>191.0</ele></trkpt>
      <trkpt lat="38.8687500" lon="-92.3880300"><ele>194.0</ele></trkpt>
      <trkpt lat="38.8687500" lon="-92.3887500"><ele>197.0</ele></trkpt>
      <trkpt lat="38.8687100" lon="-92.3889000"><ele>198.0</ele></trkpt>
      <trkpt lat="38.8686600" lon="-92.3890000"><ele>198.0</ele></trkpt>
      <trkpt lat="38.8683800" lon="-92.3893000"><ele>199.0</ele></trkpt>
      <trkpt lat="38.8681100" lon="-92.3895900"><ele>201.0</ele></trkpt>
      <trkpt lat="38.8678100" lon="-92.3898900"><ele>202.0</ele></trkpt>
      <trkpt lat="38.8671600" lon="-92.3907300"><ele>207.0</ele></trkpt>
      <trkpt lat="38.8667200" lon="-92.3913700"><ele>206.0</ele></trkpt>
      <trkpt lat="38.8661700" lon="-92.3920700"><ele>210.0</ele></trkpt>
      <trkpt lat="38.8660500" lon="-92.3922400"><ele>212.0</ele></trkpt>
      <trkpt lat="38.8656900" lon="-92.3925700"><ele>215.0</ele></trkpt>
      <trkpt lat="38.8651800" lon="-92.3927000"><ele>216.0</ele></trkpt>
      <trkpt lat="38.8648100" lon="-92.3928000"><ele>216.0</ele></trkpt>
      <trkpt lat="38.8645800" lon="-92.3929500"><ele>217.0</ele></trkpt>
      <trkpt lat="38.8642000" lon="-92.3934100"><ele>222.0</ele></trkpt>
      <trkpt lat="38.8638300" lon="-92.3938200"><ele>225.0</ele></trkpt>
      <trkpt lat="38.8634700" lon="-92.3939400"><ele>228.0</ele></trkpt>
      <trkpt lat="38.8629500" lon="-92.3939600"><ele>231.0</ele></trkpt>
      <trkpt lat="38.8623900" lon="-92.3939800"><ele>230.0</ele></trkpt>
      <trkpt lat="38.8620000" lon="-92.3941600"><ele>233.0</ele></trkpt>
      <trkpt lat="38.8614000" lon="-92.3944800"><ele>235.0</ele></trkpt>
      <trkpt lat="38.8612200" lon="-92.3945000"><ele>235.0</ele></trkpt>
      <trkpt lat="38.8608800" lon="-92.3945300"><ele>234.0</ele></trkpt>
      <trkpt lat="38.8605800" lon="-92.3942900"><ele>234.0</ele></trkpt>
      <trkpt lat="38.8603400" lon="-92.3939800"><ele>234.0</ele></trkpt>
      <trkpt lat="38.8600400" lon="-92.3933200"><ele>235.0</ele></trkpt>
      <trkpt lat="38.8596200" lon="-92.3923400"><ele>234.0</ele></trkpt>
      <trkpt lat="38.8595500" lon="-92.3922100"><ele>235.0</ele></trkpt>
      <trkpt lat="38.8593100" lon="-92.3918900"><ele>233.0</ele></trkpt>
      <trkpt lat="38.8585600" lon="-92.3911000"><ele>227.0</ele></trkpt>
      <trkpt lat="38.8584200" lon="-92.3909500"><ele>228.0</ele></trkpt>
      <trkpt lat="38.8581800" lon="-92.3907000"><ele>229.0</ele></trkpt>
      <trkpt lat="38.8579800" lon="-92.3905600"><ele>229.0</ele></trkpt>
      <trkpt lat="38.8576600" lon="-92.3903500"><ele>230.0</ele></trkpt>
      <trkpt lat="38.8574900" lon="-92.3902800"><ele>229.0</ele></trkpt>
      <trkpt lat="38.8572100" lon="-92.3901600"><ele>228.0</ele></trkpt>
      <trkpt lat="38.8571900" lon="-92.3901500"><ele>228.0</ele></trkpt>
      <trkpt lat="38.8566200" lon="-92.3899300"><ele>229.0</ele></trkpt>
      <trkpt lat="38.8561300" lon="-92.3896900"><ele>230.0</ele></trkpt>
      <trkpt lat="38.8556100" lon="-92.3894700"><ele>223.0</ele></trkpt>
      <trkpt lat="38.8553000" lon="-92.3893400"><ele>223.0</ele></trkpt>
      <trkpt lat="38.8547300" lon="-92.3892500"><ele>222.0</ele></trkpt>
      <trkpt lat="38.8542400" lon="-92.3891700"><ele>223.0</ele></trkpt>
      <trkpt lat="38.8531100" lon="-92.3890500"><ele>223.0</ele></trkpt>
      <trkpt lat="38.8521600" lon="-92.3889500"><ele>222.0</ele></trkpt>
      <trkpt lat="38.8512700" lon="-92.3888400"><ele>220.0</ele></trkpt>
      <trkpt lat="38.8501900" lon="-92.3887000"><ele>219.0</ele></trkpt>
      <trkpt lat="38.8491200" lon="-92.3885700"><ele>216.0</ele></trkpt>
      <trkpt lat="38.8480200" lon="-92.3883700"><ele>220.0</ele></trkpt>
      <trkpt lat="38.8463100" lon="-92.3880400"><ele>220.0</ele></trkpt>
      <trkpt lat="38.8452600" lon="-92.3876900"><ele>216.0</ele></trkpt>
      <trkpt lat="38.8450300" lon="-92.3875900"><ele>216.0</ele></trkpt>
      <trkpt lat="38.8441600" lon="-92.3869200"><ele>216.0</ele></trkpt>
      <trkpt lat="38.8437700" lon="-92.3866900"><ele>216.0</ele></trkpt>
      <trkpt lat="38.8436000" lon="-92.3866200"><ele>217.0</ele></trkpt>
      <trkpt lat="38.8433500" lon="-92.3865000"><ele>219.0</ele></trkpt>
      <trkpt lat="38.8431000" lon="-92.3863700"><ele>221.0</ele></trkpt>
      <trkpt lat="38.8427400" lon="-92.3862900"><ele>224.0</ele></trkpt>
      <trkpt lat="38.8419100" lon="-92.3861100"><ele>221.0</ele></trkpt>
      <trkpt lat="38.8414800" lon="-92.3860800"><ele>219.0</ele></trkpt>
      <trkpt lat="38.8402600" lon="-92.3858900"><ele>217.0</ele></trkpt>
      <trkpt lat="38.8384700" lon="-92.3856200"><ele>214.0</ele></trkpt>
      <trkpt lat="38.8379300" lon="-92.3855500"><ele>213.0</ele></trkpt>
      <trkpt lat="38.8372500" lon="-92.3855000"><ele>216.0</ele></trkpt>
      <trkpt lat="38.8366600" lon="-92.3854000"><ele>217.0</ele></trkpt>
      <trkpt lat="38.8365100" lon="-92.3853500"><ele>216.0</ele></trkpt>
      <trkpt lat="38.8357200" lon="-92.3851000"><ele>216.0</ele></trkpt>
      <trkpt lat="38.8353900" lon="-92.3850500"><ele>214.0</ele></trkpt>
      <trkpt lat="38.8349500" lon="-92.3850000"><ele>212.0</ele></trkpt>
      <trkpt lat="38.8345700" lon="-92.3848400"><ele>215.0</ele></trkpt>
      <trkpt lat="38.8343200" lon="-92.3846800"><ele>215.0</ele></trkpt>
      <trkpt lat="38.8339900" lon="-92.3845300"><ele>213.0</ele></trkpt>
      <trkpt lat="38.8336600" lon="-92.3842700"><ele>210.0</ele></trkpt>
      <trkpt lat="38.8333500" lon="-92.3842500"><ele>209.0</ele></trkpt>
      <trkpt lat="38.8330600" lon="-92.3842600"><ele>210.0</ele></trkpt>
      <trkpt lat="38.8304600" lon="-92.3844000"><ele>196.0</ele></trkpt>
      <trkpt lat="38.8300300" lon="-92.3844400"><ele>197.0</ele></trkpt>
      <trkpt lat="38.8294700" lon="-92.3844800"><ele>201.0</ele></trkpt>
      <trkpt lat="38.8291200" lon="-92.3843900"><ele>202.0</ele></trkpt>
      <trkpt lat="38.8280700" lon="-92.3840300"><ele>195.0</ele></trkpt>
      <trkpt lat="38.8277200" lon="-92.3840100"><ele>193.0</ele></trkpt>
      <trkpt lat="38.8270900" lon="-92.3839900"><ele>190.0</ele></trkpt>
      <trkpt lat="38.8266400" lon="-92.3840400"><ele>189.0</ele></trkpt>
      <trkpt lat="38.8260200" lon="-92.3841100"><ele>186.0</ele></trkpt>
      <trkpt lat="38.8255600" lon="-92.3841300"><ele>183.0</ele></trkpt>
      <trkpt lat="38.8250200" lon="-92.3841500"><ele>181.0</ele></trkpt>
      <trkpt lat="38.8241700" lon="-92.3841800"><ele>176.0</ele></trkpt>
      <trkpt lat="38.8236300" lon="-92.3842000"><ele>173.0</ele></trkpt>
      <trkpt lat="38.8233900" lon="-92.3843100"><ele>173.0</ele></trkpt>
      <trkpt lat="38.8231700" lon="-92.3844500"><ele>175.0</ele></trkpt>
      <trkpt lat="38.8227800" lon="-92.3844200"><ele>178.0</ele></trkpt>
      <trkpt lat="38.8224400" lon="-92.3842800"><ele>178.0</ele></trkpt>
      <trkpt lat="38.8224000" lon="-92.3842700"><ele>178.0</ele></trkpt>
      <trkpt lat="38.8222800" lon="-92.3843300"><ele>178.0</ele></trkpt>
      <trkpt lat="38.8220700" lon="-92.3847100"><ele>179.0</ele></trkpt>
      <trkpt lat="38.8218600" lon="-92.3851000"><ele>182.0</ele></trkpt>
      <trkpt lat="38.8217000" lon="-92.3853700"><ele>188.0</ele></trkpt>
      <trkpt lat="38.8212400" lon="-92.3857100"><ele>184.0</ele></trkpt>
      <trkpt lat="38.8210400" lon="-92.3857900"><ele>184.0</ele></trkpt>
      <trkpt lat="38.8209400" lon="-92.3858400"><ele>186.0</ele></trkpt>
      <trkpt lat="38.8206800" lon="-92.3858600"><ele>189.0</ele></trkpt>
      <trkpt lat="38.8205200" lon="-92.3857200"><ele>187.0</ele></trkpt>
      <trkpt lat="38.8200900" lon="-92.3850900"><ele>180.0</ele></trkpt>
      <trkpt lat="38.8198600" lon="-92.3849700"><ele>181.0</ele></trkpt>
      <trkpt lat="38.8196200" lon="-92.3849000"><ele>182.0</ele></trkpt>
      <trkpt lat="38.8192800" lon="-92.3849100"><ele>180.0</ele></trkpt>
      <trkpt lat="38.8191800" lon="-92.3849100"><ele>178.0</ele></trkpt>
      <trkpt lat="38.8191100" lon="-92.3849700"><ele>178.0</ele></trkpt>
      <trkpt lat="38.8189600" lon="-92.3851100"><ele>177.0</ele></trkpt>
      <trkpt lat="38.8188500" lon="-92.3852700"><ele>177.0</ele></trkpt>
      <trkpt lat="38.8186300" lon="-92.3854200"><ele>174.0</ele></trkpt>
      <trkpt lat="38.8181800" lon="-92.3849800"><ele>170.0</ele></trkpt>
      <trkpt lat="38.8179700" lon="-92.3847200"><ele>176.0</ele></trkpt>
      <trkpt lat="38.8175700" lon="-92.3839800"><ele>176.0</ele></trkpt>
      <trkpt lat="38.8170700" lon="-92.3836200"><ele>180.0</ele></trkpt>
      <trkpt lat="38.8168700" lon="-92.3834200"><ele>183.0</ele></trkpt>
      <trkpt lat="38.8165100" lon="-92.3830700"><ele>179.0</ele></trkpt>
      <trkpt lat="38.8159100" lon="-92.3826700"><ele>176.0</ele></trkpt>
      <trkpt lat="38.8153400" lon="-92.3825100"><ele>174.0</ele></trkpt>
      <trkpt lat="38.8147800" lon="-92.3823000"><ele>176.0</ele></trkpt>
      <trkpt lat="38.8139200" lon="-92.3819500"><ele>184.0</ele></trkpt>
      <trkpt lat="38.8130200" lon="-92.3815600"><ele>185.0</ele></trkpt>
      <trkpt lat="38.8116000" lon="-92.3809300"><ele>182.0</ele></trkpt>
      <trkpt lat="38.8085700" lon="-92.3796000"><ele>175.0</ele></trkpt>
      <trkpt lat="38.8070100" lon="-92.3789100"><ele>183.0</ele></trkpt>
      <trkpt lat="38.8053800" lon="-92.3782100"><ele>188.0</ele></trkpt>
      <trkpt lat="38.8039400" lon="-92.3775900"><ele>188.0</ele></trkpt>
      <trkpt lat="38.8031300" lon="-92.3772600"><ele>183.0</ele></trkpt>
      <trkpt lat="38.8029900" lon="-92.3772400"><ele>181.0</ele></trkpt>
      <trkpt lat="38.8029500" lon="-92.3772300"><ele>181.0</ele></trkpt>
      <trkpt lat="38.8027700" lon="-92.3770800"><ele>182.0</ele></trkpt>
      <trkpt lat="38.8023900" lon="-92.3768100"><ele>183.0</ele></trkpt>
      <trkpt lat="38.8019400" lon="-92.3764600"><ele>179.0</ele></trkpt>
      <trkpt lat="38.8017000" lon="-92.3762900"><ele>181.0</ele></trkpt>
      <trkpt lat="38.8019100" lon="-92.3757400"><ele>190.0</ele></trkpt>
      <trkpt lat="38.8020200" lon="-92.3755800"><ele>192.0</ele></trkpt>
      <trkpt lat="38.8025100" lon="-92.3750500"><ele>194.0</ele></trkpt>
      <trkpt lat="38.8029200" lon="-92.3745900"><ele>194.0</ele></trkpt>
      <trkpt lat="38.8031300" lon="-92.3743200"><ele>192.0</ele></trkpt>
      <trkpt lat="38.8033300" lon="-92.3740300"><ele>194.0</ele></trkpt>
      <trkpt lat="38.8037300" lon="-92.3733500"><ele>195.0</ele></trkpt>
      <trkpt lat="38.8038700" lon="-92.3731600"><ele>193.0</ele></trkpt>
      <trkpt lat="38.8041600" lon="-92.3727000"><ele>199.0</ele></trkpt>
      <trkpt lat="38.8042500" lon="-92.3725000"><ele>200.0</ele></trkpt>
      <trkpt lat="38.8043300" lon="-92.3722700"><ele>197.0</ele></trkpt>
      <trkpt lat="38.8044000" lon="-92.3719800"><ele>196.0</ele></trkpt>
      <trkpt lat="38.8044900" lon="-92.3710400"><ele>208.0</ele></trkpt>
      <trkpt lat="38.8045500" lon="-92.3706700"><ele>212.0</ele></trkpt>
      <trkpt lat="38.8046300" lon="-92.3703800"><ele>214.0</ele></trkpt>
      <trkpt lat="38.8047000" lon="-92.3702100"><ele>215.0</ele></trkpt>
      <trkpt lat="38.8047600" lon="-92.3701100"><ele>216.0</ele></trkpt>
      <trkpt lat="38.8049300" lon="-92.3698900"><ele>217.0</ele></trkpt>
      <trkpt lat="38.8050800" lon="-92.3697700"><ele>218.0</ele></trkpt>
      <trkpt lat="38.8051500" lon="-92.3697400"><ele>220.0</ele></trkpt>
      <trkpt lat="38.8054400" lon="-92.3696500"><ele>226.0</ele></trkpt>
      <trkpt lat="38.8058200" lon="-92.3695800"><ele>232.0</ele></trkpt>
      <trkpt lat="38.8061500" lon="-92.3695300"><ele>234.0</ele></trkpt>
      <trkpt lat="38.8064200" lon="-92.3694700"><ele>235.0</ele></trkpt>
      <trkpt lat="38.8065300" lon="-92.3694200"><ele>237.0</ele></trkpt>
      <trkpt lat="38.8066800" lon="-92.3693100"><ele>238.0</ele></trkpt>
      <trkpt lat="38.8068000" lon="-92.3691400"><ele>239.0</ele></trkpt>
      <trkpt lat="38.8069100" lon="-92.3689100"><ele>240.0</ele></trkpt>
      <trkpt lat="38.8069700" lon="-92.3687100"><ele>240.0</ele></trkpt>
      <trkpt lat="38.8070000" lon="-92.3685100"><ele>240.0</ele></trkpt>
      <trkpt lat="38.8069800" lon="-92.3682400"><ele>241.0</ele></trkpt>
      <trkpt lat="38.8068300" lon="-92.3673300"><ele>243.0</ele></trkpt>
      <trkpt lat="38.8068500" lon="-92.3669200"><ele>243.0</ele></trkpt>
      <trkpt lat="38.8069700" lon="-92.3665400"><ele>241.0</ele></trkpt>
      <trkpt lat="38.8070800" lon="-92.3663500"><ele>239.0</ele></trkpt>
      <trkpt lat="38.8071700" lon="-92.3662500"><ele>239.0</ele></trkpt>
      <trkpt lat="38.8072300" lon="-92.3661900"><ele>239.0</ele></trkpt>
      <trkpt lat="38.8073800" lon="-92.3660900"><ele>239.0</ele></trkpt>
      <trkpt lat="38.8075800" lon="-92.3660000"><ele>241.0</ele></trkpt>
      <trkpt lat="38.8077400" lon="-92.3659500"><ele>242.0</ele></trkpt>
      <trkpt lat="38.8084600" lon="-92.3658800"><ele>246.0</ele></trkpt>
      <trkpt lat="38.8087800" lon="-92.3658300"><ele>247.0</ele></trkpt>
      <trkpt lat="38.8089100" lon="-92.3657800"><ele>246.0</ele></trkpt>
      <trkpt lat="38.8091700" lon="-92.3656100"><ele>245.0</ele></trkpt>
      <trkpt lat="38.8092500" lon="-92.3655400"><ele>245.0</ele></trkpt>
      <trkpt lat="38.8093900" lon="-92.3654000"><ele>246.0</ele></trkpt>
      <trkpt lat="38.8095500" lon="-92.3651600"><ele>246.0</ele></trkpt>
      <trkpt lat="38.8099600" lon="-92.3645200"><ele>241.0</ele></trkpt>
      <trkpt lat="38.8101000" lon="-92.3642900"><ele>242.0</ele></trkpt>
      <trkpt lat="38.8102300" lon="-92.3641200"><ele>243.0</ele></trkpt>
      <trkpt lat="38.8104000" lon="-92.3639600"><ele>244.0</ele></trkpt>
      <trkpt lat="38.8106200" lon="-92.3638200"><ele>244.0</ele></trkpt>
      <trkpt lat="38.8109500" lon="-92.3637300"><ele>241.0</ele></trkpt>
      <trkpt lat="38.8116800" lon="-92.3636700"><ele>238.0</ele></trkpt>
      <trkpt lat="38.8120300" lon="-92.3636000"><ele>240.0</ele></trkpt>
      <trkpt lat="38.8122500" lon="-92.3635000"><ele>240.0</ele></trkpt>
      <trkpt lat="38.8123900" lon="-92.3634200"><ele>240.0</ele></trkpt>
      <trkpt lat="38.8130700" lon="-92.3628900"><ele>240.0</ele></trkpt>
      <trkpt lat="38.8135500" lon="-92.3625400"><ele>235.0</ele></trkpt>
      <trkpt lat="38.8137500" lon="-92.3623900"><ele>233.0</ele></trkpt>
      <trkpt lat="38.8139400" lon="-92.3621800"><ele>233.0</ele></trkpt>
      <trkpt lat="38.8141000" lon="-92.3619400"><ele>232.0</ele></trkpt>
      <trkpt lat="38.8141900" lon="-92.3617400"><ele>231.0</ele></trkpt>
      <trkpt lat="38.8143800" lon="-92.3612000"><ele>232.0</ele></trkpt>
      <trkpt lat="38.8144900" lon="-92.3609100"><ele>233.0</ele></trkpt>
      <trkpt lat="38.8146300" lon="-92.3606000"><ele>234.0</ele></trkpt>
      <trkpt lat="38.8148000" lon="-92.3603600"><ele>233.0</ele></trkpt>
      <trkpt lat="38.8150300" lon="-92.3601500"><ele>233.0</ele></trkpt>
      <trkpt lat="38.8152100" lon="-92.3600300"><ele>234.0</ele></trkpt>
      <trkpt lat="38.8154700" lon="-92.3599500"><ele>234.0</ele></trkpt>
      <trkpt lat="38.8155900" lon="-92.3599200"><ele>234.0</ele></trkpt>
      <trkpt lat="38.8158400" lon="-92.3599200"><ele>236.0</ele></trkpt>
      <trkpt lat="38.8163600" lon="-92.3599700"><ele>240.0</ele></trkpt>
      <trkpt lat="38.8167000" lon="-92.3599500"><ele>242.0</ele></trkpt>
      <trkpt lat="38.8169500" lon="-92.3598600"><ele>240.0</ele></trkpt>
      <trkpt lat="38.8171400" lon="-92.3597200"><ele>240.0</ele></trkpt>
      <trkpt lat="38.8173600" lon="-92.3595000"><ele>238.0</ele></trkpt>
      <trkpt lat="38.8174300" lon="-92.3594000"><ele>238.0</ele></trkpt>
      <trkpt lat="38.8176200" lon="-92.3589400"><ele>238.0</ele></trkpt>
      <trkpt lat="38.8179800" lon="-92.3578700"><ele>241.0</ele></trkpt>
      <trkpt lat="38.8182400" lon="-92.3571400"><ele>238.0</ele></trkpt>
      <trkpt lat="38.8184000" lon="-92.3568300"><ele>239.0</ele></trkpt>
      <trkpt lat="38.8186200" lon="-92.3565200"><ele>239.0</ele></trkpt>
      <trkpt lat="38.8191500" lon="-92.3558800"><ele>239.0</ele></trkpt>
      <trkpt lat="38.8194200" lon="-92.3555500"><ele>240.0</ele></trkpt>
      <trkpt lat="38.8196400" lon="-92.3553300"><ele>239.0</ele></trkpt>
      <trkpt lat="38.8197600" lon="-92.3552500"><ele>238.0</ele></trkpt>
      <trkpt lat="38.8199800" lon="-92.3551300"><ele>236.0</ele></trkpt>
      <trkpt lat="38.8204000" lon="-92.3550300"><ele>230.0</ele></trkpt>
      <trkpt lat="38.8209800" lon="-92.3549300"><ele>231.0</ele></trkpt>
      <trkpt lat="38.8225800" lon="-92.3546300"><ele>229.0</ele></trkpt>
      <trkpt lat="38.8230100" lon="-92.3544700"><ele>234.0</ele></trkpt>
      <trkpt lat="38.8231900" lon="-92.3543700"><ele>236.0</ele></trkpt>
      <trkpt lat="38.8234400" lon="-92.3541900"><ele>237.0</ele></trkpt>
      <trkpt lat="38.8236500" lon="-92.3539900"><ele>235.0</ele></trkpt>
      <trkpt lat="38.8237800" lon="-92.3538500"><ele>234.0</ele></trkpt>
      <trkpt lat="38.8241100" lon="-92.3533800"><ele>236.0</ele></trkpt>
      <trkpt lat="38.8248400" lon="-92.3521600"><ele>233.0</ele></trkpt>
      <trkpt lat="38.8249700" lon="-92.3519400"><ele>233.0</ele></trkpt>
      <trkpt lat="38.8251200" lon="-92.3517500"><ele>234.0</ele></trkpt>
      <trkpt lat="38.8252700" lon="-92.3516600"><ele>234.0</ele></trkpt>
      <trkpt lat="38.8253600" lon="-92.3516400"><ele>234.0</ele></trkpt>
      <trkpt lat="38.8256700" lon="-92.3516200"><ele>234.0</ele></trkpt>
      <trkpt lat="38.8258400" lon="-92.3516200"><ele>233.0</ele></trkpt>
      <trkpt lat="38.8275000" lon="-92.3516200"><ele>233.0</ele></trkpt>
      <trkpt lat="38.8281900" lon="-92.3516400"><ele>233.0</ele></trkpt>
      <trkpt lat="38.8285400" lon="-92.3517100"><ele>235.0</ele></trkpt>
      <trkpt lat="38.8285800" lon="-92.3517300"><ele>235.0</ele></trkpt>
      <trkpt lat="38.8291600" lon="-92.3519400"><ele>236.0</ele></trkpt>
      <trkpt lat="38.8293300" lon="-92.3519700"><ele>234.0</ele></trkpt>
      <trkpt lat="38.8295200" lon="-92.3519800"><ele>233.0</ele></trkpt>
      <trkpt lat="38.8296400" lon="-92.3519700"><ele>232.0</ele></trkpt>
      <trkpt lat="38.8298800" lon="-92.3519000"><ele>233.0</ele></trkpt>
      <trkpt lat="38.8301100" lon="-92.3517600"><ele>235.0</ele></trkpt>
      <trkpt lat="38.8303900" lon="-92.3515200"><ele>238.0</ele></trkpt>
      <trkpt lat="38.8312700" lon="-92.3505400"><ele>234.0</ele></trkpt>
      <trkpt lat="38.8323500" lon="-92.3493300"><ele>235.0</ele></trkpt>
      <trkpt lat="38.8324700" lon="-92.3491900"><ele>234.0</ele></trkpt>
      <trkpt lat="38.8329600" lon="-92.3486500"><ele>237.0</ele></trkpt>
      <trkpt lat="38.8332100" lon="-92.3484400"><ele>239.0</ele></trkpt>
      <trkpt lat="38.8334400" lon="-92.3482800"><ele>239.0</ele></trkpt>
      <trkpt lat="38.8339000" lon="-92.3480600"><ele>237.0</ele></trkpt>
      <trkpt lat="38.8346800" lon="-92.3477400"><ele>237.0</ele></trkpt>
      <trkpt lat="38.8362400" lon="-92.3470500"><ele>239.0</ele></trkpt>
      <trkpt lat="38.8370500" lon="-92.3467000"><ele>239.0</ele></trkpt>
      <trkpt lat="38.8373600" lon="-92.3465300"><ele>238.0</ele></trkpt>
      <trkpt lat="38.8375000" lon="-92.3464200"><ele>238.0</ele></trkpt>
      <trkpt lat="38.8376600" lon="-92.3462500"><ele>239.0</ele></trkpt>
      <trkpt lat="38.8377800" lon="-92.3460800"><ele>241.0</ele></trkpt>
      <trkpt lat="38.8378800" lon="-92.3458800"><ele>241.0</ele></trkpt>
      <trkpt lat="38.8379900" lon="-92.3455600"><ele>240.0</ele></trkpt>
      <trkpt lat="38.8384200" lon="-92.3441600"><ele>237.0</ele></trkpt>
      <trkpt lat="38.8384200" lon="-92.3441300"><ele>237.0</ele></trkpt>
      <trkpt lat="38.8384300" lon="-92.3441300"><ele>237.0</ele></trkpt>
      <trkpt lat="38.8390000" lon="-92.3422400"><ele>243.0</ele></trkpt>
      <trkpt lat="38.8389900" lon="-92.3422400"><ele>243.0</ele></trkpt>
      <trkpt lat="38.8395800" lon="-92.3403000"><ele>239.0</ele></trkpt>
      <trkpt lat="38.8397600" lon="-92.3398800"><ele>237.0</ele></trkpt>
      <trkpt lat="38.8399300" lon="-92.3395900"><ele>236.0</ele></trkpt>
      <trkpt lat="38.8400400" lon="-92.3394500"><ele>236.0</ele></trkpt>
      <trkpt lat="38.8403800" lon="-92.3390800"><ele>238.0</ele></trkpt>
      <trkpt lat="38.8408200" lon="-92.3386400"><ele>241.0</ele></trkpt>
      <trkpt lat="38.8414400" lon="-92.3380100"><ele>241.0</ele></trkpt>
      <trkpt lat="38.8416000" lon="-92.3378300"><ele>243.0</ele></trkpt>
      <trkpt lat="38.8420100" lon="-92.3374700"><ele>245.0</ele></trkpt>
      <trkpt lat="38.8421900" lon="-92.3373500"><ele>244.0</ele></trkpt>
      <trkpt lat="38.8423700" lon="-92.3372900"><ele>244.0</ele></trkpt>
      <trkpt lat="38.8428900" lon="-92.3372300"><ele>250.0</ele></trkpt>
      <trkpt lat="38.8431800" lon="-92.3372200"><ele>252.0</ele></trkpt>
      <trkpt lat="38.8450200" lon="-92.3371700"><ele>239.0</ele></trkpt>
      <trkpt lat="38.8464900" lon="-92.3371300"><ele>234.0</ele></trkpt>
      <trkpt lat="38.8467700" lon="-92.3371000"><ele>233.0</ele></trkpt>
      <trkpt lat="38.8469700" lon="-92.3370400"><ele>234.0</ele></trkpt>
      <trkpt lat="38.8470900" lon="-92.3369900"><ele>235.0</ele></trkpt>
      <trkpt lat="38.8473600" lon="-92.3367900"><ele>237.0</ele></trkpt>
      <trkpt lat="38.8474800" lon="-92.3366400"><ele>237.0</ele></trkpt>
      <trkpt lat="38.8476800" lon="-92.3363100"><ele>236.0</ele></trkpt>
      <trkpt lat="38.8480100" lon="-92.3357200"><ele>239.0</ele></trkpt>
      <trkpt lat="38.8482300" lon="-92.3354600"><ele>240.0</ele></trkpt>
      <trkpt lat="38.8483900" lon="-92.3353200"><ele>241.0</ele></trkpt>
      <trkpt lat="38.8487900" lon="-92.3350600"><ele>241.0</ele></trkpt>
      <trkpt lat="38.8498900" lon="-92.3343600"><ele>237.0</ele></trkpt>
      <trkpt lat="38.8502500" lon="-92.3340700"><ele>237.0</ele></trkpt>
      <trkpt lat="38.8504500" lon="-92.3339000"><ele>237.0</ele></trkpt>
      <trkpt lat="38.8517800" lon="-92.3325900"><ele>240.0</ele></trkpt>
      <trkpt lat="38.8522400" lon="-92.3320800"><ele>236.0</ele></trkpt>
      <trkpt lat="38.8526900" lon="-92.3314900"><ele>232.0</ele></trkpt>
      <trkpt lat="38.8541900" lon="-92.3292500"><ele>216.0</ele></trkpt>
      <trkpt lat="38.8560400" lon="-92.3264700"><ele>229.0</ele></trkpt>
      <trkpt lat="38.8571100" lon="-92.3248600"><ele>235.0</ele></trkpt>
      <trkpt lat="38.8582800" lon="-92.3232200"><ele>236.0</ele></trkpt>
      <trkpt lat="38.8585700" lon="-92.3228100"><ele>238.0</ele></trkpt>
      <trkpt lat="38.8587500" lon="-92.3225200"><ele>237.0</ele></trkpt>
      <trkpt lat="38.8591000" lon="-92.3218000"><ele>237.0</ele></trkpt>
      <trkpt lat="38.8597600" lon="-92.3203300"><ele>240.0</ele></trkpt>
      <trkpt lat="38.8603900" lon="-92.3189200"><ele>236.0</ele></trkpt>
      <trkpt lat="38.8607500" lon="-92.3181100"><ele>237.0</ele></trkpt>
      <trkpt lat="38.8609500" lon="-92.3177400"><ele>233.0</ele></trkpt>
      <trkpt lat="38.8613300" lon="-92.3170200"><ele>238.0</ele></trkpt>
      <trkpt lat="38.8616600" lon="-92.3163700"><ele>240.0</ele></trkpt>
      <trkpt lat="38.8620200" lon="-92.3153000"><ele>239.0</ele></trkpt>
      <trkpt lat="38.8621600" lon="-92.3149100"><ele>237.0</ele></trkpt>
      <trkpt lat="38.8623500" lon="-92.3144100"><ele>239.0</ele></trkpt>
      <trkpt lat="38.8625700" lon="-92.3138200"><ele>240.0</ele></trkpt>
      <trkpt lat="38.8627900" lon="-92.3133900"><ele>238.0</ele></trkpt>
      <trkpt lat="38.8631300" lon="-92.3128000"><ele>239.0</ele></trkpt>
      <trkpt lat="38.8634800" lon="-92.3121300"><ele>239.0</ele></trkpt>
      <trkpt lat="38.8640100" lon="-92.3105700"><ele>242.0</ele></trkpt>
      <trkpt lat="38.8643800" lon="-92.3094300"><ele>243.0</ele></trkpt>
      <trkpt lat="38.8648800" lon="-92.3076500"><ele>243.0</ele></trkpt>
      <trkpt lat="38.8651700" lon="-92.3068000"><ele>241.0</ele></trkpt>
      <trkpt lat="38.8664700" lon="-92.3036000"><ele>247.0</ele></trkpt>
      <trkpt lat="38.8672100" lon="-92.3017700"><ele>248.0</ele></trkpt>
      <trkpt lat="38.8675300" lon="-92.3009100"><ele>245.0</ele></trkpt>
      <trkpt lat="38.8679400" lon="-92.3001700"><ele>248.0</ele></trkpt>
      <trkpt lat="38.8690400" lon="-92.2989200"><ele>246.0</ele></trkpt>
      <trkpt lat="38.8692700" lon="-92.2986500"><ele>245.0</ele></trkpt>
      <trkpt lat="38.8694400" lon="-92.2983600"><ele>245.0</ele></trkpt>
      <trkpt lat="38.8695100" lon="-92.2981300"><ele>244.0</ele></trkpt>
      <trkpt lat="38.8696100" lon="-92.2976700"><ele>240.0</ele></trkpt>
      <trkpt lat="38.8699000" lon="-92.2976000"><ele>241.0</ele></trkpt>
      <trkpt lat="38.8700100" lon="-92.2974900"><ele>242.0</ele></trkpt>
      <trkpt lat="38.8704300" lon="-92.2968400"><ele>246.0</ele></trkpt>
      <trkpt lat="38.8708100" lon="-92.2963600"><ele>244.0</ele></trkpt>
      <trkpt lat="38.8709900" lon="-92.2961800"><ele>243.0</ele></trkpt>
      <trkpt lat="38.8712700" lon="-92.2959900"><ele>243.0</ele></trkpt>
      <trkpt lat="38.8714900" lon="-92.2959400"><ele>243.0</ele></trkpt>
      <trkpt lat="38.8726400" lon="-92.2959200"><ele>246.0</ele></trkpt>
      <trkpt lat="38.8729700" lon="-92.2958900"><ele>247.0</ele></trkpt>
      <trkpt lat="38.8730600" lon="-92.2958300"><ele>247.0</ele></trkpt>
      <trkpt lat="38.8731000" lon="-92.2957900"><ele>247.0</ele></trkpt>
      <trkpt lat="38.8732300" lon="-92.2953800"><ele>244.0</ele></trkpt>
      <trkpt lat="38.8734800" lon="-92.2943500"><ele>243.0</ele></trkpt>
      <trkpt lat="38.8736400" lon="-92.2937500"><ele>242.0</ele></trkpt>
      <trkpt lat="38.8737000" lon="-92.2936400"><ele>242.0</ele></trkpt>
      <trkpt lat="38.8743500" lon="-92.2929900"><ele>244.0</ele></trkpt>
      <trkpt lat="38.8746500" lon="-92.2926300"><ele>244.0</ele></trkpt>
      <trkpt lat="38.8749500" lon="-92.2917600"><ele>241.0</ele></trkpt>
      <trkpt lat="38.8749800" lon="-92.2915900"><ele>241.0</ele></trkpt>
      <trkpt lat="38.8750400" lon="-92.2913200"><ele>242.0</ele></trkpt>
      <trkpt lat="38.8750200" lon="-92.2906200"><ele>243.0</ele></trkpt>
      <trkpt lat="38.8749500" lon="-92.2878900"><ele>251.0</ele></trkpt>
      <trkpt lat="38.8749500" lon="-92.2856200"><ele>249.0</ele></trkpt>
      <trkpt lat="38.8750500" lon="-92.2854200"><ele>249.0</ele></trkpt>
      <trkpt lat="38.8751100" lon="-92.2854100"><ele>249.0</ele></trkpt>
      <trkpt lat="38.8764900" lon="-92.2853700"><ele>245.0</ele></trkpt>
      <trkpt lat="38.8765400" lon="-92.2853700"><ele>245.0</ele></trkpt>
      <trkpt lat="38.8765600" lon="-92.2862800"><ele>241.0</ele></trkpt>
      <trkpt lat="38.8765900" lon="-92.2865100"><ele>242.0</ele></trkpt>
      <trkpt lat="38.8771600" lon="-92.2864900"><ele>245.0</ele></trkpt>
      <trkpt lat="38.8794000" lon="-92.2864400"><ele>246.0</ele></trkpt>
      <trkpt lat="38.8813800" lon="-92.2863700"><ele>243.0</ele></trkpt>
      <trkpt lat="38.8817200" lon="-92.2863600"><ele>238.0</ele></trkpt>
      <trkpt lat="38.8819100" lon="-92.2864000"><ele>235.0</ele></trkpt>
      <trkpt lat="38.8824000" lon="-92.2867000"><ele>231.0</ele></trkpt>
      <trkpt lat="38.8826600" lon="-92.2868600"><ele>229.0</ele></trkpt>
      <trkpt lat="38.8830200" lon="-92.2870700"><ele>227.0</ele></trkpt>
      <trkpt lat="38.8832200" lon="-92.2871200"><ele>227.0</ele></trkpt>
      <trkpt lat="38.8834000" lon="-92.2871100"><ele>226.0</ele></trkpt>
      <trkpt lat="38.8835900" lon="-92.2870600"><ele>225.0</ele></trkpt>
      <trkpt lat="38.8837600" lon="-92.2869900"><ele>224.0</ele></trkpt>
      <trkpt lat="38.8841700" lon="-92.2867900"><ele>226.0</ele></trkpt>
      <trkpt lat="38.8844100" lon="-92.2866200"><ele>230.0</ele></trkpt>
      <trkpt lat="38.8847400" lon="-92.2864200"><ele>228.0</ele></trkpt>
      <trkpt lat="38.8850700" lon="-92.2862300"><ele>225.0</ele></trkpt>
      <trkpt lat="38.8851500" lon="-92.2861600"><ele>225.0</ele></trkpt>
      <trkpt lat="38.8853500" lon="-92.2861200"><ele>223.0</ele></trkpt>
      <trkpt lat="38.8854900" lon="-92.2861100"><ele>222.0</ele></trkpt>
      <trkpt lat="38.8857500" lon="-92.2861800"><ele>223.0</ele></trkpt>
      <trkpt lat="38.8861100" lon="-92.2862500"><ele>224.0</ele></trkpt>
      <trkpt lat="38.8867600" lon="-92.2863100"><ele>231.0</ele></trkpt>
      <trkpt lat="38.8868300" lon="-92.2863200"><ele>232.0</ele></trkpt>
      <trkpt lat="38.8873600" lon="-92.2862100"><ele>236.0</ele></trkpt>
      <trkpt lat="38.8875300" lon="-92.2861400"><ele>236.0</ele></trkpt>
      <trkpt lat="38.8879400" lon="-92.2859000"><ele>235.0</ele></trkpt>
      <trkpt lat="38.8887400" lon="-92.2845100"><ele>231.0</ele></trkpt>
      <trkpt lat="38.8892800" lon="-92.2835800"><ele>224.0</ele></trkpt>
      <trkpt lat="38.8894100" lon="-92.2833400"><ele>227.0</ele></trkpt>
      <trkpt lat="38.8897700" lon="-92.2829100"><ele>232.0</ele></trkpt>
      <trkpt lat="38.8903000" lon="-92.2822800"><ele>231.0</ele></trkpt>
      <trkpt lat="38.8905500" lon="-92.2819600"><ele>231.0</ele></trkpt>
      <trkpt lat="38.8906800" lon="-92.2817900"><ele>231.0</ele></trkpt>
      <trkpt lat="38.8908400" lon="-92.2816500"><ele>232.0</ele></trkpt>
      <trkpt lat="38.8909400" lon="-92.2816500"><ele>232.0</ele></trkpt>
      <trkpt lat="38.8910000" lon="-92.2816500"><ele>232.0</ele></trkpt>
      <trkpt lat="38.8909800" lon="-92.2822400"><ele>235.0</ele></trkpt>
      <trkpt lat="38.8909900" lon="-92.2832600"><ele>237.0</ele></trkpt>
      <trkpt lat="38.8910000" lon="-92.2837800"><ele>239.0</ele></trkpt>
      <trkpt lat="38.8910300" lon="-92.2841900"><ele>239.0</ele></trkpt>
      <trkpt lat="38.8910900" lon="-92.2844000"><ele>238.0</ele></trkpt>
      <trkpt lat="38.8911900" lon="-92.2846100"><ele>238.0</ele></trkpt>
      <trkpt lat="38.8913100" lon="-92.2847600"><ele>238.0</ele></trkpt>
      <trkpt lat="38.8914100" lon="-92.2848700"><ele>239.0</ele></trkpt>
      <trkpt lat="38.8914002" lon="-92.2849517"><ele>239.0</ele></trkpt>
      <trkpt lat="38.8913470" lon="-92.2850724"><ele>238.0</ele></trkpt>
      <trkpt lat="38.8911994" lon="-92.2854399"><ele>236.0</ele></trkpt>
      <trkpt lat="38.8910665" lon="-92.2859441"><ele>236.0</ele></trkpt>
      <trkpt lat="38.8910104" lon="-92.2862821"><ele>239.0</ele></trkpt>
      <trkpt lat="38.8910016" lon="-92.2867568"><ele>241.0</ele></trkpt>
      <trkpt lat="38.8910311" lon="-92.2874381"><ele>243.0</ele></trkpt>
      <trkpt lat="38.8910399" lon="-92.2877251"><ele>244.0</ele></trkpt>
      <trkpt lat="38.8912230" lon="-92.2878860"><ele>245.0</ele></trkpt>
      <trkpt lat="38.8912171" lon="-92.2886558"><ele>243.0</ele></trkpt>
      <trkpt lat="38.8912998" lon="-92.2900747"><ele>245.0</ele></trkpt>
      <trkpt lat="38.8912880" lon="-92.2902356"><ele>244.0</ele></trkpt>
      <trkpt lat="38.8912614" lon="-92.2902839"><ele>244.0</ele></trkpt>
      <trkpt lat="38.8912762" lon="-92.2911986"><ele>240.0</ele></trkpt>
      <trkpt lat="38.8913027" lon="-92.2934194"><ele>243.0</ele></trkpt>
      <trkpt lat="38.8913057" lon="-92.2935857"><ele>245.0</ele></trkpt>
      <trkpt lat="38.8914415" lon="-92.2936313"><ele>245.0</ele></trkpt>
      <trkpt lat="38.8919700" lon="-92.2937279"><ele>244.0</ele></trkpt>
      <trkpt lat="38.8927346" lon="-92.2941356"><ele>241.0</ele></trkpt>
      <trkpt lat="38.8937709" lon="-92.2948329"><ele>240.0</ele></trkpt>
      <trkpt lat="38.8944529" lon="-92.2952299"><ele>242.0</ele></trkpt>
      <trkpt lat="38.8947747" lon="-92.2953479"><ele>241.0</ele></trkpt>
      <trkpt lat="38.8948337" lon="-92.2951548"><ele>240.0</ele></trkpt>
      <trkpt lat="38.8948603" lon="-92.2944574"><ele>237.0</ele></trkpt>
      <trkpt lat="38.8948012" lon="-92.2943367"><ele>237.0</ele></trkpt>
      <trkpt lat="38.8947599" lon="-92.2942214"><ele>236.0</ele></trkpt>
      <trkpt lat="38.8946359" lon="-92.2939880"><ele>234.0</ele></trkpt>
      <trkpt lat="38.8946300" lon="-92.2939800"><ele>234.0</ele></trkpt>
      <trkpt lat="38.8944200" lon="-92.2938800"><ele>236.0</ele></trkpt>
      <trkpt lat="38.8942400" lon="-92.2937300"><ele>235.0</ele></trkpt>
      <trkpt lat="38.8942400" lon="-92.2937200"><ele>235.0</ele></trkpt>
      <trkpt lat="38.8941600" lon="-92.2936300"><ele>236.0</ele></trkpt>
      <trkpt lat="38.8940700" lon="-92.2934700"><ele>236.0</ele></trkpt>
      <trkpt lat="38.8940000" lon="-92.2933000"><ele>237.0</ele></trkpt>
      <trkpt lat="38.8939000" lon="-92.2927500"><ele>240.0</ele></trkpt>
      <trkpt lat="38.8937900" lon="-92.2925700"><ele>239.0</ele></trkpt>
      <trkpt lat="38.8936200" lon="-92.2924200"><ele>240.0</ele></trkpt>
      <trkpt lat="38.8933000" lon="-92.2921800"><ele>238.0</ele></trkpt>
      <trkpt lat="38.8931400" lon="-92.2920200"><ele>236.0</ele></trkpt>
      <trkpt lat="38.8930800" lon="-92.2917900"><ele>236.0</ele></trkpt>
      <trkpt lat="38.8931000" lon="-92.2915700"><ele>237.0</ele></trkpt>
      <trkpt lat="38.8931100" lon="-92.2915400"><ele>237.0</ele></trkpt>
      <trkpt lat="38.8931900" lon="-92.2914000"><ele>237.0</ele></trkpt>
      <trkpt lat="38.8933700" lon="-92.2912300"><ele>238.0</ele></trkpt>
      <trkpt lat="38.8936000" lon="-92.2910800"><ele>238.0</ele></trkpt>
      <trkpt lat="38.8936800" lon="-92.2910300"><ele>237.0</ele></trkpt>
      <trkpt lat="38.8937200" lon="-92.2909600"><ele>237.0</ele></trkpt>
      <trkpt lat="38.8938100" lon="-92.2907400"><ele>236.0</ele></trkpt>
      <trkpt lat="38.8939100" lon="-92.2903800"><ele>236.0</ele></trkpt>
      <trkpt lat="38.8941000" lon="-92.2902100"><ele>235.0</ele></trkpt>
      <trkpt lat="38.8942500" lon="-92.2901600"><ele>236.0</ele></trkpt>
      <trkpt lat="38.8944700" lon="-92.2901500"><ele>237.0</ele></trkpt>
      <trkpt lat="38.8945900" lon="-92.2901400"><ele>237.0</ele></trkpt>
      <trkpt lat="38.8946900" lon="-92.2901700"><ele>238.0</ele></trkpt>
      <trkpt lat="38.8948000" lon="-92.2902900"><ele>238.0</ele></trkpt>
      <trkpt lat="38.8952400" lon="-92.2909300"><ele>236.0</ele></trkpt>
      <trkpt lat="38.8954900" lon="-92.2913400"><ele>236.0</ele></trkpt>
      <trkpt lat="38.8956000" lon="-92.2914200"><ele>236.0</ele></trkpt>
      <trkpt lat="38.8957200" lon="-92.2914700"><ele>236.0</ele></trkpt>
      <trkpt lat="38.8958000" lon="-92.2914600"><ele>236.0</ele></trkpt>
      <trkpt lat="38.8959900" lon="-92.2914000"><ele>236.0</ele></trkpt>
      <trkpt lat="38.8961100" lon="-92.2913400"><ele>236.0</ele></trkpt>
      <trkpt lat="38.8962000" lon="-92.2912500"><ele>235.0</ele></trkpt>
      <trkpt lat="38.8963100" lon="-92.2909800"><ele>236.0</ele></trkpt>
      <trkpt lat="38.8964200" lon="-92.2906100"><ele>236.0</ele></trkpt>
      <trkpt lat="38.8964600" lon="-92.2905000"><ele>236.0</ele></trkpt>
      <trkpt lat="38.8965400" lon="-92.2904300"><ele>236.0</ele></trkpt>
      <trkpt lat="38.8966700" lon="-92.2903700"><ele>235.0</ele></trkpt>
      <trkpt lat="38.8967900" lon="-92.2903700"><ele>235.0</ele></trkpt>
      <trkpt lat="38.8970300" lon="-92.2904500"><ele>234.0</ele></trkpt>
      <trkpt lat="38.8971600" lon="-92.2904800"><ele>234.0</ele></trkpt>
      <trkpt lat="38.8972700" lon="-92.2904900"><ele>233.0</ele></trkpt>
      <trkpt lat="38.8974900" lon="-92.2903700"><ele>232.0</ele></trkpt>
      <trkpt lat="38.8976900" lon="-92.2901200"><ele>235.0</ele></trkpt>
      <trkpt lat="38.8978000" lon="-92.2899600"><ele>236.0</ele></trkpt>
      <trkpt lat="38.8979200" lon="-92.2897700"><ele>235.0</ele></trkpt>
      <trkpt lat="38.8980500" lon="-92.2895000"><ele>233.0</ele></trkpt>
      <trkpt lat="38.8981300" lon="-92.2891700"><ele>235.0</ele></trkpt>
      <trkpt lat="38.8982100" lon="-92.2888200"><ele>237.0</ele></trkpt>
      <trkpt lat="38.8982700" lon="-92.2887400"><ele>238.0</ele></trkpt>
      <trkpt lat="38.8983800" lon="-92.2886900"><ele>238.0</ele></trkpt>
      <trkpt lat="38.8985500" lon="-92.2886700"><ele>234.0</ele></trkpt>
      <trkpt lat="38.8986400" lon="-92.2887300"><ele>233.0</ele></trkpt>
      <trkpt lat="38.8987200" lon="-92.2888600"><ele>233.0</ele></trkpt>
      <trkpt lat="38.8988800" lon="-92.2891900"><ele>234.0</ele></trkpt>
      <trkpt lat="38.8989900" lon="-92.2894100"><ele>237.0</ele></trkpt>
      <trkpt lat="38.8990600" lon="-92.2895100"><ele>236.0</ele></trkpt>
      <trkpt lat="38.8992300" lon="-92.2896200"><ele>235.0</ele></trkpt>
      <trkpt lat="38.8994800" lon="-92.2896900"><ele>236.0</ele></trkpt>
      <trkpt lat="38.8998300" lon="-92.2897500"><ele>236.0</ele></trkpt>
      <trkpt lat="38.9001000" lon="-92.2897400"><ele>236.0</ele></trkpt>
      <trkpt lat="38.9004900" lon="-92.2896900"><ele>238.0</ele></trkpt>
      <trkpt lat="38.9006100" lon="-92.2896600"><ele>238.0</ele></trkpt>
      <trkpt lat="38.9006800" lon="-92.2896800"><ele>238.0</ele></trkpt>
      <trkpt lat="38.9007200" lon="-92.2897400"><ele>238.0</ele></trkpt>
      <trkpt lat="38.9008200" lon="-92.2900000"><ele>237.0</ele></trkpt>
      <trkpt lat="38.9009000" lon="-92.2904200"><ele>235.0</ele></trkpt>
      <trkpt lat="38.9009000" lon="-92.2904800"><ele>235.0</ele></trkpt>
      <trkpt lat="38.9008700" lon="-92.2906700"><ele>234.0</ele></trkpt>
      <trkpt lat="38.9008200" lon="-92.2907700"><ele>234.0</ele></trkpt>
      <trkpt lat="38.9007300" lon="-92.2908500"><ele>234.0</ele></trkpt>
      <trkpt lat="38.9005900" lon="-92.2909200"><ele>234.0</ele></trkpt>
      <trkpt lat="38.9005700" lon="-92.2909300"><ele>234.0</ele></trkpt>
      <trkpt lat="38.9002300" lon="-92.2910000"><ele>234.0</ele></trkpt>
      <trkpt lat="38.8998900" lon="-92.2909900"><ele>234.0</ele></trkpt>
      <trkpt lat="38.8996000" lon="-92.2910100"><ele>234.0</ele></trkpt>
      <trkpt lat="38.8995100" lon="-92.2910300"><ele>235.0</ele></trkpt>
      <trkpt lat="38.8993100" lon="-92.2910900"><ele>236.0</ele></trkpt>
      <trkpt lat="38.8991600" lon="-92.2911600"><ele>236.0</ele></trkpt>
      <trkpt lat="38.8989700" lon="-92.2913300"><ele>233.0</ele></trkpt>
      <trkpt lat="38.8988800" lon="-92.2915700"><ele>235.0</ele></trkpt>
      <trkpt lat="38.8988600" lon="-92.2919800"><ele>235.0</ele></trkpt>
      <trkpt lat="38.8987800" lon="-92.2921700"><ele>234.0</ele></trkpt>
      <trkpt lat="38.8987400" lon="-92.2922500"><ele>234.0</ele></trkpt>
      <trkpt lat="38.8986000" lon="-92.2923800"><ele>234.0</ele></trkpt>
      <trkpt lat="38.8982900" lon="-92.2924600"><ele>232.0</ele></trkpt>
      <trkpt lat="38.8981600" lon="-92.2925200"><ele>232.0</ele></trkpt>
      <trkpt lat="38.8980800" lon="-92.2925900"><ele>232.0</ele></trkpt>
      <trkpt lat="38.8979000" lon="-92.2928600"><ele>232.0</ele></trkpt>
      <trkpt lat="38.8975600" lon="-92.2933900"><ele>232.0</ele></trkpt>
      <trkpt lat="38.8973100" lon="-92.2937100"><ele>233.0</ele></trkpt>
      <trkpt lat="38.8969100" lon="-92.2941700"><ele>233.0</ele></trkpt>
      <trkpt lat="38.8967600" lon="-92.2943000"><ele>232.0</ele></trkpt>
      <trkpt lat="38.8965300" lon="-92.2943800"><ele>233.0</ele></trkpt>
      <trkpt lat="38.8960400" lon="-92.2944500"><ele>233.0</ele></trkpt>
      <trkpt lat="38.8959500" lon="-92.2944600"><ele>233.0</ele></trkpt>
      <trkpt lat="38.8953200" lon="-92.2945300"><ele>237.0</ele></trkpt>
      <trkpt lat="38.8951400" lon="-92.2945100"><ele>237.0</ele></trkpt>
      <trkpt lat="38.8950600" lon="-92.2943700"><ele>235.0</ele></trkpt>
      <trkpt lat="38.8949400" lon="-92.2943100"><ele>235.0</ele></trkpt>
      <trkpt lat="38.8948800" lon="-92.2942600"><ele>235.0</ele></trkpt>
      <trkpt lat="38.8948115" lon="-92.2944149"><ele>237.0</ele></trkpt>
      <trkpt lat="38.8948263" lon="-92.2947314"><ele>239.0</ele></trkpt>
      <trkpt lat="38.8948115" lon="-92.2951043"><ele>240.0</ele></trkpt>
      <trkpt lat="38.8947968" lon="-92.2953483"><ele>241.0</ele></trkpt>
      <trkpt lat="38.8947525" lon="-92.2954181"><ele>241.0</ele></trkpt>
      <trkpt lat="38.8947500" lon="-92.2954200"><ele>241.0</ele></trkpt>
      <trkpt lat="38.8943800" lon="-92.2953100"><ele>242.0</ele></trkpt>
      <trkpt lat="38.8939800" lon="-92.2950700"><ele>240.0</ele></trkpt>
      <trkpt lat="38.8930800" lon="-92.2944700"><ele>241.0</ele></trkpt>
      <trkpt lat="38.8930400" lon="-92.2945000"><ele>241.0</ele></trkpt>
      <trkpt lat="38.8930000" lon="-92.2944700"><ele>241.0</ele></trkpt>
      <trkpt lat="38.8929500" lon="-92.2943900"><ele>241.0</ele></trkpt>
      <trkpt lat="38.8926700" lon="-92.2941900"><ele>241.0</ele></trkpt>
      <trkpt lat="38.8924100" lon="-92.2940200"><ele>243.0</ele></trkpt>
      <trkpt lat="38.8920600" lon="-92.2938500"><ele>245.0</ele></trkpt>
      <trkpt lat="38.8918200" lon="-92.2937800"><ele>245.0</ele></trkpt>
      <trkpt lat="38.8916100" lon="-92.2937300"><ele>245.0</ele></trkpt>
      <trkpt lat="38.8913300" lon="-92.2937200"><ele>245.0</ele></trkpt>
      <trkpt lat="38.8913200" lon="-92.2937200"><ele>245.0</ele></trkpt>
      <trkpt lat="38.8912032" lon="-92.2877058"><ele>245.0</ele></trkpt>
      <trkpt lat="38.8911898" lon="-92.2875046"><ele>243.0</ele></trkpt>
      <trkpt lat="38.8911544" lon="-92.2868931"><ele>240.0</ele></trkpt>
      <trkpt lat="38.8912134" lon="-92.2861689"><ele>238.0</ele></trkpt>
      <trkpt lat="38.8914791" lon="-92.2854339"><ele>238.0</ele></trkpt>
      <trkpt lat="38.8919338" lon="-92.2848009"><ele>240.0</ele></trkpt>
      <trkpt lat="38.8935517" lon="-92.2838139"><ele>239.0</ele></trkpt>
      <trkpt lat="38.8938942" lon="-92.2836959"><ele>242.0</ele></trkpt>
      <trkpt lat="38.8942189" lon="-92.2839373"><ele>246.0</ele></trkpt>
      <trkpt lat="38.8946677" lon="-92.2851979"><ele>247.0</ele></trkpt>
      <trkpt lat="38.8946677" lon="-92.2853642"><ele>248.0</ele></trkpt>
      <trkpt lat="38.8946145" lon="-92.2854500"><ele>248.0</ele></trkpt>
      <trkpt lat="38.8946854" lon="-92.2856539"><ele>249.0</ele></trkpt>
      <trkpt lat="38.8949334" lon="-92.2857880"><ele>251.0</ele></trkpt>
      <trkpt lat="38.8950433" lon="-92.2857551"><ele>251.0</ele></trkpt>
      <trkpt lat="38.8950537" lon="-92.2856559"><ele>251.0</ele></trkpt>
      <trkpt lat="38.8950980" lon="-92.2855057"><ele>251.0</ele></trkpt>
      <trkpt lat="38.8951806" lon="-92.2854333"><ele>250.0</ele></trkpt>
      <trkpt lat="38.8960995" lon="-92.2849780"><ele>242.0</ele></trkpt>
      <trkpt lat="38.8963703" lon="-92.2849082"><ele>244.0</ele></trkpt>
      <trkpt lat="38.8968309" lon="-92.2849297"><ele>245.0</ele></trkpt>
      <trkpt lat="38.8972737" lon="-92.2850584"><ele>244.0</ele></trkpt>
      <trkpt lat="38.8974184" lon="-92.2851443"><ele>245.0</ele></trkpt>
      <trkpt lat="38.8979999" lon="-92.2855359"><ele>246.0</ele></trkpt>
      <trkpt lat="38.8984634" lon="-92.2858255"><ele>244.0</ele></trkpt>
      <trkpt lat="38.8988324" lon="-92.2860267"><ele>242.0</ele></trkpt>
      <trkpt lat="38.8988856" lon="-92.2862037"><ele>241.0</ele></trkpt>
      <trkpt lat="38.8989033" lon="-92.2863459"><ele>240.0</ele></trkpt>
      <trkpt lat="38.8990184" lon="-92.2864666"><ele>239.0</ele></trkpt>
      <trkpt lat="38.8991896" lon="-92.2864344"><ele>239.0</ele></trkpt>
      <trkpt lat="38.8993195" lon="-92.2864263"><ele>240.0</ele></trkpt>
      <trkpt lat="38.8995380" lon="-92.2866490"><ele>240.0</ele></trkpt>
      <trkpt lat="38.8998125" lon="-92.2869422"><ele>241.0</ele></trkpt>
      <trkpt lat="38.9001018" lon="-92.2873338"><ele>241.0</ele></trkpt>
      <trkpt lat="38.9004384" lon="-92.2876047"><ele>241.0</ele></trkpt>
      <trkpt lat="38.9008989" lon="-92.2877576"><ele>241.0</ele></trkpt>
      <trkpt lat="38.9012265" lon="-92.2877415"><ele>242.0</ele></trkpt>
      <trkpt lat="38.9015011" lon="-92.2876476"><ele>245.0</ele></trkpt>
      <trkpt lat="38.9016952" lon="-92.2877415"><ele>246.0</ele></trkpt>
      <trkpt lat="38.9018399" lon="-92.2877066"><ele>247.0</ele></trkpt>
      <trkpt lat="38.9019019" lon="-92.2876315"><ele>247.0</ele></trkpt>
      <trkpt lat="38.9019521" lon="-92.2875671"><ele>248.0</ele></trkpt>
      <trkpt lat="38.9021734" lon="-92.2876878"><ele>247.0</ele></trkpt>
      <trkpt lat="38.9027107" lon="-92.2885086"><ele>241.0</ele></trkpt>
      <trkpt lat="38.9032922" lon="-92.2893642"><ele>241.0</ele></trkpt>
      <trkpt lat="38.9035343" lon="-92.2897558"><ele>243.0</ele></trkpt>
      <trkpt lat="38.9036406" lon="-92.2902788"><ele>245.0</ele></trkpt>
      <trkpt lat="38.9035668" lon="-92.2903620"><ele>245.0</ele></trkpt>
      <trkpt lat="38.9037350" lon="-92.2906302"><ele>245.0</ele></trkpt>
      <trkpt lat="38.9041335" lon="-92.2904880"><ele>246.0</ele></trkpt>
      <trkpt lat="38.9043756" lon="-92.2906973"><ele>246.0</ele></trkpt>
      <trkpt lat="38.9048272" lon="-92.2911774"><ele>245.0</ele></trkpt>
      <trkpt lat="38.9049689" lon="-92.2912176"><ele>245.0</ele></trkpt>
      <trkpt lat="38.9057393" lon="-92.2919686"><ele>241.0</ele></trkpt>
      <trkpt lat="38.9056655" lon="-92.2920625"><ele>242.0</ele></trkpt>
      <trkpt lat="38.9057718" lon="-92.2925104"><ele>243.0</ele></trkpt>
      <trkpt lat="38.9058161" lon="-92.2930549"><ele>241.0</ele></trkpt>
      <trkpt lat="38.9058397" lon="-92.2935914"><ele>240.0</ele></trkpt>
      <trkpt lat="38.9059017" lon="-92.2937979"><ele>240.0</ele></trkpt>
      <trkpt lat="38.9059932" lon="-92.2939588"><ele>241.0</ele></trkpt>
      <trkpt lat="38.9060463" lon="-92.2941466"><ele>241.0</ele></trkpt>
      <trkpt lat="38.9060817" lon="-92.2942619"><ele>241.0</ele></trkpt>
      <trkpt lat="38.9061703" lon="-92.2943343"><ele>240.0</ele></trkpt>
      <trkpt lat="38.9063415" lon="-92.2943236"><ele>239.0</ele></trkpt>
      <trkpt lat="38.9064950" lon="-92.2944094"><ele>238.0</ele></trkpt>
      <trkpt lat="38.9066130" lon="-92.2945409"><ele>237.0</ele></trkpt>
      <trkpt lat="38.9068020" lon="-92.2947957"><ele>236.0</ele></trkpt>
    </trkseg>
  </trk>
</gpx>
