<?xml version="1.0" encoding="UTF-8"?>
 <gpx creator="Garmin Connect" version="1.1"
	 xsi:schemaLocation="http://www.topografix.com/GPX/1/1 http://www.topografix.com/GPX/11.xsd"
	 xmlns:ns3="http://www.garmin.com/xmlschemas/TrackPointExtension/v1"
	 xmlns="http://www.topografix.com/GPX/1/1"
	 xmlns:xsi="http://www.w3.org/2001/XMLSchema-instance" xmlns:ns2="http://www.garmin.com/xmlschemas/GpxExtensions/v3">
	 <metadata>
		<name>BMW Helsinki Marathon 2024 - 42.195 km</name>
		 <link href="https://www.goandrace.com">
		 <text>Garmin Connect</text>
		 </link>
	 <time>2026-08-08T21:31:32</time>
	 </metadata>
	 <trk>
		 <name>BMW Helsinki Marathon 2024 - 42.195 km</name>
		 <trkseg>
			 <trkpt lat="60.155205" lon="24.951963">
				 <ele>2</ele>
			 </trkpt>
			 <trkpt lat="60.1552" lon="24.95196">
				 <ele>2.1</ele>
			 </trkpt>
			 <trkpt lat="60.15476" lon="24.9533">
				 <ele>2.4</ele>
			 </trkpt>
			 <trkpt lat="60.15476" lon="24.9533">
				 <ele>2.7</ele>
			 </trkpt>
			 <trkpt lat="60.15428" lon="24.95473">
				 <ele>3</ele>
			 </trkpt>
			 <trkpt lat="60.15416" lon="24.9551">
				 <ele>3.4</ele>
			 </trkpt>
			 <trkpt lat="60.15398" lon="24.95573">
				 <ele>3.7</ele>
			 </trkpt>
			 <trkpt lat="60.15395" lon="24.9559">
				 <ele>4.1</ele>
			 </trkpt>
			 <trkpt lat="60.15391" lon="24.95647">
				 <ele>4.5</ele>
			 </trkpt>
			 <trkpt lat="60.15389" lon="24.9568">
				 <ele>4.8</ele>
			 </trkpt>
			 <trkpt lat="60.15391" lon="24.95717">
				 <ele>5</ele>
			 </trkpt>
			 <trkpt lat="60.15402" lon="24.95759">
				 <ele>5</ele>
			 </trkpt>
			 <trkpt lat="60.15407" lon="24.95773">
				 <ele>4.9</ele>
			 </trkpt>
			 <trkpt lat="60.15407" lon="24.95773">
				 <ele>4.7</ele>
			 </trkpt>
			 <trkpt lat="60.15409" lon="24.95778">
				 <ele>4.5</ele>
			 </trkpt>
			 <trkpt lat="60.15429" lon="24.95808">
				 <ele>4.1</ele>
			 </trkpt>
			 <trkpt lat="60.15498" lon="24.95873">
				 <ele>3.6</ele>
			 </trkpt>
			 <trkpt lat="60.15509" lon="24.959">
				 <ele>3.3</ele>
			 </trkpt>
			 <trkpt lat="60.15525" lon="24.95962">
				 <ele>2.9</ele>
			 </trkpt>
			 <trkpt lat="60.15531" lon="24.96021">
				 <ele>2.5</ele>
			 </trkpt>
			 <trkpt lat="60.15549" lon="24.96138">
				 <ele>2.2</ele>
			 </trkpt>
			 <trkpt lat="60.1556" lon="24.96193">
				 <ele>2</ele>
			 </trkpt>
			 <trkpt lat="60.15571" lon="24.96227">
				 <ele>2</ele>
			 </trkpt>
			 <trkpt lat="60.15582" lon="24.96252">
				 <ele>2</ele>
			 </trkpt>
			 <trkpt lat="60.15582" lon="24.96252">
				 <ele>2</ele>
			 </trkpt>
			 <trkpt lat="60.15599" lon="24.96278">
				 <ele>2</ele>
			 </trkpt>
			 <trkpt lat="60.15613" lon="24.96288">
				 <ele>2</ele>
			 </trkpt>
			 <trkpt lat="60.15623" lon="24.96291">
				 <ele>2</ele>
			 </trkpt>
			 <trkpt lat="60.15643" lon="24.9629">
				 <ele>2</ele>
			 </trkpt>
			 <trkpt lat="60.15661" lon="24.96282">
				 <ele>2</ele>
			 </trkpt>
			 <trkpt lat="60.15671" lon="24.96275">
				 <ele>2</ele>
			 </trkpt>
			 <trkpt lat="60.15696" lon="24.96263">
				 <ele>2</ele>
			 </trkpt>
			 <trkpt lat="60.15707" lon="24.96261">
				 <ele>2</ele>
			 </trkpt>
			 <trkpt lat="60.15731" lon="24.96262">
				 <ele>2</ele>
			 </trkpt>
			 <trkpt lat="60.15748" lon="24.9626">
				 <ele>2</ele>
			 </trkpt>
			 <trkpt lat="60.15761" lon="24.96254">
				 <ele>2</ele>
			 </trkpt>
			 <trkpt lat="60.15791" lon="24.96235">
				 <ele>2</ele>
			 </trkpt>
			 <trkpt lat="60.15831" lon="24.96195">
				 <ele>2.1</ele>
			 </trkpt>
			 <trkpt lat="60.15867" lon="24.9617">
				 <ele>2.2</ele>
			 </trkpt>
			 <trkpt lat="60.15867" lon="24.9617">
				 <ele>2.4</ele>
			 </trkpt>
			 <trkpt lat="60.15944" lon="24.9611">
				 <ele>2.7</ele>
			 </trkpt>
			 <trkpt lat="60.15984" lon="24.9607">
				 <ele>3.3</ele>
			 </trkpt>
			 <trkpt lat="60.15992" lon="24.96057">
				 <ele>3.8</ele>
			 </trkpt>
			 <trkpt lat="60.16001" lon="24.96036">
				 <ele>4.4</ele>
			 </trkpt>
			 <trkpt lat="60.16014" lon="24.95989">
				 <ele>4.9</ele>
			 </trkpt>
			 <trkpt lat="60.1602" lon="24.95934">
				 <ele>5.5</ele>
			 </trkpt>
			 <trkpt lat="60.16031" lon="24.95854">
				 <ele>6.1</ele>
			 </trkpt>
			 <trkpt lat="60.16039" lon="24.95819">
				 <ele>6.7</ele>
			 </trkpt>
			 <trkpt lat="60.16047" lon="24.95798">
				 <ele>7.3</ele>
			 </trkpt>
			 <trkpt lat="60.16056" lon="24.95773">
				 <ele>7.8</ele>
			 </trkpt>
			 <trkpt lat="60.16069" lon="24.95746">
				 <ele>8.3</ele>
			 </trkpt>
			 <trkpt lat="60.16092" lon="24.95713">
				 <ele>8.5</ele>
			 </trkpt>
			 <trkpt lat="60.16092" lon="24.95713">
				 <ele>8.5</ele>
			 </trkpt>
			 <trkpt lat="60.16096" lon="24.95708">
				 <ele>8.5</ele>
			 </trkpt>
			 <trkpt lat="60.16101" lon="24.95706">
				 <ele>8.5</ele>
			 </trkpt>
			 <trkpt lat="60.16103" lon="24.95703">
				 <ele>8.5</ele>
			 </trkpt>
			 <trkpt lat="60.16117" lon="24.9567">
				 <ele>8.5</ele>
			 </trkpt>
			 <trkpt lat="60.16123" lon="24.95671">
				 <ele>8.3</ele>
			 </trkpt>
			 <trkpt lat="60.16128" lon="24.95666">
				 <ele>8.1</ele>
			 </trkpt>
			 <trkpt lat="60.16129" lon="24.95663">
				 <ele>7.8</ele>
			 </trkpt>
			 <trkpt lat="60.16149" lon="24.95659">
				 <ele>7.5</ele>
			 </trkpt>
			 <trkpt lat="60.16161" lon="24.95653">
				 <ele>7.1</ele>
			 </trkpt>
			 <trkpt lat="60.16179" lon="24.95641">
				 <ele>6.7</ele>
			 </trkpt>
			 <trkpt lat="60.16203" lon="24.95616">
				 <ele>6.3</ele>
			 </trkpt>
			 <trkpt lat="60.16214" lon="24.95599">
				 <ele>5.8</ele>
			 </trkpt>
			 <trkpt lat="60.16214" lon="24.95599">
				 <ele>5.4</ele>
			 </trkpt>
			 <trkpt lat="60.16315" lon="24.9545">
				 <ele>4.9</ele>
			 </trkpt>
			 <trkpt lat="60.16335" lon="24.95417">
				 <ele>4.5</ele>
			 </trkpt>
			 <trkpt lat="60.16349" lon="24.95396">
				 <ele>4</ele>
			 </trkpt>
			 <trkpt lat="60.16371" lon="24.95363">
				 <ele>3.5</ele>
			 </trkpt>
			 <trkpt lat="60.16397" lon="24.95328">
				 <ele>3.2</ele>
			 </trkpt>
			 <trkpt lat="60.16398" lon="24.95327">
				 <ele>2.8</ele>
			 </trkpt>
			 <trkpt lat="60.16398" lon="24.95327">
				 <ele>2.6</ele>
			 </trkpt>
			 <trkpt lat="60.16448" lon="24.95282">
				 <ele>2.5</ele>
			 </trkpt>
			 <trkpt lat="60.16465" lon="24.95276">
				 <ele>2.4</ele>
			 </trkpt>
			 <trkpt lat="60.16487" lon="24.95271">
				 <ele>2.3</ele>
			 </trkpt>
			 <trkpt lat="60.16533" lon="24.95267">
				 <ele>2.1</ele>
			 </trkpt>
			 <trkpt lat="60.16561" lon="24.95259">
				 <ele>1.9</ele>
			 </trkpt>
			 <trkpt lat="60.16582" lon="24.95255">
				 <ele>1.7</ele>
			 </trkpt>
			 <trkpt lat="60.16661" lon="24.95248">
				 <ele>1.7</ele>
			 </trkpt>
			 <trkpt lat="60.16675" lon="24.95249">
				 <ele>1.7</ele>
			 </trkpt>
			 <trkpt lat="60.16699" lon="24.95247">
				 <ele>1.7</ele>
			 </trkpt>
			 <trkpt lat="60.16728" lon="24.95243">
				 <ele>1.7</ele>
			 </trkpt>
			 <trkpt lat="60.16738" lon="24.95244">
				 <ele>1.8</ele>
			 </trkpt>
			 <trkpt lat="60.16766" lon="24.95243">
				 <ele>1.8</ele>
			 </trkpt>
			 <trkpt lat="60.16778" lon="24.95258">
				 <ele>1.8</ele>
			 </trkpt>
			 <trkpt lat="60.16782" lon="24.95279">
				 <ele>1.8</ele>
			 </trkpt>
			 <trkpt lat="60.16786" lon="24.95363">
				 <ele>1.9</ele>
			 </trkpt>
			 <trkpt lat="60.16791" lon="24.95463">
				 <ele>2.1</ele>
			 </trkpt>
			 <trkpt lat="60.16794" lon="24.95601">
				 <ele>2.3</ele>
			 </trkpt>
			 <trkpt lat="60.16796" lon="24.95665">
				 <ele>2.4</ele>
			 </trkpt>
			 <trkpt lat="60.16798" lon="24.95697">
				 <ele>2.4</ele>
			 </trkpt>
			 <trkpt lat="60.16805" lon="24.95719">
				 <ele>2.4</ele>
			 </trkpt>
			 <trkpt lat="60.16807" lon="24.95723">
				 <ele>2.4</ele>
			 </trkpt>
			 <trkpt lat="60.16803" lon="24.95737">
				 <ele>2.3</ele>
			 </trkpt>
			 <trkpt lat="60.16789" lon="24.9578">
				 <ele>2.3</ele>
			 </trkpt>
			 <trkpt lat="60.16768" lon="24.95842">
				 <ele>2.3</ele>
			 </trkpt>
			 <trkpt lat="60.16757" lon="24.95876">
				 <ele>2.3</ele>
			 </trkpt>
			 <trkpt lat="60.166513" lon="24.961963">
				 <ele>2.3</ele>
			 </trkpt>
			 <trkpt lat="60.165378" lon="24.965339">
				 <ele>2.2</ele>
			 </trkpt>
			 <trkpt lat="60.165321" lon="24.965661">
				 <ele>2.1</ele>
			 </trkpt>
			 <trkpt lat="60.164697" lon="24.967643">
				 <ele>2</ele>
			 </trkpt>
			 <trkpt lat="60.164574" lon="24.967997">
				 <ele>2</ele>
			 </trkpt>
			 <trkpt lat="60.164409" lon="24.96833">
				 <ele>2</ele>
			 </trkpt>
			 <trkpt lat="60.164308" lon="24.968738">
				 <ele>2</ele>
			 </trkpt>
			 <trkpt lat="60.164244" lon="24.969081">
				 <ele>2</ele>
			 </trkpt>
			 <trkpt lat="60.1643" lon="24.970369">
				 <ele>2</ele>
			 </trkpt>
			 <trkpt lat="60.164433" lon="24.970803">
				 <ele>2</ele>
			 </trkpt>
			 <trkpt lat="60.164624" lon="24.971427">
				 <ele>2</ele>
			 </trkpt>
			 <trkpt lat="60.164889" lon="24.972298">
				 <ele>2</ele>
			 </trkpt>
			 <trkpt lat="60.165312" lon="24.973524">
				 <ele>2</ele>
			 </trkpt>
			 <trkpt lat="60.165467" lon="24.97393">
				 <ele>2</ele>
			 </trkpt>
			 <trkpt lat="60.165629" lon="24.97426">
				 <ele>2</ele>
			 </trkpt>
			 <trkpt lat="60.16564" lon="24.97424">
				 <ele>2</ele>
			 </trkpt>
			 <trkpt lat="60.16638" lon="24.97646">
				 <ele>2</ele>
			 </trkpt>
			 <trkpt lat="60.16638" lon="24.97646">
				 <ele>2</ele>
			 </trkpt>
			 <trkpt lat="60.16673" lon="24.97752">
				 <ele>2</ele>
			 </trkpt>
			 <trkpt lat="60.16696" lon="24.97802">
				 <ele>2</ele>
			 </trkpt>
			 <trkpt lat="60.16705" lon="24.97813">
				 <ele>2</ele>
			 </trkpt>
			 <trkpt lat="60.16736" lon="24.97865">
				 <ele>2</ele>
			 </trkpt>
			 <trkpt lat="60.16746" lon="24.97878">
				 <ele>2.1</ele>
			 </trkpt>
			 <trkpt lat="60.16751" lon="24.97878">
				 <ele>2.3</ele>
			 </trkpt>
			 <trkpt lat="60.168" lon="24.97834">
				 <ele>2.5</ele>
			 </trkpt>
			 <trkpt lat="60.168" lon="24.97834">
				 <ele>2.8</ele>
			 </trkpt>
			 <trkpt lat="60.1684" lon="24.97797">
				 <ele>3.1</ele>
			 </trkpt>
			 <trkpt lat="60.16827" lon="24.97747">
				 <ele>3.5</ele>
			 </trkpt>
			 <trkpt lat="60.16816" lon="24.97704">
				 <ele>4.2</ele>
			 </trkpt>
			 <trkpt lat="60.167411" lon="24.974555">
				 <ele>4.8</ele>
			 </trkpt>
			 <trkpt lat="60.16743" lon="24.97454">
				 <ele>5.5</ele>
			 </trkpt>
			 <trkpt lat="60.16708" lon="24.97313">
				 <ele>6.1</ele>
			 </trkpt>
			 <trkpt lat="60.16685" lon="24.97226">
				 <ele>6.7</ele>
			 </trkpt>
			 <trkpt lat="60.16669" lon="24.97162">
				 <ele>7.3</ele>
			 </trkpt>
			 <trkpt lat="60.16669" lon="24.97162">
				 <ele>7.6</ele>
			 </trkpt>
			 <trkpt lat="60.16666" lon="24.9715">
				 <ele>7.9</ele>
			 </trkpt>
			 <trkpt lat="60.16671" lon="24.97145">
				 <ele>8.1</ele>
			 </trkpt>
			 <trkpt lat="60.16721" lon="24.97091">
				 <ele>8.2</ele>
			 </trkpt>
			 <trkpt lat="60.16721" lon="24.97091">
				 <ele>8.1</ele>
			 </trkpt>
			 <trkpt lat="60.16747" lon="24.97064">
				 <ele>7.8</ele>
			 </trkpt>
			 <trkpt lat="60.16755" lon="24.97063">
				 <ele>7.5</ele>
			 </trkpt>
			 <trkpt lat="60.16787" lon="24.97033">
				 <ele>7.3</ele>
			 </trkpt>
			 <trkpt lat="60.16798" lon="24.9703">
				 <ele>7</ele>
			 </trkpt>
			 <trkpt lat="60.16801" lon="24.97017">
				 <ele>6.7</ele>
			 </trkpt>
			 <trkpt lat="60.16809" lon="24.96999">
				 <ele>6.5</ele>
			 </trkpt>
			 <trkpt lat="60.16821" lon="24.96962">
				 <ele>6.3</ele>
			 </trkpt>
			 <trkpt lat="60.16835" lon="24.96908">
				 <ele>6</ele>
			 </trkpt>
			 <trkpt lat="60.1685" lon="24.96834">
				 <ele>5.8</ele>
			 </trkpt>
			 <trkpt lat="60.1685" lon="24.96834">
				 <ele>5.5</ele>
			 </trkpt>
			 <trkpt lat="60.1685" lon="24.96829">
				 <ele>5.3</ele>
			 </trkpt>
			 <trkpt lat="60.16853" lon="24.96818">
				 <ele>4.9</ele>
			 </trkpt>
			 <trkpt lat="60.16881" lon="24.96686">
				 <ele>4.5</ele>
			 </trkpt>
			 <trkpt lat="60.16884" lon="24.96668">
				 <ele>4.2</ele>
			 </trkpt>
			 <trkpt lat="60.16881" lon="24.96555">
				 <ele>3.8</ele>
			 </trkpt>
			 <trkpt lat="60.1688" lon="24.96479">
				 <ele>3.5</ele>
			 </trkpt>
			 <trkpt lat="60.168797" lon="24.963677">
				 <ele>3.1</ele>
			 </trkpt>
			 <trkpt lat="60.169085" lon="24.962733">
				 <ele>2.7</ele>
			 </trkpt>
			 <trkpt lat="60.169139" lon="24.962357">
				 <ele>2.5</ele>
			 </trkpt>
			 <trkpt lat="60.16914" lon="24.96236">
				 <ele>2.2</ele>
			 </trkpt>
			 <trkpt lat="60.16904" lon="24.95931">
				 <ele>2.1</ele>
			 </trkpt>
			 <trkpt lat="60.16903" lon="24.95925">
				 <ele>2</ele>
			 </trkpt>
			 <trkpt lat="60.16895" lon="24.95916">
				 <ele>2</ele>
			 </trkpt>
			 <trkpt lat="60.1689" lon="24.95911">
				 <ele>1.9</ele>
			 </trkpt>
			 <trkpt lat="60.16889" lon="24.95904">
				 <ele>1.9</ele>
			 </trkpt>
			 <trkpt lat="60.169011" lon="24.958682">
				 <ele>1.8</ele>
			 </trkpt>
			 <trkpt lat="60.169475" lon="24.958682">
				 <ele>1.8</ele>
			 </trkpt>
			 <trkpt lat="60.169566" lon="24.958838">
				 <ele>1.7</ele>
			 </trkpt>
			 <trkpt lat="60.169596" lon="24.959573">
				 <ele>1.7</ele>
			 </trkpt>
			 <trkpt lat="60.169679" lon="24.959814">
				 <ele>1.7</ele>
			 </trkpt>
			 <trkpt lat="60.170462" lon="24.960234">
				 <ele>1.8</ele>
			 </trkpt>
			 <trkpt lat="60.171585" lon="24.960807">
				 <ele>1.9</ele>
			 </trkpt>
			 <trkpt lat="60.172757" lon="24.961358">
				 <ele>2</ele>
			 </trkpt>
			 <trkpt lat="60.173789" lon="24.961896">
				 <ele>2</ele>
			 </trkpt>
			 <trkpt lat="60.174242" lon="24.962085">
				 <ele>2.1</ele>
			 </trkpt>
			 <trkpt lat="60.17565" lon="24.96183">
				 <ele>2.1</ele>
			 </trkpt>
			 <trkpt lat="60.175899" lon="24.961605">
				 <ele>2.2</ele>
			 </trkpt>
			 <trkpt lat="60.176121" lon="24.961152">
				 <ele>2</ele>
			 </trkpt>
			 <trkpt lat="60.176434" lon="24.960167">
				 <ele>1.9</ele>
			 </trkpt>
			 <trkpt lat="60.176562" lon="24.959497">
				 <ele>1.7</ele>
			 </trkpt>
			 <trkpt lat="60.176626" lon="24.958917">
				 <ele>1.7</ele>
			 </trkpt>
			 <trkpt lat="60.176611" lon="24.958751">
				 <ele>1.6</ele>
			 </trkpt>
			 <trkpt lat="60.176869" lon="24.958322">
				 <ele>1.5</ele>
			 </trkpt>
			 <trkpt lat="60.177247" lon="24.958048">
				 <ele>1.5</ele>
			 </trkpt>
			 <trkpt lat="60.177541" lon="24.957925">
				 <ele>1.5</ele>
			 </trkpt>
			 <trkpt lat="60.17851" lon="24.957889">
				 <ele>1.5</ele>
			 </trkpt>
			 <trkpt lat="60.179324" lon="24.957824">
				 <ele>1.5</ele>
			 </trkpt>
			 <trkpt lat="60.179572" lon="24.95787">
				 <ele>1.5</ele>
			 </trkpt>
			 <trkpt lat="60.179927" lon="24.958316">
				 <ele>1.6</ele>
			 </trkpt>
			 <trkpt lat="60.180606" lon="24.959785">
				 <ele>2</ele>
			 </trkpt>
			 <trkpt lat="60.180742" lon="24.960147">
				 <ele>2.1</ele>
			 </trkpt>
			 <trkpt lat="60.181504" lon="24.961333">
				 <ele>2</ele>
			 </trkpt>
			 <trkpt lat="60.181705" lon="24.961616">
				 <ele>2</ele>
			 </trkpt>
			 <trkpt lat="60.181733" lon="24.961881">
				 <ele>2.5</ele>
			 </trkpt>
			 <trkpt lat="60.18171" lon="24.962101">
				 <ele>3.1</ele>
			 </trkpt>
			 <trkpt lat="60.18137" lon="24.962154">
				 <ele>3.6</ele>
			 </trkpt>
			 <trkpt lat="60.181125" lon="24.962111">
				 <ele>4.2</ele>
			 </trkpt>
			 <trkpt lat="60.180443" lon="24.962154">
				 <ele>4.7</ele>
			 </trkpt>
			 <trkpt lat="60.179994" lon="24.962148">
				 <ele>5.1</ele>
			 </trkpt>
			 <trkpt lat="60.179932" lon="24.962026">
				 <ele>5.2</ele>
			 </trkpt>
			 <trkpt lat="60.179875" lon="24.961962">
				 <ele>5</ele>
			 </trkpt>
			 <trkpt lat="60.179826" lon="24.960932">
				 <ele>5.1</ele>
			 </trkpt>
			 <trkpt lat="60.179811" lon="24.960074">
				 <ele>5.2</ele>
			 </trkpt>
			 <trkpt lat="60.179736" lon="24.956662">
				 <ele>5.2</ele>
			 </trkpt>
			 <trkpt lat="60.179725" lon="24.955821">
				 <ele>4.6</ele>
			 </trkpt>
			 <trkpt lat="60.179657" lon="24.955532">
				 <ele>4.1</ele>
			 </trkpt>
			 <trkpt lat="60.179593" lon="24.955478">
				 <ele>3.5</ele>
			 </trkpt>
			 <trkpt lat="60.179494" lon="24.95565">
				 <ele>3</ele>
			 </trkpt>
			 <trkpt lat="60.179272" lon="24.955859">
				 <ele>2.5</ele>
			 </trkpt>
			 <trkpt lat="60.179193" lon="24.955864">
				 <ele>2.1</ele>
			 </trkpt>
			 <trkpt lat="60.178422" lon="24.954076">
				 <ele>2.3</ele>
			 </trkpt>
			 <trkpt lat="60.17821" lon="24.953684">
				 <ele>2.5</ele>
			 </trkpt>
			 <trkpt lat="60.17809" lon="24.951887">
				 <ele>2.7</ele>
			 </trkpt>
			 <trkpt lat="60.177024" lon="24.951942">
				 <ele>2.9</ele>
			 </trkpt>
			 <trkpt lat="60.176948" lon="24.951722">
				 <ele>3</ele>
			 </trkpt>
			 <trkpt lat="60.176899" lon="24.950231">
				 <ele>3.1</ele>
			 </trkpt>
			 <trkpt lat="60.176861" lon="24.950075">
				 <ele>3.2</ele>
			 </trkpt>
			 <trkpt lat="60.175858" lon="24.950124">
				 <ele>3.3</ele>
			 </trkpt>
			 <trkpt lat="60.17586" lon="24.95014">
				 <ele>3.4</ele>
			 </trkpt>
			 <trkpt lat="60.17585" lon="24.94942">
				 <ele>3.5</ele>
			 </trkpt>
			 <trkpt lat="60.17589" lon="24.94863">
				 <ele>3.5</ele>
			 </trkpt>
			 <trkpt lat="60.17589" lon="24.94863">
				 <ele>3.2</ele>
			 </trkpt>
			 <trkpt lat="60.17601" lon="24.94732">
				 <ele>2.9</ele>
			 </trkpt>
			 <trkpt lat="60.17617" lon="24.94599">
				 <ele>2.7</ele>
			 </trkpt>
			 <trkpt lat="60.17617" lon="24.94599">
				 <ele>2.5</ele>
			 </trkpt>
			 <trkpt lat="60.17637" lon="24.94437">
				 <ele>2.5</ele>
			 </trkpt>
			 <trkpt lat="60.17646" lon="24.94388">
				 <ele>2.5</ele>
			 </trkpt>
			 <trkpt lat="60.17661" lon="24.94349">
				 <ele>2.6</ele>
			 </trkpt>
			 <trkpt lat="60.17667" lon="24.94334">
				 <ele>2.8</ele>
			 </trkpt>
			 <trkpt lat="60.17711" lon="24.9423">
				 <ele>2.9</ele>
			 </trkpt>
			 <trkpt lat="60.17712" lon="24.942044">
				 <ele>2.9</ele>
			 </trkpt>
			 <trkpt lat="60.177052" lon="24.941883">
				 <ele>2.9</ele>
			 </trkpt>
			 <trkpt lat="60.176577" lon="24.941529">
				 <ele>2.9</ele>
			 </trkpt>
			 <trkpt lat="60.175958" lon="24.942022">
				 <ele>2.9</ele>
			 </trkpt>
			 <trkpt lat="60.175638" lon="24.94224">
				 <ele>2.9</ele>
			 </trkpt>
			 <trkpt lat="60.175158" lon="24.942379">
				 <ele>2.9</ele>
			 </trkpt>
			 <trkpt lat="60.174854" lon="24.942439">
				 <ele>2.8</ele>
			 </trkpt>
			 <trkpt lat="60.174552" lon="24.942514">
				 <ele>2.7</ele>
			 </trkpt>
			 <trkpt lat="60.174394" lon="24.942675">
				 <ele>2.5</ele>
			 </trkpt>
			 <trkpt lat="60.174224" lon="24.942814">
				 <ele>2.4</ele>
			 </trkpt>
			 <trkpt lat="60.174118" lon="24.943018">
				 <ele>2.3</ele>
			 </trkpt>
			 <trkpt lat="60.173967" lon="24.943109">
				 <ele>2.3</ele>
			 </trkpt>
			 <trkpt lat="60.173086" lon="24.943272">
				 <ele>2.4</ele>
			 </trkpt>
			 <trkpt lat="60.173022" lon="24.943258">
				 <ele>2.5</ele>
			 </trkpt>
			 <trkpt lat="60.172927" lon="24.939066">
				 <ele>2.5</ele>
			 </trkpt>
			 <trkpt lat="60.172982" lon="24.938872">
				 <ele>2.6</ele>
			 </trkpt>
			 <trkpt lat="60.173715" lon="24.938755">
				 <ele>2.7</ele>
			 </trkpt>
			 <trkpt lat="60.174581" lon="24.938621">
				 <ele>2.8</ele>
			 </trkpt>
			 <trkpt lat="60.17459" lon="24.93863">
				 <ele>2.8</ele>
			 </trkpt>
			 <trkpt lat="60.17462" lon="24.93853">
				 <ele>2.8</ele>
			 </trkpt>
			 <trkpt lat="60.17505" lon="24.9385">
				 <ele>2.7</ele>
			 </trkpt>
			 <trkpt lat="60.17515" lon="24.93843">
				 <ele>2.6</ele>
			 </trkpt>
			 <trkpt lat="60.17529" lon="24.93842">
				 <ele>2.5</ele>
			 </trkpt>
			 <trkpt lat="60.17568" lon="24.93839">
				 <ele>2.5</ele>
			 </trkpt>
			 <trkpt lat="60.17631" lon="24.93832">
				 <ele>2.4</ele>
			 </trkpt>
			 <trkpt lat="60.17643" lon="24.93831">
				 <ele>2.3</ele>
			 </trkpt>
			 <trkpt lat="60.17643" lon="24.93831">
				 <ele>2.2</ele>
			 </trkpt>
			 <trkpt lat="60.17667" lon="24.93829">
				 <ele>2.1</ele>
			 </trkpt>
			 <trkpt lat="60.17681" lon="24.93827">
				 <ele>2</ele>
			 </trkpt>
			 <trkpt lat="60.17693" lon="24.93824">
				 <ele>2</ele>
			 </trkpt>
			 <trkpt lat="60.17702" lon="24.9381">
				 <ele>2</ele>
			 </trkpt>
			 <trkpt lat="60.1771" lon="24.93779">
				 <ele>1.9</ele>
			 </trkpt>
			 <trkpt lat="60.17722" lon="24.93713">
				 <ele>1.8</ele>
			 </trkpt>
			 <trkpt lat="60.17724" lon="24.93689">
				 <ele>1.7</ele>
			 </trkpt>
			 <trkpt lat="60.17724" lon="24.93689">
				 <ele>1.6</ele>
			 </trkpt>
			 <trkpt lat="60.17727" lon="24.93657">
				 <ele>1.5</ele>
			 </trkpt>
			 <trkpt lat="60.17728" lon="24.93588">
				 <ele>1.5</ele>
			 </trkpt>
			 <trkpt lat="60.17724" lon="24.93537">
				 <ele>1.5</ele>
			 </trkpt>
			 <trkpt lat="60.17706" lon="24.93479">
				 <ele>1.5</ele>
			 </trkpt>
			 <trkpt lat="60.177" lon="24.93432">
				 <ele>1.5</ele>
			 </trkpt>
			 <trkpt lat="60.177" lon="24.9339">
				 <ele>1.6</ele>
			 </trkpt>
			 <trkpt lat="60.17703" lon="24.93342">
				 <ele>1.7</ele>
			 </trkpt>
			 <trkpt lat="60.17716" lon="24.93262">
				 <ele>1.9</ele>
			 </trkpt>
			 <trkpt lat="60.17724" lon="24.93237">
				 <ele>2.1</ele>
			 </trkpt>
			 <trkpt lat="60.17739" lon="24.93199">
				 <ele>2.2</ele>
			 </trkpt>
			 <trkpt lat="60.17759" lon="24.9315">
				 <ele>2.3</ele>
			 </trkpt>
			 <trkpt lat="60.17771" lon="24.93132">
				 <ele>2.4</ele>
			 </trkpt>
			 <trkpt lat="60.17771" lon="24.93132">
				 <ele>2.4</ele>
			 </trkpt>
			 <trkpt lat="60.1779" lon="24.93118">
				 <ele>2.4</ele>
			 </trkpt>
			 <trkpt lat="60.17814" lon="24.93102">
				 <ele>2.4</ele>
			 </trkpt>
			 <trkpt lat="60.17841" lon="24.93088">
				 <ele>2.4</ele>
			 </trkpt>
			 <trkpt lat="60.17854" lon="24.93082">
				 <ele>2.3</ele>
			 </trkpt>
			 <trkpt lat="60.17867" lon="24.93081">
				 <ele>2.2</ele>
			 </trkpt>
			 <trkpt lat="60.17904" lon="24.93093">
				 <ele>2.1</ele>
			 </trkpt>
			 <trkpt lat="60.17904" lon="24.93093">
				 <ele>2</ele>
			 </trkpt>
			 <trkpt lat="60.17918" lon="24.931">
				 <ele>2</ele>
			 </trkpt>
			 <trkpt lat="60.17938" lon="24.93105">
				 <ele>1.9</ele>
			 </trkpt>
			 <trkpt lat="60.17948" lon="24.93106">
				 <ele>1.8</ele>
			 </trkpt>
			 <trkpt lat="60.17996" lon="24.93111">
				 <ele>1.8</ele>
			 </trkpt>
			 <trkpt lat="60.18073" lon="24.93114">
				 <ele>1.9</ele>
			 </trkpt>
			 <trkpt lat="60.18073" lon="24.93114">
				 <ele>1.9</ele>
			 </trkpt>
			 <trkpt lat="60.1811" lon="24.93116">
				 <ele>1.9</ele>
			 </trkpt>
			 <trkpt lat="60.18133" lon="24.93125">
				 <ele>1.9</ele>
			 </trkpt>
			 <trkpt lat="60.18178" lon="24.93143">
				 <ele>2.2</ele>
			 </trkpt>
			 <trkpt lat="60.18244" lon="24.93174">
				 <ele>2.5</ele>
			 </trkpt>
			 <trkpt lat="60.18265" lon="24.93174">
				 <ele>2.7</ele>
			 </trkpt>
			 <trkpt lat="60.18265" lon="24.93174">
				 <ele>3</ele>
			 </trkpt>
			 <trkpt lat="60.18285" lon="24.93168">
				 <ele>3.4</ele>
			 </trkpt>
			 <trkpt lat="60.1829" lon="24.93129">
				 <ele>3.7</ele>
			 </trkpt>
			 <trkpt lat="60.18286" lon="24.93119">
				 <ele>4</ele>
			 </trkpt>
			 <trkpt lat="60.18277" lon="24.93094">
				 <ele>4.2</ele>
			 </trkpt>
			 <trkpt lat="60.18267" lon="24.93064">
				 <ele>4.6</ele>
			 </trkpt>
			 <trkpt lat="60.18244" lon="24.92992">
				 <ele>5.1</ele>
			 </trkpt>
			 <trkpt lat="60.18244" lon="24.92992">
				 <ele>5.5</ele>
			 </trkpt>
			 <trkpt lat="60.18233" lon="24.92964">
				 <ele>5.7</ele>
			 </trkpt>
			 <trkpt lat="60.1821" lon="24.92888">
				 <ele>5.9</ele>
			 </trkpt>
			 <trkpt lat="60.18181" lon="24.92798">
				 <ele>6.1</ele>
			 </trkpt>
			 <trkpt lat="60.18175" lon="24.92782">
				 <ele>6.4</ele>
			 </trkpt>
			 <trkpt lat="60.18166" lon="24.92782">
				 <ele>6.6</ele>
			 </trkpt>
			 <trkpt lat="60.18153" lon="24.92789">
				 <ele>6.9</ele>
			 </trkpt>
			 <trkpt lat="60.18149" lon="24.92791">
				 <ele>7.2</ele>
			 </trkpt>
			 <trkpt lat="60.18138" lon="24.92806">
				 <ele>7.5</ele>
			 </trkpt>
			 <trkpt lat="60.18106" lon="24.92824">
				 <ele>7.6</ele>
			 </trkpt>
			 <trkpt lat="60.18106" lon="24.92825">
				 <ele>7.8</ele>
			 </trkpt>
			 <trkpt lat="60.18095" lon="24.92832">
				 <ele>8</ele>
			 </trkpt>
			 <trkpt lat="60.18086" lon="24.92832">
				 <ele>8.2</ele>
			 </trkpt>
			 <trkpt lat="60.1807" lon="24.92819">
				 <ele>8.4</ele>
			 </trkpt>
			 <trkpt lat="60.18016" lon="24.92848">
				 <ele>8.5</ele>
			 </trkpt>
			 <trkpt lat="60.18" lon="24.92858">
				 <ele>8.5</ele>
			 </trkpt>
			 <trkpt lat="60.17956" lon="24.92881">
				 <ele>8.5</ele>
			 </trkpt>
			 <trkpt lat="60.17956" lon="24.92881">
				 <ele>8.4</ele>
			 </trkpt>
			 <trkpt lat="60.17921" lon="24.92899">
				 <ele>8.3</ele>
			 </trkpt>
			 <trkpt lat="60.17896" lon="24.92918">
				 <ele>8.2</ele>
			 </trkpt>
			 <trkpt lat="60.1787" lon="24.92935">
				 <ele>8</ele>
			 </trkpt>
			 <trkpt lat="60.17857" lon="24.92941">
				 <ele>7.8</ele>
			 </trkpt>
			 <trkpt lat="60.17784" lon="24.92978">
				 <ele>7.6</ele>
			 </trkpt>
			 <trkpt lat="60.17769" lon="24.92986">
				 <ele>7.5</ele>
			 </trkpt>
			 <trkpt lat="60.17749" lon="24.92995">
				 <ele>7.4</ele>
			 </trkpt>
			 <trkpt lat="60.17739" lon="24.93001">
				 <ele>7.5</ele>
			 </trkpt>
			 <trkpt lat="60.17724" lon="24.93014">
				 <ele>7.5</ele>
			 </trkpt>
			 <trkpt lat="60.17718" lon="24.9302">
				 <ele>7.7</ele>
			 </trkpt>
			 <trkpt lat="60.17718" lon="24.9302">
				 <ele>8.1</ele>
			 </trkpt>
			 <trkpt lat="60.1762" lon="24.93139">
				 <ele>8.5</ele>
			 </trkpt>
			 <trkpt lat="60.1756" lon="24.93211">
				 <ele>8.8</ele>
			 </trkpt>
			 <trkpt lat="60.1756" lon="24.93211">
				 <ele>9.1</ele>
			 </trkpt>
			 <trkpt lat="60.17535" lon="24.93239">
				 <ele>9.4</ele>
			 </trkpt>
			 <trkpt lat="60.17527" lon="24.93252">
				 <ele>9.5</ele>
			 </trkpt>
			 <trkpt lat="60.17516" lon="24.93263">
				 <ele>9.7</ele>
			 </trkpt>
			 <trkpt lat="60.17488" lon="24.93293">
				 <ele>9.7</ele>
			 </trkpt>
			 <trkpt lat="60.17448" lon="24.93328">
				 <ele>9.5</ele>
			 </trkpt>
			 <trkpt lat="60.17437" lon="24.93338">
				 <ele>8.9</ele>
			 </trkpt>
			 <trkpt lat="60.17423" lon="24.93352">
				 <ele>8.4</ele>
			 </trkpt>
			 <trkpt lat="60.173968" lon="24.933851">
				 <ele>7.7</ele>
			 </trkpt>
			 <trkpt lat="60.173926" lon="24.934109">
				 <ele>7</ele>
			 </trkpt>
			 <trkpt lat="60.17387" lon="24.9342">
				 <ele>6.3</ele>
			 </trkpt>
			 <trkpt lat="60.1742" lon="24.93492">
				 <ele>5.6</ele>
			 </trkpt>
			 <trkpt lat="60.17438" lon="24.93533">
				 <ele>5</ele>
			 </trkpt>
			 <trkpt lat="60.17444" lon="24.93565">
				 <ele>4.5</ele>
			 </trkpt>
			 <trkpt lat="60.17446" lon="24.93592">
				 <ele>3.9</ele>
			 </trkpt>
			 <trkpt lat="60.17446" lon="24.93592">
				 <ele>3.5</ele>
			 </trkpt>
			 <trkpt lat="60.17452" lon="24.93762">
				 <ele>3.2</ele>
			 </trkpt>
			 <trkpt lat="60.1745" lon="24.93795">
				 <ele>3.2</ele>
			 </trkpt>
			 <trkpt lat="60.1745" lon="24.9382">
				 <ele>3.1</ele>
			 </trkpt>
			 <trkpt lat="60.17448" lon="24.93826">
				 <ele>2.9</ele>
			 </trkpt>
			 <trkpt lat="60.1744" lon="24.9383">
				 <ele>2.8</ele>
			 </trkpt>
			 <trkpt lat="60.17374" lon="24.93838">
				 <ele>2.8</ele>
			 </trkpt>
			 <trkpt lat="60.1736" lon="24.93839">
				 <ele>2.8</ele>
			 </trkpt>
			 <trkpt lat="60.17361" lon="24.93856">
				 <ele>2.8</ele>
			 </trkpt>
			 <trkpt lat="60.17345" lon="24.93858">
				 <ele>2.8</ele>
			 </trkpt>
			 <trkpt lat="60.17345" lon="24.93858">
				 <ele>2.8</ele>
			 </trkpt>
			 <trkpt lat="60.17361" lon="24.93856">
				 <ele>2.8</ele>
			 </trkpt>
			 <trkpt lat="60.1736" lon="24.93839">
				 <ele>2.8</ele>
			 </trkpt>
			 <trkpt lat="60.17337" lon="24.93841">
				 <ele>2.8</ele>
			 </trkpt>
			 <trkpt lat="60.17314" lon="24.93844">
				 <ele>2.8</ele>
			 </trkpt>
			 <trkpt lat="60.17302" lon="24.93847">
				 <ele>2.9</ele>
			 </trkpt>
			 <trkpt lat="60.17295" lon="24.93849">
				 <ele>3</ele>
			 </trkpt>
			 <trkpt lat="60.1729" lon="24.93852">
				 <ele>3</ele>
			 </trkpt>
			 <trkpt lat="60.17283" lon="24.93783">
				 <ele>3</ele>
			 </trkpt>
			 <trkpt lat="60.1728" lon="24.93737">
				 <ele>2.9</ele>
			 </trkpt>
			 <trkpt lat="60.17275" lon="24.93673">
				 <ele>2.8</ele>
			 </trkpt>
			 <trkpt lat="60.17274" lon="24.93647">
				 <ele>3.4</ele>
			 </trkpt>
			 <trkpt lat="60.17269" lon="24.93618">
				 <ele>3.4</ele>
			 </trkpt>
			 <trkpt lat="60.17266" lon="24.93603">
				 <ele>3.5</ele>
			 </trkpt>
			 <trkpt lat="60.17255" lon="24.93546">
				 <ele>4.3</ele>
			 </trkpt>
			 <trkpt lat="60.17248" lon="24.93532">
				 <ele>4.5</ele>
			 </trkpt>
			 <trkpt lat="60.1723" lon="24.93499">
				 <ele>4.7</ele>
			 </trkpt>
			 <trkpt lat="60.17179" lon="24.93397">
				 <ele>5.1</ele>
			 </trkpt>
			 <trkpt lat="60.17143" lon="24.93317">
				 <ele>5.5</ele>
			 </trkpt>
			 <trkpt lat="60.1712" lon="24.932646">
				 <ele>5.8</ele>
			 </trkpt>
			 <trkpt lat="60.170967" lon="24.93203">
				 <ele>6.3</ele>
			 </trkpt>
			 <trkpt lat="60.1704" lon="24.930011">
				 <ele>6.7</ele>
			 </trkpt>
			 <trkpt lat="60.169812" lon="24.928139">
				 <ele>6.5</ele>
			 </trkpt>
			 <trkpt lat="60.169287" lon="24.92658">
				 <ele>6.9</ele>
			 </trkpt>
			 <trkpt lat="60.168789" lon="24.924937">
				 <ele>7.1</ele>
			 </trkpt>
			 <trkpt lat="60.1688" lon="24.92493">
				 <ele>6.5</ele>
			 </trkpt>
			 <trkpt lat="60.16872" lon="24.92475">
				 <ele>6.6</ele>
			 </trkpt>
			 <trkpt lat="60.16839" lon="24.92416">
				 <ele>6.6</ele>
			 </trkpt>
			 <trkpt lat="60.16824" lon="24.92396">
				 <ele>6.5</ele>
			 </trkpt>
			 <trkpt lat="60.16788" lon="24.9236">
				 <ele>6.5</ele>
			 </trkpt>
			 <trkpt lat="60.1678" lon="24.92356">
				 <ele>6.4</ele>
			 </trkpt>
			 <trkpt lat="60.1678" lon="24.92356">
				 <ele>6.2</ele>
			 </trkpt>
			 <trkpt lat="60.16755" lon="24.9234">
				 <ele>6</ele>
			 </trkpt>
			 <trkpt lat="60.16733" lon="24.92334">
				 <ele>5.8</ele>
			 </trkpt>
			 <trkpt lat="60.16685" lon="24.92324">
				 <ele>5.6</ele>
			 </trkpt>
			 <trkpt lat="60.1666" lon="24.92317">
				 <ele>5.5</ele>
			 </trkpt>
			 <trkpt lat="60.1663" lon="24.92312">
				 <ele>5.5</ele>
			 </trkpt>
			 <trkpt lat="60.1663" lon="24.92312">
				 <ele>5.3</ele>
			 </trkpt>
			 <trkpt lat="60.16584" lon="24.92303">
				 <ele>5.1</ele>
			 </trkpt>
			 <trkpt lat="60.16566" lon="24.92297">
				 <ele>4.9</ele>
			 </trkpt>
			 <trkpt lat="60.16547" lon="24.92293">
				 <ele>4.7</ele>
			 </trkpt>
			 <trkpt lat="60.16478" lon="24.92266">
				 <ele>4.5</ele>
			 </trkpt>
			 <trkpt lat="60.1646" lon="24.9226">
				 <ele>4.5</ele>
			 </trkpt>
			 <trkpt lat="60.1645" lon="24.92257">
				 <ele>4.3</ele>
			 </trkpt>
			 <trkpt lat="60.163692" lon="24.922254">
				 <ele>4</ele>
			 </trkpt>
			 <trkpt lat="60.163478" lon="24.922147">
				 <ele>3.8</ele>
			 </trkpt>
			 <trkpt lat="60.163329" lon="24.922211">
				 <ele>3.6</ele>
			 </trkpt>
			 <trkpt lat="60.163099" lon="24.922029">
				 <ele>3.5</ele>
			 </trkpt>
			 <trkpt lat="60.162881" lon="24.921192">
				 <ele>3.4</ele>
			 </trkpt>
			 <trkpt lat="60.162859" lon="24.920033">
				 <ele>3.3</ele>
			 </trkpt>
			 <trkpt lat="60.162726" lon="24.918714">
				 <ele>3.2</ele>
			 </trkpt>
			 <trkpt lat="60.162127" lon="24.918798">
				 <ele>3.1</ele>
			 </trkpt>
			 <trkpt lat="60.161988" lon="24.915075">
				 <ele>3</ele>
			 </trkpt>
			 <trkpt lat="60.16199" lon="24.91508">
				 <ele>2.9</ele>
			 </trkpt>
			 <trkpt lat="60.1619" lon="24.91277">
				 <ele>2.9</ele>
			 </trkpt>
			 <trkpt lat="60.16183" lon="24.91275">
				 <ele>3</ele>
			 </trkpt>
			 <trkpt lat="60.16175" lon="24.91246">
				 <ele>3</ele>
			 </trkpt>
			 <trkpt lat="60.16172" lon="24.91211">
				 <ele>3.1</ele>
			 </trkpt>
			 <trkpt lat="60.16162" lon="24.91124">
				 <ele>3.2</ele>
			 </trkpt>
			 <trkpt lat="60.16151" lon="24.91025">
				 <ele>3.2</ele>
			 </trkpt>
			 <trkpt lat="60.16143" lon="24.90939">
				 <ele>2.9</ele>
			 </trkpt>
			 <trkpt lat="60.16143" lon="24.90939">
				 <ele>2.6</ele>
			 </trkpt>
			 <trkpt lat="60.16127" lon="24.9079">
				 <ele>2.4</ele>
			 </trkpt>
			 <trkpt lat="60.16126" lon="24.90782">
				 <ele>2.1</ele>
			 </trkpt>
			 <trkpt lat="60.1612" lon="24.90784">
				 <ele>1.8</ele>
			 </trkpt>
			 <trkpt lat="60.16105" lon="24.90792">
				 <ele>1.5</ele>
			 </trkpt>
			 <trkpt lat="60.16091" lon="24.90803">
				 <ele>1.4</ele>
			 </trkpt>
			 <trkpt lat="60.16061" lon="24.90828">
				 <ele>1.3</ele>
			 </trkpt>
			 <trkpt lat="60.16019" lon="24.90862">
				 <ele>1.1</ele>
			 </trkpt>
			 <trkpt lat="60.16015" lon="24.90865">
				 <ele>0.9</ele>
			 </trkpt>
			 <trkpt lat="60.16015" lon="24.90865">
				 <ele>0.9</ele>
			 </trkpt>
			 <trkpt lat="60.15978" lon="24.90896">
				 <ele>1.3</ele>
			 </trkpt>
			 <trkpt lat="60.15972" lon="24.90903">
				 <ele>1.6</ele>
			 </trkpt>
			 <trkpt lat="60.15982" lon="24.9092">
				 <ele>2</ele>
			 </trkpt>
			 <trkpt lat="60.16012" lon="24.91004">
				 <ele>2.4</ele>
			 </trkpt>
			 <trkpt lat="60.16018" lon="24.9103">
				 <ele>2.6</ele>
			 </trkpt>
			 <trkpt lat="60.15997" lon="24.91059">
				 <ele>2.9</ele>
			 </trkpt>
			 <trkpt lat="60.15997" lon="24.91059">
				 <ele>3.1</ele>
			 </trkpt>
			 <trkpt lat="60.15972" lon="24.91094">
				 <ele>3.2</ele>
			 </trkpt>
			 <trkpt lat="60.15951" lon="24.9112">
				 <ele>3.3</ele>
			 </trkpt>
			 <trkpt lat="60.15908" lon="24.91185">
				 <ele>3.4</ele>
			 </trkpt>
			 <trkpt lat="60.15863" lon="24.91245">
				 <ele>3.4</ele>
			 </trkpt>
			 <trkpt lat="60.15849" lon="24.91258">
				 <ele>3.3</ele>
			 </trkpt>
			 <trkpt lat="60.15833" lon="24.91278">
				 <ele>3.2</ele>
			 </trkpt>
			 <trkpt lat="60.15754" lon="24.913629">
				 <ele>3.1</ele>
			 </trkpt>
			 <trkpt lat="60.157482" lon="24.913962">
				 <ele>3</ele>
			 </trkpt>
			 <trkpt lat="60.156782" lon="24.914788">
				 <ele>3</ele>
			 </trkpt>
			 <trkpt lat="60.156248" lon="24.915571">
				 <ele>3</ele>
			 </trkpt>
			 <trkpt lat="60.156398" lon="24.916086">
				 <ele>3</ele>
			 </trkpt>
			 <trkpt lat="60.15641" lon="24.91607">
				 <ele>3</ele>
			 </trkpt>
			 <trkpt lat="60.15646" lon="24.91616">
				 <ele>3</ele>
			 </trkpt>
			 <trkpt lat="60.15664" lon="24.91636">
				 <ele>3</ele>
			 </trkpt>
			 <trkpt lat="60.15683" lon="24.91653">
				 <ele>3</ele>
			 </trkpt>
			 <trkpt lat="60.15694" lon="24.9167">
				 <ele>3</ele>
			 </trkpt>
			 <trkpt lat="60.15701" lon="24.9169">
				 <ele>3</ele>
			 </trkpt>
			 <trkpt lat="60.15711" lon="24.91726">
				 <ele>3</ele>
			 </trkpt>
			 <trkpt lat="60.15723" lon="24.91753">
				 <ele>3</ele>
			 </trkpt>
			 <trkpt lat="60.15729" lon="24.91763">
				 <ele>3</ele>
			 </trkpt>
			 <trkpt lat="60.1574" lon="24.91773">
				 <ele>3</ele>
			 </trkpt>
			 <trkpt lat="60.15759" lon="24.91778">
				 <ele>3</ele>
			 </trkpt>
			 <trkpt lat="60.15782" lon="24.91777">
				 <ele>3.1</ele>
			 </trkpt>
			 <trkpt lat="60.15795" lon="24.91771">
				 <ele>3.2</ele>
			 </trkpt>
			 <trkpt lat="60.15806" lon="24.91763">
				 <ele>3.3</ele>
			 </trkpt>
			 <trkpt lat="60.15806" lon="24.91763">
				 <ele>3.4</ele>
			 </trkpt>
			 <trkpt lat="60.15827" lon="24.91743">
				 <ele>3.5</ele>
			 </trkpt>
			 <trkpt lat="60.15836" lon="24.91732">
				 <ele>3.5</ele>
			 </trkpt>
			 <trkpt lat="60.15871" lon="24.91654">
				 <ele>3.7</ele>
			 </trkpt>
			 <trkpt lat="60.15891" lon="24.91618">
				 <ele>3.8</ele>
			 </trkpt>
			 <trkpt lat="60.15906" lon="24.91602">
				 <ele>4</ele>
			 </trkpt>
			 <trkpt lat="60.15918" lon="24.91582">
				 <ele>4.2</ele>
			 </trkpt>
			 <trkpt lat="60.1593" lon="24.91565">
				 <ele>4.4</ele>
			 </trkpt>
			 <trkpt lat="60.15939" lon="24.91541">
				 <ele>4.5</ele>
			 </trkpt>
			 <trkpt lat="60.15944" lon="24.91537">
				 <ele>4.5</ele>
			 </trkpt>
			 <trkpt lat="60.15948" lon="24.91537">
				 <ele>4.5</ele>
			 </trkpt>
			 <trkpt lat="60.15948" lon="24.91537">
				 <ele>4.5</ele>
			 </trkpt>
			 <trkpt lat="60.15959" lon="24.91544">
				 <ele>4.5</ele>
			 </trkpt>
			 <trkpt lat="60.15965" lon="24.91546">
				 <ele>4.5</ele>
			 </trkpt>
			 <trkpt lat="60.1597" lon="24.91543">
				 <ele>4.4</ele>
			 </trkpt>
			 <trkpt lat="60.15974" lon="24.91538">
				 <ele>4.4</ele>
			 </trkpt>
			 <trkpt lat="60.15976" lon="24.91535">
				 <ele>4.3</ele>
			 </trkpt>
			 <trkpt lat="60.15976" lon="24.91509">
				 <ele>4.1</ele>
			 </trkpt>
			 <trkpt lat="60.15975" lon="24.91504">
				 <ele>3.9</ele>
			 </trkpt>
			 <trkpt lat="60.15975" lon="24.91504">
				 <ele>3.7</ele>
			 </trkpt>
			 <trkpt lat="60.15974" lon="24.91481">
				 <ele>3.6</ele>
			 </trkpt>
			 <trkpt lat="60.15975" lon="24.91472">
				 <ele>3.5</ele>
			 </trkpt>
			 <trkpt lat="60.15981" lon="24.91461">
				 <ele>3.5</ele>
			 </trkpt>
			 <trkpt lat="60.16" lon="24.91434">
				 <ele>3.4</ele>
			 </trkpt>
			 <trkpt lat="60.16" lon="24.91434">
				 <ele>3.3</ele>
			 </trkpt>
			 <trkpt lat="60.16032" lon="24.9139">
				 <ele>3.3</ele>
			 </trkpt>
			 <trkpt lat="60.1605" lon="24.91444">
				 <ele>3.3</ele>
			 </trkpt>
			 <trkpt lat="60.1605" lon="24.91444">
				 <ele>3.2</ele>
			 </trkpt>
			 <trkpt lat="60.1606" lon="24.91477">
				 <ele>3.3</ele>
			 </trkpt>
			 <trkpt lat="60.16098" lon="24.9158">
				 <ele>3.4</ele>
			 </trkpt>
			 <trkpt lat="60.160036" lon="24.917291">
				 <ele>3.4</ele>
			 </trkpt>
			 <trkpt lat="60.160458" lon="24.91846">
				 <ele>3.4</ele>
			 </trkpt>
			 <trkpt lat="60.161283" lon="24.920808">
				 <ele>3.5</ele>
			 </trkpt>
			 <trkpt lat="60.161836" lon="24.921226">
				 <ele>3.5</ele>
			 </trkpt>
			 <trkpt lat="60.16196" lon="24.921414">
				 <ele>3.5</ele>
			 </trkpt>
			 <trkpt lat="60.162164" lon="24.921538">
				 <ele>3.5</ele>
			 </trkpt>
			 <trkpt lat="60.162383" lon="24.92169">
				 <ele>3.4</ele>
			 </trkpt>
			 <trkpt lat="60.162534" lon="24.921803">
				 <ele>3.3</ele>
			 </trkpt>
			 <trkpt lat="60.162858" lon="24.922878">
				 <ele>3.2</ele>
			 </trkpt>
			 <trkpt lat="60.162522" lon="24.923403">
				 <ele>3</ele>
			 </trkpt>
			 <trkpt lat="60.162223" lon="24.923677">
				 <ele>2.8</ele>
			 </trkpt>
			 <trkpt lat="60.162074" lon="24.923203">
				 <ele>2.7</ele>
			 </trkpt>
			 <trkpt lat="60.161964" lon="24.923021">
				 <ele>2.6</ele>
			 </trkpt>
			 <trkpt lat="60.161482" lon="24.923965">
				 <ele>2.5</ele>
			 </trkpt>
			 <trkpt lat="60.161146" lon="24.924717">
				 <ele>2.4</ele>
			 </trkpt>
			 <trkpt lat="60.160963" lon="24.925608">
				 <ele>2.3</ele>
			 </trkpt>
			 <trkpt lat="60.160953" lon="24.926098">
				 <ele>2.2</ele>
			 </trkpt>
			 <trkpt lat="60.160991" lon="24.926426">
				 <ele>2.1</ele>
			 </trkpt>
			 <trkpt lat="60.161731" lon="24.928427">
				 <ele>2</ele>
			 </trkpt>
			 <trkpt lat="60.161818" lon="24.92878">
				 <ele>2</ele>
			 </trkpt>
			 <trkpt lat="60.161829" lon="24.929081">
				 <ele>2</ele>
			 </trkpt>
			 <trkpt lat="60.161738" lon="24.929408">
				 <ele>2.1</ele>
			 </trkpt>
			 <trkpt lat="60.161621" lon="24.929553">
				 <ele>2.2</ele>
			 </trkpt>
			 <trkpt lat="60.161093" lon="24.929424">
				 <ele>2.5</ele>
			 </trkpt>
			 <trkpt lat="60.160862" lon="24.929665">
				 <ele>2.7</ele>
			 </trkpt>
			 <trkpt lat="60.160413" lon="24.93033">
				 <ele>3</ele>
			 </trkpt>
			 <trkpt lat="60.159765" lon="24.931854">
				 <ele>3.3</ele>
			 </trkpt>
			 <trkpt lat="60.159493" lon="24.932163">
				 <ele>3.5</ele>
			 </trkpt>
			 <trkpt lat="60.158607" lon="24.932785">
				 <ele>3.8</ele>
			 </trkpt>
			 <trkpt lat="60.156888" lon="24.933872">
				 <ele>4.1</ele>
			 </trkpt>
			 <trkpt lat="60.15685" lon="24.9339">
				 <ele>4.4</ele>
			 </trkpt>
			 <trkpt lat="60.15683" lon="24.93377">
				 <ele>4.6</ele>
			 </trkpt>
			 <trkpt lat="60.15678" lon="24.93378">
				 <ele>4.7</ele>
			 </trkpt>
			 <trkpt lat="60.15643" lon="24.93386">
				 <ele>4.7</ele>
			 </trkpt>
			 <trkpt lat="60.15582" lon="24.934">
				 <ele>4.5</ele>
			 </trkpt>
			 <trkpt lat="60.15571" lon="24.93401">
				 <ele>4.4</ele>
			 </trkpt>
			 <trkpt lat="60.15557" lon="24.93397">
				 <ele>4.2</ele>
			 </trkpt>
			 <trkpt lat="60.15542" lon="24.93382">
				 <ele>4</ele>
			 </trkpt>
			 <trkpt lat="60.15534" lon="24.93385">
				 <ele>3.7</ele>
			 </trkpt>
			 <trkpt lat="60.15505" lon="24.93398">
				 <ele>3.5</ele>
			 </trkpt>
			 <trkpt lat="60.15505" lon="24.93398">
				 <ele>3.2</ele>
			 </trkpt>
			 <trkpt lat="60.15495" lon="24.93402">
				 <ele>2.9</ele>
			 </trkpt>
			 <trkpt lat="60.15481" lon="24.93312">
				 <ele>2.6</ele>
			 </trkpt>
			 <trkpt lat="60.15458" lon="24.93164">
				 <ele>2.5</ele>
			 </trkpt>
			 <trkpt lat="60.15455" lon="24.93145">
				 <ele>2.4</ele>
			 </trkpt>
			 <trkpt lat="60.154484" lon="24.931367">
				 <ele>2.3</ele>
			 </trkpt>
			 <trkpt lat="60.153912" lon="24.931699">
				 <ele>2.2</ele>
			 </trkpt>
			 <trkpt lat="60.152022" lon="24.929701">
				 <ele>2.1</ele>
			 </trkpt>
			 <trkpt lat="60.151872" lon="24.929472">
				 <ele>2</ele>
			 </trkpt>
			 <trkpt lat="60.151717" lon="24.929472">
				 <ele>2</ele>
			 </trkpt>
			 <trkpt lat="60.151461" lon="24.929322">
				 <ele>2</ele>
			 </trkpt>
			 <trkpt lat="60.148806" lon="24.926457">
				 <ele>2</ele>
			 </trkpt>
			 <trkpt lat="60.14837" lon="24.926039">
				 <ele>2</ele>
			 </trkpt>
			 <trkpt lat="60.148342" lon="24.926157">
				 <ele>2</ele>
			 </trkpt>
			 <trkpt lat="60.149541" lon="24.927396">
				 <ele>2</ele>
			 </trkpt>
			 <trkpt lat="60.15132" lon="24.929347">
				 <ele>2.1</ele>
			 </trkpt>
			 <trkpt lat="60.151749" lon="24.92969">
				 <ele>2.2</ele>
			 </trkpt>
			 <trkpt lat="60.152128" lon="24.929904">
				 <ele>2.2</ele>
			 </trkpt>
			 <trkpt lat="60.153797" lon="24.931671">
				 <ele>2.2</ele>
			 </trkpt>
			 <trkpt lat="60.153949" lon="24.931741">
				 <ele>2.2</ele>
			 </trkpt>
			 <trkpt lat="60.154436" lon="24.931548">
				 <ele>2.2</ele>
			 </trkpt>
			 <trkpt lat="60.154708" lon="24.933178">
				 <ele>2.3</ele>
			 </trkpt>
			 <trkpt lat="60.15492" lon="24.934818">
				 <ele>2.4</ele>
			 </trkpt>
			 <trkpt lat="60.15492" lon="24.93482">
				 <ele>2.4</ele>
			 </trkpt>
			 <trkpt lat="60.15497" lon="24.93508">
				 <ele>2.4</ele>
			 </trkpt>
			 <trkpt lat="60.15497" lon="24.93515">
				 <ele>2.4</ele>
			 </trkpt>
			 <trkpt lat="60.15499" lon="24.93525">
				 <ele>2.3</ele>
			 </trkpt>
			 <trkpt lat="60.155" lon="24.93534">
				 <ele>2.2</ele>
			 </trkpt>
			 <trkpt lat="60.15499" lon="24.93559">
				 <ele>2.2</ele>
			 </trkpt>
			 <trkpt lat="60.1549" lon="24.93584">
				 <ele>2.2</ele>
			 </trkpt>
			 <trkpt lat="60.1548" lon="24.93626">
				 <ele>2.3</ele>
			 </trkpt>
			 <trkpt lat="60.15467" lon="24.93686">
				 <ele>2.3</ele>
			 </trkpt>
			 <trkpt lat="60.15455" lon="24.93748">
				 <ele>2.2</ele>
			 </trkpt>
			 <trkpt lat="60.15454" lon="24.93764">
				 <ele>2.1</ele>
			 </trkpt>
			 <trkpt lat="60.15454" lon="24.93764">
				 <ele>2.1</ele>
			 </trkpt>
			 <trkpt lat="60.15446" lon="24.93924">
				 <ele>2.1</ele>
			 </trkpt>
			 <trkpt lat="60.15442" lon="24.94039">
				 <ele>2.1</ele>
			 </trkpt>
			 <trkpt lat="60.15431" lon="24.94076">
				 <ele>2.1</ele>
			 </trkpt>
			 <trkpt lat="60.15416" lon="24.94128">
				 <ele>2.1</ele>
			 </trkpt>
			 <trkpt lat="60.15412" lon="24.94178">
				 <ele>2.1</ele>
			 </trkpt>
			 <trkpt lat="60.15412" lon="24.94229">
				 <ele>2.1</ele>
			 </trkpt>
			 <trkpt lat="60.15412" lon="24.94229">
				 <ele>2</ele>
			 </trkpt>
			 <trkpt lat="60.15415" lon="24.94274">
				 <ele>2</ele>
			 </trkpt>
			 <trkpt lat="60.15417" lon="24.94288">
				 <ele>2</ele>
			 </trkpt>
			 <trkpt lat="60.15417" lon="24.94299">
				 <ele>2</ele>
			 </trkpt>
			 <trkpt lat="60.15421" lon="24.94324">
				 <ele>2</ele>
			 </trkpt>
			 <trkpt lat="60.15437" lon="24.94434">
				 <ele>2</ele>
			 </trkpt>
			 <trkpt lat="60.15442" lon="24.94451">
				 <ele>2</ele>
			 </trkpt>
			 <trkpt lat="60.15443" lon="24.94466">
				 <ele>2</ele>
			 </trkpt>
			 <trkpt lat="60.15469" lon="24.9464">
				 <ele>2</ele>
			 </trkpt>
			 <trkpt lat="60.15514" lon="24.9493">
				 <ele>2</ele>
			 </trkpt>
			 <trkpt lat="60.15529" lon="24.9499">
				 <ele>2</ele>
			 </trkpt>
			 <trkpt lat="60.15529" lon="24.9499">
				 <ele>2</ele>
			 </trkpt>
			 <trkpt lat="60.15546" lon="24.95047">
				 <ele>2</ele>
			 </trkpt>
			 <trkpt lat="60.15546" lon="24.95047">
				 <ele>2</ele>
			 </trkpt>
			 <trkpt lat="60.15548" lon="24.95067">
				 <ele>2</ele>
			 </trkpt>
			 <trkpt lat="60.15546" lon="24.95086">
				 <ele>2.1</ele>
			 </trkpt>
			 <trkpt lat="60.15546" lon="24.95086">
				 <ele>2.2</ele>
			 </trkpt>
			 <trkpt lat="60.15532" lon="24.9513">
				 <ele>2.4</ele>
			 </trkpt>
			 <trkpt lat="60.155221" lon="24.951848">
				 <ele>2.7</ele>
			 </trkpt>
			 <trkpt lat="60.154436" lon="24.954235">
				 <ele>3.2</ele>
			 </trkpt>
			 <trkpt lat="60.153983" lon="24.955783">
				 <ele>3.6</ele>
			 </trkpt>
			 <trkpt lat="60.15397" lon="24.95578">
				 <ele>4</ele>
			 </trkpt>
			 <trkpt lat="60.15393" lon="24.95614">
				 <ele>4.4</ele>
			 </trkpt>
			 <trkpt lat="60.1539" lon="24.95678">
				 <ele>4.5</ele>
			 </trkpt>
			 <trkpt lat="60.1539" lon="24.95709">
				 <ele>4.6</ele>
			 </trkpt>
			 <trkpt lat="60.15393" lon="24.95727">
				 <ele>4.7</ele>
			 </trkpt>
			 <trkpt lat="60.15402" lon="24.95758">
				 <ele>4.7</ele>
			 </trkpt>
			 <trkpt lat="60.15409" lon="24.95778">
				 <ele>4.6</ele>
			 </trkpt>
			 <trkpt lat="60.15429" lon="24.95808">
				 <ele>4.5</ele>
			 </trkpt>
			 <trkpt lat="60.15459" lon="24.95838">
				 <ele>4.1</ele>
			 </trkpt>
			 <trkpt lat="60.15459" lon="24.95838">
				 <ele>3.7</ele>
			 </trkpt>
			 <trkpt lat="60.15495" lon="24.9587">
				 <ele>3.3</ele>
			 </trkpt>
			 <trkpt lat="60.15501" lon="24.95879">
				 <ele>2.9</ele>
			 </trkpt>
			 <trkpt lat="60.15511" lon="24.95908">
				 <ele>2.5</ele>
			 </trkpt>
			 <trkpt lat="60.15525" lon="24.95967">
				 <ele>2.4</ele>
			 </trkpt>
			 <trkpt lat="60.15533" lon="24.96033">
				 <ele>2.3</ele>
			 </trkpt>
			 <trkpt lat="60.15546" lon="24.96119">
				 <ele>2.2</ele>
			 </trkpt>
			 <trkpt lat="60.15557" lon="24.96173">
				 <ele>2.1</ele>
			 </trkpt>
			 <trkpt lat="60.15566" lon="24.96212">
				 <ele>2.1</ele>
			 </trkpt>
			 <trkpt lat="60.15577" lon="24.96242">
				 <ele>2.1</ele>
			 </trkpt>
			 <trkpt lat="60.15592" lon="24.96269">
				 <ele>2.1</ele>
			 </trkpt>
			 <trkpt lat="60.15608" lon="24.96286">
				 <ele>2</ele>
			 </trkpt>
			 <trkpt lat="60.15619" lon="24.9629">
				 <ele>2</ele>
			 </trkpt>
			 <trkpt lat="60.15637" lon="24.96291">
				 <ele>2</ele>
			 </trkpt>
			 <trkpt lat="60.15651" lon="24.96287">
				 <ele>2</ele>
			 </trkpt>
			 <trkpt lat="60.15666" lon="24.96279">
				 <ele>2</ele>
			 </trkpt>
			 <trkpt lat="60.15685" lon="24.96268">
				 <ele>2</ele>
			 </trkpt>
			 <trkpt lat="60.15685" lon="24.96268">
				 <ele>2</ele>
			 </trkpt>
			 <trkpt lat="60.15707" lon="24.96261">
				 <ele>2</ele>
			 </trkpt>
			 <trkpt lat="60.15731" lon="24.96262">
				 <ele>2</ele>
			 </trkpt>
			 <trkpt lat="60.15748" lon="24.9626">
				 <ele>2</ele>
			 </trkpt>
			 <trkpt lat="60.15761" lon="24.96254">
				 <ele>2</ele>
			 </trkpt>
			 <trkpt lat="60.15791" lon="24.96235">
				 <ele>2</ele>
			 </trkpt>
			 <trkpt lat="60.15831" lon="24.96195">
				 <ele>2</ele>
			 </trkpt>
			 <trkpt lat="60.15877" lon="24.96163">
				 <ele>2.1</ele>
			 </trkpt>
			 <trkpt lat="60.15935" lon="24.96117">
				 <ele>2.2</ele>
			 </trkpt>
			 <trkpt lat="60.15972" lon="24.96082">
				 <ele>2.4</ele>
			 </trkpt>
			 <trkpt lat="60.15972" lon="24.96081">
				 <ele>2.6</ele>
			 </trkpt>
			 <trkpt lat="60.15984" lon="24.9607">
				 <ele>3.1</ele>
			 </trkpt>
			 <trkpt lat="60.15992" lon="24.96057">
				 <ele>3.6</ele>
			 </trkpt>
			 <trkpt lat="60.16007" lon="24.96019">
				 <ele>4.2</ele>
			 </trkpt>
			 <trkpt lat="60.16014" lon="24.95989">
				 <ele>4.7</ele>
			 </trkpt>
			 <trkpt lat="60.16018" lon="24.95953">
				 <ele>5.3</ele>
			 </trkpt>
			 <trkpt lat="60.16023" lon="24.95903">
				 <ele>5.9</ele>
			 </trkpt>
			 <trkpt lat="60.16031" lon="24.95854">
				 <ele>6.5</ele>
			 </trkpt>
			 <trkpt lat="60.16039" lon="24.95819">
				 <ele>7.1</ele>
			 </trkpt>
			 <trkpt lat="60.16056" lon="24.95773">
				 <ele>7.6</ele>
			 </trkpt>
			 <trkpt lat="60.16069" lon="24.95746">
				 <ele>8</ele>
			 </trkpt>
			 <trkpt lat="60.16086" lon="24.95721">
				 <ele>8.3</ele>
			 </trkpt>
			 <trkpt lat="60.16087" lon="24.95719">
				 <ele>8.5</ele>
			 </trkpt>
			 <trkpt lat="60.161023" lon="24.956756">
				 <ele>8.3</ele>
			 </trkpt>
			 <trkpt lat="60.160967" lon="24.95653">
				 <ele>7.9</ele>
			 </trkpt>
			 <trkpt lat="60.160844" lon="24.956058">
				 <ele>7.5</ele>
			 </trkpt>
			 <trkpt lat="60.160156" lon="24.955618">
				 <ele>7.3</ele>
			 </trkpt>
			 <trkpt lat="60.158906" lon="24.954825">
				 <ele>6.8</ele>
			 </trkpt>
			 <trkpt lat="60.157584" lon="24.953018">
				 <ele>6.3</ele>
			 </trkpt>
			 <trkpt lat="60.156164" lon="24.950965">
				 <ele>5.6</ele>
			 </trkpt>
			 <trkpt lat="60.156074" lon="24.950558">
				 <ele>5</ele>
			 </trkpt>
			 <trkpt lat="60.155551" lon="24.945891">
				 <ele>4.5</ele>
			 </trkpt>
			 <trkpt lat="60.155198" lon="24.942963">
				 <ele>3.9</ele>
			 </trkpt>
			 <trkpt lat="60.155022" lon="24.942802">
				 <ele>3.2</ele>
			 </trkpt>
			 <trkpt lat="60.154798" lon="24.942845">
				 <ele>2.9</ele>
			 </trkpt>
			 <trkpt lat="60.154365" lon="24.94306">
				 <ele>2.7</ele>
			 </trkpt>
			 <trkpt lat="60.154552" lon="24.94439">
				 <ele>2.5</ele>
			 </trkpt>
			 <trkpt lat="60.154456" lon="24.944476">
				 <ele>2.4</ele>
			 </trkpt>
			 <trkpt lat="60.154248" lon="24.942824">
				 <ele>2.2</ele>
			 </trkpt>
			 <trkpt lat="60.154221" lon="24.941955">
				 <ele>2.1</ele>
			 </trkpt>
			 <trkpt lat="60.15429" lon="24.941365">
				 <ele>2.1</ele>
			 </trkpt>
			 <trkpt lat="60.15445" lon="24.940563">
				 <ele>2.1</ele>
			 </trkpt>
			 <trkpt lat="60.154521" lon="24.939797">
				 <ele>2.1</ele>
			 </trkpt>
			 <trkpt lat="60.154569" lon="24.938276">
				 <ele>2.2</ele>
			 </trkpt>
			 <trkpt lat="60.15467" lon="24.937332">
				 <ele>2.4</ele>
			 </trkpt>
			 <trkpt lat="60.154825" lon="24.936506">
				 <ele>2.9</ele>
			 </trkpt>
			 <trkpt lat="60.155054" lon="24.935647">
				 <ele>3.5</ele>
			 </trkpt>
			 <trkpt lat="60.155257" lon="24.935229">
				 <ele>4</ele>
			 </trkpt>
			 <trkpt lat="60.156469" lon="24.934478">
				 <ele>4.5</ele>
			 </trkpt>
			 <trkpt lat="60.156955" lon="24.93421">
				 <ele>5</ele>
			 </trkpt>
			 <trkpt lat="60.157142" lon="24.935583">
				 <ele>5.5</ele>
			 </trkpt>
			 <trkpt lat="60.157051" lon="24.935712">
				 <ele>6.2</ele>
			 </trkpt>
			 <trkpt lat="60.156971" lon="24.935573">
				 <ele>6.8</ele>
			 </trkpt>
			 <trkpt lat="60.15697" lon="24.93558">
				 <ele>7.5</ele>
			 </trkpt>
			 <trkpt lat="60.15691" lon="24.93553">
				 <ele>8</ele>
			 </trkpt>
			 <trkpt lat="60.15678" lon="24.93549">
				 <ele>8.5</ele>
			 </trkpt>
			 <trkpt lat="60.1567" lon="24.93549">
				 <ele>8.5</ele>
			 </trkpt>
			 <trkpt lat="60.15664" lon="24.93554">
				 <ele>8.5</ele>
			 </trkpt>
			 <trkpt lat="60.15656" lon="24.93559">
				 <ele>8.5</ele>
			 </trkpt>
			 <trkpt lat="60.15638" lon="24.93581">
				 <ele>8.5</ele>
			 </trkpt>
			 <trkpt lat="60.15629" lon="24.93594">
				 <ele>8.5</ele>
			 </trkpt>
			 <trkpt lat="60.15621" lon="24.93607">
				 <ele>8.5</ele>
			 </trkpt>
			 <trkpt lat="60.15612" lon="24.93617">
				 <ele>8.4</ele>
			 </trkpt>
			 <trkpt lat="60.15603" lon="24.93637">
				 <ele>8.1</ele>
			 </trkpt>
			 <trkpt lat="60.15579" lon="24.93696">
				 <ele>7.8</ele>
			 </trkpt>
			 <trkpt lat="60.15579" lon="24.93696">
				 <ele>7.5</ele>
			 </trkpt>
			 <trkpt lat="60.15573" lon="24.93718">
				 <ele>7.3</ele>
			 </trkpt>
			 <trkpt lat="60.1556" lon="24.9369">
				 <ele>7</ele>
			 </trkpt>
			 <trkpt lat="60.15553" lon="24.93674">
				 <ele>6.8</ele>
			 </trkpt>
			 <trkpt lat="60.15548" lon="24.93666">
				 <ele>6.5</ele>
			 </trkpt>
			 <trkpt lat="60.15544" lon="24.93675">
				 <ele>6.3</ele>
			 </trkpt>
			 <trkpt lat="60.15541" lon="24.93676">
				 <ele>5.8</ele>
			 </trkpt>
			 <trkpt lat="60.15517" lon="24.93773">
				 <ele>5.4</ele>
			 </trkpt>
			 <trkpt lat="60.15517" lon="24.93773">
				 <ele>5</ele>
			 </trkpt>
			 <trkpt lat="60.15501" lon="24.93862">
				 <ele>4.7</ele>
			 </trkpt>
			 <trkpt lat="60.15497" lon="24.93906">
				 <ele>4.5</ele>
			 </trkpt>
			 <trkpt lat="60.15493" lon="24.93975">
				 <ele>4.3</ele>
			 </trkpt>
			 <trkpt lat="60.15492" lon="24.93994">
				 <ele>4.2</ele>
			 </trkpt>
			 <trkpt lat="60.154928" lon="24.940586">
				 <ele>4.5</ele>
			 </trkpt>
			 <trkpt lat="60.155029" lon="24.942088">
				 <ele>4.6</ele>
			 </trkpt>
			 <trkpt lat="60.155152" lon="24.942603">
				 <ele>5.1</ele>
			 </trkpt>
			 <trkpt lat="60.155269" lon="24.943161">
				 <ele>5.5</ele>
			 </trkpt>
			 <trkpt lat="60.155556" lon="24.945847">
				 <ele>6.2</ele>
			 </trkpt>
			 <trkpt lat="60.156987" lon="24.94516">
				 <ele>6.8</ele>
			 </trkpt>
			 <trkpt lat="60.156618" lon="24.941983">
				 <ele>7.5</ele>
			 </trkpt>
			 <trkpt lat="60.156543" lon="24.941242">
				 <ele>8.2</ele>
			 </trkpt>
			 <trkpt lat="60.15654" lon="24.94126">
				 <ele>8.9</ele>
			 </trkpt>
			 <trkpt lat="60.1566" lon="24.94125">
				 <ele>9.5</ele>
			 </trkpt>
			 <trkpt lat="60.15664" lon="24.94122">
				 <ele>10.2</ele>
			 </trkpt>
			 <trkpt lat="60.15671" lon="24.94104">
				 <ele>10.3</ele>
			 </trkpt>
			 <trkpt lat="60.15687" lon="24.94029">
				 <ele>10.5</ele>
			 </trkpt>
			 <trkpt lat="60.15704" lon="24.93974">
				 <ele>10.3</ele>
			 </trkpt>
			 <trkpt lat="60.15704" lon="24.93974">
				 <ele>10</ele>
			 </trkpt>
			 <trkpt lat="60.1571" lon="24.93956">
				 <ele>9.7</ele>
			 </trkpt>
			 <trkpt lat="60.15723" lon="24.93965">
				 <ele>9.5</ele>
			 </trkpt>
			 <trkpt lat="60.15741" lon="24.9398">
				 <ele>9.5</ele>
			 </trkpt>
			 <trkpt lat="60.15788" lon="24.94038">
				 <ele>9.5</ele>
			 </trkpt>
			 <trkpt lat="60.15788" lon="24.94039">
				 <ele>9.5</ele>
			 </trkpt>
			 <trkpt lat="60.15801" lon="24.940591">
				 <ele>9.2</ele>
			 </trkpt>
			 <trkpt lat="60.158277" lon="24.941052">
				 <ele>9</ele>
			 </trkpt>
			 <trkpt lat="60.159257" lon="24.942093">
				 <ele>9.1</ele>
			 </trkpt>
			 <trkpt lat="60.159855" lon="24.941986">
				 <ele>8.5</ele>
			 </trkpt>
			 <trkpt lat="60.159908" lon="24.941707">
				 <ele>8.2</ele>
			 </trkpt>
			 <trkpt lat="60.159396" lon="24.940333">
				 <ele>7.7</ele>
			 </trkpt>
			 <trkpt lat="60.158574" lon="24.938059">
				 <ele>7.3</ele>
			 </trkpt>
			 <trkpt lat="60.159695" lon="24.936471">
				 <ele>6.7</ele>
			 </trkpt>
			 <trkpt lat="60.159198" lon="24.932684">
				 <ele>6</ele>
			 </trkpt>
			 <trkpt lat="60.159818" lon="24.932151">
				 <ele>5.2</ele>
			 </trkpt>
			 <trkpt lat="60.160391" lon="24.930824">
				 <ele>4.5</ele>
			 </trkpt>
			 <trkpt lat="60.16093" lon="24.929869">
				 <ele>3.9</ele>
			 </trkpt>
			 <trkpt lat="60.161195" lon="24.929693">
				 <ele>3.2</ele>
			 </trkpt>
			 <trkpt lat="60.161622" lon="24.9298">
				 <ele>2.3</ele>
			 </trkpt>
			 <trkpt lat="60.161829" lon="24.929705">
				 <ele>2.1</ele>
			 </trkpt>
			 <trkpt lat="60.16192" lon="24.928991">
				 <ele>2</ele>
			 </trkpt>
			 <trkpt lat="60.161913" lon="24.928776">
				 <ele>2</ele>
			 </trkpt>
			 <trkpt lat="60.161877" lon="24.92858">
				 <ele>2</ele>
			 </trkpt>
			 <trkpt lat="60.161324" lon="24.927046">
				 <ele>2</ele>
			 </trkpt>
			 <trkpt lat="60.16103" lon="24.926092">
				 <ele>2.1</ele>
			 </trkpt>
			 <trkpt lat="60.161047" lon="24.925909">
				 <ele>2.2</ele>
			 </trkpt>
			 <trkpt lat="60.161149" lon="24.925169">
				 <ele>2.2</ele>
			 </trkpt>
			 <trkpt lat="60.161234" lon="24.924893">
				 <ele>2.2</ele>
			 </trkpt>
			 <trkpt lat="60.161372" lon="24.924443">
				 <ele>2.2</ele>
			 </trkpt>
			 <trkpt lat="60.162015" lon="24.923134">
				 <ele>2.2</ele>
			 </trkpt>
			 <trkpt lat="60.16195" lon="24.923026">
				 <ele>2.2</ele>
			 </trkpt>
			 <trkpt lat="60.161134" lon="24.92463">
				 <ele>2.2</ele>
			 </trkpt>
			 <trkpt lat="60.160953" lon="24.92566">
				 <ele>2.2</ele>
			 </trkpt>
			 <trkpt lat="60.160942" lon="24.926208">
				 <ele>2.2</ele>
			 </trkpt>
			 <trkpt lat="60.16099" lon="24.926551">
				 <ele>2.2</ele>
			 </trkpt>
			 <trkpt lat="60.161599" lon="24.928139">
				 <ele>2.1</ele>
			 </trkpt>
			 <trkpt lat="60.161738" lon="24.928626">
				 <ele>2</ele>
			 </trkpt>
			 <trkpt lat="60.161791" lon="24.928916">
				 <ele>2</ele>
			 </trkpt>
			 <trkpt lat="60.161775" lon="24.92913">
				 <ele>2</ele>
			 </trkpt>
			 <trkpt lat="60.1617" lon="24.929409">
				 <ele>2.1</ele>
			 </trkpt>
			 <trkpt lat="60.161604" lon="24.929506">
				 <ele>2.2</ele>
			 </trkpt>
			 <trkpt lat="60.161321" lon="24.92942">
				 <ele>2.2</ele>
			 </trkpt>
			 <trkpt lat="60.161043" lon="24.929425">
				 <ele>2.5</ele>
			 </trkpt>
			 <trkpt lat="60.160402" lon="24.930283">
				 <ele>2.7</ele>
			 </trkpt>
			 <trkpt lat="60.159732" lon="24.931812">
				 <ele>3</ele>
			 </trkpt>
			 <trkpt lat="60.15961" lon="24.932006">
				 <ele>3.3</ele>
			 </trkpt>
			 <trkpt lat="60.158195" lon="24.933164">
				 <ele>3.5</ele>
			 </trkpt>
			 <trkpt lat="60.156853" lon="24.9339">
				 <ele>3.7</ele>
			 </trkpt>
			 <trkpt lat="60.156752" lon="24.933831">
				 <ele>4</ele>
			 </trkpt>
			 <trkpt lat="60.15675" lon="24.93379">
				 <ele>4.2</ele>
			 </trkpt>
			 <trkpt lat="60.15637" lon="24.93387">
				 <ele>4.2</ele>
			 </trkpt>
			 <trkpt lat="60.15627" lon="24.9339">
				 <ele>4.1</ele>
			 </trkpt>
			 <trkpt lat="60.15571" lon="24.93401">
				 <ele>4.1</ele>
			 </trkpt>
			 <trkpt lat="60.15557" lon="24.93397">
				 <ele>3.8</ele>
			 </trkpt>
			 <trkpt lat="60.15542" lon="24.93382">
				 <ele>3.5</ele>
			 </trkpt>
			 <trkpt lat="60.15495" lon="24.93402">
				 <ele>3.3</ele>
			 </trkpt>
			 <trkpt lat="60.15468" lon="24.9323">
				 <ele>3</ele>
			 </trkpt>
			 <trkpt lat="60.154506" lon="24.931348">
				 <ele>2.8</ele>
			 </trkpt>
			 <trkpt lat="60.153868" lon="24.931643">
				 <ele>2.5</ele>
			 </trkpt>
			 <trkpt lat="60.1536" lon="24.931387">
				 <ele>2.3</ele>
			 </trkpt>
			 <trkpt lat="60.151988" lon="24.929657">
				 <ele>2.1</ele>
			 </trkpt>
			 <trkpt lat="60.151859" lon="24.92948">
				 <ele>2</ele>
			 </trkpt>
			 <trkpt lat="60.151621" lon="24.929448">
				 <ele>2</ele>
			 </trkpt>
			 <trkpt lat="60.150956" lon="24.92882">
				 <ele>2</ele>
			 </trkpt>
			 <trkpt lat="60.148995" lon="24.926639">
				 <ele>2</ele>
			 </trkpt>
			 <trkpt lat="60.148361" lon="24.926023">
				 <ele>2</ele>
			 </trkpt>
			 <trkpt lat="60.148336" lon="24.926151">
				 <ele>2</ele>
			 </trkpt>
			 <trkpt lat="60.149016" lon="24.926867">
				 <ele>2</ele>
			 </trkpt>
			 <trkpt lat="60.15031" lon="24.928272">
				 <ele>2</ele>
			 </trkpt>
			 <trkpt lat="60.151661" lon="24.929661">
				 <ele>2.1</ele>
			 </trkpt>
			 <trkpt lat="60.15187" lon="24.929824">
				 <ele>2.2</ele>
			 </trkpt>
			 <trkpt lat="60.152266" lon="24.930076">
				 <ele>2.2</ele>
			 </trkpt>
			 <trkpt lat="60.153649" lon="24.931561">
				 <ele>2.2</ele>
			 </trkpt>
			 <trkpt lat="60.153879" lon="24.931772">
				 <ele>2.2</ele>
			 </trkpt>
			 <trkpt lat="60.154426" lon="24.9316">
				 <ele>2.2</ele>
			 </trkpt>
			 <trkpt lat="60.155018" lon="24.935294">
				 <ele>2.2</ele>
			 </trkpt>
			 <trkpt lat="60.154977" lon="24.935723">
				 <ele>2.2</ele>
			 </trkpt>
			 <trkpt lat="60.154669" lon="24.936797">
				 <ele>2.2</ele>
			 </trkpt>
			 <trkpt lat="60.154521" lon="24.937708">
				 <ele>2.2</ele>
			 </trkpt>
			 <trkpt lat="60.154412" lon="24.940378">
				 <ele>2.2</ele>
			 </trkpt>
			 <trkpt lat="60.154173" lon="24.941382">
				 <ele>2.1</ele>
			 </trkpt>
			 <trkpt lat="60.15415" lon="24.94137">
				 <ele>2</ele>
			 </trkpt>
			 <trkpt lat="60.15412" lon="24.94178">
				 <ele>2</ele>
			 </trkpt>
			 <trkpt lat="60.15412" lon="24.9422">
				 <ele>2</ele>
			 </trkpt>
			 <trkpt lat="60.15415" lon="24.94274">
				 <ele>2</ele>
			 </trkpt>
			 <trkpt lat="60.15417" lon="24.94288">
				 <ele>2</ele>
			 </trkpt>
			 <trkpt lat="60.15417" lon="24.94299">
				 <ele>2</ele>
			 </trkpt>
			 <trkpt lat="60.15421" lon="24.94324">
				 <ele>2</ele>
			 </trkpt>
			 <trkpt lat="60.15437" lon="24.94434">
				 <ele>2</ele>
			 </trkpt>
			 <trkpt lat="60.15442" lon="24.94451">
				 <ele>2</ele>
			 </trkpt>
			 <trkpt lat="60.15443" lon="24.94466">
				 <ele>2</ele>
			 </trkpt>
			 <trkpt lat="60.1546" lon="24.94584">
				 <ele>2</ele>
			 </trkpt>
			 <trkpt lat="60.1546" lon="24.94584">
				 <ele>2</ele>
			 </trkpt>
			 <trkpt lat="60.15494" lon="24.94799">
				 <ele>2</ele>
			 </trkpt>
			 <trkpt lat="60.15514" lon="24.9493">
				 <ele>2</ele>
			 </trkpt>
			 <trkpt lat="60.15524" lon="24.94968">
				 <ele>2</ele>
			 </trkpt>
			 <trkpt lat="60.15542" lon="24.95028">
				 <ele>2</ele>
			 </trkpt>
			 <trkpt lat="60.15542" lon="24.95028">
				 <ele>2</ele>
			 </trkpt>
			 <trkpt lat="60.15547" lon="24.95054">
				 <ele>2.1</ele>
			 </trkpt>
			 <trkpt lat="60.15548" lon="24.95075">
				 <ele>2.5</ele>
			 </trkpt>
			 <trkpt lat="60.15545" lon="24.95091">
				 <ele>2.8</ele>
			 </trkpt>
			 <trkpt lat="60.15538" lon="24.95114">
				 <ele>3.3</ele>
			 </trkpt>
			 <trkpt lat="60.154802" lon="24.953172">
				 <ele>3.6</ele>
			 </trkpt>
			 <trkpt lat="60.153954" lon="24.955722">
				 <ele>4</ele>
			 </trkpt>
			 <trkpt lat="60.153889" lon="24.956923">
				 <ele>4.2</ele>
			 </trkpt>
			 <trkpt lat="60.15389" lon="24.95692">
				 <ele>4.2</ele>
			 </trkpt>
			 <trkpt lat="60.15393" lon="24.95727">
				 <ele>4.2</ele>
			 </trkpt>
			 <trkpt lat="60.15406" lon="24.95768">
				 <ele>4.2</ele>
			 </trkpt>
			 <trkpt lat="60.15409" lon="24.95778">
				 <ele>4.2</ele>
			 </trkpt>
			 <trkpt lat="60.15429" lon="24.95808">
				 <ele>4.1</ele>
			 </trkpt>
			 <trkpt lat="60.15498" lon="24.95873">
				 <ele>3.7</ele>
			 </trkpt>
			 <trkpt lat="60.15509" lon="24.959">
				 <ele>3.4</ele>
			 </trkpt>
			 <trkpt lat="60.15525" lon="24.95962">
				 <ele>2.9</ele>
			 </trkpt>
			 <trkpt lat="60.15531" lon="24.96021">
				 <ele>2.5</ele>
			 </trkpt>
			 <trkpt lat="60.15549" lon="24.96138">
				 <ele>2.2</ele>
			 </trkpt>
			 <trkpt lat="60.1556" lon="24.96193">
				 <ele>2</ele>
			 </trkpt>
			 <trkpt lat="60.15571" lon="24.96227">
				 <ele>2</ele>
			 </trkpt>
			 <trkpt lat="60.15587" lon="24.96262">
				 <ele>2</ele>
			 </trkpt>
			 <trkpt lat="60.15599" lon="24.96278">
				 <ele>2</ele>
			 </trkpt>
			 <trkpt lat="60.15613" lon="24.96288">
				 <ele>2</ele>
			 </trkpt>
			 <trkpt lat="60.1563" lon="24.96291">
				 <ele>2</ele>
			 </trkpt>
			 <trkpt lat="60.1563" lon="24.96291">
				 <ele>2</ele>
			 </trkpt>
			 <trkpt lat="60.15637" lon="24.96291">
				 <ele>2</ele>
			 </trkpt>
			 <trkpt lat="60.15651" lon="24.96287">
				 <ele>2</ele>
			 </trkpt>
			 <trkpt lat="60.15686" lon="24.96267">
				 <ele>2</ele>
			 </trkpt>
			 <trkpt lat="60.15702" lon="24.96262">
				 <ele>2</ele>
			 </trkpt>
			 <trkpt lat="60.15713" lon="24.96261">
				 <ele>2</ele>
			 </trkpt>
			 <trkpt lat="60.15725" lon="24.96262">
				 <ele>2</ele>
			 </trkpt>
			 <trkpt lat="60.15742" lon="24.96261">
				 <ele>2</ele>
			 </trkpt>
			 <trkpt lat="60.15755" lon="24.96258">
				 <ele>2</ele>
			 </trkpt>
			 <trkpt lat="60.15771" lon="24.96249">
				 <ele>2</ele>
			 </trkpt>
			 <trkpt lat="60.15791" lon="24.96235">
				 <ele>2</ele>
			 </trkpt>
			 <trkpt lat="60.15824" lon="24.96202">
				 <ele>2</ele>
			 </trkpt>
			 <trkpt lat="60.15851" lon="24.96182">
				 <ele>2.1</ele>
			 </trkpt>
			 <trkpt lat="60.15851" lon="24.96181">
				 <ele>2.2</ele>
			 </trkpt>
			 <trkpt lat="60.15877" lon="24.96163">
				 <ele>2.3</ele>
			 </trkpt>
			 <trkpt lat="60.15935" lon="24.96117">
				 <ele>2.5</ele>
			 </trkpt>
			 <trkpt lat="60.15978" lon="24.96075">
				 <ele>2.7</ele>
			 </trkpt>
			 <trkpt lat="60.15988" lon="24.96064">
				 <ele>3.1</ele>
			 </trkpt>
			 <trkpt lat="60.15996" lon="24.96049">
				 <ele>3.5</ele>
			 </trkpt>
			 <trkpt lat="60.16004" lon="24.96028">
				 <ele>4</ele>
			 </trkpt>
			 <trkpt lat="60.16012" lon="24.95998">
				 <ele>4.5</ele>
			 </trkpt>
			 <trkpt lat="60.16018" lon="24.95952">
				 <ele>5.1</ele>
			 </trkpt>
			 <trkpt lat="60.1602" lon="24.95931">
				 <ele>5.6</ele>
			 </trkpt>
			 <trkpt lat="60.1602" lon="24.95931">
				 <ele>6.1</ele>
			 </trkpt>
			 <trkpt lat="60.16031" lon="24.95854">
				 <ele>6.6</ele>
			 </trkpt>
			 <trkpt lat="60.16039" lon="24.95819">
				 <ele>7.2</ele>
			 </trkpt>
			 <trkpt lat="60.16047" lon="24.95798">
				 <ele>7.5</ele>
			 </trkpt>
			 <trkpt lat="60.16056" lon="24.95773">
				 <ele>7.9</ele>
			 </trkpt>
			 <trkpt lat="60.16069" lon="24.95746">
				 <ele>7.7</ele>
			 </trkpt>
			 <trkpt lat="60.1609" lon="24.95716">
				 <ele>7.5</ele>
			 </trkpt>
			 <trkpt lat="60.160992" lon="24.956795">
				 <ele>7.2</ele>
			 </trkpt>
			 <trkpt lat="60.160853" lon="24.956108">
				 <ele>6.7</ele>
			 </trkpt>
			 <trkpt lat="60.158849" lon="24.954782">
				 <ele>6.3</ele>
			 </trkpt>
			 <trkpt lat="60.156296" lon="24.951176">
				 <ele>5.7</ele>
			 </trkpt>
			 <trkpt lat="60.15616" lon="24.950965">
				 <ele>5.2</ele>
			 </trkpt>
			 <trkpt lat="60.156048" lon="24.950546">
				 <ele>4.5</ele>
			 </trkpt>
			 <trkpt lat="60.155145" lon="24.942854">
				 <ele>3.9</ele>
			 </trkpt>
			 <trkpt lat="60.154952" lon="24.942768">
				 <ele>3.4</ele>
			 </trkpt>
			 <trkpt lat="60.154359" lon="24.943052">
				 <ele>2.7</ele>
			 </trkpt>
			 <trkpt lat="60.154555" lon="24.944409">
				 <ele>2.6</ele>
			 </trkpt>
			 <trkpt lat="60.154457" lon="24.944506">
				 <ele>2.5</ele>
			 </trkpt>
			 <trkpt lat="60.154238" lon="24.942832">
				 <ele>2.3</ele>
			 </trkpt>
			 <trkpt lat="60.154215" lon="24.941974">
				 <ele>2.2</ele>
			 </trkpt>
			 <trkpt lat="60.15445" lon="24.940584">
				 <ele>2.2</ele>
			 </trkpt>
			 <trkpt lat="60.154514" lon="24.939774">
				 <ele>2.2</ele>
			 </trkpt>
			 <trkpt lat="60.154565" lon="24.938256">
				 <ele>2.3</ele>
			 </trkpt>
			 <trkpt lat="60.154667" lon="24.937322">
				 <ele>2.5</ele>
			 </trkpt>
			 <trkpt lat="60.154825" lon="24.936475">
				 <ele>3</ele>
			 </trkpt>
			 <trkpt lat="60.15509" lon="24.9356">
				 <ele>3.5</ele>
			 </trkpt>
			 <trkpt lat="60.155251" lon="24.935214">
				 <ele>4.1</ele>
			 </trkpt>
			 <trkpt lat="60.156158" lon="24.934635">
				 <ele>4.5</ele>
			 </trkpt>
			 <trkpt lat="60.156953" lon="24.934173">
				 <ele>5.1</ele>
			 </trkpt>
			 <trkpt lat="60.15714" lon="24.935525">
				 <ele>5.7</ele>
			 </trkpt>
			 <trkpt lat="60.157034" lon="24.935671">
				 <ele>6.4</ele>
			 </trkpt>
			 <trkpt lat="60.156951" lon="24.935568">
				 <ele>6.9</ele>
			 </trkpt>
			 <trkpt lat="60.15695" lon="24.93556">
				 <ele>7.5</ele>
			 </trkpt>
			 <trkpt lat="60.15684" lon="24.9355">
				 <ele>8</ele>
			 </trkpt>
			 <trkpt lat="60.1567" lon="24.93549">
				 <ele>8.4</ele>
			 </trkpt>
			 <trkpt lat="60.15656" lon="24.93559">
				 <ele>8.4</ele>
			 </trkpt>
			 <trkpt lat="60.15636" lon="24.93583">
				 <ele>8.4</ele>
			 </trkpt>
			 <trkpt lat="60.15619" lon="24.9361">
				 <ele>8.4</ele>
			 </trkpt>
			 <trkpt lat="60.1561" lon="24.93621">
				 <ele>8.3</ele>
			 </trkpt>
			 <trkpt lat="60.15597" lon="24.93649">
				 <ele>8.2</ele>
			 </trkpt>
			 <trkpt lat="60.15588" lon="24.9367">
				 <ele>7.9</ele>
			 </trkpt>
			 <trkpt lat="60.15588" lon="24.93671">
				 <ele>7.6</ele>
			 </trkpt>
			 <trkpt lat="60.15573" lon="24.93718">
				 <ele>7.4</ele>
			 </trkpt>
			 <trkpt lat="60.15557" lon="24.93684">
				 <ele>7.1</ele>
			 </trkpt>
			 <trkpt lat="60.15557" lon="24.93684">
				 <ele>6.9</ele>
			 </trkpt>
			 <trkpt lat="60.15548" lon="24.93666">
				 <ele>6.7</ele>
			 </trkpt>
			 <trkpt lat="60.15544" lon="24.93675">
				 <ele>6.5</ele>
			 </trkpt>
			 <trkpt lat="60.15542" lon="24.93672">
				 <ele>6.4</ele>
			 </trkpt>
			 <trkpt lat="60.15538" lon="24.93687">
				 <ele>6.1</ele>
			 </trkpt>
			 <trkpt lat="60.15529" lon="24.93721">
				 <ele>5.8</ele>
			 </trkpt>
			 <trkpt lat="60.15528" lon="24.93725">
				 <ele>5.5</ele>
			 </trkpt>
			 <trkpt lat="60.15528" lon="24.93725">
				 <ele>5.2</ele>
			 </trkpt>
			 <trkpt lat="60.15516" lon="24.93774">
				 <ele>4.9</ele>
			 </trkpt>
			 <trkpt lat="60.15506" lon="24.93831">
				 <ele>4.6</ele>
			 </trkpt>
			 <trkpt lat="60.15496" lon="24.93921">
				 <ele>4.5</ele>
			 </trkpt>
			 <trkpt lat="60.15492" lon="24.93997">
				 <ele>4.9</ele>
			 </trkpt>
			 <trkpt lat="60.154908" lon="24.940626">
				 <ele>5.3</ele>
			 </trkpt>
			 <trkpt lat="60.155021" lon="24.942085">
				 <ele>5.6</ele>
			 </trkpt>
			 <trkpt lat="60.155199" lon="24.94289">
				 <ele>6.1</ele>
			 </trkpt>
			 <trkpt lat="60.155561" lon="24.945837">
				 <ele>6.7</ele>
			 </trkpt>
			 <trkpt lat="60.157003" lon="24.945145">
				 <ele>7.3</ele>
			 </trkpt>
			 <trkpt lat="60.156533" lon="24.941314">
				 <ele>7.6</ele>
			 </trkpt>
			 <trkpt lat="60.156642" lon="24.941105">
				 <ele>8.1</ele>
			 </trkpt>
			 <trkpt lat="60.156721" lon="24.940907">
				 <ele>8.7</ele>
			 </trkpt>
			 <trkpt lat="60.157084" lon="24.939555">
				 <ele>9.5</ele>
			 </trkpt>
			 <trkpt lat="60.157382" lon="24.939791">
				 <ele>9.9</ele>
			 </trkpt>
			 <trkpt lat="60.157874" lon="24.940394">
				 <ele>9.7</ele>
			 </trkpt>
			 <trkpt lat="60.158263" lon="24.94106">
				 <ele>9.7</ele>
			 </trkpt>
			 <trkpt lat="60.159227" lon="24.942073">
				 <ele>9.9</ele>
			 </trkpt>
			 <trkpt lat="60.159837" lon="24.94202">
				 <ele>9.3</ele>
			 </trkpt>
			 <trkpt lat="60.159878" lon="24.941704">
				 <ele>8.5</ele>
			 </trkpt>
			 <trkpt lat="60.159384" lon="24.94032">
				 <ele>7.7</ele>
			 </trkpt>
			 <trkpt lat="60.158598" lon="24.938086">
				 <ele>7.3</ele>
			 </trkpt>
			 <trkpt lat="60.159699" lon="24.936489">
				 <ele>6.7</ele>
			 </trkpt>
			 <trkpt lat="60.15919" lon="24.932702">
				 <ele>6</ele>
			 </trkpt>
			 <trkpt lat="60.159816" lon="24.932128">
				 <ele>5.2</ele>
			 </trkpt>
			 <trkpt lat="60.160423" lon="24.930697">
				 <ele>4.5</ele>
			 </trkpt>
			 <trkpt lat="60.160921" lon="24.929812">
				 <ele>3.9</ele>
			 </trkpt>
			 <trkpt lat="60.161158" lon="24.929675">
				 <ele>3.2</ele>
			 </trkpt>
			 <trkpt lat="60.161604" lon="24.929804">
				 <ele>2.3</ele>
			 </trkpt>
			 <trkpt lat="60.161816" lon="24.929664">
				 <ele>2.1</ele>
			 </trkpt>
			 <trkpt lat="60.161899" lon="24.929487">
				 <ele>2</ele>
			 </trkpt>
			 <trkpt lat="60.161899" lon="24.92887">
				 <ele>2</ele>
			 </trkpt>
			 <trkpt lat="60.161834" lon="24.928532">
				 <ele>2.1</ele>
			 </trkpt>
			 <trkpt lat="60.161067" lon="24.926159">
				 <ele>2.2</ele>
			 </trkpt>
			 <trkpt lat="60.16104" lon="24.925897">
				 <ele>2.2</ele>
			 </trkpt>
			 <trkpt lat="60.161191" lon="24.924936">
				 <ele>2.2</ele>
			 </trkpt>
			 <trkpt lat="60.161399" lon="24.924276">
				 <ele>2.2</ele>
			 </trkpt>
			 <trkpt lat="60.162011" lon="24.923163">
				 <ele>2.2</ele>
			 </trkpt>
			 <trkpt lat="60.16195" lon="24.923022">
				 <ele>2.2</ele>
			 </trkpt>
			 <trkpt lat="60.161113" lon="24.924626">
				 <ele>2.2</ele>
			 </trkpt>
			 <trkpt lat="60.160945" lon="24.925694">
				 <ele>2.2</ele>
			 </trkpt>
			 <trkpt lat="60.160941" lon="24.926295">
				 <ele>2.2</ele>
			 </trkpt>
			 <trkpt lat="60.161571" lon="24.928097">
				 <ele>2.2</ele>
			 </trkpt>
			 <trkpt lat="60.161767" lon="24.928825">
				 <ele>2.1</ele>
			 </trkpt>
			 <trkpt lat="60.161722" lon="24.929297">
				 <ele>2.1</ele>
			 </trkpt>
			 <trkpt lat="60.161605" lon="24.929464">
				 <ele>2.2</ele>
			 </trkpt>
			 <trkpt lat="60.161492" lon="24.929496">
				 <ele>2.5</ele>
			 </trkpt>
			 <trkpt lat="60.160997" lon="24.929447">
				 <ele>2.5</ele>
			 </trkpt>
			 <trkpt lat="60.160374" lon="24.930365">
				 <ele>2.8</ele>
			 </trkpt>
			 <trkpt lat="60.15977" lon="24.931701">
				 <ele>3.1</ele>
			 </trkpt>
			 <trkpt lat="60.159578" lon="24.932036">
				 <ele>3.3</ele>
			 </trkpt>
			 <trkpt lat="60.1586" lon="24.932771">
				 <ele>3.5</ele>
			 </trkpt>
			 <trkpt lat="60.15783" lon="24.933297">
				 <ele>3.5</ele>
			 </trkpt>
			 <trkpt lat="60.156852" lon="24.933895">
				 <ele>3.5</ele>
			 </trkpt>
			 <trkpt lat="60.15675" lon="24.933777">
				 <ele>3.5</ele>
			 </trkpt>
			 <trkpt lat="60.155678" lon="24.93405">
				 <ele>3.5</ele>
			 </trkpt>
			 <trkpt lat="60.155414" lon="24.93383">
				 <ele>3.4</ele>
			 </trkpt>
			 <trkpt lat="60.154953" lon="24.933959">
				 <ele>3.1</ele>
			 </trkpt>
			 <trkpt lat="60.154489" lon="24.931395">
				 <ele>3</ele>
			 </trkpt>
			 <trkpt lat="60.154002" lon="24.931572">
				 <ele>2.7</ele>
			 </trkpt>
			 <trkpt lat="60.153753" lon="24.931534">
				 <ele>2.5</ele>
			 </trkpt>
			 <trkpt lat="60.151987" lon="24.929675">
				 <ele>2.3</ele>
			 </trkpt>
			 <trkpt lat="60.151859" lon="24.929482">
				 <ele>2.1</ele>
			 </trkpt>
			 <trkpt lat="60.151568" lon="24.929411">
				 <ele>2</ele>
			 </trkpt>
			 <trkpt lat="60.14933" lon="24.92698">
				 <ele>2</ele>
			 </trkpt>
			 <trkpt lat="60.148347" lon="24.926">
				 <ele>2</ele>
			 </trkpt>
			 <trkpt lat="60.148315" lon="24.926177">
				 <ele>2</ele>
			 </trkpt>
			 <trkpt lat="60.149197" lon="24.927084">
				 <ele>2</ele>
			 </trkpt>
			 <trkpt lat="60.15009" lon="24.92805">
				 <ele>2</ele>
			 </trkpt>
			 <trkpt lat="60.150734" lon="24.928721">
				 <ele>2</ele>
			 </trkpt>
			 <trkpt lat="60.151651" lon="24.929665">
				 <ele>2.1</ele>
			 </trkpt>
			 <trkpt lat="60.151836" lon="24.929815">
				 <ele>2.2</ele>
			 </trkpt>
			 <trkpt lat="60.152255" lon="24.930083">
				 <ele>2.2</ele>
			 </trkpt>
			 <trkpt lat="60.153788" lon="24.931725">
				 <ele>2.2</ele>
			 </trkpt>
			 <trkpt lat="60.153974" lon="24.931778">
				 <ele>2.2</ele>
			 </trkpt>
			 <trkpt lat="60.154412" lon="24.931636">
				 <ele>2.2</ele>
			 </trkpt>
			 <trkpt lat="60.155011" lon="24.935292">
				 <ele>2.2</ele>
			 </trkpt>
			 <trkpt lat="60.154915" lon="24.935858">
				 <ele>2.2</ele>
			 </trkpt>
			 <trkpt lat="60.154571" lon="24.937274">
				 <ele>2.2</ele>
			 </trkpt>
			 <trkpt lat="60.154462" lon="24.938754">
				 <ele>2.2</ele>
			 </trkpt>
			 <trkpt lat="60.154394" lon="24.940407">
				 <ele>2.2</ele>
			 </trkpt>
			 <trkpt lat="60.154095" lon="24.941882">
				 <ele>2.1</ele>
			 </trkpt>
			 <trkpt lat="60.154142" lon="24.942841">
				 <ele>2</ele>
			 </trkpt>
			 <trkpt lat="60.154512" lon="24.945353">
				 <ele>2</ele>
			 </trkpt>
			 <trkpt lat="60.155213" lon="24.949703">
				 <ele>2</ele>
			 </trkpt>
			 <trkpt lat="60.155436" lon="24.950392">
				 <ele>2</ele>
			 </trkpt>
			 <trkpt lat="60.155441" lon="24.950821">
				 <ele>2</ele>
			 </trkpt>
			 <trkpt lat="60.155422" lon="24.951131">
				 <ele>2</ele>
			 </trkpt>
			 <trkpt lat="60.15518" lon="24.952055">
				 <ele>2</ele>
			 </trkpt>
		 </trkseg>
	 </trk>
</gpx>