<?xml version="1.0" encoding="UTF-8"?>
 <gpx creator="Garmin Connect" version="1.1"
	 xsi:schemaLocation="http://www.topografix.com/GPX/1/1 http://www.topografix.com/GPX/11.xsd"
	 xmlns:ns3="http://www.garmin.com/xmlschemas/TrackPointExtension/v1"
	 xmlns="http://www.topografix.com/GPX/1/1"
	 xmlns:xsi="http://www.w3.org/2001/XMLSchema-instance" xmlns:ns2="http://www.garmin.com/xmlschemas/GpxExtensions/v3">
	 <metadata>
		<name>Hobart Airport Marathon Festival 2026 - 42.195 km</name>
		 <link href="https://www.goandrace.com">
		 <text>Garmin Connect</text>
		 </link>
	 <time>2026-08-09T22:14:56</time>
	 </metadata>
	 <trk>
		 <name>Hobart Airport Marathon Festival 2026 - 42.195 km</name>
		 <trkseg>
			 <trkpt lat="-42.886228" lon="147.333136">
				 <ele>5.7</ele>
			 </trkpt>
			 <trkpt lat="-42.886172" lon="147.33236">
				 <ele>5.9</ele>
			 </trkpt>
			 <trkpt lat="-42.886123" lon="147.3321">
				 <ele>6</ele>
			 </trkpt>
			 <trkpt lat="-42.886" lon="147.33171">
				 <ele>6.1</ele>
			 </trkpt>
			 <trkpt lat="-42.885966" lon="147.331672">
				 <ele>6.2</ele>
			 </trkpt>
			 <trkpt lat="-42.885908" lon="147.331689">
				 <ele>6.3</ele>
			 </trkpt>
			 <trkpt lat="-42.88585" lon="147.3317">
				 <ele>6.3</ele>
			 </trkpt>
			 <trkpt lat="-42.885794" lon="147.331693">
				 <ele>6.5</ele>
			 </trkpt>
			 <trkpt lat="-42.885746" lon="147.33169">
				 <ele>6.9</ele>
			 </trkpt>
			 <trkpt lat="-42.885697" lon="147.331679">
				 <ele>6.9</ele>
			 </trkpt>
			 <trkpt lat="-42.885387" lon="147.331539">
				 <ele>6.6</ele>
			 </trkpt>
			 <trkpt lat="-42.885134" lon="147.331354">
				 <ele>6.4</ele>
			 </trkpt>
			 <trkpt lat="-42.884859" lon="147.331288">
				 <ele>6.1</ele>
			 </trkpt>
			 <trkpt lat="-42.884677" lon="147.331381">
				 <ele>5.8</ele>
			 </trkpt>
			 <trkpt lat="-42.884491" lon="147.331537">
				 <ele>5.7</ele>
			 </trkpt>
			 <trkpt lat="-42.884529" lon="147.331791">
				 <ele>5.3</ele>
			 </trkpt>
			 <trkpt lat="-42.88458" lon="147.33197">
				 <ele>4.7</ele>
			 </trkpt>
			 <trkpt lat="-42.88455" lon="147.3321">
				 <ele>4.4</ele>
			 </trkpt>
			 <trkpt lat="-42.88449" lon="147.33217">
				 <ele>4</ele>
			 </trkpt>
			 <trkpt lat="-42.88409" lon="147.3325">
				 <ele>3.5</ele>
			 </trkpt>
			 <trkpt lat="-42.88331" lon="147.33319">
				 <ele>3</ele>
			 </trkpt>
			 <trkpt lat="-42.88314" lon="147.33341">
				 <ele>2.5</ele>
			 </trkpt>
			 <trkpt lat="-42.88267" lon="147.33417">
				 <ele>2.4</ele>
			 </trkpt>
			 <trkpt lat="-42.88258" lon="147.33429">
				 <ele>2.3</ele>
			 </trkpt>
			 <trkpt lat="-42.88247" lon="147.33444">
				 <ele>2.5</ele>
			 </trkpt>
			 <trkpt lat="-42.88239" lon="147.33462">
				 <ele>2.5</ele>
			 </trkpt>
			 <trkpt lat="-42.88219" lon="147.335">
				 <ele>2.9</ele>
			 </trkpt>
			 <trkpt lat="-42.88193" lon="147.33541">
				 <ele>3.4</ele>
			 </trkpt>
			 <trkpt lat="-42.88183" lon="147.33558">
				 <ele>3.6</ele>
			 </trkpt>
			 <trkpt lat="-42.88175" lon="147.33577">
				 <ele>3.9</ele>
			 </trkpt>
			 <trkpt lat="-42.88199" lon="147.33646">
				 <ele>4.5</ele>
			 </trkpt>
			 <trkpt lat="-42.88208" lon="147.3367">
				 <ele>5.1</ele>
			 </trkpt>
			 <trkpt lat="-42.8821" lon="147.33684">
				 <ele>5.8</ele>
			 </trkpt>
			 <trkpt lat="-42.88209" lon="147.3371">
				 <ele>6.4</ele>
			 </trkpt>
			 <trkpt lat="-42.88205" lon="147.33739">
				 <ele>6.6</ele>
			 </trkpt>
			 <trkpt lat="-42.882" lon="147.3377">
				 <ele>6.6</ele>
			 </trkpt>
			 <trkpt lat="-42.88197" lon="147.33779">
				 <ele>6.4</ele>
			 </trkpt>
			 <trkpt lat="-42.88192" lon="147.33785">
				 <ele>6.3</ele>
			 </trkpt>
			 <trkpt lat="-42.88186" lon="147.33788">
				 <ele>6.4</ele>
			 </trkpt>
			 <trkpt lat="-42.88176" lon="147.33789">
				 <ele>6.4</ele>
			 </trkpt>
			 <trkpt lat="-42.88172" lon="147.33788">
				 <ele>6.5</ele>
			 </trkpt>
			 <trkpt lat="-42.88158" lon="147.33783">
				 <ele>6.5</ele>
			 </trkpt>
			 <trkpt lat="-42.88148" lon="147.33771">
				 <ele>6.4</ele>
			 </trkpt>
			 <trkpt lat="-42.8814" lon="147.33742">
				 <ele>6.4</ele>
			 </trkpt>
			 <trkpt lat="-42.88097" lon="147.33633">
				 <ele>6.4</ele>
			 </trkpt>
			 <trkpt lat="-42.88081" lon="147.33594">
				 <ele>6.5</ele>
			 </trkpt>
			 <trkpt lat="-42.88035" lon="147.33486">
				 <ele>6.8</ele>
			 </trkpt>
			 <trkpt lat="-42.880186" lon="147.334881">
				 <ele>7.5</ele>
			 </trkpt>
			 <trkpt lat="-42.880034" lon="147.334928">
				 <ele>8.1</ele>
			 </trkpt>
			 <trkpt lat="-42.879766" lon="147.334936">
				 <ele>8.7</ele>
			 </trkpt>
			 <trkpt lat="-42.879092" lon="147.334747">
				 <ele>9.8</ele>
			 </trkpt>
			 <trkpt lat="-42.878613" lon="147.334586">
				 <ele>11</ele>
			 </trkpt>
			 <trkpt lat="-42.8782" lon="147.334411">
				 <ele>12.2</ele>
			 </trkpt>
			 <trkpt lat="-42.877954" lon="147.334308">
				 <ele>13.5</ele>
			 </trkpt>
			 <trkpt lat="-42.877544" lon="147.3342">
				 <ele>14.7</ele>
			 </trkpt>
			 <trkpt lat="-42.877036" lon="147.334103">
				 <ele>16.1</ele>
			 </trkpt>
			 <trkpt lat="-42.876217" lon="147.334115">
				 <ele>17.5</ele>
			 </trkpt>
			 <trkpt lat="-42.875893" lon="147.33413">
				 <ele>18.7</ele>
			 </trkpt>
			 <trkpt lat="-42.875714" lon="147.33417">
				 <ele>19.8</ele>
			 </trkpt>
			 <trkpt lat="-42.875607" lon="147.334212">
				 <ele>20.7</ele>
			 </trkpt>
			 <trkpt lat="-42.875533" lon="147.334284">
				 <ele>21.4</ele>
			 </trkpt>
			 <trkpt lat="-42.875515" lon="147.334339">
				 <ele>21.5</ele>
			 </trkpt>
			 <trkpt lat="-42.875508" lon="147.334411">
				 <ele>21.5</ele>
			 </trkpt>
			 <trkpt lat="-42.875494" lon="147.334508">
				 <ele>21.5</ele>
			 </trkpt>
			 <trkpt lat="-42.875452" lon="147.334617">
				 <ele>21.5</ele>
			 </trkpt>
			 <trkpt lat="-42.875383" lon="147.334731">
				 <ele>21.5</ele>
			 </trkpt>
			 <trkpt lat="-42.875242" lon="147.334781">
				 <ele>21.5</ele>
			 </trkpt>
			 <trkpt lat="-42.875179" lon="147.334755">
				 <ele>21.5</ele>
			 </trkpt>
			 <trkpt lat="-42.875117" lon="147.334685">
				 <ele>21.6</ele>
			 </trkpt>
			 <trkpt lat="-42.875094" lon="147.334606">
				 <ele>21.7</ele>
			 </trkpt>
			 <trkpt lat="-42.875097" lon="147.33446">
				 <ele>22</ele>
			 </trkpt>
			 <trkpt lat="-42.875073" lon="147.333512">
				 <ele>22.5</ele>
			 </trkpt>
			 <trkpt lat="-42.875045" lon="147.333417">
				 <ele>23.1</ele>
			 </trkpt>
			 <trkpt lat="-42.874946" lon="147.333373">
				 <ele>23.7</ele>
			 </trkpt>
			 <trkpt lat="-42.874834" lon="147.333368">
				 <ele>24.3</ele>
			 </trkpt>
			 <trkpt lat="-42.874632" lon="147.33349">
				 <ele>24.7</ele>
			 </trkpt>
			 <trkpt lat="-42.874592" lon="147.333629">
				 <ele>25</ele>
			 </trkpt>
			 <trkpt lat="-42.874575" lon="147.333742">
				 <ele>25.2</ele>
			 </trkpt>
			 <trkpt lat="-42.874549" lon="147.333896">
				 <ele>25.2</ele>
			 </trkpt>
			 <trkpt lat="-42.87446" lon="147.333966">
				 <ele>25.1</ele>
			 </trkpt>
			 <trkpt lat="-42.874209" lon="147.334043">
				 <ele>25</ele>
			 </trkpt>
			 <trkpt lat="-42.873951" lon="147.334062">
				 <ele>25</ele>
			 </trkpt>
			 <trkpt lat="-42.873505" lon="147.333983">
				 <ele>25</ele>
			 </trkpt>
			 <trkpt lat="-42.873059" lon="147.333904">
				 <ele>25.1</ele>
			 </trkpt>
			 <trkpt lat="-42.87292" lon="147.33386">
				 <ele>25.2</ele>
			 </trkpt>
			 <trkpt lat="-42.87283" lon="147.33379">
				 <ele>25.3</ele>
			 </trkpt>
			 <trkpt lat="-42.87274" lon="147.33361">
				 <ele>25.4</ele>
			 </trkpt>
			 <trkpt lat="-42.87271" lon="147.3335">
				 <ele>25.4</ele>
			 </trkpt>
			 <trkpt lat="-42.87265" lon="147.33343">
				 <ele>25.3</ele>
			 </trkpt>
			 <trkpt lat="-42.87263" lon="147.3334">
				 <ele>25.4</ele>
			 </trkpt>
			 <trkpt lat="-42.87256" lon="147.33336">
				 <ele>25.5</ele>
			 </trkpt>
			 <trkpt lat="-42.87248" lon="147.33334">
				 <ele>25.6</ele>
			 </trkpt>
			 <trkpt lat="-42.87219" lon="147.33336">
				 <ele>26.5</ele>
			 </trkpt>
			 <trkpt lat="-42.87206" lon="147.33342">
				 <ele>27.3</ele>
			 </trkpt>
			 <trkpt lat="-42.87191" lon="147.33346">
				 <ele>28.3</ele>
			 </trkpt>
			 <trkpt lat="-42.87183" lon="147.33343">
				 <ele>29.3</ele>
			 </trkpt>
			 <trkpt lat="-42.87174" lon="147.3334">
				 <ele>30.5</ele>
			 </trkpt>
			 <trkpt lat="-42.871572" lon="147.333289">
				 <ele>31.8</ele>
			 </trkpt>
			 <trkpt lat="-42.871434" lon="147.333142">
				 <ele>33.4</ele>
			 </trkpt>
			 <trkpt lat="-42.871291" lon="147.3329">
				 <ele>35.1</ele>
			 </trkpt>
			 <trkpt lat="-42.871216" lon="147.332692">
				 <ele>36.9</ele>
			 </trkpt>
			 <trkpt lat="-42.871089" lon="147.332227">
				 <ele>38.6</ele>
			 </trkpt>
			 <trkpt lat="-42.870989" lon="147.331949">
				 <ele>40.3</ele>
			 </trkpt>
			 <trkpt lat="-42.870942" lon="147.331859">
				 <ele>41</ele>
			 </trkpt>
			 <trkpt lat="-42.870863" lon="147.331771">
				 <ele>41.6</ele>
			 </trkpt>
			 <trkpt lat="-42.870749" lon="147.331716">
				 <ele>42</ele>
			 </trkpt>
			 <trkpt lat="-42.870611" lon="147.331704">
				 <ele>42.4</ele>
			 </trkpt>
			 <trkpt lat="-42.870463" lon="147.331738">
				 <ele>42.9</ele>
			 </trkpt>
			 <trkpt lat="-42.870291" lon="147.331753">
				 <ele>43.5</ele>
			 </trkpt>
			 <trkpt lat="-42.870124" lon="147.331716">
				 <ele>44.2</ele>
			 </trkpt>
			 <trkpt lat="-42.869926" lon="147.331621">
				 <ele>45.1</ele>
			 </trkpt>
			 <trkpt lat="-42.869817" lon="147.331527">
				 <ele>46</ele>
			 </trkpt>
			 <trkpt lat="-42.869335" lon="147.33108">
				 <ele>47.1</ele>
			 </trkpt>
			 <trkpt lat="-42.869134" lon="147.330882">
				 <ele>48.5</ele>
			 </trkpt>
			 <trkpt lat="-42.868947" lon="147.330674">
				 <ele>50</ele>
			 </trkpt>
			 <trkpt lat="-42.868789" lon="147.330477">
				 <ele>51.5</ele>
			 </trkpt>
			 <trkpt lat="-42.868675" lon="147.330286">
				 <ele>53.1</ele>
			 </trkpt>
			 <trkpt lat="-42.868615" lon="147.330111">
				 <ele>54.6</ele>
			 </trkpt>
			 <trkpt lat="-42.868508" lon="147.329717">
				 <ele>55.8</ele>
			 </trkpt>
			 <trkpt lat="-42.868483" lon="147.32967">
				 <ele>56.8</ele>
			 </trkpt>
			 <trkpt lat="-42.86843" lon="147.329647">
				 <ele>57.5</ele>
			 </trkpt>
			 <trkpt lat="-42.868395" lon="147.329577">
				 <ele>58.1</ele>
			 </trkpt>
			 <trkpt lat="-42.868366" lon="147.329558">
				 <ele>58.6</ele>
			 </trkpt>
			 <trkpt lat="-42.868288" lon="147.329538">
				 <ele>59.2</ele>
			 </trkpt>
			 <trkpt lat="-42.868125" lon="147.329526">
				 <ele>59.5</ele>
			 </trkpt>
			 <trkpt lat="-42.868022" lon="147.329485">
				 <ele>60.1</ele>
			 </trkpt>
			 <trkpt lat="-42.867922" lon="147.329411">
				 <ele>60.7</ele>
			 </trkpt>
			 <trkpt lat="-42.867811" lon="147.329299">
				 <ele>61.5</ele>
			 </trkpt>
			 <trkpt lat="-42.867723" lon="147.329201">
				 <ele>62.5</ele>
			 </trkpt>
			 <trkpt lat="-42.867638" lon="147.329083">
				 <ele>63.4</ele>
			 </trkpt>
			 <trkpt lat="-42.867394" lon="147.32865">
				 <ele>63.8</ele>
			 </trkpt>
			 <trkpt lat="-42.867283" lon="147.3285">
				 <ele>64.4</ele>
			 </trkpt>
			 <trkpt lat="-42.866917" lon="147.328078">
				 <ele>65</ele>
			 </trkpt>
			 <trkpt lat="-42.86678" lon="147.327895">
				 <ele>65.9</ele>
			 </trkpt>
			 <trkpt lat="-42.866731" lon="147.327789">
				 <ele>66.8</ele>
			 </trkpt>
			 <trkpt lat="-42.86662" lon="147.32749">
				 <ele>67.7</ele>
			 </trkpt>
			 <trkpt lat="-42.86654" lon="147.32719">
				 <ele>68.6</ele>
			 </trkpt>
			 <trkpt lat="-42.86644" lon="147.32679">
				 <ele>69.6</ele>
			 </trkpt>
			 <trkpt lat="-42.86629" lon="147.32609">
				 <ele>70.6</ele>
			 </trkpt>
			 <trkpt lat="-42.86615" lon="147.32574">
				 <ele>71.7</ele>
			 </trkpt>
			 <trkpt lat="-42.86593" lon="147.32548">
				 <ele>73</ele>
			 </trkpt>
			 <trkpt lat="-42.8657" lon="147.32535">
				 <ele>74.9</ele>
			 </trkpt>
			 <trkpt lat="-42.86556" lon="147.32527">
				 <ele>77</ele>
			 </trkpt>
			 <trkpt lat="-42.86547" lon="147.3252">
				 <ele>79</ele>
			 </trkpt>
			 <trkpt lat="-42.86537" lon="147.32508">
				 <ele>80.6</ele>
			 </trkpt>
			 <trkpt lat="-42.86528" lon="147.32494">
				 <ele>82.2</ele>
			 </trkpt>
			 <trkpt lat="-42.86512" lon="147.32462">
				 <ele>83.5</ele>
			 </trkpt>
			 <trkpt lat="-42.86499" lon="147.32424">
				 <ele>84.7</ele>
			 </trkpt>
			 <trkpt lat="-42.86495" lon="147.3238">
				 <ele>85.9</ele>
			 </trkpt>
			 <trkpt lat="-42.86496" lon="147.32355">
				 <ele>87.1</ele>
			 </trkpt>
			 <trkpt lat="-42.86501" lon="147.32325">
				 <ele>88.3</ele>
			 </trkpt>
			 <trkpt lat="-42.86507" lon="147.32309">
				 <ele>89.3</ele>
			 </trkpt>
			 <trkpt lat="-42.86524" lon="147.32272">
				 <ele>90.1</ele>
			 </trkpt>
			 <trkpt lat="-42.86546" lon="147.32223">
				 <ele>90.7</ele>
			 </trkpt>
			 <trkpt lat="-42.8656" lon="147.32169">
				 <ele>91.5</ele>
			 </trkpt>
			 <trkpt lat="-42.86568" lon="147.3211">
				 <ele>92.3</ele>
			 </trkpt>
			 <trkpt lat="-42.8656" lon="147.32107">
				 <ele>93.3</ele>
			 </trkpt>
			 <trkpt lat="-42.86556" lon="147.32106">
				 <ele>94.5</ele>
			 </trkpt>
			 <trkpt lat="-42.86551" lon="147.32097">
				 <ele>95.6</ele>
			 </trkpt>
			 <trkpt lat="-42.86537" lon="147.32078">
				 <ele>96.7</ele>
			 </trkpt>
			 <trkpt lat="-42.86532" lon="147.32069">
				 <ele>97.5</ele>
			 </trkpt>
			 <trkpt lat="-42.86519" lon="147.32037">
				 <ele>98.3</ele>
			 </trkpt>
			 <trkpt lat="-42.86501" lon="147.31985">
				 <ele>99</ele>
			 </trkpt>
			 <trkpt lat="-42.86472" lon="147.31908">
				 <ele>99.6</ele>
			 </trkpt>
			 <trkpt lat="-42.86448" lon="147.3187">
				 <ele>100</ele>
			 </trkpt>
			 <trkpt lat="-42.86426" lon="147.31837">
				 <ele>100.3</ele>
			 </trkpt>
			 <trkpt lat="-42.86391" lon="147.3179">
				 <ele>100.1</ele>
			 </trkpt>
			 <trkpt lat="-42.86374" lon="147.31766">
				 <ele>99.7</ele>
			 </trkpt>
			 <trkpt lat="-42.86367" lon="147.31756">
				 <ele>99.8</ele>
			 </trkpt>
			 <trkpt lat="-42.8633" lon="147.31713">
				 <ele>99.8</ele>
			 </trkpt>
			 <trkpt lat="-42.86292" lon="147.31688">
				 <ele>99.7</ele>
			 </trkpt>
			 <trkpt lat="-42.86267" lon="147.31675">
				 <ele>99.7</ele>
			 </trkpt>
			 <trkpt lat="-42.86209" lon="147.31648">
				 <ele>99.6</ele>
			 </trkpt>
			 <trkpt lat="-42.86148" lon="147.31619">
				 <ele>99.5</ele>
			 </trkpt>
			 <trkpt lat="-42.86127" lon="147.31611">
				 <ele>99.3</ele>
			 </trkpt>
			 <trkpt lat="-42.86104" lon="147.31612">
				 <ele>99.2</ele>
			 </trkpt>
			 <trkpt lat="-42.86087" lon="147.31616">
				 <ele>99.1</ele>
			 </trkpt>
			 <trkpt lat="-42.86071" lon="147.31623">
				 <ele>99.3</ele>
			 </trkpt>
			 <trkpt lat="-42.86045" lon="147.31641">
				 <ele>99.4</ele>
			 </trkpt>
			 <trkpt lat="-42.85974" lon="147.31695">
				 <ele>98.9</ele>
			 </trkpt>
			 <trkpt lat="-42.85959" lon="147.31708">
				 <ele>98.4</ele>
			 </trkpt>
			 <trkpt lat="-42.85934" lon="147.31739">
				 <ele>97.8</ele>
			 </trkpt>
			 <trkpt lat="-42.85915" lon="147.31776">
				 <ele>97.2</ele>
			 </trkpt>
			 <trkpt lat="-42.85904" lon="147.31814">
				 <ele>96.5</ele>
			 </trkpt>
			 <trkpt lat="-42.85902" lon="147.31833">
				 <ele>96</ele>
			 </trkpt>
			 <trkpt lat="-42.85901" lon="147.31858">
				 <ele>95.5</ele>
			 </trkpt>
			 <trkpt lat="-42.85904" lon="147.31888">
				 <ele>94.8</ele>
			 </trkpt>
			 <trkpt lat="-42.85926" lon="147.31966">
				 <ele>94.1</ele>
			 </trkpt>
			 <trkpt lat="-42.85938" lon="147.32003">
				 <ele>93.4</ele>
			 </trkpt>
			 <trkpt lat="-42.8595" lon="147.32035">
				 <ele>92.7</ele>
			 </trkpt>
			 <trkpt lat="-42.85973" lon="147.32083">
				 <ele>92.1</ele>
			 </trkpt>
			 <trkpt lat="-42.85998" lon="147.32155">
				 <ele>91.5</ele>
			 </trkpt>
			 <trkpt lat="-42.86004" lon="147.32189">
				 <ele>90.6</ele>
			 </trkpt>
			 <trkpt lat="-42.86009" lon="147.32248">
				 <ele>89.8</ele>
			 </trkpt>
			 <trkpt lat="-42.86014" lon="147.32284">
				 <ele>88.9</ele>
			 </trkpt>
			 <trkpt lat="-42.86024" lon="147.32304">
				 <ele>88</ele>
			 </trkpt>
			 <trkpt lat="-42.86051" lon="147.32339">
				 <ele>87.2</ele>
			 </trkpt>
			 <trkpt lat="-42.86084" lon="147.32383">
				 <ele>86.5</ele>
			 </trkpt>
			 <trkpt lat="-42.86101" lon="147.32412">
				 <ele>85.9</ele>
			 </trkpt>
			 <trkpt lat="-42.86115" lon="147.32435">
				 <ele>85.4</ele>
			 </trkpt>
			 <trkpt lat="-42.86134" lon="147.3245">
				 <ele>84.6</ele>
			 </trkpt>
			 <trkpt lat="-42.86148" lon="147.32457">
				 <ele>83.8</ele>
			 </trkpt>
			 <trkpt lat="-42.86174" lon="147.3247">
				 <ele>83.1</ele>
			 </trkpt>
			 <trkpt lat="-42.86189" lon="147.32485">
				 <ele>82.5</ele>
			 </trkpt>
			 <trkpt lat="-42.86197" lon="147.32497">
				 <ele>82.2</ele>
			 </trkpt>
			 <trkpt lat="-42.86209" lon="147.32526">
				 <ele>81.9</ele>
			 </trkpt>
			 <trkpt lat="-42.8622" lon="147.32548">
				 <ele>81.5</ele>
			 </trkpt>
			 <trkpt lat="-42.86233" lon="147.32568">
				 <ele>81.1</ele>
			 </trkpt>
			 <trkpt lat="-42.86258" lon="147.32587">
				 <ele>80.4</ele>
			 </trkpt>
			 <trkpt lat="-42.863" lon="147.32609">
				 <ele>79.7</ele>
			 </trkpt>
			 <trkpt lat="-42.86329" lon="147.32621">
				 <ele>79</ele>
			 </trkpt>
			 <trkpt lat="-42.86366" lon="147.3263">
				 <ele>78.5</ele>
			 </trkpt>
			 <trkpt lat="-42.86381" lon="147.32634">
				 <ele>78.2</ele>
			 </trkpt>
			 <trkpt lat="-42.86416" lon="147.32638">
				 <ele>77.8</ele>
			 </trkpt>
			 <trkpt lat="-42.86444" lon="147.32637">
				 <ele>77.5</ele>
			 </trkpt>
			 <trkpt lat="-42.86482" lon="147.32632">
				 <ele>77.1</ele>
			 </trkpt>
			 <trkpt lat="-42.86504" lon="147.32619">
				 <ele>76.9</ele>
			 </trkpt>
			 <trkpt lat="-42.86515" lon="147.32607">
				 <ele>76.9</ele>
			 </trkpt>
			 <trkpt lat="-42.8652" lon="147.32599">
				 <ele>76.9</ele>
			 </trkpt>
			 <trkpt lat="-42.86526" lon="147.32585">
				 <ele>77</ele>
			 </trkpt>
			 <trkpt lat="-42.86533" lon="147.32553">
				 <ele>76.9</ele>
			 </trkpt>
			 <trkpt lat="-42.8654" lon="147.32523">
				 <ele>76.6</ele>
			 </trkpt>
			 <trkpt lat="-42.86543" lon="147.32516">
				 <ele>76.2</ele>
			 </trkpt>
			 <trkpt lat="-42.86547" lon="147.3252">
				 <ele>75.7</ele>
			 </trkpt>
			 <trkpt lat="-42.86556" lon="147.32527">
				 <ele>75.2</ele>
			 </trkpt>
			 <trkpt lat="-42.8657" lon="147.32535">
				 <ele>74.2</ele>
			 </trkpt>
			 <trkpt lat="-42.86593" lon="147.32548">
				 <ele>73</ele>
			 </trkpt>
			 <trkpt lat="-42.86603" lon="147.32558">
				 <ele>71.5</ele>
			 </trkpt>
			 <trkpt lat="-42.86615" lon="147.32574">
				 <ele>69.9</ele>
			 </trkpt>
			 <trkpt lat="-42.86629" lon="147.32609">
				 <ele>68.1</ele>
			 </trkpt>
			 <trkpt lat="-42.86654" lon="147.32719">
				 <ele>66.2</ele>
			 </trkpt>
			 <trkpt lat="-42.86662" lon="147.32749">
				 <ele>64.4</ele>
			 </trkpt>
			 <trkpt lat="-42.86673" lon="147.32779">
				 <ele>62.7</ele>
			 </trkpt>
			 <trkpt lat="-42.86688" lon="147.32803">
				 <ele>61.1</ele>
			 </trkpt>
			 <trkpt lat="-42.86734" lon="147.32857">
				 <ele>59.5</ele>
			 </trkpt>
			 <trkpt lat="-42.8676" lon="147.329">
				 <ele>57.8</ele>
			 </trkpt>
			 <trkpt lat="-42.86772" lon="147.32919">
				 <ele>56.6</ele>
			 </trkpt>
			 <trkpt lat="-42.86786" lon="147.32933">
				 <ele>55.5</ele>
			 </trkpt>
			 <trkpt lat="-42.86804" lon="147.32949">
				 <ele>54.5</ele>
			 </trkpt>
			 <trkpt lat="-42.86814" lon="147.32952">
				 <ele>53.2</ele>
			 </trkpt>
			 <trkpt lat="-42.86829" lon="147.32954">
				 <ele>52.1</ele>
			 </trkpt>
			 <trkpt lat="-42.86837" lon="147.32955">
				 <ele>51.2</ele>
			 </trkpt>
			 <trkpt lat="-42.86842" lon="147.32958">
				 <ele>50.3</ele>
			 </trkpt>
			 <trkpt lat="-42.86849" lon="147.32963">
				 <ele>49.3</ele>
			 </trkpt>
			 <trkpt lat="-42.86829" lon="147.32982">
				 <ele>48.1</ele>
			 </trkpt>
			 <trkpt lat="-42.86821" lon="147.32995">
				 <ele>46.8</ele>
			 </trkpt>
			 <trkpt lat="-42.86819" lon="147.33003">
				 <ele>45.5</ele>
			 </trkpt>
			 <trkpt lat="-42.86817" lon="147.33016">
				 <ele>44.3</ele>
			 </trkpt>
			 <trkpt lat="-42.86816" lon="147.33034">
				 <ele>43</ele>
			 </trkpt>
			 <trkpt lat="-42.86814" lon="147.33068">
				 <ele>41.6</ele>
			 </trkpt>
			 <trkpt lat="-42.86811" lon="147.33093">
				 <ele>40.5</ele>
			 </trkpt>
			 <trkpt lat="-42.86803" lon="147.33121">
				 <ele>39.5</ele>
			 </trkpt>
			 <trkpt lat="-42.86797" lon="147.33118">
				 <ele>39</ele>
			 </trkpt>
			 <trkpt lat="-42.86784" lon="147.33112">
				 <ele>38.5</ele>
			 </trkpt>
			 <trkpt lat="-42.86738" lon="147.33084">
				 <ele>38.3</ele>
			 </trkpt>
			 <trkpt lat="-42.86696" lon="147.3305">
				 <ele>38.2</ele>
			 </trkpt>
			 <trkpt lat="-42.86669" lon="147.33026">
				 <ele>38.1</ele>
			 </trkpt>
			 <trkpt lat="-42.86612" lon="147.3297">
				 <ele>38</ele>
			 </trkpt>
			 <trkpt lat="-42.86596" lon="147.32947">
				 <ele>37.9</ele>
			 </trkpt>
			 <trkpt lat="-42.86588" lon="147.32928">
				 <ele>37.8</ele>
			 </trkpt>
			 <trkpt lat="-42.86577" lon="147.32889">
				 <ele>37.8</ele>
			 </trkpt>
			 <trkpt lat="-42.86565" lon="147.32862">
				 <ele>37.9</ele>
			 </trkpt>
			 <trkpt lat="-42.86555" lon="147.32854">
				 <ele>37.6</ele>
			 </trkpt>
			 <trkpt lat="-42.86542" lon="147.32853">
				 <ele>37</ele>
			 </trkpt>
			 <trkpt lat="-42.86497" lon="147.32876">
				 <ele>36.1</ele>
			 </trkpt>
			 <trkpt lat="-42.86469" lon="147.32887">
				 <ele>35.1</ele>
			 </trkpt>
			 <trkpt lat="-42.8642" lon="147.32894">
				 <ele>34.2</ele>
			 </trkpt>
			 <trkpt lat="-42.86367" lon="147.32889">
				 <ele>33.4</ele>
			 </trkpt>
			 <trkpt lat="-42.86339" lon="147.32884">
				 <ele>32.6</ele>
			 </trkpt>
			 <trkpt lat="-42.86272" lon="147.32869">
				 <ele>31.9</ele>
			 </trkpt>
			 <trkpt lat="-42.86217" lon="147.32842">
				 <ele>31.3</ele>
			 </trkpt>
			 <trkpt lat="-42.86166" lon="147.32812">
				 <ele>30.9</ele>
			 </trkpt>
			 <trkpt lat="-42.8611" lon="147.32771">
				 <ele>30.6</ele>
			 </trkpt>
			 <trkpt lat="-42.86166" lon="147.32812">
				 <ele>30.7</ele>
			 </trkpt>
			 <trkpt lat="-42.86217" lon="147.32842">
				 <ele>31.1</ele>
			 </trkpt>
			 <trkpt lat="-42.86272" lon="147.32869">
				 <ele>31.6</ele>
			 </trkpt>
			 <trkpt lat="-42.86321" lon="147.32881">
				 <ele>32.3</ele>
			 </trkpt>
			 <trkpt lat="-42.86345" lon="147.32885">
				 <ele>33</ele>
			 </trkpt>
			 <trkpt lat="-42.86396" lon="147.32892">
				 <ele>33.7</ele>
			 </trkpt>
			 <trkpt lat="-42.86429" lon="147.32894">
				 <ele>34.5</ele>
			 </trkpt>
			 <trkpt lat="-42.86468" lon="147.32887">
				 <ele>35.3</ele>
			 </trkpt>
			 <trkpt lat="-42.86481" lon="147.32883">
				 <ele>36.1</ele>
			 </trkpt>
			 <trkpt lat="-42.86531" lon="147.32857">
				 <ele>36.8</ele>
			 </trkpt>
			 <trkpt lat="-42.86542" lon="147.32853">
				 <ele>37.5</ele>
			 </trkpt>
			 <trkpt lat="-42.86555" lon="147.32854">
				 <ele>37.9</ele>
			 </trkpt>
			 <trkpt lat="-42.86565" lon="147.32862">
				 <ele>38.2</ele>
			 </trkpt>
			 <trkpt lat="-42.86571" lon="147.32874">
				 <ele>38.3</ele>
			 </trkpt>
			 <trkpt lat="-42.86582" lon="147.32908">
				 <ele>38.2</ele>
			 </trkpt>
			 <trkpt lat="-42.86592" lon="147.32939">
				 <ele>38.3</ele>
			 </trkpt>
			 <trkpt lat="-42.86602" lon="147.32958">
				 <ele>38.4</ele>
			 </trkpt>
			 <trkpt lat="-42.8662" lon="147.32979">
				 <ele>38.5</ele>
			 </trkpt>
			 <trkpt lat="-42.8667" lon="147.33027">
				 <ele>38.4</ele>
			 </trkpt>
			 <trkpt lat="-42.86718" lon="147.33069">
				 <ele>37.5</ele>
			 </trkpt>
			 <trkpt lat="-42.86772" lon="147.33104">
				 <ele>36.1</ele>
			 </trkpt>
			 <trkpt lat="-42.86795" lon="147.33117">
				 <ele>34.7</ele>
			 </trkpt>
			 <trkpt lat="-42.86815" lon="147.33127">
				 <ele>32.9</ele>
			 </trkpt>
			 <trkpt lat="-42.8685" lon="147.33152">
				 <ele>31.3</ele>
			 </trkpt>
			 <trkpt lat="-42.86918" lon="147.33215">
				 <ele>30</ele>
			 </trkpt>
			 <trkpt lat="-42.86958" lon="147.33255">
				 <ele>29</ele>
			 </trkpt>
			 <trkpt lat="-42.8698" lon="147.33271">
				 <ele>27.7</ele>
			 </trkpt>
			 <trkpt lat="-42.87117" lon="147.33339">
				 <ele>26.6</ele>
			 </trkpt>
			 <trkpt lat="-42.87142" lon="147.33348">
				 <ele>25.6</ele>
			 </trkpt>
			 <trkpt lat="-42.87165" lon="147.33349">
				 <ele>24.7</ele>
			 </trkpt>
			 <trkpt lat="-42.8718" lon="147.33348">
				 <ele>24.5</ele>
			 </trkpt>
			 <trkpt lat="-42.87206" lon="147.33342">
				 <ele>24.7</ele>
			 </trkpt>
			 <trkpt lat="-42.87219" lon="147.33336">
				 <ele>24.8</ele>
			 </trkpt>
			 <trkpt lat="-42.87239" lon="147.33334">
				 <ele>25.3</ele>
			 </trkpt>
			 <trkpt lat="-42.87248" lon="147.33334">
				 <ele>25.4</ele>
			 </trkpt>
			 <trkpt lat="-42.87256" lon="147.33336">
				 <ele>25.4</ele>
			 </trkpt>
			 <trkpt lat="-42.87265" lon="147.33343">
				 <ele>25.3</ele>
			 </trkpt>
			 <trkpt lat="-42.87271" lon="147.3335">
				 <ele>25.4</ele>
			 </trkpt>
			 <trkpt lat="-42.87274" lon="147.33361">
				 <ele>25.4</ele>
			 </trkpt>
			 <trkpt lat="-42.87283" lon="147.33379">
				 <ele>25.3</ele>
			 </trkpt>
			 <trkpt lat="-42.87292" lon="147.33386">
				 <ele>25.2</ele>
			 </trkpt>
			 <trkpt lat="-42.87297" lon="147.33388">
				 <ele>25.1</ele>
			 </trkpt>
			 <trkpt lat="-42.873544" lon="147.333978">
				 <ele>25</ele>
			 </trkpt>
			 <trkpt lat="-42.87395" lon="147.334061">
				 <ele>24.9</ele>
			 </trkpt>
			 <trkpt lat="-42.874211" lon="147.334044">
				 <ele>24.9</ele>
			 </trkpt>
			 <trkpt lat="-42.87446" lon="147.333969">
				 <ele>25</ele>
			 </trkpt>
			 <trkpt lat="-42.874553" lon="147.333845">
				 <ele>25.1</ele>
			 </trkpt>
			 <trkpt lat="-42.874591" lon="147.333592">
				 <ele>25.1</ele>
			 </trkpt>
			 <trkpt lat="-42.87462" lon="147.333488">
				 <ele>25</ele>
			 </trkpt>
			 <trkpt lat="-42.87469" lon="147.33346">
				 <ele>24.5</ele>
			 </trkpt>
			 <trkpt lat="-42.87482" lon="147.3334">
				 <ele>23.9</ele>
			 </trkpt>
			 <trkpt lat="-42.8749" lon="147.3334">
				 <ele>23.3</ele>
			 </trkpt>
			 <trkpt lat="-42.875" lon="147.3334">
				 <ele>22.5</ele>
			 </trkpt>
			 <trkpt lat="-42.87503" lon="147.33378">
				 <ele>22</ele>
			 </trkpt>
			 <trkpt lat="-42.87508" lon="147.3346">
				 <ele>21.7</ele>
			 </trkpt>
			 <trkpt lat="-42.8751" lon="147.3347">
				 <ele>21.5</ele>
			 </trkpt>
			 <trkpt lat="-42.87517" lon="147.33479">
				 <ele>21.4</ele>
			 </trkpt>
			 <trkpt lat="-42.87536" lon="147.33494">
				 <ele>21.1</ele>
			 </trkpt>
			 <trkpt lat="-42.87545" lon="147.33474">
				 <ele>20.8</ele>
			 </trkpt>
			 <trkpt lat="-42.8755" lon="147.3346">
				 <ele>20.3</ele>
			 </trkpt>
			 <trkpt lat="-42.87554" lon="147.33435">
				 <ele>19.8</ele>
			 </trkpt>
			 <trkpt lat="-42.87559" lon="147.33427">
				 <ele>19.3</ele>
			 </trkpt>
			 <trkpt lat="-42.87575" lon="147.33413">
				 <ele>18.6</ele>
			 </trkpt>
			 <trkpt lat="-42.87614" lon="147.33408">
				 <ele>18</ele>
			 </trkpt>
			 <trkpt lat="-42.87672" lon="147.33407">
				 <ele>17.1</ele>
			 </trkpt>
			 <trkpt lat="-42.87715" lon="147.33409">
				 <ele>15.7</ele>
			 </trkpt>
			 <trkpt lat="-42.87762" lon="147.33416">
				 <ele>14.4</ele>
			 </trkpt>
			 <trkpt lat="-42.87779" lon="147.33421">
				 <ele>13.1</ele>
			 </trkpt>
			 <trkpt lat="-42.87811" lon="147.33432">
				 <ele>12</ele>
			 </trkpt>
			 <trkpt lat="-42.87849" lon="147.33451">
				 <ele>10.9</ele>
			 </trkpt>
			 <trkpt lat="-42.8789" lon="147.33468">
				 <ele>10</ele>
			 </trkpt>
			 <trkpt lat="-42.8792" lon="147.33475">
				 <ele>9.3</ele>
			 </trkpt>
			 <trkpt lat="-42.87924" lon="147.33476">
				 <ele>8.7</ele>
			 </trkpt>
			 <trkpt lat="-42.87943" lon="147.33479">
				 <ele>8.3</ele>
			 </trkpt>
			 <trkpt lat="-42.87971" lon="147.33486">
				 <ele>7.9</ele>
			 </trkpt>
			 <trkpt lat="-42.87996" lon="147.33486">
				 <ele>7.7</ele>
			 </trkpt>
			 <trkpt lat="-42.88009" lon="147.33484">
				 <ele>7.7</ele>
			 </trkpt>
			 <trkpt lat="-42.88028" lon="147.33477">
				 <ele>7.6</ele>
			 </trkpt>
			 <trkpt lat="-42.88031" lon="147.33475">
				 <ele>7.5</ele>
			 </trkpt>
			 <trkpt lat="-42.88043" lon="147.33504">
				 <ele>7.2</ele>
			 </trkpt>
			 <trkpt lat="-42.88072" lon="147.33573">
				 <ele>6.8</ele>
			 </trkpt>
			 <trkpt lat="-42.88083" lon="147.336">
				 <ele>6.6</ele>
			 </trkpt>
			 <trkpt lat="-42.88137" lon="147.33733">
				 <ele>6.6</ele>
			 </trkpt>
			 <trkpt lat="-42.88142" lon="147.33747">
				 <ele>6.7</ele>
			 </trkpt>
			 <trkpt lat="-42.88148" lon="147.33771">
				 <ele>6.8</ele>
			 </trkpt>
			 <trkpt lat="-42.88158" lon="147.33783">
				 <ele>6.9</ele>
			 </trkpt>
			 <trkpt lat="-42.88176" lon="147.33789">
				 <ele>6.6</ele>
			 </trkpt>
			 <trkpt lat="-42.88186" lon="147.33788">
				 <ele>6.5</ele>
			 </trkpt>
			 <trkpt lat="-42.88192" lon="147.33785">
				 <ele>6.4</ele>
			 </trkpt>
			 <trkpt lat="-42.88197" lon="147.33779">
				 <ele>6.3</ele>
			 </trkpt>
			 <trkpt lat="-42.882" lon="147.3377">
				 <ele>6.2</ele>
			 </trkpt>
			 <trkpt lat="-42.88206" lon="147.33734">
				 <ele>6</ele>
			 </trkpt>
			 <trkpt lat="-42.88211" lon="147.3369">
				 <ele>5.5</ele>
			 </trkpt>
			 <trkpt lat="-42.88206" lon="147.33665">
				 <ele>4.8</ele>
			 </trkpt>
			 <trkpt lat="-42.88174" lon="147.3358">
				 <ele>4.3</ele>
			 </trkpt>
			 <trkpt lat="-42.88179" lon="147.33567">
				 <ele>3.7</ele>
			 </trkpt>
			 <trkpt lat="-42.88193" lon="147.33541">
				 <ele>3.2</ele>
			 </trkpt>
			 <trkpt lat="-42.88219" lon="147.335">
				 <ele>3.1</ele>
			 </trkpt>
			 <trkpt lat="-42.88239" lon="147.33462">
				 <ele>3</ele>
			 </trkpt>
			 <trkpt lat="-42.88247" lon="147.33444">
				 <ele>2.8</ele>
			 </trkpt>
			 <trkpt lat="-42.88267" lon="147.33417">
				 <ele>2.6</ele>
			 </trkpt>
			 <trkpt lat="-42.88321" lon="147.3333">
				 <ele>2.6</ele>
			 </trkpt>
			 <trkpt lat="-42.88348" lon="147.33302">
				 <ele>2.8</ele>
			 </trkpt>
			 <trkpt lat="-42.88354" lon="147.33297">
				 <ele>3.4</ele>
			 </trkpt>
			 <trkpt lat="-42.88447" lon="147.33218">
				 <ele>3.7</ele>
			 </trkpt>
			 <trkpt lat="-42.88456" lon="147.33208">
				 <ele>4</ele>
			 </trkpt>
			 <trkpt lat="-42.88458" lon="147.33195">
				 <ele>4.2</ele>
			 </trkpt>
			 <trkpt lat="-42.88455" lon="147.33186">
				 <ele>4.4</ele>
			 </trkpt>
			 <trkpt lat="-42.88448" lon="147.3316">
				 <ele>4.5</ele>
			 </trkpt>
			 <trkpt lat="-42.88474" lon="147.33146">
				 <ele>4.7</ele>
			 </trkpt>
			 <trkpt lat="-42.88489" lon="147.3314">
				 <ele>4.9</ele>
			 </trkpt>
			 <trkpt lat="-42.88504" lon="147.33144">
				 <ele>5.1</ele>
			 </trkpt>
			 <trkpt lat="-42.88515" lon="147.33151">
				 <ele>5.4</ele>
			 </trkpt>
			 <trkpt lat="-42.88534" lon="147.33158">
				 <ele>5.6</ele>
			 </trkpt>
			 <trkpt lat="-42.88543" lon="147.33161">
				 <ele>5.5</ele>
			 </trkpt>
			 <trkpt lat="-42.88569" lon="147.33173">
				 <ele>5.4</ele>
			 </trkpt>
			 <trkpt lat="-42.88578" lon="147.33172">
				 <ele>5.3</ele>
			 </trkpt>
			 <trkpt lat="-42.8859" lon="147.33173">
				 <ele>5.4</ele>
			 </trkpt>
			 <trkpt lat="-42.88599" lon="147.33169">
				 <ele>5.5</ele>
			 </trkpt>
			 <trkpt lat="-42.88605" lon="147.33182">
				 <ele>5.6</ele>
			 </trkpt>
			 <trkpt lat="-42.88615" lon="147.33206">
				 <ele>5.6</ele>
			 </trkpt>
			 <trkpt lat="-42.88621" lon="147.33227">
				 <ele>5.7</ele>
			 </trkpt>
			 <trkpt lat="-42.88625" lon="147.33251">
				 <ele>5.7</ele>
			 </trkpt>
			 <trkpt lat="-42.88628" lon="147.33282">
				 <ele>5.6</ele>
			 </trkpt>
			 <trkpt lat="-42.88639" lon="147.33449">
				 <ele>5.5</ele>
			 </trkpt>
			 <trkpt lat="-42.88648" lon="147.33623">
				 <ele>5.7</ele>
			 </trkpt>
			 <trkpt lat="-42.88658" lon="147.33704">
				 <ele>6.2</ele>
			 </trkpt>
			 <trkpt lat="-42.88662" lon="147.33728">
				 <ele>6.6</ele>
			 </trkpt>
			 <trkpt lat="-42.88664" lon="147.33737">
				 <ele>7.1</ele>
			 </trkpt>
			 <trkpt lat="-42.8868" lon="147.33765">
				 <ele>7.5</ele>
			 </trkpt>
			 <trkpt lat="-42.88697" lon="147.33792">
				 <ele>7.8</ele>
			 </trkpt>
			 <trkpt lat="-42.88711" lon="147.33805">
				 <ele>8.4</ele>
			 </trkpt>
			 <trkpt lat="-42.88721" lon="147.33811">
				 <ele>8.8</ele>
			 </trkpt>
			 <trkpt lat="-42.88738" lon="147.33812">
				 <ele>9.5</ele>
			 </trkpt>
			 <trkpt lat="-42.88761" lon="147.33807">
				 <ele>10.5</ele>
			 </trkpt>
			 <trkpt lat="-42.88794" lon="147.33794">
				 <ele>11.5</ele>
			 </trkpt>
			 <trkpt lat="-42.8881" lon="147.33786">
				 <ele>12.5</ele>
			 </trkpt>
			 <trkpt lat="-42.88819" lon="147.3378">
				 <ele>13.5</ele>
			 </trkpt>
			 <trkpt lat="-42.88831" lon="147.33765">
				 <ele>14.6</ele>
			 </trkpt>
			 <trkpt lat="-42.88838" lon="147.33743">
				 <ele>15.8</ele>
			 </trkpt>
			 <trkpt lat="-42.88857" lon="147.33731">
				 <ele>16.9</ele>
			 </trkpt>
			 <trkpt lat="-42.88885" lon="147.33711">
				 <ele>17.9</ele>
			 </trkpt>
			 <trkpt lat="-42.88905" lon="147.33689">
				 <ele>19.5</ele>
			 </trkpt>
			 <trkpt lat="-42.88916" lon="147.33669">
				 <ele>21.2</ele>
			 </trkpt>
			 <trkpt lat="-42.88926" lon="147.33643">
				 <ele>22.8</ele>
			 </trkpt>
			 <trkpt lat="-42.88935" lon="147.33605">
				 <ele>24.2</ele>
			 </trkpt>
			 <trkpt lat="-42.8894" lon="147.33573">
				 <ele>25.5</ele>
			 </trkpt>
			 <trkpt lat="-42.88964" lon="147.33423">
				 <ele>26.8</ele>
			 </trkpt>
			 <trkpt lat="-42.88976" lon="147.33364">
				 <ele>28.1</ele>
			 </trkpt>
			 <trkpt lat="-42.88978" lon="147.33331">
				 <ele>29.3</ele>
			 </trkpt>
			 <trkpt lat="-42.88978" lon="147.33296">
				 <ele>30.5</ele>
			 </trkpt>
			 <trkpt lat="-42.88978" lon="147.33281">
				 <ele>32</ele>
			 </trkpt>
			 <trkpt lat="-42.88983" lon="147.33279">
				 <ele>33.5</ele>
			 </trkpt>
			 <trkpt lat="-42.89001" lon="147.3327">
				 <ele>34.5</ele>
			 </trkpt>
			 <trkpt lat="-42.89011" lon="147.33261">
				 <ele>35.1</ele>
			 </trkpt>
			 <trkpt lat="-42.89075" lon="147.33205">
				 <ele>35.4</ele>
			 </trkpt>
			 <trkpt lat="-42.89201" lon="147.33104">
				 <ele>35.6</ele>
			 </trkpt>
			 <trkpt lat="-42.89169" lon="147.32995">
				 <ele>35.8</ele>
			 </trkpt>
			 <trkpt lat="-42.89159" lon="147.32979">
				 <ele>36.2</ele>
			 </trkpt>
			 <trkpt lat="-42.89125" lon="147.3292">
				 <ele>36.2</ele>
			 </trkpt>
			 <trkpt lat="-42.89096" lon="147.32865">
				 <ele>35.9</ele>
			 </trkpt>
			 <trkpt lat="-42.89099" lon="147.3285">
				 <ele>35.1</ele>
			 </trkpt>
			 <trkpt lat="-42.89119" lon="147.32807">
				 <ele>34</ele>
			 </trkpt>
			 <trkpt lat="-42.89149" lon="147.32727">
				 <ele>32.6</ele>
			 </trkpt>
			 <trkpt lat="-42.89156" lon="147.32704">
				 <ele>30.9</ele>
			 </trkpt>
			 <trkpt lat="-42.8916" lon="147.32699">
				 <ele>29.4</ele>
			 </trkpt>
			 <trkpt lat="-42.8917" lon="147.32683">
				 <ele>27.8</ele>
			 </trkpt>
			 <trkpt lat="-42.89177" lon="147.3267">
				 <ele>26.2</ele>
			 </trkpt>
			 <trkpt lat="-42.89194" lon="147.32653">
				 <ele>24.5</ele>
			 </trkpt>
			 <trkpt lat="-42.89234" lon="147.32621">
				 <ele>22.8</ele>
			 </trkpt>
			 <trkpt lat="-42.89263" lon="147.326">
				 <ele>21.4</ele>
			 </trkpt>
			 <trkpt lat="-42.89287" lon="147.32588">
				 <ele>20.2</ele>
			 </trkpt>
			 <trkpt lat="-42.893" lon="147.32585">
				 <ele>19.4</ele>
			 </trkpt>
			 <trkpt lat="-42.89318" lon="147.32582">
				 <ele>18.8</ele>
			 </trkpt>
			 <trkpt lat="-42.89339" lon="147.3258">
				 <ele>18.5</ele>
			 </trkpt>
			 <trkpt lat="-42.89361" lon="147.32586">
				 <ele>18.2</ele>
			 </trkpt>
			 <trkpt lat="-42.89396" lon="147.32598">
				 <ele>17.9</ele>
			 </trkpt>
			 <trkpt lat="-42.89411" lon="147.32609">
				 <ele>17.6</ele>
			 </trkpt>
			 <trkpt lat="-42.89426" lon="147.32621">
				 <ele>17.5</ele>
			 </trkpt>
			 <trkpt lat="-42.89441" lon="147.32634">
				 <ele>17.3</ele>
			 </trkpt>
			 <trkpt lat="-42.89472" lon="147.32673">
				 <ele>17.1</ele>
			 </trkpt>
			 <trkpt lat="-42.89503" lon="147.32726">
				 <ele>16.7</ele>
			 </trkpt>
			 <trkpt lat="-42.89524" lon="147.3276">
				 <ele>16.2</ele>
			 </trkpt>
			 <trkpt lat="-42.89536" lon="147.32778">
				 <ele>15.5</ele>
			 </trkpt>
			 <trkpt lat="-42.8956" lon="147.32803">
				 <ele>14.6</ele>
			 </trkpt>
			 <trkpt lat="-42.89576" lon="147.32815">
				 <ele>13.7</ele>
			 </trkpt>
			 <trkpt lat="-42.896" lon="147.3283">
				 <ele>13.3</ele>
			 </trkpt>
			 <trkpt lat="-42.89612" lon="147.32835">
				 <ele>13.1</ele>
			 </trkpt>
			 <trkpt lat="-42.89617" lon="147.32833">
				 <ele>13.1</ele>
			 </trkpt>
			 <trkpt lat="-42.89655" lon="147.3285">
				 <ele>12.8</ele>
			 </trkpt>
			 <trkpt lat="-42.89709" lon="147.32874">
				 <ele>12.2</ele>
			 </trkpt>
			 <trkpt lat="-42.89775" lon="147.32904">
				 <ele>11.4</ele>
			 </trkpt>
			 <trkpt lat="-42.89808" lon="147.3292">
				 <ele>10.6</ele>
			 </trkpt>
			 <trkpt lat="-42.89825" lon="147.32931">
				 <ele>10.5</ele>
			 </trkpt>
			 <trkpt lat="-42.89872" lon="147.32971">
				 <ele>10</ele>
			 </trkpt>
			 <trkpt lat="-42.89947" lon="147.3304">
				 <ele>9.6</ele>
			 </trkpt>
			 <trkpt lat="-42.89975" lon="147.33066">
				 <ele>9.3</ele>
			 </trkpt>
			 <trkpt lat="-42.89988" lon="147.33082">
				 <ele>8.9</ele>
			 </trkpt>
			 <trkpt lat="-42.90104" lon="147.33254">
				 <ele>8.4</ele>
			 </trkpt>
			 <trkpt lat="-42.90167" lon="147.33342">
				 <ele>7.8</ele>
			 </trkpt>
			 <trkpt lat="-42.90197" lon="147.33386">
				 <ele>7.1</ele>
			 </trkpt>
			 <trkpt lat="-42.90237" lon="147.33454">
				 <ele>6.7</ele>
			 </trkpt>
			 <trkpt lat="-42.9027" lon="147.33524">
				 <ele>6.5</ele>
			 </trkpt>
			 <trkpt lat="-42.90298" lon="147.33583">
				 <ele>6.5</ele>
			 </trkpt>
			 <trkpt lat="-42.90322" lon="147.33623">
				 <ele>6</ele>
			 </trkpt>
			 <trkpt lat="-42.90367" lon="147.3368">
				 <ele>5.5</ele>
			 </trkpt>
			 <trkpt lat="-42.9038" lon="147.33695">
				 <ele>5.6</ele>
			 </trkpt>
			 <trkpt lat="-42.90418" lon="147.33731">
				 <ele>6</ele>
			 </trkpt>
			 <trkpt lat="-42.9044" lon="147.33756">
				 <ele>6.2</ele>
			 </trkpt>
			 <trkpt lat="-42.90461" lon="147.33783">
				 <ele>5.8</ele>
			 </trkpt>
			 <trkpt lat="-42.90507" lon="147.33873">
				 <ele>6</ele>
			 </trkpt>
			 <trkpt lat="-42.90568" lon="147.33984">
				 <ele>6.6</ele>
			 </trkpt>
			 <trkpt lat="-42.90579" lon="147.34011">
				 <ele>7.5</ele>
			 </trkpt>
			 <trkpt lat="-42.9059" lon="147.3405">
				 <ele>7.9</ele>
			 </trkpt>
			 <trkpt lat="-42.90598" lon="147.34077">
				 <ele>8.4</ele>
			 </trkpt>
			 <trkpt lat="-42.9061" lon="147.3411">
				 <ele>8.9</ele>
			 </trkpt>
			 <trkpt lat="-42.90621" lon="147.34133">
				 <ele>10</ele>
			 </trkpt>
			 <trkpt lat="-42.90666" lon="147.34209">
				 <ele>10.5</ele>
			 </trkpt>
			 <trkpt lat="-42.90686" lon="147.34244">
				 <ele>10.6</ele>
			 </trkpt>
			 <trkpt lat="-42.90714" lon="147.34286">
				 <ele>11</ele>
			 </trkpt>
			 <trkpt lat="-42.9075" lon="147.34333">
				 <ele>11.6</ele>
			 </trkpt>
			 <trkpt lat="-42.90792" lon="147.34389">
				 <ele>11.7</ele>
			 </trkpt>
			 <trkpt lat="-42.90809" lon="147.34425">
				 <ele>11.8</ele>
			 </trkpt>
			 <trkpt lat="-42.90826" lon="147.34471">
				 <ele>11.8</ele>
			 </trkpt>
			 <trkpt lat="-42.90875" lon="147.34619">
				 <ele>12.1</ele>
			 </trkpt>
			 <trkpt lat="-42.90921" lon="147.34745">
				 <ele>12.5</ele>
			 </trkpt>
			 <trkpt lat="-42.9094" lon="147.34793">
				 <ele>12.5</ele>
			 </trkpt>
			 <trkpt lat="-42.90988" lon="147.34912">
				 <ele>12.5</ele>
			 </trkpt>
			 <trkpt lat="-42.90934" lon="147.34777">
				 <ele>12.5</ele>
			 </trkpt>
			 <trkpt lat="-42.9091" lon="147.34717">
				 <ele>12.5</ele>
			 </trkpt>
			 <trkpt lat="-42.9086" lon="147.34578">
				 <ele>12</ele>
			 </trkpt>
			 <trkpt lat="-42.90826" lon="147.34471">
				 <ele>11.7</ele>
			 </trkpt>
			 <trkpt lat="-42.90809" lon="147.34425">
				 <ele>11.5</ele>
			 </trkpt>
			 <trkpt lat="-42.90792" lon="147.34389">
				 <ele>11.3</ele>
			 </trkpt>
			 <trkpt lat="-42.9075" lon="147.34333">
				 <ele>11.2</ele>
			 </trkpt>
			 <trkpt lat="-42.90741" lon="147.34321">
				 <ele>10.5</ele>
			 </trkpt>
			 <trkpt lat="-42.90714" lon="147.34286">
				 <ele>10.5</ele>
			 </trkpt>
			 <trkpt lat="-42.90688" lon="147.34247">
				 <ele>10.2</ele>
			 </trkpt>
			 <trkpt lat="-42.90678" lon="147.3423">
				 <ele>9.6</ele>
			 </trkpt>
			 <trkpt lat="-42.90621" lon="147.34133">
				 <ele>8.7</ele>
			 </trkpt>
			 <trkpt lat="-42.90598" lon="147.34077">
				 <ele>8.2</ele>
			 </trkpt>
			 <trkpt lat="-42.9059" lon="147.34051">
				 <ele>7.6</ele>
			 </trkpt>
			 <trkpt lat="-42.90574" lon="147.33998">
				 <ele>7.2</ele>
			 </trkpt>
			 <trkpt lat="-42.90556" lon="147.33961">
				 <ele>7.2</ele>
			 </trkpt>
			 <trkpt lat="-42.90529" lon="147.33915">
				 <ele>7.1</ele>
			 </trkpt>
			 <trkpt lat="-42.90457" lon="147.33777">
				 <ele>6.9</ele>
			 </trkpt>
			 <trkpt lat="-42.90435" lon="147.3375">
				 <ele>7.2</ele>
			 </trkpt>
			 <trkpt lat="-42.90367" lon="147.3368">
				 <ele>6.6</ele>
			 </trkpt>
			 <trkpt lat="-42.90322" lon="147.33623">
				 <ele>6.3</ele>
			 </trkpt>
			 <trkpt lat="-42.90298" lon="147.33583">
				 <ele>6.2</ele>
			 </trkpt>
			 <trkpt lat="-42.9027" lon="147.33524">
				 <ele>6.7</ele>
			 </trkpt>
			 <trkpt lat="-42.90248" lon="147.33475">
				 <ele>6.8</ele>
			 </trkpt>
			 <trkpt lat="-42.90234" lon="147.33447">
				 <ele>6.9</ele>
			 </trkpt>
			 <trkpt lat="-42.9022" lon="147.33424">
				 <ele>7.2</ele>
			 </trkpt>
			 <trkpt lat="-42.90176" lon="147.33356">
				 <ele>7.2</ele>
			 </trkpt>
			 <trkpt lat="-42.90134" lon="147.33297">
				 <ele>7.7</ele>
			 </trkpt>
			 <trkpt lat="-42.90043" lon="147.33164">
				 <ele>8.3</ele>
			 </trkpt>
			 <trkpt lat="-42.89986" lon="147.33079">
				 <ele>8.5</ele>
			 </trkpt>
			 <trkpt lat="-42.89968" lon="147.33059">
				 <ele>8.8</ele>
			 </trkpt>
			 <trkpt lat="-42.89905" lon="147.33002">
				 <ele>9.5</ele>
			 </trkpt>
			 <trkpt lat="-42.89845" lon="147.32948">
				 <ele>10</ele>
			 </trkpt>
			 <trkpt lat="-42.89812" lon="147.32921">
				 <ele>10.4</ele>
			 </trkpt>
			 <trkpt lat="-42.89709" lon="147.32874">
				 <ele>11.1</ele>
			 </trkpt>
			 <trkpt lat="-42.89655" lon="147.3285">
				 <ele>12</ele>
			 </trkpt>
			 <trkpt lat="-42.89617" lon="147.32833">
				 <ele>12.6</ele>
			 </trkpt>
			 <trkpt lat="-42.89612" lon="147.32835">
				 <ele>13.2</ele>
			 </trkpt>
			 <trkpt lat="-42.896" lon="147.3283">
				 <ele>13.2</ele>
			 </trkpt>
			 <trkpt lat="-42.8959" lon="147.32824">
				 <ele>13.4</ele>
			 </trkpt>
			 <trkpt lat="-42.89568" lon="147.3281">
				 <ele>14.1</ele>
			 </trkpt>
			 <trkpt lat="-42.89551" lon="147.32794">
				 <ele>15</ele>
			 </trkpt>
			 <trkpt lat="-42.89525" lon="147.32763">
				 <ele>15.7</ele>
			 </trkpt>
			 <trkpt lat="-42.89519" lon="147.32753">
				 <ele>16.4</ele>
			 </trkpt>
			 <trkpt lat="-42.89503" lon="147.32726">
				 <ele>16.8</ele>
			 </trkpt>
			 <trkpt lat="-42.89472" lon="147.32673">
				 <ele>17.1</ele>
			 </trkpt>
			 <trkpt lat="-42.89441" lon="147.32634">
				 <ele>17.3</ele>
			 </trkpt>
			 <trkpt lat="-42.89426" lon="147.32621">
				 <ele>17.5</ele>
			 </trkpt>
			 <trkpt lat="-42.89411" lon="147.32609">
				 <ele>17.6</ele>
			 </trkpt>
			 <trkpt lat="-42.89396" lon="147.32598">
				 <ele>17.9</ele>
			 </trkpt>
			 <trkpt lat="-42.89361" lon="147.32586">
				 <ele>18.2</ele>
			 </trkpt>
			 <trkpt lat="-42.89339" lon="147.3258">
				 <ele>18.4</ele>
			 </trkpt>
			 <trkpt lat="-42.89318" lon="147.32582">
				 <ele>18.7</ele>
			 </trkpt>
			 <trkpt lat="-42.893" lon="147.32585">
				 <ele>19.3</ele>
			 </trkpt>
			 <trkpt lat="-42.89287" lon="147.32588">
				 <ele>20.4</ele>
			 </trkpt>
			 <trkpt lat="-42.89263" lon="147.326">
				 <ele>21.7</ele>
			 </trkpt>
			 <trkpt lat="-42.89248" lon="147.32612">
				 <ele>23.5</ele>
			 </trkpt>
			 <trkpt lat="-42.89194" lon="147.32653">
				 <ele>25.1</ele>
			 </trkpt>
			 <trkpt lat="-42.89177" lon="147.3267">
				 <ele>26.8</ele>
			 </trkpt>
			 <trkpt lat="-42.8916" lon="147.32699">
				 <ele>28.5</ele>
			 </trkpt>
			 <trkpt lat="-42.89156" lon="147.32704">
				 <ele>30.4</ele>
			 </trkpt>
			 <trkpt lat="-42.89149" lon="147.32727">
				 <ele>32.1</ele>
			 </trkpt>
			 <trkpt lat="-42.89133" lon="147.32772">
				 <ele>33.8</ele>
			 </trkpt>
			 <trkpt lat="-42.89095" lon="147.32863">
				 <ele>35.1</ele>
			 </trkpt>
			 <trkpt lat="-42.89112" lon="147.32898">
				 <ele>36.6</ele>
			 </trkpt>
			 <trkpt lat="-42.89134" lon="147.32935">
				 <ele>37.5</ele>
			 </trkpt>
			 <trkpt lat="-42.89169" lon="147.32995">
				 <ele>37.9</ele>
			 </trkpt>
			 <trkpt lat="-42.89172" lon="147.33012">
				 <ele>37.6</ele>
			 </trkpt>
			 <trkpt lat="-42.89201" lon="147.33104">
				 <ele>37.4</ele>
			 </trkpt>
			 <trkpt lat="-42.89153" lon="147.33143">
				 <ele>37.1</ele>
			 </trkpt>
			 <trkpt lat="-42.89124" lon="147.33167">
				 <ele>36.7</ele>
			 </trkpt>
			 <trkpt lat="-42.89061" lon="147.33217">
				 <ele>36.1</ele>
			 </trkpt>
			 <trkpt lat="-42.89001" lon="147.3327">
				 <ele>35.3</ele>
			 </trkpt>
			 <trkpt lat="-42.88989" lon="147.33277">
				 <ele>34.3</ele>
			 </trkpt>
			 <trkpt lat="-42.88978" lon="147.33281">
				 <ele>32.8</ele>
			 </trkpt>
			 <trkpt lat="-42.88978" lon="147.33314">
				 <ele>31</ele>
			 </trkpt>
			 <trkpt lat="-42.88977" lon="147.33351">
				 <ele>29.3</ele>
			 </trkpt>
			 <trkpt lat="-42.88968" lon="147.33404">
				 <ele>27.7</ele>
			 </trkpt>
			 <trkpt lat="-42.88959" lon="147.33455">
				 <ele>26.5</ele>
			 </trkpt>
			 <trkpt lat="-42.88939" lon="147.33585">
				 <ele>25.1</ele>
			 </trkpt>
			 <trkpt lat="-42.88929" lon="147.33633">
				 <ele>23.7</ele>
			 </trkpt>
			 <trkpt lat="-42.88921" lon="147.33656">
				 <ele>22.4</ele>
			 </trkpt>
			 <trkpt lat="-42.88912" lon="147.33677">
				 <ele>21</ele>
			 </trkpt>
			 <trkpt lat="-42.88897" lon="147.33698">
				 <ele>19.6</ele>
			 </trkpt>
			 <trkpt lat="-42.88871" lon="147.33721">
				 <ele>18.4</ele>
			 </trkpt>
			 <trkpt lat="-42.88846" lon="147.33738">
				 <ele>17.5</ele>
			 </trkpt>
			 <trkpt lat="-42.88838" lon="147.33743">
				 <ele>16.4</ele>
			 </trkpt>
			 <trkpt lat="-42.88836" lon="147.33751">
				 <ele>15.3</ele>
			 </trkpt>
			 <trkpt lat="-42.88833" lon="147.33761">
				 <ele>14.4</ele>
			 </trkpt>
			 <trkpt lat="-42.8883" lon="147.33768">
				 <ele>13.5</ele>
			 </trkpt>
			 <trkpt lat="-42.88815" lon="147.33782">
				 <ele>12.6</ele>
			 </trkpt>
			 <trkpt lat="-42.88804" lon="147.3379">
				 <ele>11.8</ele>
			 </trkpt>
			 <trkpt lat="-42.88771" lon="147.33803">
				 <ele>10.9</ele>
			 </trkpt>
			 <trkpt lat="-42.88746" lon="147.33812">
				 <ele>10</ele>
			 </trkpt>
			 <trkpt lat="-42.88721" lon="147.33811">
				 <ele>9.2</ele>
			 </trkpt>
			 <trkpt lat="-42.88716" lon="147.33809">
				 <ele>8.6</ele>
			 </trkpt>
			 <trkpt lat="-42.88709" lon="147.33804">
				 <ele>8.2</ele>
			 </trkpt>
			 <trkpt lat="-42.88701" lon="147.33796">
				 <ele>7.8</ele>
			 </trkpt>
			 <trkpt lat="-42.88686" lon="147.33774">
				 <ele>7.5</ele>
			 </trkpt>
			 <trkpt lat="-42.88664" lon="147.33737">
				 <ele>7</ele>
			 </trkpt>
			 <trkpt lat="-42.88656" lon="147.33691">
				 <ele>6.5</ele>
			 </trkpt>
			 <trkpt lat="-42.8865" lon="147.33644">
				 <ele>6.1</ele>
			 </trkpt>
			 <trkpt lat="-42.88645" lon="147.33588">
				 <ele>6</ele>
			 </trkpt>
			 <trkpt lat="-42.88639" lon="147.33465">
				 <ele>6</ele>
			 </trkpt>
			 <trkpt lat="-42.88627" lon="147.3326">
				 <ele>6</ele>
			 </trkpt>
			 <trkpt lat="-42.88621" lon="147.33226">
				 <ele>6</ele>
			 </trkpt>
			 <trkpt lat="-42.88615" lon="147.33206">
				 <ele>5.8</ele>
			 </trkpt>
			 <trkpt lat="-42.88599" lon="147.33169">
				 <ele>5.7</ele>
			 </trkpt>
			 <trkpt lat="-42.88594" lon="147.33172">
				 <ele>5.7</ele>
			 </trkpt>
			 <trkpt lat="-42.88585" lon="147.33174">
				 <ele>5.7</ele>
			 </trkpt>
			 <trkpt lat="-42.88577" lon="147.33172">
				 <ele>5.8</ele>
			 </trkpt>
			 <trkpt lat="-42.88569" lon="147.33173">
				 <ele>6</ele>
			 </trkpt>
			 <trkpt lat="-42.88539" lon="147.33159">
				 <ele>6.3</ele>
			 </trkpt>
			 <trkpt lat="-42.88529" lon="147.33147">
				 <ele>6.3</ele>
			 </trkpt>
			 <trkpt lat="-42.88518" lon="147.33137">
				 <ele>6.3</ele>
			 </trkpt>
			 <trkpt lat="-42.885" lon="147.33125">
				 <ele>6.1</ele>
			 </trkpt>
			 <trkpt lat="-42.88495" lon="147.33125">
				 <ele>5.9</ele>
			 </trkpt>
			 <trkpt lat="-42.88491" lon="147.33126">
				 <ele>5.8</ele>
			 </trkpt>
			 <trkpt lat="-42.88461" lon="147.33141">
				 <ele>5.7</ele>
			 </trkpt>
			 <trkpt lat="-42.884538" lon="147.331505">
				 <ele>5.3</ele>
			 </trkpt>
			 <trkpt lat="-42.884554" lon="147.33192">
				 <ele>4.9</ele>
			 </trkpt>
			 <trkpt lat="-42.884396" lon="147.33227">
				 <ele>4.9</ele>
			 </trkpt>
			 <trkpt lat="-42.884017" lon="147.332599">
				 <ele>4.7</ele>
			 </trkpt>
			 <trkpt lat="-42.883638" lon="147.332929">
				 <ele>4.4</ele>
			 </trkpt>
			 <trkpt lat="-42.883258" lon="147.333258">
				 <ele>3.9</ele>
			 </trkpt>
			 <trkpt lat="-42.88321" lon="147.3333">
				 <ele>3.5</ele>
			 </trkpt>
			 <trkpt lat="-42.8838" lon="147.33274">
				 <ele>3.5</ele>
			 </trkpt>
			 <trkpt lat="-42.88348" lon="147.33302">
				 <ele>3.6</ele>
			 </trkpt>
			 <trkpt lat="-42.88321" lon="147.3333">
				 <ele>3.5</ele>
			 </trkpt>
			 <trkpt lat="-42.88295" lon="147.33371">
				 <ele>3.5</ele>
			 </trkpt>
			 <trkpt lat="-42.88321" lon="147.3333">
				 <ele>3.6</ele>
			 </trkpt>
			 <trkpt lat="-42.88348" lon="147.33302">
				 <ele>4</ele>
			 </trkpt>
			 <trkpt lat="-42.8838" lon="147.33274">
				 <ele>3.9</ele>
			 </trkpt>
			 <trkpt lat="-42.88452" lon="147.33214">
				 <ele>4</ele>
			 </trkpt>
			 <trkpt lat="-42.88457" lon="147.33204">
				 <ele>4.2</ele>
			 </trkpt>
			 <trkpt lat="-42.88457" lon="147.33192">
				 <ele>4.4</ele>
			 </trkpt>
			 <trkpt lat="-42.88448" lon="147.3316">
				 <ele>4.6</ele>
			 </trkpt>
			 <trkpt lat="-42.88464" lon="147.33151">
				 <ele>4.8</ele>
			 </trkpt>
			 <trkpt lat="-42.88483" lon="147.33141">
				 <ele>4.8</ele>
			 </trkpt>
			 <trkpt lat="-42.88492" lon="147.3314">
				 <ele>5</ele>
			 </trkpt>
			 <trkpt lat="-42.88507" lon="147.33146">
				 <ele>5.3</ele>
			 </trkpt>
			 <trkpt lat="-42.88529" lon="147.33157">
				 <ele>5.5</ele>
			 </trkpt>
			 <trkpt lat="-42.88539" lon="147.33159">
				 <ele>5.3</ele>
			 </trkpt>
			 <trkpt lat="-42.88569" lon="147.33173">
				 <ele>5.2</ele>
			 </trkpt>
			 <trkpt lat="-42.88578" lon="147.33172">
				 <ele>5.2</ele>
			 </trkpt>
			 <trkpt lat="-42.8859" lon="147.33173">
				 <ele>5.5</ele>
			 </trkpt>
			 <trkpt lat="-42.88599" lon="147.33169">
				 <ele>5.6</ele>
			 </trkpt>
			 <trkpt lat="-42.88615" lon="147.33206">
				 <ele>5.8</ele>
			 </trkpt>
			 <trkpt lat="-42.88621" lon="147.33227">
				 <ele>5.8</ele>
			 </trkpt>
			 <trkpt lat="-42.88625" lon="147.33251">
				 <ele>5.8</ele>
			 </trkpt>
			 <trkpt lat="-42.8863" lon="147.3331">
				 <ele>5.8</ele>
			 </trkpt>
			 <trkpt lat="-42.88647" lon="147.33617">
				 <ele>5.8</ele>
			 </trkpt>
			 <trkpt lat="-42.88658" lon="147.33704">
				 <ele>5.9</ele>
			 </trkpt>
			 <trkpt lat="-42.88662" lon="147.33728">
				 <ele>6.5</ele>
			 </trkpt>
			 <trkpt lat="-42.88664" lon="147.33737">
				 <ele>7</ele>
			 </trkpt>
			 <trkpt lat="-42.8868" lon="147.33765">
				 <ele>7.5</ele>
			 </trkpt>
			 <trkpt lat="-42.88697" lon="147.33792">
				 <ele>7.8</ele>
			 </trkpt>
			 <trkpt lat="-42.88711" lon="147.33805">
				 <ele>8.3</ele>
			 </trkpt>
			 <trkpt lat="-42.88721" lon="147.33811">
				 <ele>8.7</ele>
			 </trkpt>
			 <trkpt lat="-42.88746" lon="147.33812">
				 <ele>9.5</ele>
			 </trkpt>
			 <trkpt lat="-42.88761" lon="147.33807">
				 <ele>10.4</ele>
			 </trkpt>
			 <trkpt lat="-42.88777" lon="147.33801">
				 <ele>11.4</ele>
			 </trkpt>
			 <trkpt lat="-42.88804" lon="147.3379">
				 <ele>12.3</ele>
			 </trkpt>
			 <trkpt lat="-42.88815" lon="147.33782">
				 <ele>13.1</ele>
			 </trkpt>
			 <trkpt lat="-42.8883" lon="147.33768">
				 <ele>14</ele>
			 </trkpt>
			 <trkpt lat="-42.88836" lon="147.33751">
				 <ele>14.9</ele>
			 </trkpt>
			 <trkpt lat="-42.88838" lon="147.33743">
				 <ele>16</ele>
			 </trkpt>
			 <trkpt lat="-42.88846" lon="147.33738">
				 <ele>17.1</ele>
			 </trkpt>
			 <trkpt lat="-42.88871" lon="147.33721">
				 <ele>18.1</ele>
			 </trkpt>
			 <trkpt lat="-42.88897" lon="147.33698">
				 <ele>19.5</ele>
			 </trkpt>
			 <trkpt lat="-42.88912" lon="147.33677">
				 <ele>21</ele>
			 </trkpt>
			 <trkpt lat="-42.88921" lon="147.33656">
				 <ele>22.4</ele>
			 </trkpt>
			 <trkpt lat="-42.88929" lon="147.33633">
				 <ele>23.6</ele>
			 </trkpt>
			 <trkpt lat="-42.88939" lon="147.33585">
				 <ele>25</ele>
			 </trkpt>
			 <trkpt lat="-42.88962" lon="147.33439">
				 <ele>26.4</ele>
			 </trkpt>
			 <trkpt lat="-42.8897" lon="147.33396">
				 <ele>27.5</ele>
			 </trkpt>
			 <trkpt lat="-42.88976" lon="147.33364">
				 <ele>28.7</ele>
			 </trkpt>
			 <trkpt lat="-42.88978" lon="147.33343">
				 <ele>30.1</ele>
			 </trkpt>
			 <trkpt lat="-42.88978" lon="147.33307">
				 <ele>31.9</ele>
			 </trkpt>
			 <trkpt lat="-42.88978" lon="147.33281">
				 <ele>33.4</ele>
			 </trkpt>
			 <trkpt lat="-42.88989" lon="147.33277">
				 <ele>34.4</ele>
			 </trkpt>
			 <trkpt lat="-42.89001" lon="147.3327">
				 <ele>35.2</ele>
			 </trkpt>
			 <trkpt lat="-42.89061" lon="147.33217">
				 <ele>35.7</ele>
			 </trkpt>
			 <trkpt lat="-42.89153" lon="147.33143">
				 <ele>36.1</ele>
			 </trkpt>
			 <trkpt lat="-42.89201" lon="147.33104">
				 <ele>36.4</ele>
			 </trkpt>
			 <trkpt lat="-42.89181" lon="147.3304">
				 <ele>36.6</ele>
			 </trkpt>
			 <trkpt lat="-42.89169" lon="147.32995">
				 <ele>36.8</ele>
			 </trkpt>
			 <trkpt lat="-42.89125" lon="147.3292">
				 <ele>37.1</ele>
			 </trkpt>
			 <trkpt lat="-42.89096" lon="147.32865">
				 <ele>36.7</ele>
			 </trkpt>
			 <trkpt lat="-42.89099" lon="147.3285">
				 <ele>35.5</ele>
			 </trkpt>
			 <trkpt lat="-42.89107" lon="147.32832">
				 <ele>34.5</ele>
			 </trkpt>
			 <trkpt lat="-42.89122" lon="147.328">
				 <ele>33.3</ele>
			 </trkpt>
			 <trkpt lat="-42.89141" lon="147.32749">
				 <ele>31.7</ele>
			 </trkpt>
			 <trkpt lat="-42.89156" lon="147.32704">
				 <ele>30.2</ele>
			 </trkpt>
			 <trkpt lat="-42.89164" lon="147.32693">
				 <ele>28.6</ele>
			 </trkpt>
			 <trkpt lat="-42.89173" lon="147.32678">
				 <ele>27</ele>
			 </trkpt>
			 <trkpt lat="-42.89185" lon="147.32661">
				 <ele>25.4</ele>
			 </trkpt>
			 <trkpt lat="-42.89217" lon="147.32634">
				 <ele>23.8</ele>
			 </trkpt>
			 <trkpt lat="-42.89263" lon="147.326">
				 <ele>22.2</ele>
			 </trkpt>
			 <trkpt lat="-42.89287" lon="147.32588">
				 <ele>20.9</ele>
			 </trkpt>
			 <trkpt lat="-42.893" lon="147.32585">
				 <ele>20</ele>
			 </trkpt>
			 <trkpt lat="-42.89339" lon="147.3258">
				 <ele>19.4</ele>
			 </trkpt>
			 <trkpt lat="-42.89361" lon="147.32586">
				 <ele>18.7</ele>
			 </trkpt>
			 <trkpt lat="-42.89396" lon="147.32598">
				 <ele>18.3</ele>
			 </trkpt>
			 <trkpt lat="-42.89411" lon="147.32609">
				 <ele>17.9</ele>
			 </trkpt>
			 <trkpt lat="-42.89426" lon="147.32621">
				 <ele>17.6</ele>
			 </trkpt>
			 <trkpt lat="-42.89441" lon="147.32634">
				 <ele>17.4</ele>
			 </trkpt>
			 <trkpt lat="-42.89472" lon="147.32673">
				 <ele>17.2</ele>
			 </trkpt>
			 <trkpt lat="-42.89503" lon="147.32726">
				 <ele>16.9</ele>
			 </trkpt>
			 <trkpt lat="-42.89509" lon="147.32737">
				 <ele>16.4</ele>
			 </trkpt>
			 <trkpt lat="-42.89536" lon="147.32778">
				 <ele>15.7</ele>
			 </trkpt>
			 <trkpt lat="-42.8956" lon="147.32803">
				 <ele>14.9</ele>
			 </trkpt>
			 <trkpt lat="-42.89578" lon="147.32816">
				 <ele>14</ele>
			 </trkpt>
			 <trkpt lat="-42.89594" lon="147.32826">
				 <ele>13.4</ele>
			 </trkpt>
			 <trkpt lat="-42.89612" lon="147.32835">
				 <ele>13.1</ele>
			 </trkpt>
			 <trkpt lat="-42.89617" lon="147.32833">
				 <ele>13</ele>
			 </trkpt>
			 <trkpt lat="-42.89639" lon="147.32842">
				 <ele>12.9</ele>
			 </trkpt>
			 <trkpt lat="-42.89666" lon="147.32854">
				 <ele>12.4</ele>
			 </trkpt>
			 <trkpt lat="-42.89735" lon="147.32886">
				 <ele>11.6</ele>
			 </trkpt>
			 <trkpt lat="-42.89797" lon="147.32915">
				 <ele>10.9</ele>
			 </trkpt>
			 <trkpt lat="-42.89818" lon="147.32925">
				 <ele>10.5</ele>
			 </trkpt>
			 <trkpt lat="-42.89851" lon="147.32953">
				 <ele>10</ele>
			 </trkpt>
			 <trkpt lat="-42.89922" lon="147.33017">
				 <ele>9.5</ele>
			 </trkpt>
			 <trkpt lat="-42.89956" lon="147.33048">
				 <ele>9.2</ele>
			 </trkpt>
			 <trkpt lat="-42.89983" lon="147.33075">
				 <ele>8.9</ele>
			 </trkpt>
			 <trkpt lat="-42.90051" lon="147.33176">
				 <ele>8.5</ele>
			 </trkpt>
			 <trkpt lat="-42.90167" lon="147.33342">
				 <ele>7.9</ele>
			 </trkpt>
			 <trkpt lat="-42.90197" lon="147.33386">
				 <ele>7.5</ele>
			 </trkpt>
			 <trkpt lat="-42.90234" lon="147.33447">
				 <ele>7.5</ele>
			 </trkpt>
			 <trkpt lat="-42.90248" lon="147.33475">
				 <ele>7.1</ele>
			 </trkpt>
			 <trkpt lat="-42.9027" lon="147.33524">
				 <ele>6.9</ele>
			 </trkpt>
			 <trkpt lat="-42.90298" lon="147.33583">
				 <ele>6.6</ele>
			 </trkpt>
			 <trkpt lat="-42.90311" lon="147.33605">
				 <ele>6.5</ele>
			 </trkpt>
			 <trkpt lat="-42.90337" lon="147.33642">
				 <ele>6.5</ele>
			 </trkpt>
			 <trkpt lat="-42.9038" lon="147.33695">
				 <ele>6.4</ele>
			 </trkpt>
			 <trkpt lat="-42.90418" lon="147.33731">
				 <ele>6.4</ele>
			 </trkpt>
			 <trkpt lat="-42.9044" lon="147.33756">
				 <ele>6.5</ele>
			 </trkpt>
			 <trkpt lat="-42.90461" lon="147.33783">
				 <ele>6.1</ele>
			 </trkpt>
			 <trkpt lat="-42.90474" lon="147.33807">
				 <ele>6.3</ele>
			 </trkpt>
			 <trkpt lat="-42.90544" lon="147.33942">
				 <ele>6.5</ele>
			 </trkpt>
			 <trkpt lat="-42.90568" lon="147.33984">
				 <ele>7</ele>
			 </trkpt>
			 <trkpt lat="-42.90579" lon="147.34011">
				 <ele>7.5</ele>
			 </trkpt>
			 <trkpt lat="-42.90598" lon="147.34077">
				 <ele>8.1</ele>
			 </trkpt>
			 <trkpt lat="-42.90621" lon="147.34133">
				 <ele>8.8</ele>
			 </trkpt>
			 <trkpt lat="-42.90678" lon="147.3423">
				 <ele>9.3</ele>
			 </trkpt>
			 <trkpt lat="-42.90696" lon="147.34258">
				 <ele>10</ele>
			 </trkpt>
			 <trkpt lat="-42.90714" lon="147.34286">
				 <ele>10.4</ele>
			 </trkpt>
			 <trkpt lat="-42.90744" lon="147.34324">
				 <ele>10.5</ele>
			 </trkpt>
			 <trkpt lat="-42.90792" lon="147.34389">
				 <ele>11.2</ele>
			 </trkpt>
			 <trkpt lat="-42.90815" lon="147.34442">
				 <ele>11.3</ele>
			 </trkpt>
			 <trkpt lat="-42.90859" lon="147.34574">
				 <ele>11.5</ele>
			 </trkpt>
			 <trkpt lat="-42.9091" lon="147.34717">
				 <ele>11.7</ele>
			 </trkpt>
			 <trkpt lat="-42.90939" lon="147.3479">
				 <ele>12.1</ele>
			 </trkpt>
			 <trkpt lat="-42.90988" lon="147.34912">
				 <ele>12.1</ele>
			 </trkpt>
			 <trkpt lat="-42.9091" lon="147.34717">
				 <ele>11.7</ele>
			 </trkpt>
			 <trkpt lat="-42.90859" lon="147.34574">
				 <ele>11.5</ele>
			 </trkpt>
			 <trkpt lat="-42.90815" lon="147.34442">
				 <ele>11.3</ele>
			 </trkpt>
			 <trkpt lat="-42.90792" lon="147.34389">
				 <ele>11.2</ele>
			 </trkpt>
			 <trkpt lat="-42.90744" lon="147.34324">
				 <ele>10.5</ele>
			 </trkpt>
			 <trkpt lat="-42.90714" lon="147.34286">
				 <ele>10.5</ele>
			 </trkpt>
			 <trkpt lat="-42.90688" lon="147.34247">
				 <ele>10.3</ele>
			 </trkpt>
			 <trkpt lat="-42.90678" lon="147.3423">
				 <ele>9.9</ele>
			 </trkpt>
			 <trkpt lat="-42.90621" lon="147.34133">
				 <ele>9.5</ele>
			 </trkpt>
			 <trkpt lat="-42.90598" lon="147.34077">
				 <ele>8.6</ele>
			 </trkpt>
			 <trkpt lat="-42.9059" lon="147.3405">
				 <ele>8.3</ele>
			 </trkpt>
			 <trkpt lat="-42.90579" lon="147.34011">
				 <ele>7.9</ele>
			 </trkpt>
			 <trkpt lat="-42.90568" lon="147.33984">
				 <ele>7.5</ele>
			 </trkpt>
			 <trkpt lat="-42.9056" lon="147.33969">
				 <ele>7</ele>
			 </trkpt>
			 <trkpt lat="-42.90544" lon="147.33942">
				 <ele>6.3</ele>
			 </trkpt>
			 <trkpt lat="-42.90474" lon="147.33807">
				 <ele>6.4</ele>
			 </trkpt>
			 <trkpt lat="-42.90461" lon="147.33783">
				 <ele>6.2</ele>
			 </trkpt>
			 <trkpt lat="-42.90453" lon="147.33772">
				 <ele>6.1</ele>
			 </trkpt>
			 <trkpt lat="-42.90418" lon="147.33731">
				 <ele>6.1</ele>
			 </trkpt>
			 <trkpt lat="-42.9038" lon="147.33695">
				 <ele>6</ele>
			 </trkpt>
			 <trkpt lat="-42.90349" lon="147.33657">
				 <ele>6.2</ele>
			 </trkpt>
			 <trkpt lat="-42.90316" lon="147.33612">
				 <ele>6.4</ele>
			 </trkpt>
			 <trkpt lat="-42.90293" lon="147.33573">
				 <ele>6.5</ele>
			 </trkpt>
			 <trkpt lat="-42.90248" lon="147.33475">
				 <ele>6.5</ele>
			 </trkpt>
			 <trkpt lat="-42.90226" lon="147.33433">
				 <ele>6.7</ele>
			 </trkpt>
			 <trkpt lat="-42.90176" lon="147.33356">
				 <ele>7.1</ele>
			 </trkpt>
			 <trkpt lat="-42.90129" lon="147.33289">
				 <ele>7.9</ele>
			 </trkpt>
			 <trkpt lat="-42.90043" lon="147.33164">
				 <ele>8.5</ele>
			 </trkpt>
			 <trkpt lat="-42.89986" lon="147.33079">
				 <ele>8.9</ele>
			 </trkpt>
			 <trkpt lat="-42.89968" lon="147.33059">
				 <ele>9.1</ele>
			 </trkpt>
			 <trkpt lat="-42.8994" lon="147.33034">
				 <ele>9.6</ele>
			 </trkpt>
			 <trkpt lat="-42.89845" lon="147.32948">
				 <ele>10.2</ele>
			 </trkpt>
			 <trkpt lat="-42.89812" lon="147.32921">
				 <ele>10.5</ele>
			 </trkpt>
			 <trkpt lat="-42.89779" lon="147.32905">
				 <ele>11.3</ele>
			 </trkpt>
			 <trkpt lat="-42.89655" lon="147.3285">
				 <ele>12.1</ele>
			 </trkpt>
			 <trkpt lat="-42.89617" lon="147.32833">
				 <ele>12.8</ele>
			 </trkpt>
			 <trkpt lat="-42.89612" lon="147.32835">
				 <ele>13.5</ele>
			 </trkpt>
			 <trkpt lat="-42.896" lon="147.3283">
				 <ele>13.7</ele>
			 </trkpt>
			 <trkpt lat="-42.89594" lon="147.32826">
				 <ele>14</ele>
			 </trkpt>
			 <trkpt lat="-42.8956" lon="147.32803">
				 <ele>14.5</ele>
			 </trkpt>
			 <trkpt lat="-42.89536" lon="147.32778">
				 <ele>15.5</ele>
			 </trkpt>
			 <trkpt lat="-42.89524" lon="147.3276">
				 <ele>16.1</ele>
			 </trkpt>
			 <trkpt lat="-42.89503" lon="147.32726">
				 <ele>16.6</ele>
			 </trkpt>
			 <trkpt lat="-42.89472" lon="147.32673">
				 <ele>17</ele>
			 </trkpt>
			 <trkpt lat="-42.89441" lon="147.32634">
				 <ele>17.3</ele>
			 </trkpt>
			 <trkpt lat="-42.89426" lon="147.32621">
				 <ele>17.5</ele>
			 </trkpt>
			 <trkpt lat="-42.89411" lon="147.32609">
				 <ele>17.6</ele>
			 </trkpt>
			 <trkpt lat="-42.89396" lon="147.32598">
				 <ele>17.9</ele>
			 </trkpt>
			 <trkpt lat="-42.89361" lon="147.32586">
				 <ele>18.2</ele>
			 </trkpt>
			 <trkpt lat="-42.89339" lon="147.3258">
				 <ele>18.5</ele>
			 </trkpt>
			 <trkpt lat="-42.89318" lon="147.32582">
				 <ele>19</ele>
			 </trkpt>
			 <trkpt lat="-42.893" lon="147.32585">
				 <ele>19.6</ele>
			 </trkpt>
			 <trkpt lat="-42.89287" lon="147.32588">
				 <ele>20.7</ele>
			 </trkpt>
			 <trkpt lat="-42.89263" lon="147.326">
				 <ele>22.1</ele>
			 </trkpt>
			 <trkpt lat="-42.89217" lon="147.32634">
				 <ele>23.8</ele>
			 </trkpt>
			 <trkpt lat="-42.89185" lon="147.32661">
				 <ele>25.5</ele>
			 </trkpt>
			 <trkpt lat="-42.89174" lon="147.32675">
				 <ele>27.2</ele>
			 </trkpt>
			 <trkpt lat="-42.8916" lon="147.32699">
				 <ele>28.8</ele>
			 </trkpt>
			 <trkpt lat="-42.89156" lon="147.32704">
				 <ele>30.6</ele>
			 </trkpt>
			 <trkpt lat="-42.89149" lon="147.32727">
				 <ele>32.4</ele>
			 </trkpt>
			 <trkpt lat="-42.89133" lon="147.32772">
				 <ele>33.9</ele>
			 </trkpt>
			 <trkpt lat="-42.89095" lon="147.32863">
				 <ele>35.1</ele>
			 </trkpt>
			 <trkpt lat="-42.89105" lon="147.32884">
				 <ele>36.4</ele>
			 </trkpt>
			 <trkpt lat="-42.89134" lon="147.32935">
				 <ele>36.9</ele>
			 </trkpt>
			 <trkpt lat="-42.89169" lon="147.32995">
				 <ele>36.9</ele>
			 </trkpt>
			 <trkpt lat="-42.89172" lon="147.33012">
				 <ele>36.5</ele>
			 </trkpt>
			 <trkpt lat="-42.89201" lon="147.33104">
				 <ele>36.3</ele>
			 </trkpt>
			 <trkpt lat="-42.89177" lon="147.33124">
				 <ele>36</ele>
			 </trkpt>
			 <trkpt lat="-42.89075" lon="147.33205">
				 <ele>35.7</ele>
			 </trkpt>
			 <trkpt lat="-42.89001" lon="147.3327">
				 <ele>35.1</ele>
			 </trkpt>
			 <trkpt lat="-42.88983" lon="147.33279">
				 <ele>34.4</ele>
			 </trkpt>
			 <trkpt lat="-42.88978" lon="147.33281">
				 <ele>33.5</ele>
			 </trkpt>
			 <trkpt lat="-42.88978" lon="147.33296">
				 <ele>32.6</ele>
			 </trkpt>
			 <trkpt lat="-42.88978" lon="147.33331">
				 <ele>30.9</ele>
			 </trkpt>
			 <trkpt lat="-42.88978" lon="147.33343">
				 <ele>29.6</ele>
			 </trkpt>
			 <trkpt lat="-42.88976" lon="147.33364">
				 <ele>28.6</ele>
			 </trkpt>
			 <trkpt lat="-42.8897" lon="147.33396">
				 <ele>27.5</ele>
			 </trkpt>
			 <trkpt lat="-42.88962" lon="147.33439">
				 <ele>26.4</ele>
			 </trkpt>
			 <trkpt lat="-42.88939" lon="147.33585">
				 <ele>25.1</ele>
			 </trkpt>
			 <trkpt lat="-42.88929" lon="147.33633">
				 <ele>23.7</ele>
			 </trkpt>
			 <trkpt lat="-42.88921" lon="147.33656">
				 <ele>22.2</ele>
			 </trkpt>
			 <trkpt lat="-42.88912" lon="147.33677">
				 <ele>20.5</ele>
			 </trkpt>
			 <trkpt lat="-42.88897" lon="147.33698">
				 <ele>18.8</ele>
			 </trkpt>
			 <trkpt lat="-42.88882" lon="147.33713">
				 <ele>17.3</ele>
			 </trkpt>
			 <trkpt lat="-42.88838" lon="147.33743">
				 <ele>16.2</ele>
			 </trkpt>
			 <trkpt lat="-42.88831" lon="147.33765">
				 <ele>15</ele>
			 </trkpt>
			 <trkpt lat="-42.88819" lon="147.3378">
				 <ele>13.8</ele>
			 </trkpt>
			 <trkpt lat="-42.8881" lon="147.33786">
				 <ele>12.7</ele>
			 </trkpt>
			 <trkpt lat="-42.88794" lon="147.33794">
				 <ele>11.6</ele>
			 </trkpt>
			 <trkpt lat="-42.88756" lon="147.33809">
				 <ele>10.5</ele>
			 </trkpt>
			 <trkpt lat="-42.88746" lon="147.33812">
				 <ele>9.5</ele>
			 </trkpt>
			 <trkpt lat="-42.88721" lon="147.33811">
				 <ele>8.8</ele>
			 </trkpt>
			 <trkpt lat="-42.88711" lon="147.33805">
				 <ele>8.4</ele>
			 </trkpt>
			 <trkpt lat="-42.88697" lon="147.33792">
				 <ele>8</ele>
			 </trkpt>
			 <trkpt lat="-42.8868" lon="147.33765">
				 <ele>7.5</ele>
			 </trkpt>
			 <trkpt lat="-42.88664" lon="147.33737">
				 <ele>7.4</ele>
			 </trkpt>
			 <trkpt lat="-42.88662" lon="147.33728">
				 <ele>7.1</ele>
			 </trkpt>
			 <trkpt lat="-42.88658" lon="147.33704">
				 <ele>6.8</ele>
			 </trkpt>
			 <trkpt lat="-42.88652" lon="147.33656">
				 <ele>6.5</ele>
			 </trkpt>
			 <trkpt lat="-42.88647" lon="147.33617">
				 <ele>6.3</ele>
			 </trkpt>
			 <trkpt lat="-42.88643" lon="147.33537">
				 <ele>6</ele>
			 </trkpt>
			 <trkpt lat="-42.88639" lon="147.33449">
				 <ele>6.1</ele>
			 </trkpt>
			 <trkpt lat="-42.88628" lon="147.33282">
				 <ele>6.2</ele>
			 </trkpt>
			 <trkpt lat="-42.88625" lon="147.33251">
				 <ele>6.2</ele>
			 </trkpt>
			 <trkpt lat="-42.88621" lon="147.33227">
				 <ele>6</ele>
			 </trkpt>
			 <trkpt lat="-42.88615" lon="147.33206">
				 <ele>6</ele>
			 </trkpt>
			 <trkpt lat="-42.88599" lon="147.33169">
				 <ele>5.8</ele>
			 </trkpt>
			 <trkpt lat="-42.88594" lon="147.33172">
				 <ele>5.7</ele>
			 </trkpt>
			 <trkpt lat="-42.8859" lon="147.33173">
				 <ele>5.7</ele>
			 </trkpt>
			 <trkpt lat="-42.88577" lon="147.33172">
				 <ele>5.8</ele>
			 </trkpt>
			 <trkpt lat="-42.88569" lon="147.33173">
				 <ele>6</ele>
			 </trkpt>
			 <trkpt lat="-42.88539" lon="147.33159">
				 <ele>6.4</ele>
			 </trkpt>
			 <trkpt lat="-42.88522" lon="147.33141">
				 <ele>6.4</ele>
			 </trkpt>
			 <trkpt lat="-42.88505" lon="147.33127">
				 <ele>6.1</ele>
			 </trkpt>
			 <trkpt lat="-42.88497" lon="147.33124">
				 <ele>5.8</ele>
			 </trkpt>
			 <trkpt lat="-42.88494" lon="147.33125">
				 <ele>5.5</ele>
			 </trkpt>
			 <trkpt lat="-42.88483" lon="147.33129">
				 <ele>5.2</ele>
			 </trkpt>
			 <trkpt lat="-42.8846" lon="147.33142">
				 <ele>4.7</ele>
			 </trkpt>
			 <trkpt lat="-42.884539" lon="147.332028">
				 <ele>4.4</ele>
			 </trkpt>
			 <trkpt lat="-42.88453" lon="147.33212">
				 <ele>4</ele>
			 </trkpt>
			 <trkpt lat="-42.88339" lon="147.33311">
				 <ele>3.8</ele>
			 </trkpt>
			 <trkpt lat="-42.88321" lon="147.3333">
				 <ele>3.8</ele>
			 </trkpt>
			 <trkpt lat="-42.88314" lon="147.33341">
				 <ele>3.5</ele>
			 </trkpt>
			 <trkpt lat="-42.88295" lon="147.33371">
				 <ele>3.2</ele>
			 </trkpt>
			 <trkpt lat="-42.88321" lon="147.3333">
				 <ele>3.2</ele>
			 </trkpt>
			 <trkpt lat="-42.88348" lon="147.33302">
				 <ele>3.2</ele>
			 </trkpt>
			 <trkpt lat="-42.8838" lon="147.33274">
				 <ele>3.5</ele>
			 </trkpt>
			 <trkpt lat="-42.88429" lon="147.33233">
				 <ele>3.7</ele>
			 </trkpt>
			 <trkpt lat="-42.88453" lon="147.33212">
				 <ele>4</ele>
			 </trkpt>
			 <trkpt lat="-42.88457" lon="147.33201">
				 <ele>4.2</ele>
			 </trkpt>
			 <trkpt lat="-42.88456" lon="147.33187">
				 <ele>4.5</ele>
			 </trkpt>
			 <trkpt lat="-42.88448" lon="147.3316">
				 <ele>4.6</ele>
			 </trkpt>
			 <trkpt lat="-42.88482" lon="147.33142">
				 <ele>4.6</ele>
			 </trkpt>
			 <trkpt lat="-42.88492" lon="147.3314">
				 <ele>4.9</ele>
			 </trkpt>
			 <trkpt lat="-42.88507" lon="147.33146">
				 <ele>5.1</ele>
			 </trkpt>
			 <trkpt lat="-42.88529" lon="147.33157">
				 <ele>5.4</ele>
			 </trkpt>
			 <trkpt lat="-42.88539" lon="147.33159">
				 <ele>5.6</ele>
			 </trkpt>
			 <trkpt lat="-42.88565" lon="147.33171">
				 <ele>5.7</ele>
			 </trkpt>
			 <trkpt lat="-42.88569" lon="147.33173">
				 <ele>5.9</ele>
			 </trkpt>
			 <trkpt lat="-42.88574" lon="147.33172">
				 <ele>5.8</ele>
			 </trkpt>
			 <trkpt lat="-42.88582" lon="147.33173">
				 <ele>5.8</ele>
			 </trkpt>
			 <trkpt lat="-42.88592" lon="147.33173">
				 <ele>5.8</ele>
			 </trkpt>
			 <trkpt lat="-42.88596" lon="147.33171">
				 <ele>5.9</ele>
			 </trkpt>
			 <trkpt lat="-42.88599" lon="147.33169">
				 <ele>6</ele>
			 </trkpt>
			 <trkpt lat="-42.88615" lon="147.33206">
				 <ele>6</ele>
			 </trkpt>
			 <trkpt lat="-42.88624" lon="147.33241">
				 <ele>6</ele>
			 </trkpt>
			 <trkpt lat="-42.88627" lon="147.3326">
				 <ele>5.9</ele>
			 </trkpt>
			 <trkpt lat="-42.88632" lon="147.33341">
				 <ele>5.8</ele>
			 </trkpt>
			 <trkpt lat="-42.88648" lon="147.33632">
				 <ele>5.8</ele>
			 </trkpt>
			 <trkpt lat="-42.8866" lon="147.33719">
				 <ele>5.9</ele>
			 </trkpt>
			 <trkpt lat="-42.88664" lon="147.33737">
				 <ele>6.4</ele>
			 </trkpt>
			 <trkpt lat="-42.88673" lon="147.33753">
				 <ele>6.8</ele>
			 </trkpt>
			 <trkpt lat="-42.88686" lon="147.33774">
				 <ele>7.3</ele>
			 </trkpt>
			 <trkpt lat="-42.88697" lon="147.33792">
				 <ele>7.5</ele>
			 </trkpt>
			 <trkpt lat="-42.88709" lon="147.33804">
				 <ele>7.9</ele>
			 </trkpt>
			 <trkpt lat="-42.88716" lon="147.33809">
				 <ele>8.5</ele>
			 </trkpt>
			 <trkpt lat="-42.88721" lon="147.33811">
				 <ele>9.4</ele>
			 </trkpt>
			 <trkpt lat="-42.88746" lon="147.33812">
				 <ele>10.3</ele>
			 </trkpt>
			 <trkpt lat="-42.88771" lon="147.33803">
				 <ele>11.3</ele>
			 </trkpt>
			 <trkpt lat="-42.88804" lon="147.3379">
				 <ele>12.2</ele>
			 </trkpt>
			 <trkpt lat="-42.88825" lon="147.33773">
				 <ele>13</ele>
			 </trkpt>
			 <trkpt lat="-42.88833" lon="147.33761">
				 <ele>14</ele>
			 </trkpt>
			 <trkpt lat="-42.88836" lon="147.33751">
				 <ele>15</ele>
			 </trkpt>
			 <trkpt lat="-42.88838" lon="147.33743">
				 <ele>16.1</ele>
			 </trkpt>
			 <trkpt lat="-42.88846" lon="147.33738">
				 <ele>17.3</ele>
			 </trkpt>
			 <trkpt lat="-42.88871" lon="147.33721">
				 <ele>18.3</ele>
			 </trkpt>
			 <trkpt lat="-42.88897" lon="147.33698">
				 <ele>19.7</ele>
			 </trkpt>
			 <trkpt lat="-42.88912" lon="147.33677">
				 <ele>21.2</ele>
			 </trkpt>
			 <trkpt lat="-42.88921" lon="147.33656">
				 <ele>22.5</ele>
			 </trkpt>
			 <trkpt lat="-42.88929" lon="147.33633">
				 <ele>23.9</ele>
			 </trkpt>
			 <trkpt lat="-42.88937" lon="147.33594">
				 <ele>25.3</ele>
			 </trkpt>
			 <trkpt lat="-42.88963" lon="147.3343">
				 <ele>26.7</ele>
			 </trkpt>
			 <trkpt lat="-42.88974" lon="147.33379">
				 <ele>28.4</ele>
			 </trkpt>
			 <trkpt lat="-42.88978" lon="147.33336">
				 <ele>30</ele>
			 </trkpt>
			 <trkpt lat="-42.88978" lon="147.33281">
				 <ele>31.5</ele>
			 </trkpt>
			 <trkpt lat="-42.88989" lon="147.33277">
				 <ele>33</ele>
			 </trkpt>
			 <trkpt lat="-42.89005" lon="147.33267">
				 <ele>34.4</ele>
			 </trkpt>
			 <trkpt lat="-42.89075" lon="147.33205">
				 <ele>34.9</ele>
			 </trkpt>
			 <trkpt lat="-42.89201" lon="147.33104">
				 <ele>35.3</ele>
			 </trkpt>
			 <trkpt lat="-42.89178" lon="147.33031">
				 <ele>35.5</ele>
			 </trkpt>
			 <trkpt lat="-42.89169" lon="147.32995">
				 <ele>35.7</ele>
			 </trkpt>
			 <trkpt lat="-42.89125" lon="147.3292">
				 <ele>36.1</ele>
			 </trkpt>
			 <trkpt lat="-42.89096" lon="147.32865">
				 <ele>36.1</ele>
			 </trkpt>
			 <trkpt lat="-42.89099" lon="147.3285">
				 <ele>35.5</ele>
			 </trkpt>
			 <trkpt lat="-42.89122" lon="147.328">
				 <ele>34.6</ele>
			 </trkpt>
			 <trkpt lat="-42.89127" lon="147.32788">
				 <ele>33.5</ele>
			 </trkpt>
			 <trkpt lat="-42.89149" lon="147.32727">
				 <ele>32.1</ele>
			 </trkpt>
			 <trkpt lat="-42.89156" lon="147.32704">
				 <ele>30.5</ele>
			 </trkpt>
			 <trkpt lat="-42.8916" lon="147.32699">
				 <ele>29.1</ele>
			 </trkpt>
			 <trkpt lat="-42.8917" lon="147.32683">
				 <ele>27.5</ele>
			 </trkpt>
			 <trkpt lat="-42.89177" lon="147.3267">
				 <ele>26</ele>
			 </trkpt>
			 <trkpt lat="-42.89194" lon="147.32653">
				 <ele>24.5</ele>
			 </trkpt>
			 <trkpt lat="-42.89258" lon="147.32605">
				 <ele>22.8</ele>
			 </trkpt>
			 <trkpt lat="-42.89282" lon="147.32591">
				 <ele>21.6</ele>
			 </trkpt>
			 <trkpt lat="-42.89293" lon="147.32586">
				 <ele>20.6</ele>
			 </trkpt>
			 <trkpt lat="-42.89308" lon="147.32584">
				 <ele>19.7</ele>
			 </trkpt>
			 <trkpt lat="-42.89343" lon="147.3258">
				 <ele>19</ele>
			 </trkpt>
			 <trkpt lat="-42.89396" lon="147.32598">
				 <ele>18.3</ele>
			 </trkpt>
			 <trkpt lat="-42.89419" lon="147.32615">
				 <ele>17.8</ele>
			 </trkpt>
			 <trkpt lat="-42.89441" lon="147.32634">
				 <ele>17.5</ele>
			 </trkpt>
			 <trkpt lat="-42.89472" lon="147.32673">
				 <ele>17.1</ele>
			 </trkpt>
			 <trkpt lat="-42.89495" lon="147.32713">
				 <ele>16.9</ele>
			 </trkpt>
			 <trkpt lat="-42.89508" lon="147.32734">
				 <ele>16.6</ele>
			 </trkpt>
			 <trkpt lat="-42.89515" lon="147.32747">
				 <ele>16.2</ele>
			 </trkpt>
			 <trkpt lat="-42.89525" lon="147.32763">
				 <ele>15.5</ele>
			 </trkpt>
			 <trkpt lat="-42.89551" lon="147.32794">
				 <ele>14.7</ele>
			 </trkpt>
			 <trkpt lat="-42.89568" lon="147.3281">
				 <ele>14</ele>
			 </trkpt>
			 <trkpt lat="-42.8959" lon="147.32824">
				 <ele>13.2</ele>
			 </trkpt>
			 <trkpt lat="-42.896" lon="147.3283">
				 <ele>12.7</ele>
			 </trkpt>
			 <trkpt lat="-42.89612" lon="147.32835">
				 <ele>12.7</ele>
			 </trkpt>
			 <trkpt lat="-42.89617" lon="147.32833">
				 <ele>12.7</ele>
			 </trkpt>
			 <trkpt lat="-42.89655" lon="147.3285">
				 <ele>12.1</ele>
			 </trkpt>
			 <trkpt lat="-42.89671" lon="147.32857">
				 <ele>11.4</ele>
			 </trkpt>
			 <trkpt lat="-42.89721" lon="147.3288">
				 <ele>10.5</ele>
			 </trkpt>
			 <trkpt lat="-42.89812" lon="147.32921">
				 <ele>10.1</ele>
			 </trkpt>
			 <trkpt lat="-42.89845" lon="147.32948">
				 <ele>9.5</ele>
			 </trkpt>
			 <trkpt lat="-42.8994" lon="147.33034">
				 <ele>9</ele>
			 </trkpt>
			 <trkpt lat="-42.89968" lon="147.33059">
				 <ele>8.8</ele>
			 </trkpt>
			 <trkpt lat="-42.89986" lon="147.33079">
				 <ele>8.8</ele>
			 </trkpt>
			 <trkpt lat="-42.90083" lon="147.33223">
				 <ele>8.6</ele>
			 </trkpt>
			 <trkpt lat="-42.90176" lon="147.33356">
				 <ele>7.8</ele>
			 </trkpt>
			 <trkpt lat="-42.90226" lon="147.33433">
				 <ele>6.7</ele>
			 </trkpt>
			 <trkpt lat="-42.90248" lon="147.33475">
				 <ele>6.5</ele>
			 </trkpt>
			 <trkpt lat="-42.90293" lon="147.33573">
				 <ele>6.2</ele>
			 </trkpt>
			 <trkpt lat="-42.90316" lon="147.33612">
				 <ele>6.3</ele>
			 </trkpt>
			 <trkpt lat="-42.90349" lon="147.33657">
				 <ele>5.8</ele>
			 </trkpt>
			 <trkpt lat="-42.9038" lon="147.33695">
				 <ele>5.9</ele>
			 </trkpt>
			 <trkpt lat="-42.90418" lon="147.33731">
				 <ele>6.2</ele>
			 </trkpt>
			 <trkpt lat="-42.90451" lon="147.33769">
				 <ele>6.5</ele>
			 </trkpt>
			 <trkpt lat="-42.90465" lon="147.33789">
				 <ele>6.4</ele>
			 </trkpt>
			 <trkpt lat="-42.90529" lon="147.33915">
				 <ele>6.5</ele>
			 </trkpt>
			 <trkpt lat="-42.90556" lon="147.33961">
				 <ele>7.1</ele>
			 </trkpt>
			 <trkpt lat="-42.90574" lon="147.33998">
				 <ele>7.6</ele>
			 </trkpt>
			 <trkpt lat="-42.90583" lon="147.34022">
				 <ele>8.1</ele>
			 </trkpt>
			 <trkpt lat="-42.90605" lon="147.34098">
				 <ele>8.7</ele>
			 </trkpt>
			 <trkpt lat="-42.90621" lon="147.34133">
				 <ele>9.4</ele>
			 </trkpt>
			 <trkpt lat="-42.90666" lon="147.34209">
				 <ele>10.3</ele>
			 </trkpt>
			 <trkpt lat="-42.90686" lon="147.34244">
				 <ele>10.7</ele>
			 </trkpt>
			 <trkpt lat="-42.90714" lon="147.34286">
				 <ele>11.2</ele>
			 </trkpt>
			 <trkpt lat="-42.9075" lon="147.34333">
				 <ele>11.4</ele>
			 </trkpt>
			 <trkpt lat="-42.90792" lon="147.34389">
				 <ele>11.7</ele>
			 </trkpt>
			 <trkpt lat="-42.90809" lon="147.34425">
				 <ele>11.8</ele>
			 </trkpt>
			 <trkpt lat="-42.90826" lon="147.34471">
				 <ele>11.8</ele>
			 </trkpt>
			 <trkpt lat="-42.90866" lon="147.34595">
				 <ele>12.1</ele>
			 </trkpt>
			 <trkpt lat="-42.90889" lon="147.3466">
				 <ele>12.4</ele>
			 </trkpt>
			 <trkpt lat="-42.90925" lon="147.34755">
				 <ele>12.5</ele>
			 </trkpt>
			 <trkpt lat="-42.90983" lon="147.349">
				 <ele>12.5</ele>
			 </trkpt>
			 <trkpt lat="-42.90988" lon="147.34912">
				 <ele>12.3</ele>
			 </trkpt>
			 <trkpt lat="-42.9091" lon="147.34717">
				 <ele>12</ele>
			 </trkpt>
			 <trkpt lat="-42.90859" lon="147.34574">
				 <ele>11.5</ele>
			 </trkpt>
			 <trkpt lat="-42.90815" lon="147.34442">
				 <ele>11.3</ele>
			 </trkpt>
			 <trkpt lat="-42.90792" lon="147.34389">
				 <ele>11.2</ele>
			 </trkpt>
			 <trkpt lat="-42.90744" lon="147.34324">
				 <ele>10.8</ele>
			 </trkpt>
			 <trkpt lat="-42.90714" lon="147.34286">
				 <ele>10.8</ele>
			 </trkpt>
			 <trkpt lat="-42.90688" lon="147.34247">
				 <ele>10.5</ele>
			 </trkpt>
			 <trkpt lat="-42.90678" lon="147.3423">
				 <ele>10.1</ele>
			 </trkpt>
			 <trkpt lat="-42.90621" lon="147.34133">
				 <ele>9.3</ele>
			 </trkpt>
			 <trkpt lat="-42.90605" lon="147.34098">
				 <ele>8.5</ele>
			 </trkpt>
			 <trkpt lat="-42.90594" lon="147.34064">
				 <ele>7.9</ele>
			 </trkpt>
			 <trkpt lat="-42.90574" lon="147.33998">
				 <ele>7.5</ele>
			 </trkpt>
			 <trkpt lat="-42.90556" lon="147.33961">
				 <ele>7.5</ele>
			 </trkpt>
			 <trkpt lat="-42.90529" lon="147.33915">
				 <ele>7.4</ele>
			 </trkpt>
			 <trkpt lat="-42.90457" lon="147.33777">
				 <ele>7.2</ele>
			 </trkpt>
			 <trkpt lat="-42.90435" lon="147.3375">
				 <ele>7.2</ele>
			 </trkpt>
			 <trkpt lat="-42.90367" lon="147.3368">
				 <ele>6.6</ele>
			 </trkpt>
			 <trkpt lat="-42.90322" lon="147.33623">
				 <ele>6.4</ele>
			 </trkpt>
			 <trkpt lat="-42.90298" lon="147.33583">
				 <ele>6.3</ele>
			 </trkpt>
			 <trkpt lat="-42.9027" lon="147.33524">
				 <ele>6.7</ele>
			 </trkpt>
			 <trkpt lat="-42.90248" lon="147.33475">
				 <ele>6.9</ele>
			 </trkpt>
			 <trkpt lat="-42.90234" lon="147.33447">
				 <ele>7</ele>
			 </trkpt>
			 <trkpt lat="-42.90197" lon="147.33386">
				 <ele>7.2</ele>
			 </trkpt>
			 <trkpt lat="-42.90178" lon="147.33358">
				 <ele>7</ele>
			 </trkpt>
			 <trkpt lat="-42.90156" lon="147.33326">
				 <ele>7.3</ele>
			 </trkpt>
			 <trkpt lat="-42.9005" lon="147.33173">
				 <ele>7.8</ele>
			 </trkpt>
			 <trkpt lat="-42.89996" lon="147.33093">
				 <ele>8.5</ele>
			 </trkpt>
			 <trkpt lat="-42.89982" lon="147.33073">
				 <ele>8.7</ele>
			 </trkpt>
			 <trkpt lat="-42.89948" lon="147.33041">
				 <ele>9.2</ele>
			 </trkpt>
			 <trkpt lat="-42.89872" lon="147.32971">
				 <ele>9.7</ele>
			 </trkpt>
			 <trkpt lat="-42.89825" lon="147.32931">
				 <ele>10.1</ele>
			 </trkpt>
			 <trkpt lat="-42.89808" lon="147.3292">
				 <ele>10.6</ele>
			 </trkpt>
			 <trkpt lat="-42.89671" lon="147.32857">
				 <ele>11.5</ele>
			 </trkpt>
			 <trkpt lat="-42.89649" lon="147.32847">
				 <ele>12.3</ele>
			 </trkpt>
			 <trkpt lat="-42.89617" lon="147.32833">
				 <ele>12.9</ele>
			 </trkpt>
			 <trkpt lat="-42.89612" lon="147.32835">
				 <ele>13.2</ele>
			 </trkpt>
			 <trkpt lat="-42.896" lon="147.3283">
				 <ele>13.3</ele>
			 </trkpt>
			 <trkpt lat="-42.8959" lon="147.32824">
				 <ele>13.5</ele>
			 </trkpt>
			 <trkpt lat="-42.89568" lon="147.3281">
				 <ele>14.4</ele>
			 </trkpt>
			 <trkpt lat="-42.89551" lon="147.32794">
				 <ele>15.2</ele>
			 </trkpt>
			 <trkpt lat="-42.89525" lon="147.32763">
				 <ele>15.9</ele>
			 </trkpt>
			 <trkpt lat="-42.89508" lon="147.32734">
				 <ele>16.5</ele>
			 </trkpt>
			 <trkpt lat="-42.89495" lon="147.32713">
				 <ele>16.8</ele>
			 </trkpt>
			 <trkpt lat="-42.89472" lon="147.32673">
				 <ele>17</ele>
			 </trkpt>
			 <trkpt lat="-42.89441" lon="147.32634">
				 <ele>17.3</ele>
			 </trkpt>
			 <trkpt lat="-42.89419" lon="147.32615">
				 <ele>17.7</ele>
			 </trkpt>
			 <trkpt lat="-42.89396" lon="147.32598">
				 <ele>18.2</ele>
			 </trkpt>
			 <trkpt lat="-42.89339" lon="147.3258">
				 <ele>18.9</ele>
			 </trkpt>
			 <trkpt lat="-42.89333" lon="147.32581">
				 <ele>19.6</ele>
			 </trkpt>
			 <trkpt lat="-42.89293" lon="147.32586">
				 <ele>20.8</ele>
			 </trkpt>
			 <trkpt lat="-42.89282" lon="147.32591">
				 <ele>22</ele>
			 </trkpt>
			 <trkpt lat="-42.89258" lon="147.32605">
				 <ele>23.5</ele>
			 </trkpt>
			 <trkpt lat="-42.89194" lon="147.32653">
				 <ele>25</ele>
			 </trkpt>
			 <trkpt lat="-42.89177" lon="147.3267">
				 <ele>26.6</ele>
			 </trkpt>
			 <trkpt lat="-42.8916" lon="147.32699">
				 <ele>28.4</ele>
			 </trkpt>
			 <trkpt lat="-42.89156" lon="147.32704">
				 <ele>30.2</ele>
			 </trkpt>
			 <trkpt lat="-42.89149" lon="147.32727">
				 <ele>32</ele>
			 </trkpt>
			 <trkpt lat="-42.89133" lon="147.32772">
				 <ele>33.7</ele>
			 </trkpt>
			 <trkpt lat="-42.89095" lon="147.32863">
				 <ele>35</ele>
			 </trkpt>
			 <trkpt lat="-42.89105" lon="147.32884">
				 <ele>36.1</ele>
			 </trkpt>
			 <trkpt lat="-42.89134" lon="147.32935">
				 <ele>37.2</ele>
			 </trkpt>
			 <trkpt lat="-42.89169" lon="147.32995">
				 <ele>37.5</ele>
			 </trkpt>
			 <trkpt lat="-42.89172" lon="147.33012">
				 <ele>37.5</ele>
			 </trkpt>
			 <trkpt lat="-42.89188" lon="147.33062">
				 <ele>37.3</ele>
			 </trkpt>
			 <trkpt lat="-42.89201" lon="147.33104">
				 <ele>37</ele>
			 </trkpt>
			 <trkpt lat="-42.89153" lon="147.33143">
				 <ele>36.7</ele>
			 </trkpt>
			 <trkpt lat="-42.89061" lon="147.33217">
				 <ele>36.1</ele>
			 </trkpt>
			 <trkpt lat="-42.8903" lon="147.33244">
				 <ele>35.4</ele>
			 </trkpt>
			 <trkpt lat="-42.89001" lon="147.3327">
				 <ele>34.5</ele>
			 </trkpt>
			 <trkpt lat="-42.88989" lon="147.33277">
				 <ele>33</ele>
			 </trkpt>
			 <trkpt lat="-42.88978" lon="147.33281">
				 <ele>31.6</ele>
			 </trkpt>
			 <trkpt lat="-42.88978" lon="147.33336">
				 <ele>29.6</ele>
			 </trkpt>
			 <trkpt lat="-42.88974" lon="147.33379">
				 <ele>28</ele>
			 </trkpt>
			 <trkpt lat="-42.88963" lon="147.3343">
				 <ele>26.5</ele>
			 </trkpt>
			 <trkpt lat="-42.88935" lon="147.33605">
				 <ele>25</ele>
			 </trkpt>
			 <trkpt lat="-42.88926" lon="147.33643">
				 <ele>23.6</ele>
			 </trkpt>
			 <trkpt lat="-42.88916" lon="147.33669">
				 <ele>22.3</ele>
			 </trkpt>
			 <trkpt lat="-42.88905" lon="147.33689">
				 <ele>20.9</ele>
			 </trkpt>
			 <trkpt lat="-42.88885" lon="147.33711">
				 <ele>19.5</ele>
			 </trkpt>
			 <trkpt lat="-42.88863" lon="147.33726">
				 <ele>18.1</ele>
			 </trkpt>
			 <trkpt lat="-42.88846" lon="147.33738">
				 <ele>17.2</ele>
			 </trkpt>
			 <trkpt lat="-42.88838" lon="147.33743">
				 <ele>16.1</ele>
			 </trkpt>
			 <trkpt lat="-42.88836" lon="147.33751">
				 <ele>15.1</ele>
			 </trkpt>
			 <trkpt lat="-42.88833" lon="147.33761">
				 <ele>14.3</ele>
			 </trkpt>
			 <trkpt lat="-42.8883" lon="147.33768">
				 <ele>13.5</ele>
			 </trkpt>
			 <trkpt lat="-42.88815" lon="147.33782">
				 <ele>12.6</ele>
			 </trkpt>
			 <trkpt lat="-42.88804" lon="147.3379">
				 <ele>11.8</ele>
			 </trkpt>
			 <trkpt lat="-42.88771" lon="147.33803">
				 <ele>10.9</ele>
			 </trkpt>
			 <trkpt lat="-42.88746" lon="147.33812">
				 <ele>10</ele>
			 </trkpt>
			 <trkpt lat="-42.88721" lon="147.33811">
				 <ele>9.2</ele>
			 </trkpt>
			 <trkpt lat="-42.88716" lon="147.33809">
				 <ele>8.5</ele>
			 </trkpt>
			 <trkpt lat="-42.88709" lon="147.33804">
				 <ele>8</ele>
			 </trkpt>
			 <trkpt lat="-42.88697" lon="147.33792">
				 <ele>7.7</ele>
			 </trkpt>
			 <trkpt lat="-42.88686" lon="147.33774">
				 <ele>7.5</ele>
			 </trkpt>
			 <trkpt lat="-42.88664" lon="147.33737">
				 <ele>7.1</ele>
			 </trkpt>
			 <trkpt lat="-42.88661" lon="147.33726">
				 <ele>6.7</ele>
			 </trkpt>
			 <trkpt lat="-42.88649" lon="147.33639">
				 <ele>6.4</ele>
			 </trkpt>
			 <trkpt lat="-42.88643" lon="147.3355">
				 <ele>6</ele>
			 </trkpt>
			 <trkpt lat="-42.88639" lon="147.33449">
				 <ele>6</ele>
			 </trkpt>
			 <trkpt lat="-42.88628" lon="147.33282">
				 <ele>6.1</ele>
			 </trkpt>
			 <trkpt lat="-42.88625" lon="147.33251">
				 <ele>6.2</ele>
			 </trkpt>
			 <trkpt lat="-42.88621" lon="147.33227">
				 <ele>6.3</ele>
			 </trkpt>
			 <trkpt lat="-42.88613" lon="147.33201">
				 <ele>6.2</ele>
			 </trkpt>
			 <trkpt lat="-42.88599" lon="147.33169">
				 <ele>6</ele>
			 </trkpt>
			 <trkpt lat="-42.88596" lon="147.33171">
				 <ele>5.9</ele>
			 </trkpt>
			 <trkpt lat="-42.88592" lon="147.33173">
				 <ele>5.9</ele>
			 </trkpt>
			 <trkpt lat="-42.88582" lon="147.33173">
				 <ele>6.1</ele>
			 </trkpt>
			 <trkpt lat="-42.88572" lon="147.33172">
				 <ele>6.4</ele>
			 </trkpt>
			 <trkpt lat="-42.88569" lon="147.33173">
				 <ele>6.5</ele>
			 </trkpt>
			 <trkpt lat="-42.88549" lon="147.33164">
				 <ele>6.5</ele>
			 </trkpt>
			 <trkpt lat="-42.88539" lon="147.33159">
				 <ele>6.5</ele>
			 </trkpt>
			 <trkpt lat="-42.88533" lon="147.33152">
				 <ele>6.5</ele>
			 </trkpt>
			 <trkpt lat="-42.88526" lon="147.33144">
				 <ele>6.4</ele>
			 </trkpt>
			 <trkpt lat="-42.88508" lon="147.33129">
				 <ele>6.2</ele>
			 </trkpt>
			 <trkpt lat="-42.88498" lon="147.33124">
				 <ele>5.9</ele>
			 </trkpt>
			 <trkpt lat="-42.88485" lon="147.33128">
				 <ele>5.7</ele>
			 </trkpt>
			 <trkpt lat="-42.88476" lon="147.33133">
				 <ele>5.4</ele>
			 </trkpt>
			 <trkpt lat="-42.884545" lon="147.33155">
				 <ele>4.8</ele>
			 </trkpt>
			 <trkpt lat="-42.88455" lon="147.3321">
				 <ele>4.4</ele>
			 </trkpt>
			 <trkpt lat="-42.88432" lon="147.33231">
				 <ele>4</ele>
			 </trkpt>
			 <trkpt lat="-42.88348" lon="147.33302">
				 <ele>3.8</ele>
			 </trkpt>
			 <trkpt lat="-42.88321" lon="147.3333">
				 <ele>3.7</ele>
			 </trkpt>
			 <trkpt lat="-42.88319" lon="147.33333">
				 <ele>3.5</ele>
			 </trkpt>
			 <trkpt lat="-42.88295" lon="147.33371">
				 <ele>3.3</ele>
			 </trkpt>
			 <trkpt lat="-42.88321" lon="147.3333">
				 <ele>3.3</ele>
			 </trkpt>
			 <trkpt lat="-42.88348" lon="147.33302">
				 <ele>3.5</ele>
			 </trkpt>
			 <trkpt lat="-42.8838" lon="147.33274">
				 <ele>3.6</ele>
			 </trkpt>
			 <trkpt lat="-42.88452" lon="147.33214">
				 <ele>3.9</ele>
			 </trkpt>
			 <trkpt lat="-42.88457" lon="147.33204">
				 <ele>4.2</ele>
			 </trkpt>
			 <trkpt lat="-42.88457" lon="147.33192">
				 <ele>4.4</ele>
			 </trkpt>
			 <trkpt lat="-42.88448" lon="147.3316">
				 <ele>4.6</ele>
			 </trkpt>
			 <trkpt lat="-42.88464" lon="147.33151">
				 <ele>4.8</ele>
			 </trkpt>
			 <trkpt lat="-42.88488" lon="147.3314">
				 <ele>4.8</ele>
			 </trkpt>
			 <trkpt lat="-42.88492" lon="147.3314">
				 <ele>5</ele>
			 </trkpt>
			 <trkpt lat="-42.88507" lon="147.33146">
				 <ele>5.3</ele>
			 </trkpt>
			 <trkpt lat="-42.88529" lon="147.33157">
				 <ele>5.5</ele>
			 </trkpt>
			 <trkpt lat="-42.88539" lon="147.33159">
				 <ele>5.5</ele>
			 </trkpt>
			 <trkpt lat="-42.88569" lon="147.33173">
				 <ele>5.3</ele>
			 </trkpt>
			 <trkpt lat="-42.88578" lon="147.33172">
				 <ele>5.1</ele>
			 </trkpt>
			 <trkpt lat="-42.8859" lon="147.33173">
				 <ele>5.3</ele>
			 </trkpt>
			 <trkpt lat="-42.88596" lon="147.33171">
				 <ele>5.4</ele>
			 </trkpt>
			 <trkpt lat="-42.886051" lon="147.33182">
				 <ele>5.4</ele>
			 </trkpt>
			 <trkpt lat="-42.886123" lon="147.332099">
				 <ele>5.4</ele>
			 </trkpt>
			 <trkpt lat="-42.886173" lon="147.332359">
				 <ele>5.3</ele>
			 </trkpt>
			 <trkpt lat="-42.886228" lon="147.333132">
				 <ele>5.2</ele>
			 </trkpt>
		 </trkseg>
	 </trk>
</gpx>