<?xml version="1.0" encoding="UTF-8"?>
 <gpx creator="Garmin Connect" version="1.1"
	 xsi:schemaLocation="http://www.topografix.com/GPX/1/1 http://www.topografix.com/GPX/11.xsd"
	 xmlns:ns3="http://www.garmin.com/xmlschemas/TrackPointExtension/v1"
	 xmlns="http://www.topografix.com/GPX/1/1"
	 xmlns:xsi="http://www.w3.org/2001/XMLSchema-instance" xmlns:ns2="http://www.garmin.com/xmlschemas/GpxExtensions/v3">
	 <metadata>
		<name>Honolulu Marathon 2024 - 42.195 km</name>
		 <link href="https://www.goandrace.com">
		 <text>Garmin Connect</text>
		 </link>
	 <time>2026-08-08T20:58:46</time>
	 </metadata>
	 <trk>
		 <name>Honolulu Marathon 2024 - 42.195 km</name>
		 <trkseg>
			 <trkpt lat="21.291943" lon="-157.850822">
				 <ele>1.2</ele>
			 </trkpt>
			 <trkpt lat="21.29195" lon="-157.85082">
				 <ele>1.1</ele>
			 </trkpt>
			 <trkpt lat="21.29203" lon="-157.85162">
				 <ele>1.1</ele>
			 </trkpt>
			 <trkpt lat="21.29213" lon="-157.85209">
				 <ele>1.1</ele>
			 </trkpt>
			 <trkpt lat="21.29222" lon="-157.85238">
				 <ele>1.1</ele>
			 </trkpt>
			 <trkpt lat="21.29248" lon="-157.85296">
				 <ele>1.1</ele>
			 </trkpt>
			 <trkpt lat="21.29291" lon="-157.8537">
				 <ele>1.1</ele>
			 </trkpt>
			 <trkpt lat="21.29356" lon="-157.85469">
				 <ele>1.1</ele>
			 </trkpt>
			 <trkpt lat="21.29356" lon="-157.85469">
				 <ele>1.1</ele>
			 </trkpt>
			 <trkpt lat="21.29417" lon="-157.85571">
				 <ele>1.1</ele>
			 </trkpt>
			 <trkpt lat="21.29435" lon="-157.85603">
				 <ele>1.2</ele>
			 </trkpt>
			 <trkpt lat="21.29448" lon="-157.85627">
				 <ele>1.2</ele>
			 </trkpt>
			 <trkpt lat="21.29494" lon="-157.85751">
				 <ele>1.2</ele>
			 </trkpt>
			 <trkpt lat="21.29508" lon="-157.85781">
				 <ele>1.2</ele>
			 </trkpt>
			 <trkpt lat="21.29557" lon="-157.85887">
				 <ele>1.2</ele>
			 </trkpt>
			 <trkpt lat="21.29587" lon="-157.85953">
				 <ele>1.3</ele>
			 </trkpt>
			 <trkpt lat="21.29587" lon="-157.85953">
				 <ele>1.3</ele>
			 </trkpt>
			 <trkpt lat="21.29626" lon="-157.86034">
				 <ele>1.3</ele>
			 </trkpt>
			 <trkpt lat="21.29639" lon="-157.86053">
				 <ele>1.3</ele>
			 </trkpt>
			 <trkpt lat="21.29666" lon="-157.86085">
				 <ele>1.3</ele>
			 </trkpt>
			 <trkpt lat="21.29711" lon="-157.86128">
				 <ele>1.3</ele>
			 </trkpt>
			 <trkpt lat="21.29787" lon="-157.86196">
				 <ele>1.2</ele>
			 </trkpt>
			 <trkpt lat="21.29828" lon="-157.86234">
				 <ele>1.1</ele>
			 </trkpt>
			 <trkpt lat="21.29895" lon="-157.86285">
				 <ele>1.2</ele>
			 </trkpt>
			 <trkpt lat="21.2991" lon="-157.86291">
				 <ele>1.2</ele>
			 </trkpt>
			 <trkpt lat="21.2991" lon="-157.86291">
				 <ele>1.3</ele>
			 </trkpt>
			 <trkpt lat="21.29937" lon="-157.86296">
				 <ele>1.3</ele>
			 </trkpt>
			 <trkpt lat="21.29979" lon="-157.863">
				 <ele>1.4</ele>
			 </trkpt>
			 <trkpt lat="21.30057" lon="-157.86307">
				 <ele>1.5</ele>
			 </trkpt>
			 <trkpt lat="21.30187" lon="-157.86322">
				 <ele>1.5</ele>
			 </trkpt>
			 <trkpt lat="21.3028" lon="-157.86332">
				 <ele>1.6</ele>
			 </trkpt>
			 <trkpt lat="21.30324" lon="-157.86333">
				 <ele>1.7</ele>
			 </trkpt>
			 <trkpt lat="21.30349" lon="-157.86328">
				 <ele>1.8</ele>
			 </trkpt>
			 <trkpt lat="21.30388" lon="-157.86314">
				 <ele>1.9</ele>
			 </trkpt>
			 <trkpt lat="21.30424" lon="-157.86297">
				 <ele>1.9</ele>
			 </trkpt>
			 <trkpt lat="21.30424" lon="-157.86297">
				 <ele>2</ele>
			 </trkpt>
			 <trkpt lat="21.30465" lon="-157.86278">
				 <ele>2</ele>
			 </trkpt>
			 <trkpt lat="21.30493" lon="-157.86269">
				 <ele>2</ele>
			 </trkpt>
			 <trkpt lat="21.30504" lon="-157.86267">
				 <ele>2</ele>
			 </trkpt>
			 <trkpt lat="21.30524" lon="-157.86267">
				 <ele>2</ele>
			 </trkpt>
			 <trkpt lat="21.3054" lon="-157.86269">
				 <ele>2</ele>
			 </trkpt>
			 <trkpt lat="21.3056" lon="-157.86273">
				 <ele>2</ele>
			 </trkpt>
			 <trkpt lat="21.30585" lon="-157.86282">
				 <ele>2</ele>
			 </trkpt>
			 <trkpt lat="21.30622" lon="-157.86303">
				 <ele>2</ele>
			 </trkpt>
			 <trkpt lat="21.30755" lon="-157.86392">
				 <ele>2</ele>
			 </trkpt>
			 <trkpt lat="21.30786" lon="-157.86411">
				 <ele>2</ele>
			 </trkpt>
			 <trkpt lat="21.30786" lon="-157.86411">
				 <ele>2</ele>
			 </trkpt>
			 <trkpt lat="21.30804" lon="-157.8642">
				 <ele>2</ele>
			 </trkpt>
			 <trkpt lat="21.30828" lon="-157.86422">
				 <ele>2</ele>
			 </trkpt>
			 <trkpt lat="21.30861" lon="-157.86419">
				 <ele>2</ele>
			 </trkpt>
			 <trkpt lat="21.30907" lon="-157.86414">
				 <ele>2.3</ele>
			 </trkpt>
			 <trkpt lat="21.30907" lon="-157.86414">
				 <ele>2.6</ele>
			 </trkpt>
			 <trkpt lat="21.3095" lon="-157.86412">
				 <ele>2.9</ele>
			 </trkpt>
			 <trkpt lat="21.3095" lon="-157.86401">
				 <ele>3.2</ele>
			 </trkpt>
			 <trkpt lat="21.30949" lon="-157.86381">
				 <ele>3.4</ele>
			 </trkpt>
			 <trkpt lat="21.3099" lon="-157.86276">
				 <ele>3.5</ele>
			 </trkpt>
			 <trkpt lat="21.30997" lon="-157.86259">
				 <ele>3.5</ele>
			 </trkpt>
			 <trkpt lat="21.30974" lon="-157.86246">
				 <ele>3.6</ele>
			 </trkpt>
			 <trkpt lat="21.30974" lon="-157.86245">
				 <ele>3.8</ele>
			 </trkpt>
			 <trkpt lat="21.30921" lon="-157.86214">
				 <ele>4</ele>
			 </trkpt>
			 <trkpt lat="21.3085" lon="-157.86156">
				 <ele>4.3</ele>
			 </trkpt>
			 <trkpt lat="21.30721" lon="-157.86048">
				 <ele>4.2</ele>
			 </trkpt>
			 <trkpt lat="21.30721" lon="-157.86048">
				 <ele>3.9</ele>
			 </trkpt>
			 <trkpt lat="21.30615" lon="-157.85961">
				 <ele>3.6</ele>
			 </trkpt>
			 <trkpt lat="21.30576" lon="-157.85918">
				 <ele>3.4</ele>
			 </trkpt>
			 <trkpt lat="21.30536" lon="-157.85859">
				 <ele>3.2</ele>
			 </trkpt>
			 <trkpt lat="21.30465" lon="-157.85737">
				 <ele>3.1</ele>
			 </trkpt>
			 <trkpt lat="21.30414" lon="-157.85646">
				 <ele>3</ele>
			 </trkpt>
			 <trkpt lat="21.30382" lon="-157.85577">
				 <ele>2.9</ele>
			 </trkpt>
			 <trkpt lat="21.3035" lon="-157.85551">
				 <ele>2.7</ele>
			 </trkpt>
			 <trkpt lat="21.30318" lon="-157.85536">
				 <ele>2.5</ele>
			 </trkpt>
			 <trkpt lat="21.30277" lon="-157.85517">
				 <ele>2.3</ele>
			 </trkpt>
			 <trkpt lat="21.30245" lon="-157.85502">
				 <ele>2.1</ele>
			 </trkpt>
			 <trkpt lat="21.30245" lon="-157.85502">
				 <ele>2</ele>
			 </trkpt>
			 <trkpt lat="21.30199" lon="-157.8548">
				 <ele>2</ele>
			 </trkpt>
			 <trkpt lat="21.30151" lon="-157.85459">
				 <ele>2</ele>
			 </trkpt>
			 <trkpt lat="21.30123" lon="-157.85445">
				 <ele>2</ele>
			 </trkpt>
			 <trkpt lat="21.30088" lon="-157.85423">
				 <ele>2</ele>
			 </trkpt>
			 <trkpt lat="21.30032" lon="-157.85375">
				 <ele>2</ele>
			 </trkpt>
			 <trkpt lat="21.29938" lon="-157.85299">
				 <ele>2</ele>
			 </trkpt>
			 <trkpt lat="21.29872" lon="-157.85251">
				 <ele>2</ele>
			 </trkpt>
			 <trkpt lat="21.29801" lon="-157.85195">
				 <ele>1.9</ele>
			 </trkpt>
			 <trkpt lat="21.29801" lon="-157.85196">
				 <ele>1.9</ele>
			 </trkpt>
			 <trkpt lat="21.29769" lon="-157.85169">
				 <ele>1.8</ele>
			 </trkpt>
			 <trkpt lat="21.2974" lon="-157.85142">
				 <ele>1.8</ele>
			 </trkpt>
			 <trkpt lat="21.29719" lon="-157.85117">
				 <ele>1.8</ele>
			 </trkpt>
			 <trkpt lat="21.29677" lon="-157.85059">
				 <ele>1.7</ele>
			 </trkpt>
			 <trkpt lat="21.29639" lon="-157.84984">
				 <ele>1.6</ele>
			 </trkpt>
			 <trkpt lat="21.29593" lon="-157.8488">
				 <ele>1.6</ele>
			 </trkpt>
			 <trkpt lat="21.29518" lon="-157.84719">
				 <ele>1.6</ele>
			 </trkpt>
			 <trkpt lat="21.29479" lon="-157.84632">
				 <ele>1.6</ele>
			 </trkpt>
			 <trkpt lat="21.29437" lon="-157.84652">
				 <ele>1.5</ele>
			 </trkpt>
			 <trkpt lat="21.29384" lon="-157.84673">
				 <ele>1.5</ele>
			 </trkpt>
			 <trkpt lat="21.29253" lon="-157.84725">
				 <ele>1.5</ele>
			 </trkpt>
			 <trkpt lat="21.29172" lon="-157.84759">
				 <ele>1.5</ele>
			 </trkpt>
			 <trkpt lat="21.29172" lon="-157.84759">
				 <ele>1.4</ele>
			 </trkpt>
			 <trkpt lat="21.29128" lon="-157.84775">
				 <ele>1.3</ele>
			 </trkpt>
			 <trkpt lat="21.291" lon="-157.84785">
				 <ele>1.3</ele>
			 </trkpt>
			 <trkpt lat="21.29092" lon="-157.8478">
				 <ele>1.3</ele>
			 </trkpt>
			 <trkpt lat="21.29087" lon="-157.84776">
				 <ele>1.2</ele>
			 </trkpt>
			 <trkpt lat="21.29072" lon="-157.8476">
				 <ele>1.1</ele>
			 </trkpt>
			 <trkpt lat="21.29044" lon="-157.84691">
				 <ele>1</ele>
			 </trkpt>
			 <trkpt lat="21.29005" lon="-157.84591">
				 <ele>1</ele>
			 </trkpt>
			 <trkpt lat="21.28979" lon="-157.84494">
				 <ele>1</ele>
			 </trkpt>
			 <trkpt lat="21.28979" lon="-157.84494">
				 <ele>1</ele>
			 </trkpt>
			 <trkpt lat="21.28902" lon="-157.84178">
				 <ele>1.1</ele>
			 </trkpt>
			 <trkpt lat="21.28886" lon="-157.84126">
				 <ele>1.2</ele>
			 </trkpt>
			 <trkpt lat="21.28878" lon="-157.84105">
				 <ele>1.3</ele>
			 </trkpt>
			 <trkpt lat="21.28868" lon="-157.84085">
				 <ele>1.4</ele>
			 </trkpt>
			 <trkpt lat="21.28861" lon="-157.84075">
				 <ele>1.3</ele>
			 </trkpt>
			 <trkpt lat="21.28853" lon="-157.84066">
				 <ele>1.4</ele>
			 </trkpt>
			 <trkpt lat="21.28844" lon="-157.84058">
				 <ele>1.5</ele>
			 </trkpt>
			 <trkpt lat="21.28824" lon="-157.84045">
				 <ele>1.5</ele>
			 </trkpt>
			 <trkpt lat="21.28805" lon="-157.84038">
				 <ele>1.5</ele>
			 </trkpt>
			 <trkpt lat="21.2877" lon="-157.84029">
				 <ele>1.6</ele>
			 </trkpt>
			 <trkpt lat="21.28735" lon="-157.84021">
				 <ele>1.6</ele>
			 </trkpt>
			 <trkpt lat="21.28713" lon="-157.84013">
				 <ele>1.5</ele>
			 </trkpt>
			 <trkpt lat="21.28674" lon="-157.83988">
				 <ele>1.5</ele>
			 </trkpt>
			 <trkpt lat="21.28554" lon="-157.83889">
				 <ele>1.4</ele>
			 </trkpt>
			 <trkpt lat="21.28507" lon="-157.83849">
				 <ele>1.3</ele>
			 </trkpt>
			 <trkpt lat="21.28491" lon="-157.83833">
				 <ele>1.5</ele>
			 </trkpt>
			 <trkpt lat="21.28472" lon="-157.83809">
				 <ele>1.5</ele>
			 </trkpt>
			 <trkpt lat="21.28461" lon="-157.83787">
				 <ele>1.4</ele>
			 </trkpt>
			 <trkpt lat="21.28455" lon="-157.83769">
				 <ele>1.4</ele>
			 </trkpt>
			 <trkpt lat="21.28449" lon="-157.83735">
				 <ele>1.3</ele>
			 </trkpt>
			 <trkpt lat="21.28448" lon="-157.83713">
				 <ele>1.2</ele>
			 </trkpt>
			 <trkpt lat="21.2845" lon="-157.83691">
				 <ele>1.3</ele>
			 </trkpt>
			 <trkpt lat="21.28462" lon="-157.83654">
				 <ele>1.4</ele>
			 </trkpt>
			 <trkpt lat="21.28481" lon="-157.83605">
				 <ele>1.5</ele>
			 </trkpt>
			 <trkpt lat="21.28493" lon="-157.83572">
				 <ele>1.5</ele>
			 </trkpt>
			 <trkpt lat="21.28499" lon="-157.83547">
				 <ele>1.6</ele>
			 </trkpt>
			 <trkpt lat="21.2853" lon="-157.83446">
				 <ele>1.6</ele>
			 </trkpt>
			 <trkpt lat="21.2853" lon="-157.83446">
				 <ele>1.6</ele>
			 </trkpt>
			 <trkpt lat="21.28559" lon="-157.83349">
				 <ele>1.7</ele>
			 </trkpt>
			 <trkpt lat="21.28562" lon="-157.83335">
				 <ele>1.8</ele>
			 </trkpt>
			 <trkpt lat="21.2856" lon="-157.83306">
				 <ele>1.9</ele>
			 </trkpt>
			 <trkpt lat="21.28559" lon="-157.83293">
				 <ele>2</ele>
			 </trkpt>
			 <trkpt lat="21.28549" lon="-157.83287">
				 <ele>2</ele>
			 </trkpt>
			 <trkpt lat="21.28487" lon="-157.8325">
				 <ele>1.9</ele>
			 </trkpt>
			 <trkpt lat="21.2847" lon="-157.83238">
				 <ele>1.9</ele>
			 </trkpt>
			 <trkpt lat="21.28405" lon="-157.83199">
				 <ele>1.9</ele>
			 </trkpt>
			 <trkpt lat="21.28342" lon="-157.83161">
				 <ele>1.9</ele>
			 </trkpt>
			 <trkpt lat="21.28295" lon="-157.83133">
				 <ele>1.9</ele>
			 </trkpt>
			 <trkpt lat="21.28228" lon="-157.83099">
				 <ele>1.9</ele>
			 </trkpt>
			 <trkpt lat="21.28162" lon="-157.83065">
				 <ele>1.9</ele>
			 </trkpt>
			 <trkpt lat="21.28101" lon="-157.83032">
				 <ele>1.9</ele>
			 </trkpt>
			 <trkpt lat="21.28038" lon="-157.82995">
				 <ele>1.8</ele>
			 </trkpt>
			 <trkpt lat="21.28009" lon="-157.82978">
				 <ele>1.9</ele>
			 </trkpt>
			 <trkpt lat="21.2798" lon="-157.82955">
				 <ele>2</ele>
			 </trkpt>
			 <trkpt lat="21.27959" lon="-157.82939">
				 <ele>2.2</ele>
			 </trkpt>
			 <trkpt lat="21.27935" lon="-157.82919">
				 <ele>2.3</ele>
			 </trkpt>
			 <trkpt lat="21.27865" lon="-157.82841">
				 <ele>2.3</ele>
			 </trkpt>
			 <trkpt lat="21.27667" lon="-157.82621">
				 <ele>2.3</ele>
			 </trkpt>
			 <trkpt lat="21.27667" lon="-157.82621">
				 <ele>2.3</ele>
			 </trkpt>
			 <trkpt lat="21.2761" lon="-157.82561">
				 <ele>2.4</ele>
			 </trkpt>
			 <trkpt lat="21.27538" lon="-157.82494">
				 <ele>2.5</ele>
			 </trkpt>
			 <trkpt lat="21.27504" lon="-157.8246">
				 <ele>2.5</ele>
			 </trkpt>
			 <trkpt lat="21.27446" lon="-157.82429">
				 <ele>2.7</ele>
			 </trkpt>
			 <trkpt lat="21.27311" lon="-157.82358">
				 <ele>2.7</ele>
			 </trkpt>
			 <trkpt lat="21.27153" lon="-157.82277">
				 <ele>2.7</ele>
			 </trkpt>
			 <trkpt lat="21.27121" lon="-157.82264">
				 <ele>2.6</ele>
			 </trkpt>
			 <trkpt lat="21.27117" lon="-157.82259">
				 <ele>2.5</ele>
			 </trkpt>
			 <trkpt lat="21.2711" lon="-157.82255">
				 <ele>2.5</ele>
			 </trkpt>
			 <trkpt lat="21.27091" lon="-157.82245">
				 <ele>2.5</ele>
			 </trkpt>
			 <trkpt lat="21.27052" lon="-157.82205">
				 <ele>2.5</ele>
			 </trkpt>
			 <trkpt lat="21.27004" lon="-157.82157">
				 <ele>2.5</ele>
			 </trkpt>
			 <trkpt lat="21.26962" lon="-157.82097">
				 <ele>2.5</ele>
			 </trkpt>
			 <trkpt lat="21.26961" lon="-157.82086">
				 <ele>2.5</ele>
			 </trkpt>
			 <trkpt lat="21.26943" lon="-157.81916">
				 <ele>2.5</ele>
			 </trkpt>
			 <trkpt lat="21.26933" lon="-157.81807">
				 <ele>2.5</ele>
			 </trkpt>
			 <trkpt lat="21.26933" lon="-157.81807">
				 <ele>2.5</ele>
			 </trkpt>
			 <trkpt lat="21.26915" lon="-157.81603">
				 <ele>2.5</ele>
			 </trkpt>
			 <trkpt lat="21.26913" lon="-157.81587">
				 <ele>2.5</ele>
			 </trkpt>
			 <trkpt lat="21.26867" lon="-157.81593">
				 <ele>2.6</ele>
			 </trkpt>
			 <trkpt lat="21.2679" lon="-157.81605">
				 <ele>2.7</ele>
			 </trkpt>
			 <trkpt lat="21.26746" lon="-157.81616">
				 <ele>2.8</ele>
			 </trkpt>
			 <trkpt lat="21.26725" lon="-157.81625">
				 <ele>2.9</ele>
			 </trkpt>
			 <trkpt lat="21.26686" lon="-157.81647">
				 <ele>2.9</ele>
			 </trkpt>
			 <trkpt lat="21.26657" lon="-157.81665">
				 <ele>2.9</ele>
			 </trkpt>
			 <trkpt lat="21.26628" lon="-157.81685">
				 <ele>2.9</ele>
			 </trkpt>
			 <trkpt lat="21.26628" lon="-157.81685">
				 <ele>2.9</ele>
			 </trkpt>
			 <trkpt lat="21.26591" lon="-157.81709">
				 <ele>2.9</ele>
			 </trkpt>
			 <trkpt lat="21.26555" lon="-157.8173">
				 <ele>3</ele>
			 </trkpt>
			 <trkpt lat="21.26504" lon="-157.8175">
				 <ele>3</ele>
			 </trkpt>
			 <trkpt lat="21.26486" lon="-157.81759">
				 <ele>2.9</ele>
			 </trkpt>
			 <trkpt lat="21.26465" lon="-157.81774">
				 <ele>2.8</ele>
			 </trkpt>
			 <trkpt lat="21.26404" lon="-157.81831">
				 <ele>2.7</ele>
			 </trkpt>
			 <trkpt lat="21.26389" lon="-157.81841">
				 <ele>2.6</ele>
			 </trkpt>
			 <trkpt lat="21.26373" lon="-157.81849">
				 <ele>2.5</ele>
			 </trkpt>
			 <trkpt lat="21.26363" lon="-157.81853">
				 <ele>2.5</ele>
			 </trkpt>
			 <trkpt lat="21.26334" lon="-157.81855">
				 <ele>2.5</ele>
			 </trkpt>
			 <trkpt lat="21.26315" lon="-157.81854">
				 <ele>2.5</ele>
			 </trkpt>
			 <trkpt lat="21.26267" lon="-157.81845">
				 <ele>2.5</ele>
			 </trkpt>
			 <trkpt lat="21.262" lon="-157.81832">
				 <ele>2.5</ele>
			 </trkpt>
			 <trkpt lat="21.26122" lon="-157.81821">
				 <ele>2.5</ele>
			 </trkpt>
			 <trkpt lat="21.26074" lon="-157.81819">
				 <ele>2.7</ele>
			 </trkpt>
			 <trkpt lat="21.2604" lon="-157.81819">
				 <ele>2.9</ele>
			 </trkpt>
			 <trkpt lat="21.26019" lon="-157.81817">
				 <ele>3.2</ele>
			 </trkpt>
			 <trkpt lat="21.25933" lon="-157.81775">
				 <ele>3.5</ele>
			 </trkpt>
			 <trkpt lat="21.25933" lon="-157.81775">
				 <ele>3.7</ele>
			 </trkpt>
			 <trkpt lat="21.25837" lon="-157.81727">
				 <ele>3.9</ele>
			 </trkpt>
			 <trkpt lat="21.25826" lon="-157.81717">
				 <ele>4.1</ele>
			 </trkpt>
			 <trkpt lat="21.25809" lon="-157.81694">
				 <ele>4.3</ele>
			 </trkpt>
			 <trkpt lat="21.25805" lon="-157.81689">
				 <ele>4.5</ele>
			 </trkpt>
			 <trkpt lat="21.25795" lon="-157.81658">
				 <ele>4.5</ele>
			 </trkpt>
			 <trkpt lat="21.25788" lon="-157.81636">
				 <ele>4.7</ele>
			 </trkpt>
			 <trkpt lat="21.25779" lon="-157.81616">
				 <ele>4.8</ele>
			 </trkpt>
			 <trkpt lat="21.25772" lon="-157.81607">
				 <ele>5</ele>
			 </trkpt>
			 <trkpt lat="21.25759" lon="-157.81589">
				 <ele>5.5</ele>
			 </trkpt>
			 <trkpt lat="21.25695" lon="-157.81505">
				 <ele>6.1</ele>
			 </trkpt>
			 <trkpt lat="21.25672" lon="-157.81466">
				 <ele>6.9</ele>
			 </trkpt>
			 <trkpt lat="21.25666" lon="-157.81451">
				 <ele>7.8</ele>
			 </trkpt>
			 <trkpt lat="21.25662" lon="-157.81431">
				 <ele>8.9</ele>
			 </trkpt>
			 <trkpt lat="21.25656" lon="-157.81372">
				 <ele>10.2</ele>
			 </trkpt>
			 <trkpt lat="21.25651" lon="-157.8135">
				 <ele>11.6</ele>
			 </trkpt>
			 <trkpt lat="21.25635" lon="-157.81294">
				 <ele>13.3</ele>
			 </trkpt>
			 <trkpt lat="21.2563" lon="-157.81256">
				 <ele>15</ele>
			 </trkpt>
			 <trkpt lat="21.25636" lon="-157.81228">
				 <ele>17.3</ele>
			 </trkpt>
			 <trkpt lat="21.25639" lon="-157.81199">
				 <ele>19.7</ele>
			 </trkpt>
			 <trkpt lat="21.2564" lon="-157.8118">
				 <ele>21.8</ele>
			 </trkpt>
			 <trkpt lat="21.2564" lon="-157.81161">
				 <ele>23.7</ele>
			 </trkpt>
			 <trkpt lat="21.25632" lon="-157.81109">
				 <ele>25.5</ele>
			 </trkpt>
			 <trkpt lat="21.25612" lon="-157.80991">
				 <ele>27.2</ele>
			 </trkpt>
			 <trkpt lat="21.25572" lon="-157.80756">
				 <ele>28.8</ele>
			 </trkpt>
			 <trkpt lat="21.25572" lon="-157.80756">
				 <ele>30.4</ele>
			 </trkpt>
			 <trkpt lat="21.25569" lon="-157.80736">
				 <ele>31.3</ele>
			 </trkpt>
			 <trkpt lat="21.25571" lon="-157.80682">
				 <ele>31.5</ele>
			 </trkpt>
			 <trkpt lat="21.25576" lon="-157.80621">
				 <ele>31.6</ele>
			 </trkpt>
			 <trkpt lat="21.25581" lon="-157.80586">
				 <ele>31</ele>
			 </trkpt>
			 <trkpt lat="21.25631" lon="-157.80464">
				 <ele>30</ele>
			 </trkpt>
			 <trkpt lat="21.25693" lon="-157.80311">
				 <ele>29</ele>
			 </trkpt>
			 <trkpt lat="21.25772" lon="-157.8011">
				 <ele>28</ele>
			 </trkpt>
			 <trkpt lat="21.25781" lon="-157.80093">
				 <ele>26.9</ele>
			 </trkpt>
			 <trkpt lat="21.25816" lon="-157.80038">
				 <ele>25.5</ele>
			 </trkpt>
			 <trkpt lat="21.25841" lon="-157.80006">
				 <ele>24</ele>
			 </trkpt>
			 <trkpt lat="21.25847" lon="-157.79995">
				 <ele>22.5</ele>
			 </trkpt>
			 <trkpt lat="21.25861" lon="-157.7997">
				 <ele>21.5</ele>
			 </trkpt>
			 <trkpt lat="21.25868" lon="-157.79952">
				 <ele>21</ele>
			 </trkpt>
			 <trkpt lat="21.25892" lon="-157.79835">
				 <ele>20.6</ele>
			 </trkpt>
			 <trkpt lat="21.25896" lon="-157.79807">
				 <ele>20.5</ele>
			 </trkpt>
			 <trkpt lat="21.25941" lon="-157.79774">
				 <ele>20.5</ele>
			 </trkpt>
			 <trkpt lat="21.25983" lon="-157.79731">
				 <ele>20.6</ele>
			 </trkpt>
			 <trkpt lat="21.26013" lon="-157.79705">
				 <ele>20.8</ele>
			 </trkpt>
			 <trkpt lat="21.26039" lon="-157.79688">
				 <ele>21.1</ele>
			 </trkpt>
			 <trkpt lat="21.26065" lon="-157.7968">
				 <ele>21.5</ele>
			 </trkpt>
			 <trkpt lat="21.26107" lon="-157.79668">
				 <ele>22.2</ele>
			 </trkpt>
			 <trkpt lat="21.26167" lon="-157.79648">
				 <ele>22.7</ele>
			 </trkpt>
			 <trkpt lat="21.26211" lon="-157.79637">
				 <ele>23.2</ele>
			 </trkpt>
			 <trkpt lat="21.26243" lon="-157.79635">
				 <ele>23.9</ele>
			 </trkpt>
			 <trkpt lat="21.26259" lon="-157.79636">
				 <ele>24.6</ele>
			 </trkpt>
			 <trkpt lat="21.26288" lon="-157.7964">
				 <ele>25.4</ele>
			 </trkpt>
			 <trkpt lat="21.26317" lon="-157.79649">
				 <ele>26.3</ele>
			 </trkpt>
			 <trkpt lat="21.26317" lon="-157.79649">
				 <ele>27.4</ele>
			 </trkpt>
			 <trkpt lat="21.26464" lon="-157.79719">
				 <ele>28.5</ele>
			 </trkpt>
			 <trkpt lat="21.26504" lon="-157.79738">
				 <ele>29.9</ele>
			 </trkpt>
			 <trkpt lat="21.26539" lon="-157.79758">
				 <ele>31.1</ele>
			 </trkpt>
			 <trkpt lat="21.26601" lon="-157.79817">
				 <ele>31.9</ele>
			 </trkpt>
			 <trkpt lat="21.26661" lon="-157.79877">
				 <ele>32.5</ele>
			 </trkpt>
			 <trkpt lat="21.26701" lon="-157.79917">
				 <ele>32.5</ele>
			 </trkpt>
			 <trkpt lat="21.26727" lon="-157.79944">
				 <ele>32.4</ele>
			 </trkpt>
			 <trkpt lat="21.26741" lon="-157.79933">
				 <ele>32.1</ele>
			 </trkpt>
			 <trkpt lat="21.2676" lon="-157.79919">
				 <ele>31.8</ele>
			 </trkpt>
			 <trkpt lat="21.26793" lon="-157.799">
				 <ele>31.8</ele>
			 </trkpt>
			 <trkpt lat="21.26861" lon="-157.79861">
				 <ele>30.1</ele>
			 </trkpt>
			 <trkpt lat="21.26956" lon="-157.79803">
				 <ele>28.1</ele>
			 </trkpt>
			 <trkpt lat="21.26956" lon="-157.79803">
				 <ele>25.9</ele>
			 </trkpt>
			 <trkpt lat="21.27055" lon="-157.79747">
				 <ele>23.7</ele>
			 </trkpt>
			 <trkpt lat="21.27145" lon="-157.79694">
				 <ele>21.7</ele>
			 </trkpt>
			 <trkpt lat="21.27026" lon="-157.79458">
				 <ele>19.9</ele>
			 </trkpt>
			 <trkpt lat="21.27023" lon="-157.79452">
				 <ele>18.5</ele>
			 </trkpt>
			 <trkpt lat="21.27023" lon="-157.79452">
				 <ele>17</ele>
			 </trkpt>
			 <trkpt lat="21.26963" lon="-157.79332">
				 <ele>15.5</ele>
			 </trkpt>
			 <trkpt lat="21.26949" lon="-157.79296">
				 <ele>14</ele>
			 </trkpt>
			 <trkpt lat="21.26913" lon="-157.79225">
				 <ele>12.1</ele>
			 </trkpt>
			 <trkpt lat="21.2687" lon="-157.79139">
				 <ele>11.6</ele>
			 </trkpt>
			 <trkpt lat="21.26859" lon="-157.7911">
				 <ele>11.3</ele>
			 </trkpt>
			 <trkpt lat="21.26856" lon="-157.7907">
				 <ele>10.9</ele>
			 </trkpt>
			 <trkpt lat="21.2686" lon="-157.79033">
				 <ele>10.5</ele>
			 </trkpt>
			 <trkpt lat="21.26862" lon="-157.79012">
				 <ele>9.9</ele>
			 </trkpt>
			 <trkpt lat="21.26865" lon="-157.78999">
				 <ele>9.4</ele>
			 </trkpt>
			 <trkpt lat="21.26875" lon="-157.78975">
				 <ele>8.9</ele>
			 </trkpt>
			 <trkpt lat="21.26897" lon="-157.78942">
				 <ele>8.4</ele>
			 </trkpt>
			 <trkpt lat="21.26957" lon="-157.78878">
				 <ele>7.8</ele>
			 </trkpt>
			 <trkpt lat="21.27111" lon="-157.78714">
				 <ele>7.3</ele>
			 </trkpt>
			 <trkpt lat="21.27111" lon="-157.78714">
				 <ele>6.7</ele>
			 </trkpt>
			 <trkpt lat="21.27152" lon="-157.78672">
				 <ele>6.3</ele>
			 </trkpt>
			 <trkpt lat="21.27188" lon="-157.78637">
				 <ele>6</ele>
			 </trkpt>
			 <trkpt lat="21.27206" lon="-157.78624">
				 <ele>5.8</ele>
			 </trkpt>
			 <trkpt lat="21.2724" lon="-157.78597">
				 <ele>5.8</ele>
			 </trkpt>
			 <trkpt lat="21.27295" lon="-157.78568">
				 <ele>6.2</ele>
			 </trkpt>
			 <trkpt lat="21.27342" lon="-157.78546">
				 <ele>6.5</ele>
			 </trkpt>
			 <trkpt lat="21.27409" lon="-157.78526">
				 <ele>7</ele>
			 </trkpt>
			 <trkpt lat="21.27473" lon="-157.78508">
				 <ele>7.5</ele>
			 </trkpt>
			 <trkpt lat="21.27521" lon="-157.78498">
				 <ele>8.2</ele>
			 </trkpt>
			 <trkpt lat="21.27589" lon="-157.78485">
				 <ele>8.9</ele>
			 </trkpt>
			 <trkpt lat="21.27628" lon="-157.78476">
				 <ele>9.5</ele>
			 </trkpt>
			 <trkpt lat="21.27704" lon="-157.78467">
				 <ele>10.2</ele>
			 </trkpt>
			 <trkpt lat="21.27739" lon="-157.78463">
				 <ele>10.5</ele>
			 </trkpt>
			 <trkpt lat="21.27772" lon="-157.78458">
				 <ele>10.6</ele>
			 </trkpt>
			 <trkpt lat="21.278177" lon="-157.784452">
				 <ele>10.8</ele>
			 </trkpt>
			 <trkpt lat="21.27845" lon="-157.783872">
				 <ele>10.3</ele>
			 </trkpt>
			 <trkpt lat="21.278431" lon="-157.783218">
				 <ele>9.8</ele>
			 </trkpt>
			 <trkpt lat="21.278291" lon="-157.781673">
				 <ele>9.2</ele>
			 </trkpt>
			 <trkpt lat="21.278061" lon="-157.780702">
				 <ele>8.5</ele>
			 </trkpt>
			 <trkpt lat="21.277896" lon="-157.779618">
				 <ele>7.7</ele>
			 </trkpt>
			 <trkpt lat="21.277496" lon="-157.775073">
				 <ele>6.9</ele>
			 </trkpt>
			 <trkpt lat="21.277236" lon="-157.77326">
				 <ele>6</ele>
			 </trkpt>
			 <trkpt lat="21.276926" lon="-157.771414">
				 <ele>5</ele>
			 </trkpt>
			 <trkpt lat="21.276596" lon="-157.769827">
				 <ele>4.2</ele>
			 </trkpt>
			 <trkpt lat="21.276076" lon="-157.766694">
				 <ele>3.3</ele>
			 </trkpt>
			 <trkpt lat="21.276026" lon="-157.766125">
				 <ele>2.4</ele>
			 </trkpt>
			 <trkpt lat="21.276391" lon="-157.763205">
				 <ele>2.2</ele>
			 </trkpt>
			 <trkpt lat="21.276671" lon="-157.760748">
				 <ele>1.9</ele>
			 </trkpt>
			 <trkpt lat="21.277031" lon="-157.758538">
				 <ele>1.8</ele>
			 </trkpt>
			 <trkpt lat="21.278121" lon="-157.754121">
				 <ele>1.9</ele>
			 </trkpt>
			 <trkpt lat="21.27818" lon="-157.753424">
				 <ele>1.8</ele>
			 </trkpt>
			 <trkpt lat="21.278437" lon="-157.750818">
				 <ele>1.6</ele>
			 </trkpt>
			 <trkpt lat="21.278877" lon="-157.748919">
				 <ele>1.5</ele>
			 </trkpt>
			 <trkpt lat="21.279827" lon="-157.745346">
				 <ele>1.5</ele>
			 </trkpt>
			 <trkpt lat="21.280106" lon="-157.744252">
				 <ele>1.4</ele>
			 </trkpt>
			 <trkpt lat="21.280336" lon="-157.743394">
				 <ele>1.4</ele>
			 </trkpt>
			 <trkpt lat="21.28057" lon="-157.742294">
				 <ele>1.4</ele>
			 </trkpt>
			 <trkpt lat="21.280639" lon="-157.741424">
				 <ele>1.4</ele>
			 </trkpt>
			 <trkpt lat="21.280769" lon="-157.740008">
				 <ele>1.4</ele>
			 </trkpt>
			 <trkpt lat="21.280985" lon="-157.73879">
				 <ele>1.4</ele>
			 </trkpt>
			 <trkpt lat="21.282005" lon="-157.735014">
				 <ele>1.2</ele>
			 </trkpt>
			 <trkpt lat="21.282545" lon="-157.732847">
				 <ele>1.3</ele>
			 </trkpt>
			 <trkpt lat="21.282575" lon="-157.732408">
				 <ele>1.3</ele>
			 </trkpt>
			 <trkpt lat="21.282615" lon="-157.73185">
				 <ele>1.3</ele>
			 </trkpt>
			 <trkpt lat="21.282675" lon="-157.731303">
				 <ele>1.3</ele>
			 </trkpt>
			 <trkpt lat="21.282855" lon="-157.730691">
				 <ele>1.3</ele>
			 </trkpt>
			 <trkpt lat="21.284383" lon="-157.727712">
				 <ele>1.3</ele>
			 </trkpt>
			 <trkpt lat="21.284953" lon="-157.726736">
				 <ele>1.3</ele>
			 </trkpt>
			 <trkpt lat="21.285282" lon="-157.726167">
				 <ele>1.3</ele>
			 </trkpt>
			 <trkpt lat="21.285432" lon="-157.725673">
				 <ele>1.3</ele>
			 </trkpt>
			 <trkpt lat="21.286122" lon="-157.723131">
				 <ele>1.2</ele>
			 </trkpt>
			 <trkpt lat="21.286302" lon="-157.722187">
				 <ele>1.2</ele>
			 </trkpt>
			 <trkpt lat="21.286352" lon="-157.721393">
				 <ele>1</ele>
			 </trkpt>
			 <trkpt lat="21.286312" lon="-157.721006">
				 <ele>1</ele>
			 </trkpt>
			 <trkpt lat="21.286202" lon="-157.720202">
				 <ele>1</ele>
			 </trkpt>
			 <trkpt lat="21.285902" lon="-157.719461">
				 <ele>1</ele>
			 </trkpt>
			 <trkpt lat="21.285502" lon="-157.718689">
				 <ele>1</ele>
			 </trkpt>
			 <trkpt lat="21.284713" lon="-157.717455">
				 <ele>1</ele>
			 </trkpt>
			 <trkpt lat="21.28472" lon="-157.71746">
				 <ele>1</ele>
			 </trkpt>
			 <trkpt lat="21.28544" lon="-157.71683">
				 <ele>1</ele>
			 </trkpt>
			 <trkpt lat="21.28577" lon="-157.71647">
				 <ele>1</ele>
			 </trkpt>
			 <trkpt lat="21.28632" lon="-157.71586">
				 <ele>1.1</ele>
			 </trkpt>
			 <trkpt lat="21.28699" lon="-157.71524">
				 <ele>1.3</ele>
			 </trkpt>
			 <trkpt lat="21.28789" lon="-157.71446">
				 <ele>1.5</ele>
			 </trkpt>
			 <trkpt lat="21.28789" lon="-157.71446">
				 <ele>1.8</ele>
			 </trkpt>
			 <trkpt lat="21.2885" lon="-157.71393">
				 <ele>2</ele>
			 </trkpt>
			 <trkpt lat="21.2889" lon="-157.71356">
				 <ele>2.2</ele>
			 </trkpt>
			 <trkpt lat="21.2891" lon="-157.71335">
				 <ele>2.4</ele>
			 </trkpt>
			 <trkpt lat="21.28934" lon="-157.71296">
				 <ele>2.5</ele>
			 </trkpt>
			 <trkpt lat="21.28959" lon="-157.71258">
				 <ele>2.7</ele>
			 </trkpt>
			 <trkpt lat="21.28982" lon="-157.7123">
				 <ele>2.9</ele>
			 </trkpt>
			 <trkpt lat="21.29005" lon="-157.71212">
				 <ele>3.1</ele>
			 </trkpt>
			 <trkpt lat="21.29147" lon="-157.71156">
				 <ele>3.2</ele>
			 </trkpt>
			 <trkpt lat="21.2916" lon="-157.71151">
				 <ele>3.1</ele>
			 </trkpt>
			 <trkpt lat="21.29168" lon="-157.71148">
				 <ele>3</ele>
			 </trkpt>
			 <trkpt lat="21.29168" lon="-157.71148">
				 <ele>2.9</ele>
			 </trkpt>
			 <trkpt lat="21.29244" lon="-157.71119">
				 <ele>2.9</ele>
			 </trkpt>
			 <trkpt lat="21.29264" lon="-157.71112">
				 <ele>2.9</ele>
			 </trkpt>
			 <trkpt lat="21.29301" lon="-157.71096">
				 <ele>2.9</ele>
			 </trkpt>
			 <trkpt lat="21.2933" lon="-157.71075">
				 <ele>2.9</ele>
			 </trkpt>
			 <trkpt lat="21.29344" lon="-157.71061">
				 <ele>2.9</ele>
			 </trkpt>
			 <trkpt lat="21.29358" lon="-157.71042">
				 <ele>2.8</ele>
			 </trkpt>
			 <trkpt lat="21.29368" lon="-157.71023">
				 <ele>2.7</ele>
			 </trkpt>
			 <trkpt lat="21.29374" lon="-157.71003">
				 <ele>2.6</ele>
			 </trkpt>
			 <trkpt lat="21.29379" lon="-157.70982">
				 <ele>2.6</ele>
			 </trkpt>
			 <trkpt lat="21.29381" lon="-157.70958">
				 <ele>2.6</ele>
			 </trkpt>
			 <trkpt lat="21.29382" lon="-157.70917">
				 <ele>2.6</ele>
			 </trkpt>
			 <trkpt lat="21.2938" lon="-157.70891">
				 <ele>2.6</ele>
			 </trkpt>
			 <trkpt lat="21.29377" lon="-157.70872">
				 <ele>2.7</ele>
			 </trkpt>
			 <trkpt lat="21.29369" lon="-157.70848">
				 <ele>2.7</ele>
			 </trkpt>
			 <trkpt lat="21.29359" lon="-157.70827">
				 <ele>2.7</ele>
			 </trkpt>
			 <trkpt lat="21.29349" lon="-157.70814">
				 <ele>2.8</ele>
			 </trkpt>
			 <trkpt lat="21.29349" lon="-157.70814">
				 <ele>2.9</ele>
			 </trkpt>
			 <trkpt lat="21.29338" lon="-157.70801">
				 <ele>3</ele>
			 </trkpt>
			 <trkpt lat="21.29313" lon="-157.7078">
				 <ele>3</ele>
			 </trkpt>
			 <trkpt lat="21.29295" lon="-157.70769">
				 <ele>3</ele>
			 </trkpt>
			 <trkpt lat="21.2927" lon="-157.70759">
				 <ele>2.9</ele>
			 </trkpt>
			 <trkpt lat="21.29218" lon="-157.70753">
				 <ele>2.8</ele>
			 </trkpt>
			 <trkpt lat="21.29173" lon="-157.70749">
				 <ele>2.6</ele>
			 </trkpt>
			 <trkpt lat="21.29013" lon="-157.70737">
				 <ele>2.4</ele>
			 </trkpt>
			 <trkpt lat="21.29013" lon="-157.70737">
				 <ele>2.2</ele>
			 </trkpt>
			 <trkpt lat="21.28997" lon="-157.70736">
				 <ele>2</ele>
			 </trkpt>
			 <trkpt lat="21.2897" lon="-157.70728">
				 <ele>1.7</ele>
			 </trkpt>
			 <trkpt lat="21.289" lon="-157.70694">
				 <ele>1.5</ele>
			 </trkpt>
			 <trkpt lat="21.28853" lon="-157.7067">
				 <ele>1.4</ele>
			 </trkpt>
			 <trkpt lat="21.28705" lon="-157.70591">
				 <ele>1.3</ele>
			 </trkpt>
			 <trkpt lat="21.28671" lon="-157.70575">
				 <ele>1.2</ele>
			 </trkpt>
			 <trkpt lat="21.28641" lon="-157.70643">
				 <ele>1.1</ele>
			 </trkpt>
			 <trkpt lat="21.28627" lon="-157.70684">
				 <ele>1</ele>
			 </trkpt>
			 <trkpt lat="21.28612" lon="-157.70719">
				 <ele>1</ele>
			 </trkpt>
			 <trkpt lat="21.28578" lon="-157.70798">
				 <ele>1</ele>
			 </trkpt>
			 <trkpt lat="21.28519" lon="-157.70938">
				 <ele>1</ele>
			 </trkpt>
			 <trkpt lat="21.28493" lon="-157.70998">
				 <ele>1</ele>
			 </trkpt>
			 <trkpt lat="21.28493" lon="-157.70998">
				 <ele>1</ele>
			 </trkpt>
			 <trkpt lat="21.28463" lon="-157.71071">
				 <ele>1</ele>
			 </trkpt>
			 <trkpt lat="21.28431" lon="-157.71156">
				 <ele>1</ele>
			 </trkpt>
			 <trkpt lat="21.28421" lon="-157.71188">
				 <ele>1</ele>
			 </trkpt>
			 <trkpt lat="21.28412" lon="-157.71233">
				 <ele>1</ele>
			 </trkpt>
			 <trkpt lat="21.28404" lon="-157.71274">
				 <ele>1</ele>
			 </trkpt>
			 <trkpt lat="21.28396" lon="-157.7129">
				 <ele>1</ele>
			 </trkpt>
			 <trkpt lat="21.2839" lon="-157.71309">
				 <ele>1</ele>
			 </trkpt>
			 <trkpt lat="21.28386" lon="-157.71356">
				 <ele>1</ele>
			 </trkpt>
			 <trkpt lat="21.28385" lon="-157.71376">
				 <ele>1</ele>
			 </trkpt>
			 <trkpt lat="21.28383" lon="-157.71413">
				 <ele>1</ele>
			 </trkpt>
			 <trkpt lat="21.28379" lon="-157.71452">
				 <ele>1</ele>
			 </trkpt>
			 <trkpt lat="21.2837" lon="-157.71473">
				 <ele>1</ele>
			 </trkpt>
			 <trkpt lat="21.28354" lon="-157.71494">
				 <ele>1</ele>
			 </trkpt>
			 <trkpt lat="21.28328" lon="-157.71513">
				 <ele>1</ele>
			 </trkpt>
			 <trkpt lat="21.283" lon="-157.715321">
				 <ele>1</ele>
			 </trkpt>
			 <trkpt lat="21.284639" lon="-157.717724">
				 <ele>1</ele>
			 </trkpt>
			 <trkpt lat="21.285639" lon="-157.719269">
				 <ele>1</ele>
			 </trkpt>
			 <trkpt lat="21.285869" lon="-157.719805">
				 <ele>1</ele>
			 </trkpt>
			 <trkpt lat="21.286079" lon="-157.720535">
				 <ele>1</ele>
			 </trkpt>
			 <trkpt lat="21.286129" lon="-157.721189">
				 <ele>1</ele>
			 </trkpt>
			 <trkpt lat="21.286169" lon="-157.721608">
				 <ele>1</ele>
			 </trkpt>
			 <trkpt lat="21.286089" lon="-157.722209">
				 <ele>1</ele>
			 </trkpt>
			 <trkpt lat="21.285879" lon="-157.723282">
				 <ele>1</ele>
			 </trkpt>
			 <trkpt lat="21.285519" lon="-157.724719">
				 <ele>1.1</ele>
			 </trkpt>
			 <trkpt lat="21.285279" lon="-157.725545">
				 <ele>1.1</ele>
			 </trkpt>
			 <trkpt lat="21.285159" lon="-157.726007">
				 <ele>1.1</ele>
			 </trkpt>
			 <trkpt lat="21.284853" lon="-157.726624">
				 <ele>1.1</ele>
			 </trkpt>
			 <trkpt lat="21.283973" lon="-157.728137">
				 <ele>1.1</ele>
			 </trkpt>
			 <trkpt lat="21.283103" lon="-157.729832">
				 <ele>1.1</ele>
			 </trkpt>
			 <trkpt lat="21.282804" lon="-157.730486">
				 <ele>1.1</ele>
			 </trkpt>
			 <trkpt lat="21.282644" lon="-157.730958">
				 <ele>1.1</ele>
			 </trkpt>
			 <trkpt lat="21.282564" lon="-157.731184">
				 <ele>1.1</ele>
			 </trkpt>
			 <trkpt lat="21.282484" lon="-157.731795">
				 <ele>1.1</ele>
			 </trkpt>
			 <trkpt lat="21.282404" lon="-157.732804">
				 <ele>1.1</ele>
			 </trkpt>
			 <trkpt lat="21.282277" lon="-157.733589">
				 <ele>1</ele>
			 </trkpt>
			 <trkpt lat="21.280887" lon="-157.738642">
				 <ele>1.1</ele>
			 </trkpt>
			 <trkpt lat="21.280687" lon="-157.739726">
				 <ele>1.1</ele>
			 </trkpt>
			 <trkpt lat="21.280547" lon="-157.740799">
				 <ele>1.1</ele>
			 </trkpt>
			 <trkpt lat="21.280457" lon="-157.741882">
				 <ele>1.1</ele>
			 </trkpt>
			 <trkpt lat="21.280427" lon="-157.742483">
				 <ele>1.1</ele>
			 </trkpt>
			 <trkpt lat="21.279837" lon="-157.74479">
				 <ele>1.1</ele>
			 </trkpt>
			 <trkpt lat="21.279248" lon="-157.746736">
				 <ele>1.1</ele>
			 </trkpt>
			 <trkpt lat="21.279088" lon="-157.747336">
				 <ele>1.1</ele>
			 </trkpt>
			 <trkpt lat="21.278798" lon="-157.74842">
				 <ele>1.2</ele>
			 </trkpt>
			 <trkpt lat="21.278478" lon="-157.749847">
				 <ele>1.2</ele>
			 </trkpt>
			 <trkpt lat="21.278338" lon="-157.750598">
				 <ele>1.2</ele>
			 </trkpt>
			 <trkpt lat="21.278188" lon="-157.7518">
				 <ele>1.2</ele>
			 </trkpt>
			 <trkpt lat="21.277958" lon="-157.754128">
				 <ele>1.4</ele>
			 </trkpt>
			 <trkpt lat="21.276948" lon="-157.75828">
				 <ele>1.5</ele>
			 </trkpt>
			 <trkpt lat="21.276798" lon="-157.759128">
				 <ele>1.6</ele>
			 </trkpt>
			 <trkpt lat="21.276298" lon="-157.762154">
				 <ele>1.8</ele>
			 </trkpt>
			 <trkpt lat="21.276128" lon="-157.763527">
				 <ele>1.9</ele>
			 </trkpt>
			 <trkpt lat="21.275858" lon="-157.765941">
				 <ele>2.8</ele>
			 </trkpt>
			 <trkpt lat="21.275868" lon="-157.766649">
				 <ele>3.6</ele>
			 </trkpt>
			 <trkpt lat="21.276729" lon="-157.771379">
				 <ele>4.3</ele>
			 </trkpt>
			 <trkpt lat="21.277079" lon="-157.773472">
				 <ele>5.3</ele>
			 </trkpt>
			 <trkpt lat="21.277409" lon="-157.776158">
				 <ele>6.3</ele>
			 </trkpt>
			 <trkpt lat="21.277689" lon="-157.779173">
				 <ele>7.1</ele>
			 </trkpt>
			 <trkpt lat="21.277879" lon="-157.780814">
				 <ele>7.4</ele>
			 </trkpt>
			 <trkpt lat="21.277949" lon="-157.782284">
				 <ele>7.7</ele>
			 </trkpt>
			 <trkpt lat="21.278099" lon="-157.783529">
				 <ele>7.8</ele>
			 </trkpt>
			 <trkpt lat="21.277989" lon="-157.783894">
				 <ele>7.8</ele>
			 </trkpt>
			 <trkpt lat="21.277789" lon="-157.783904">
				 <ele>7.9</ele>
			 </trkpt>
			 <trkpt lat="21.27487" lon="-157.782273">
				 <ele>7.2</ele>
			 </trkpt>
			 <trkpt lat="21.27487" lon="-157.78227">
				 <ele>6.5</ele>
			 </trkpt>
			 <trkpt lat="21.27321" lon="-157.78134">
				 <ele>5.8</ele>
			 </trkpt>
			 <trkpt lat="21.27243" lon="-157.78079">
				 <ele>4.9</ele>
			 </trkpt>
			 <trkpt lat="21.27203" lon="-157.7805">
				 <ele>4</ele>
			 </trkpt>
			 <trkpt lat="21.27203" lon="-157.7805">
				 <ele>3.1</ele>
			 </trkpt>
			 <trkpt lat="21.26976" lon="-157.77884">
				 <ele>2.6</ele>
			 </trkpt>
			 <trkpt lat="21.26965" lon="-157.77874">
				 <ele>2.3</ele>
			 </trkpt>
			 <trkpt lat="21.26952" lon="-157.77884">
				 <ele>2.1</ele>
			 </trkpt>
			 <trkpt lat="21.26921" lon="-157.77908">
				 <ele>2</ele>
			 </trkpt>
			 <trkpt lat="21.2683" lon="-157.77972">
				 <ele>1.9</ele>
			 </trkpt>
			 <trkpt lat="21.26755" lon="-157.78029">
				 <ele>1.8</ele>
			 </trkpt>
			 <trkpt lat="21.26667" lon="-157.78095">
				 <ele>1.8</ele>
			 </trkpt>
			 <trkpt lat="21.26667" lon="-157.78095">
				 <ele>1.8</ele>
			 </trkpt>
			 <trkpt lat="21.26619" lon="-157.78132">
				 <ele>1.9</ele>
			 </trkpt>
			 <trkpt lat="21.26575" lon="-157.78173">
				 <ele>2</ele>
			 </trkpt>
			 <trkpt lat="21.26539" lon="-157.78227">
				 <ele>2.2</ele>
			 </trkpt>
			 <trkpt lat="21.26503" lon="-157.78277">
				 <ele>2.4</ele>
			 </trkpt>
			 <trkpt lat="21.26394" lon="-157.7843">
				 <ele>2.5</ele>
			 </trkpt>
			 <trkpt lat="21.26327" lon="-157.78523">
				 <ele>2.5</ele>
			 </trkpt>
			 <trkpt lat="21.26293" lon="-157.78573">
				 <ele>2.6</ele>
			 </trkpt>
			 <trkpt lat="21.26213" lon="-157.78722">
				 <ele>2.7</ele>
			 </trkpt>
			 <trkpt lat="21.26184" lon="-157.7878">
				 <ele>2.8</ele>
			 </trkpt>
			 <trkpt lat="21.26184" lon="-157.7878">
				 <ele>3.1</ele>
			 </trkpt>
			 <trkpt lat="21.26136" lon="-157.78874">
				 <ele>3.6</ele>
			 </trkpt>
			 <trkpt lat="21.2607" lon="-157.79004">
				 <ele>4.9</ele>
			 </trkpt>
			 <trkpt lat="21.26055" lon="-157.79042">
				 <ele>6.2</ele>
			 </trkpt>
			 <trkpt lat="21.26046" lon="-157.79065">
				 <ele>7.5</ele>
			 </trkpt>
			 <trkpt lat="21.26022" lon="-157.79177">
				 <ele>9</ele>
			 </trkpt>
			 <trkpt lat="21.25998" lon="-157.7929">
				 <ele>10.6</ele>
			 </trkpt>
			 <trkpt lat="21.25954" lon="-157.79503">
				 <ele>12.4</ele>
			 </trkpt>
			 <trkpt lat="21.25922" lon="-157.79672">
				 <ele>14.2</ele>
			 </trkpt>
			 <trkpt lat="21.25922" lon="-157.79672">
				 <ele>16.1</ele>
			 </trkpt>
			 <trkpt lat="21.25882" lon="-157.79888">
				 <ele>18.1</ele>
			 </trkpt>
			 <trkpt lat="21.25867" lon="-157.79956">
				 <ele>20.3</ele>
			 </trkpt>
			 <trkpt lat="21.25844" lon="-157.8">
				 <ele>22.2</ele>
			 </trkpt>
			 <trkpt lat="21.25832" lon="-157.80019">
				 <ele>23.3</ele>
			 </trkpt>
			 <trkpt lat="21.25797" lon="-157.80067">
				 <ele>25</ele>
			 </trkpt>
			 <trkpt lat="21.25778" lon="-157.80097">
				 <ele>26.7</ele>
			 </trkpt>
			 <trkpt lat="21.25719" lon="-157.80246">
				 <ele>28.1</ele>
			 </trkpt>
			 <trkpt lat="21.25716" lon="-157.80255">
				 <ele>29.3</ele>
			 </trkpt>
			 <trkpt lat="21.25716" lon="-157.80255">
				 <ele>30.4</ele>
			 </trkpt>
			 <trkpt lat="21.25624" lon="-157.80482">
				 <ele>31.3</ele>
			 </trkpt>
			 <trkpt lat="21.2561" lon="-157.80515">
				 <ele>32</ele>
			 </trkpt>
			 <trkpt lat="21.25581" lon="-157.80586">
				 <ele>32.5</ele>
			 </trkpt>
			 <trkpt lat="21.25578" lon="-157.80602">
				 <ele>32.3</ele>
			 </trkpt>
			 <trkpt lat="21.25571" lon="-157.80677">
				 <ele>32.1</ele>
			 </trkpt>
			 <trkpt lat="21.25569" lon="-157.80729">
				 <ele>31.5</ele>
			 </trkpt>
			 <trkpt lat="21.25577" lon="-157.80788">
				 <ele>29.9</ele>
			 </trkpt>
			 <trkpt lat="21.25606" lon="-157.80957">
				 <ele>28.2</ele>
			 </trkpt>
			 <trkpt lat="21.25623" lon="-157.81057">
				 <ele>26.4</ele>
			 </trkpt>
			 <trkpt lat="21.25623" lon="-157.81057">
				 <ele>24.5</ele>
			 </trkpt>
			 <trkpt lat="21.2564" lon="-157.81161">
				 <ele>22.5</ele>
			 </trkpt>
			 <trkpt lat="21.25639" lon="-157.81199">
				 <ele>20.5</ele>
			 </trkpt>
			 <trkpt lat="21.25636" lon="-157.81228">
				 <ele>18.4</ele>
			 </trkpt>
			 <trkpt lat="21.2563" lon="-157.81256">
				 <ele>16.1</ele>
			 </trkpt>
			 <trkpt lat="21.25635" lon="-157.81294">
				 <ele>14.1</ele>
			 </trkpt>
			 <trkpt lat="21.25651" lon="-157.8135">
				 <ele>12</ele>
			 </trkpt>
			 <trkpt lat="21.25653" lon="-157.81358">
				 <ele>10.4</ele>
			 </trkpt>
			 <trkpt lat="21.25657" lon="-157.81396">
				 <ele>9.1</ele>
			 </trkpt>
			 <trkpt lat="21.25665" lon="-157.81449">
				 <ele>8</ele>
			 </trkpt>
			 <trkpt lat="21.2567" lon="-157.81461">
				 <ele>7.1</ele>
			 </trkpt>
			 <trkpt lat="21.25682" lon="-157.81483">
				 <ele>6.3</ele>
			 </trkpt>
			 <trkpt lat="21.25693" lon="-157.81501">
				 <ele>5.6</ele>
			 </trkpt>
			 <trkpt lat="21.25726" lon="-157.81543">
				 <ele>5.1</ele>
			 </trkpt>
			 <trkpt lat="21.25772" lon="-157.81607">
				 <ele>4.7</ele>
			 </trkpt>
			 <trkpt lat="21.25779" lon="-157.81616">
				 <ele>4.6</ele>
			 </trkpt>
			 <trkpt lat="21.25788" lon="-157.81636">
				 <ele>4.5</ele>
			 </trkpt>
			 <trkpt lat="21.25789" lon="-157.8164">
				 <ele>4.4</ele>
			 </trkpt>
			 <trkpt lat="21.25805" lon="-157.81689">
				 <ele>4.3</ele>
			 </trkpt>
			 <trkpt lat="21.25826" lon="-157.81717">
				 <ele>4.1</ele>
			 </trkpt>
			 <trkpt lat="21.25849" lon="-157.81734">
				 <ele>3.8</ele>
			 </trkpt>
			 <trkpt lat="21.26019" lon="-157.81817">
				 <ele>3.5</ele>
			 </trkpt>
			 <trkpt lat="21.2604" lon="-157.81819">
				 <ele>3.3</ele>
			 </trkpt>
			 <trkpt lat="21.26052" lon="-157.81819">
				 <ele>3</ele>
			 </trkpt>
			 <trkpt lat="21.26055" lon="-157.81828">
				 <ele>2.7</ele>
			 </trkpt>
			 <trkpt lat="21.26082" lon="-157.81875">
				 <ele>2.6</ele>
			 </trkpt>
			 <trkpt lat="21.26115" lon="-157.81925">
				 <ele>2.5</ele>
			 </trkpt>
			 <trkpt lat="21.26146" lon="-157.81958">
				 <ele>2.5</ele>
			 </trkpt>
			 <trkpt lat="21.26166" lon="-157.81975">
				 <ele>2.5</ele>
			 </trkpt>
			 <trkpt lat="21.26188" lon="-157.81993">
				 <ele>2.5</ele>
			 </trkpt>
			 <trkpt lat="21.26217" lon="-157.82012">
				 <ele>2.4</ele>
			 </trkpt>
			 <trkpt lat="21.26218" lon="-157.82013">
				 <ele>2.4</ele>
			 </trkpt>
			 <trkpt lat="21.26218" lon="-157.82012">
				 <ele>2.4</ele>
			 </trkpt>
			 <trkpt lat="21.26273" lon="-157.82034">
				 <ele>2.4</ele>
			 </trkpt>
			 <trkpt lat="21.26364" lon="-157.82056">
				 <ele>2.4</ele>
			 </trkpt>
			 <trkpt lat="21.26399" lon="-157.82064">
				 <ele>2.4</ele>
			 </trkpt>
			 <trkpt lat="21.26594" lon="-157.8211">
				 <ele>2.3</ele>
			 </trkpt>
			 <trkpt lat="21.26593" lon="-157.82115">
				 <ele>2.2</ele>
			 </trkpt>
			 <trkpt lat="21.26593" lon="-157.82115">
				 <ele>2.1</ele>
			 </trkpt>
			 <trkpt lat="21.26594" lon="-157.8211">
				 <ele>2</ele>
			 </trkpt>
			 <trkpt lat="21.26646" lon="-157.82123">
				 <ele>2</ele>
			 </trkpt>
			 <trkpt lat="21.26781" lon="-157.82155">
				 <ele>2</ele>
			 </trkpt>
		 </trkseg>
	 </trk>
</gpx>