<?xml version="1.0" encoding="UTF-8"?>
 <gpx creator="Garmin Connect" version="1.1"
	 xsi:schemaLocation="http://www.topografix.com/GPX/1/1 http://www.topografix.com/GPX/11.xsd"
	 xmlns:ns3="http://www.garmin.com/xmlschemas/TrackPointExtension/v1"
	 xmlns="http://www.topografix.com/GPX/1/1"
	 xmlns:xsi="http://www.w3.org/2001/XMLSchema-instance" xmlns:ns2="http://www.garmin.com/xmlschemas/GpxExtensions/v3">
	 <metadata>
		<name>ING Night Marathon Luxembourg 2025 - 42.195 km</name>
		 <link href="https://www.goandrace.com">
		 <text>Garmin Connect</text>
		 </link>
	 <time>2026-08-10T03:10:13</time>
	 </metadata>
	 <trk>
		 <name>ING Night Marathon Luxembourg 2025 - 42.195 km</name>
		 <trkseg>
			 <trkpt lat="49.63619" lon="6.17332">
				 <ele>358.7</ele>
			 </trkpt>
			 <trkpt lat="49.635268" lon="6.174674">
				 <ele>358.7</ele>
			 </trkpt>
			 <trkpt lat="49.635334" lon="6.174799">
				 <ele>359.6</ele>
			 </trkpt>
			 <trkpt lat="49.635415" lon="6.174901">
				 <ele>360.4</ele>
			 </trkpt>
			 <trkpt lat="49.635468" lon="6.174974">
				 <ele>361.2</ele>
			 </trkpt>
			 <trkpt lat="49.635572" lon="6.174996">
				 <ele>361.8</ele>
			 </trkpt>
			 <trkpt lat="49.635696" lon="6.174945">
				 <ele>362.1</ele>
			 </trkpt>
			 <trkpt lat="49.636445" lon="6.174068">
				 <ele>362.5</ele>
			 </trkpt>
			 <trkpt lat="49.636607" lon="6.173937">
				 <ele>362.8</ele>
			 </trkpt>
			 <trkpt lat="49.63691" lon="6.174065">
				 <ele>363.3</ele>
			 </trkpt>
			 <trkpt lat="49.63703" lon="6.17384">
				 <ele>363.7</ele>
			 </trkpt>
			 <trkpt lat="49.637186" lon="6.173275">
				 <ele>364.3</ele>
			 </trkpt>
			 <trkpt lat="49.637344" lon="6.172507">
				 <ele>364.7</ele>
			 </trkpt>
			 <trkpt lat="49.637419" lon="6.171889">
				 <ele>364.4</ele>
			 </trkpt>
			 <trkpt lat="49.637442" lon="6.171164">
				 <ele>363.9</ele>
			 </trkpt>
			 <trkpt lat="49.63746" lon="6.171075">
				 <ele>363.3</ele>
			 </trkpt>
			 <trkpt lat="49.637501" lon="6.171114">
				 <ele>362.8</ele>
			 </trkpt>
			 <trkpt lat="49.6375" lon="6.171179">
				 <ele>363.2</ele>
			 </trkpt>
			 <trkpt lat="49.637464" lon="6.171837">
				 <ele>363.8</ele>
			 </trkpt>
			 <trkpt lat="49.637398" lon="6.17249">
				 <ele>364.4</ele>
			 </trkpt>
			 <trkpt lat="49.637352" lon="6.172745">
				 <ele>364.7</ele>
			 </trkpt>
			 <trkpt lat="49.637268" lon="6.173182">
				 <ele>364.8</ele>
			 </trkpt>
			 <trkpt lat="49.637163" lon="6.173616">
				 <ele>364.8</ele>
			 </trkpt>
			 <trkpt lat="49.636991" lon="6.174105">
				 <ele>364.8</ele>
			 </trkpt>
			 <trkpt lat="49.636949" lon="6.174216">
				 <ele>365</ele>
			 </trkpt>
			 <trkpt lat="49.636821" lon="6.174544">
				 <ele>365.1</ele>
			 </trkpt>
			 <trkpt lat="49.636711" lon="6.17482">
				 <ele>365.3</ele>
			 </trkpt>
			 <trkpt lat="49.636635" lon="6.174963">
				 <ele>365.2</ele>
			 </trkpt>
			 <trkpt lat="49.636589" lon="6.175054">
				 <ele>364.4</ele>
			 </trkpt>
			 <trkpt lat="49.63654" lon="6.175133">
				 <ele>363.3</ele>
			 </trkpt>
			 <trkpt lat="49.636353" lon="6.175461">
				 <ele>362.2</ele>
			 </trkpt>
			 <trkpt lat="49.63625" lon="6.17564">
				 <ele>361.2</ele>
			 </trkpt>
			 <trkpt lat="49.635991" lon="6.176018">
				 <ele>360.3</ele>
			 </trkpt>
			 <trkpt lat="49.635761" lon="6.17622">
				 <ele>359.5</ele>
			 </trkpt>
			 <trkpt lat="49.635667" lon="6.176281">
				 <ele>358.7</ele>
			 </trkpt>
			 <trkpt lat="49.635458" lon="6.176271">
				 <ele>358</ele>
			 </trkpt>
			 <trkpt lat="49.635338" lon="6.176379">
				 <ele>357.4</ele>
			 </trkpt>
			 <trkpt lat="49.635235" lon="6.176502">
				 <ele>356.5</ele>
			 </trkpt>
			 <trkpt lat="49.635105" lon="6.176297">
				 <ele>355.7</ele>
			 </trkpt>
			 <trkpt lat="49.635017" lon="6.176123">
				 <ele>355.2</ele>
			 </trkpt>
			 <trkpt lat="49.634964" lon="6.176026">
				 <ele>354.5</ele>
			 </trkpt>
			 <trkpt lat="49.63488" lon="6.175866">
				 <ele>354</ele>
			 </trkpt>
			 <trkpt lat="49.634737" lon="6.175635">
				 <ele>353.5</ele>
			 </trkpt>
			 <trkpt lat="49.63464" lon="6.175488">
				 <ele>353.1</ele>
			 </trkpt>
			 <trkpt lat="49.634574" lon="6.175386">
				 <ele>352.6</ele>
			 </trkpt>
			 <trkpt lat="49.634433" lon="6.17516">
				 <ele>352.2</ele>
			 </trkpt>
			 <trkpt lat="49.634294" lon="6.174938">
				 <ele>351.6</ele>
			 </trkpt>
			 <trkpt lat="49.63417" lon="6.174718">
				 <ele>351.5</ele>
			 </trkpt>
			 <trkpt lat="49.634068" lon="6.174498">
				 <ele>351.5</ele>
			 </trkpt>
			 <trkpt lat="49.633761" lon="6.173988">
				 <ele>351.8</ele>
			 </trkpt>
			 <trkpt lat="49.633649" lon="6.173806">
				 <ele>352.2</ele>
			 </trkpt>
			 <trkpt lat="49.632947" lon="6.172675">
				 <ele>352.6</ele>
			 </trkpt>
			 <trkpt lat="49.632682" lon="6.172218">
				 <ele>352.6</ele>
			 </trkpt>
			 <trkpt lat="49.632566" lon="6.172037">
				 <ele>352.5</ele>
			 </trkpt>
			 <trkpt lat="49.632513" lon="6.171937">
				 <ele>352.1</ele>
			 </trkpt>
			 <trkpt lat="49.632382" lon="6.171752">
				 <ele>351.5</ele>
			 </trkpt>
			 <trkpt lat="49.632172" lon="6.171377">
				 <ele>350.9</ele>
			 </trkpt>
			 <trkpt lat="49.631936" lon="6.171011">
				 <ele>350.5</ele>
			 </trkpt>
			 <trkpt lat="49.631761" lon="6.170724">
				 <ele>349.7</ele>
			 </trkpt>
			 <trkpt lat="49.631662" lon="6.170563">
				 <ele>348.7</ele>
			 </trkpt>
			 <trkpt lat="49.631297" lon="6.169977">
				 <ele>347.4</ele>
			 </trkpt>
			 <trkpt lat="49.631114" lon="6.169663">
				 <ele>345.5</ele>
			 </trkpt>
			 <trkpt lat="49.630912" lon="6.169335">
				 <ele>343.7</ele>
			 </trkpt>
			 <trkpt lat="49.630779" lon="6.169127">
				 <ele>342.5</ele>
			 </trkpt>
			 <trkpt lat="49.63057" lon="6.16877">
				 <ele>341.2</ele>
			 </trkpt>
			 <trkpt lat="49.630433" lon="6.168541">
				 <ele>339.9</ele>
			 </trkpt>
			 <trkpt lat="49.63022" lon="6.168225">
				 <ele>339</ele>
			 </trkpt>
			 <trkpt lat="49.63002" lon="6.167932">
				 <ele>338.1</ele>
			 </trkpt>
			 <trkpt lat="49.629382" lon="6.166874">
				 <ele>337.2</ele>
			 </trkpt>
			 <trkpt lat="49.629079" lon="6.16641">
				 <ele>336.3</ele>
			 </trkpt>
			 <trkpt lat="49.628837" lon="6.165999">
				 <ele>335.7</ele>
			 </trkpt>
			 <trkpt lat="49.628542" lon="6.165509">
				 <ele>335.4</ele>
			 </trkpt>
			 <trkpt lat="49.627562" lon="6.163912">
				 <ele>335.4</ele>
			 </trkpt>
			 <trkpt lat="49.627352" lon="6.16356">
				 <ele>335.5</ele>
			 </trkpt>
			 <trkpt lat="49.627014" lon="6.163004">
				 <ele>335.4</ele>
			 </trkpt>
			 <trkpt lat="49.626667" lon="6.162455">
				 <ele>335.4</ele>
			 </trkpt>
			 <trkpt lat="49.626244" lon="6.161788">
				 <ele>335.5</ele>
			 </trkpt>
			 <trkpt lat="49.625872" lon="6.161151">
				 <ele>335.6</ele>
			 </trkpt>
			 <trkpt lat="49.625292" lon="6.16017">
				 <ele>335.5</ele>
			 </trkpt>
			 <trkpt lat="49.625178" lon="6.159965">
				 <ele>335.3</ele>
			 </trkpt>
			 <trkpt lat="49.624745" lon="6.159196">
				 <ele>334.9</ele>
			 </trkpt>
			 <trkpt lat="49.624611" lon="6.158932">
				 <ele>334.4</ele>
			 </trkpt>
			 <trkpt lat="49.62445" lon="6.158632">
				 <ele>333.7</ele>
			 </trkpt>
			 <trkpt lat="49.624331" lon="6.158383">
				 <ele>333.1</ele>
			 </trkpt>
			 <trkpt lat="49.623993" lon="6.157775">
				 <ele>332.5</ele>
			 </trkpt>
			 <trkpt lat="49.623774" lon="6.157306">
				 <ele>332.1</ele>
			 </trkpt>
			 <trkpt lat="49.623612" lon="6.156962">
				 <ele>331.6</ele>
			 </trkpt>
			 <trkpt lat="49.623251" lon="6.156171">
				 <ele>331.2</ele>
			 </trkpt>
			 <trkpt lat="49.622951" lon="6.155497">
				 <ele>330.5</ele>
			 </trkpt>
			 <trkpt lat="49.622851" lon="6.155263">
				 <ele>329.6</ele>
			 </trkpt>
			 <trkpt lat="49.622665" lon="6.154795">
				 <ele>328.8</ele>
			 </trkpt>
			 <trkpt lat="49.622532" lon="6.154458">
				 <ele>328</ele>
			 </trkpt>
			 <trkpt lat="49.622194" lon="6.153594">
				 <ele>327.2</ele>
			 </trkpt>
			 <trkpt lat="49.621923" lon="6.152891">
				 <ele>326.8</ele>
			 </trkpt>
			 <trkpt lat="49.621699" lon="6.152297">
				 <ele>326.7</ele>
			 </trkpt>
			 <trkpt lat="49.621624" lon="6.152044">
				 <ele>326.6</ele>
			 </trkpt>
			 <trkpt lat="49.621567" lon="6.15188">
				 <ele>326.5</ele>
			 </trkpt>
			 <trkpt lat="49.621508" lon="6.151733">
				 <ele>326.5</ele>
			 </trkpt>
			 <trkpt lat="49.621315" lon="6.151166">
				 <ele>326.5</ele>
			 </trkpt>
			 <trkpt lat="49.621165" lon="6.150723">
				 <ele>326.5</ele>
			 </trkpt>
			 <trkpt lat="49.62106" lon="6.150287">
				 <ele>326.7</ele>
			 </trkpt>
			 <trkpt lat="49.620939" lon="6.149858">
				 <ele>327.1</ele>
			 </trkpt>
			 <trkpt lat="49.620808" lon="6.149445">
				 <ele>327.5</ele>
			 </trkpt>
			 <trkpt lat="49.620724" lon="6.14913">
				 <ele>328.1</ele>
			 </trkpt>
			 <trkpt lat="49.62062" lon="6.148745">
				 <ele>328.4</ele>
			 </trkpt>
			 <trkpt lat="49.620529" lon="6.148401">
				 <ele>328.4</ele>
			 </trkpt>
			 <trkpt lat="49.620429" lon="6.148024">
				 <ele>328.1</ele>
			 </trkpt>
			 <trkpt lat="49.620377" lon="6.147805">
				 <ele>327.7</ele>
			 </trkpt>
			 <trkpt lat="49.620289" lon="6.147475">
				 <ele>327.4</ele>
			 </trkpt>
			 <trkpt lat="49.620194" lon="6.147069">
				 <ele>326.5</ele>
			 </trkpt>
			 <trkpt lat="49.620103" lon="6.146648">
				 <ele>325.6</ele>
			 </trkpt>
			 <trkpt lat="49.620008" lon="6.146227">
				 <ele>325.3</ele>
			 </trkpt>
			 <trkpt lat="49.619917" lon="6.145842">
				 <ele>324.5</ele>
			 </trkpt>
			 <trkpt lat="49.619803" lon="6.145238">
				 <ele>323.5</ele>
			 </trkpt>
			 <trkpt lat="49.619633" lon="6.144649">
				 <ele>322.3</ele>
			 </trkpt>
			 <trkpt lat="49.619499" lon="6.144478">
				 <ele>321.1</ele>
			 </trkpt>
			 <trkpt lat="49.619107" lon="6.144047">
				 <ele>320.3</ele>
			 </trkpt>
			 <trkpt lat="49.618384" lon="6.143343">
				 <ele>319.9</ele>
			 </trkpt>
			 <trkpt lat="49.618384" lon="6.143217">
				 <ele>319.9</ele>
			 </trkpt>
			 <trkpt lat="49.619042" lon="6.142972">
				 <ele>320</ele>
			 </trkpt>
			 <trkpt lat="49.61885" lon="6.141961">
				 <ele>320.4</ele>
			 </trkpt>
			 <trkpt lat="49.618711" lon="6.141809">
				 <ele>320.9</ele>
			 </trkpt>
			 <trkpt lat="49.618537" lon="6.141802">
				 <ele>321</ele>
			 </trkpt>
			 <trkpt lat="49.618186" lon="6.141884">
				 <ele>321.4</ele>
			 </trkpt>
			 <trkpt lat="49.617879" lon="6.14198">
				 <ele>321.4</ele>
			 </trkpt>
			 <trkpt lat="49.617757" lon="6.14197">
				 <ele>321.4</ele>
			 </trkpt>
			 <trkpt lat="49.617702" lon="6.141936">
				 <ele>321.3</ele>
			 </trkpt>
			 <trkpt lat="49.617673" lon="6.141895">
				 <ele>320.8</ele>
			 </trkpt>
			 <trkpt lat="49.617592" lon="6.14155">
				 <ele>319.8</ele>
			 </trkpt>
			 <trkpt lat="49.617409" lon="6.141085">
				 <ele>318.5</ele>
			 </trkpt>
			 <trkpt lat="49.617327" lon="6.141061">
				 <ele>317.4</ele>
			 </trkpt>
			 <trkpt lat="49.617124" lon="6.141102">
				 <ele>317</ele>
			 </trkpt>
			 <trkpt lat="49.616931" lon="6.141168">
				 <ele>316.5</ele>
			 </trkpt>
			 <trkpt lat="49.616929" lon="6.141597">
				 <ele>316.2</ele>
			 </trkpt>
			 <trkpt lat="49.616937" lon="6.141735">
				 <ele>315.9</ele>
			 </trkpt>
			 <trkpt lat="49.616993" lon="6.142214">
				 <ele>316.1</ele>
			 </trkpt>
			 <trkpt lat="49.617571" lon="6.141996">
				 <ele>316.3</ele>
			 </trkpt>
			 <trkpt lat="49.618832" lon="6.141519">
				 <ele>316.5</ele>
			 </trkpt>
			 <trkpt lat="49.618879" lon="6.141487">
				 <ele>317</ele>
			 </trkpt>
			 <trkpt lat="49.618923" lon="6.141469">
				 <ele>317.8</ele>
			 </trkpt>
			 <trkpt lat="49.619002" lon="6.141267">
				 <ele>318</ele>
			 </trkpt>
			 <trkpt lat="49.618953" lon="6.140925">
				 <ele>317.7</ele>
			 </trkpt>
			 <trkpt lat="49.618852" lon="6.140325">
				 <ele>316.7</ele>
			 </trkpt>
			 <trkpt lat="49.6188" lon="6.139976">
				 <ele>315.4</ele>
			 </trkpt>
			 <trkpt lat="49.6187" lon="6.139466">
				 <ele>313.9</ele>
			 </trkpt>
			 <trkpt lat="49.618627" lon="6.139051">
				 <ele>312.6</ele>
			 </trkpt>
			 <trkpt lat="49.618581" lon="6.13872">
				 <ele>311.4</ele>
			 </trkpt>
			 <trkpt lat="49.618554" lon="6.138458">
				 <ele>310.4</ele>
			 </trkpt>
			 <trkpt lat="49.618475" lon="6.13757">
				 <ele>309.5</ele>
			 </trkpt>
			 <trkpt lat="49.618441" lon="6.137175">
				 <ele>308.4</ele>
			 </trkpt>
			 <trkpt lat="49.618383" lon="6.136487">
				 <ele>307</ele>
			 </trkpt>
			 <trkpt lat="49.618364" lon="6.13623">
				 <ele>306.6</ele>
			 </trkpt>
			 <trkpt lat="49.618336" lon="6.136023">
				 <ele>307</ele>
			 </trkpt>
			 <trkpt lat="49.618233" lon="6.135359">
				 <ele>307.5</ele>
			 </trkpt>
			 <trkpt lat="49.618178" lon="6.134962">
				 <ele>308.5</ele>
			 </trkpt>
			 <trkpt lat="49.617336" lon="6.129247">
				 <ele>309.8</ele>
			 </trkpt>
			 <trkpt lat="49.617277" lon="6.12884">
				 <ele>310.7</ele>
			 </trkpt>
			 <trkpt lat="49.617214" lon="6.128507">
				 <ele>311.5</ele>
			 </trkpt>
			 <trkpt lat="49.617149" lon="6.128237">
				 <ele>312.3</ele>
			 </trkpt>
			 <trkpt lat="49.617042" lon="6.127569">
				 <ele>312.9</ele>
			 </trkpt>
			 <trkpt lat="49.617008" lon="6.127374">
				 <ele>313.6</ele>
			 </trkpt>
			 <trkpt lat="49.616969" lon="6.12711">
				 <ele>314.5</ele>
			 </trkpt>
			 <trkpt lat="49.616899" lon="6.126588">
				 <ele>314.7</ele>
			 </trkpt>
			 <trkpt lat="49.616861" lon="6.126304">
				 <ele>314.5</ele>
			 </trkpt>
			 <trkpt lat="49.616835" lon="6.126135">
				 <ele>314.4</ele>
			 </trkpt>
			 <trkpt lat="49.616691" lon="6.125476">
				 <ele>314.1</ele>
			 </trkpt>
			 <trkpt lat="49.616606" lon="6.125255">
				 <ele>313.5</ele>
			 </trkpt>
			 <trkpt lat="49.616467" lon="6.124927">
				 <ele>313</ele>
			 </trkpt>
			 <trkpt lat="49.616356" lon="6.124659">
				 <ele>312.5</ele>
			 </trkpt>
			 <trkpt lat="49.61619" lon="6.124273">
				 <ele>312.1</ele>
			 </trkpt>
			 <trkpt lat="49.616044" lon="6.123921">
				 <ele>311.7</ele>
			 </trkpt>
			 <trkpt lat="49.615819" lon="6.123454">
				 <ele>311.6</ele>
			 </trkpt>
			 <trkpt lat="49.615627" lon="6.123015">
				 <ele>311.7</ele>
			 </trkpt>
			 <trkpt lat="49.615557" lon="6.123001">
				 <ele>311.8</ele>
			 </trkpt>
			 <trkpt lat="49.615476" lon="6.123052">
				 <ele>311.9</ele>
			 </trkpt>
			 <trkpt lat="49.615369" lon="6.123253">
				 <ele>312</ele>
			 </trkpt>
			 <trkpt lat="49.615094" lon="6.123734">
				 <ele>312.2</ele>
			 </trkpt>
			 <trkpt lat="49.615123" lon="6.124139">
				 <ele>312.5</ele>
			 </trkpt>
			 <trkpt lat="49.615171" lon="6.124549">
				 <ele>313.1</ele>
			 </trkpt>
			 <trkpt lat="49.615241" lon="6.124713">
				 <ele>313.5</ele>
			 </trkpt>
			 <trkpt lat="49.615439" lon="6.124894">
				 <ele>313.9</ele>
			 </trkpt>
			 <trkpt lat="49.615557" lon="6.124958">
				 <ele>314.1</ele>
			 </trkpt>
			 <trkpt lat="49.615628" lon="6.124961">
				 <ele>314</ele>
			 </trkpt>
			 <trkpt lat="49.615799" lon="6.124879">
				 <ele>313.7</ele>
			 </trkpt>
			 <trkpt lat="49.615914" lon="6.12478">
				 <ele>313.6</ele>
			 </trkpt>
			 <trkpt lat="49.615972" lon="6.124779">
				 <ele>313.6</ele>
			 </trkpt>
			 <trkpt lat="49.616073" lon="6.124671">
				 <ele>313.6</ele>
			 </trkpt>
			 <trkpt lat="49.616191" lon="6.124524">
				 <ele>313.6</ele>
			 </trkpt>
			 <trkpt lat="49.616225" lon="6.124513">
				 <ele>313.6</ele>
			 </trkpt>
			 <trkpt lat="49.616366" lon="6.124814">
				 <ele>313.6</ele>
			 </trkpt>
			 <trkpt lat="49.616465" lon="6.125081">
				 <ele>313.7</ele>
			 </trkpt>
			 <trkpt lat="49.616547" lon="6.125312">
				 <ele>313.8</ele>
			 </trkpt>
			 <trkpt lat="49.616612" lon="6.125502">
				 <ele>314</ele>
			 </trkpt>
			 <trkpt lat="49.616669" lon="6.125697">
				 <ele>314.2</ele>
			 </trkpt>
			 <trkpt lat="49.616717" lon="6.125851">
				 <ele>314.5</ele>
			 </trkpt>
			 <trkpt lat="49.616771" lon="6.126032">
				 <ele>314.7</ele>
			 </trkpt>
			 <trkpt lat="49.616854" lon="6.126082">
				 <ele>314.8</ele>
			 </trkpt>
			 <trkpt lat="49.616908" lon="6.126038">
				 <ele>314.7</ele>
			 </trkpt>
			 <trkpt lat="49.616947" lon="6.125979">
				 <ele>314.5</ele>
			 </trkpt>
			 <trkpt lat="49.616972" lon="6.125899">
				 <ele>314.1</ele>
			 </trkpt>
			 <trkpt lat="49.616981" lon="6.125754">
				 <ele>313.7</ele>
			 </trkpt>
			 <trkpt lat="49.616965" lon="6.125612">
				 <ele>313.4</ele>
			 </trkpt>
			 <trkpt lat="49.616836" lon="6.12523">
				 <ele>313</ele>
			 </trkpt>
			 <trkpt lat="49.616706" lon="6.12489">
				 <ele>312.5</ele>
			 </trkpt>
			 <trkpt lat="49.61658" lon="6.124163">
				 <ele>312.1</ele>
			 </trkpt>
			 <trkpt lat="49.616554" lon="6.124028">
				 <ele>311.6</ele>
			 </trkpt>
			 <trkpt lat="49.616564" lon="6.12391">
				 <ele>311.4</ele>
			 </trkpt>
			 <trkpt lat="49.616583" lon="6.123776">
				 <ele>311.2</ele>
			 </trkpt>
			 <trkpt lat="49.616622" lon="6.123689">
				 <ele>310.8</ele>
			 </trkpt>
			 <trkpt lat="49.616719" lon="6.123545">
				 <ele>310.5</ele>
			 </trkpt>
			 <trkpt lat="49.616846" lon="6.12336">
				 <ele>310.5</ele>
			 </trkpt>
			 <trkpt lat="49.617132" lon="6.122886">
				 <ele>311</ele>
			 </trkpt>
			 <trkpt lat="49.617138" lon="6.122823">
				 <ele>311.6</ele>
			 </trkpt>
			 <trkpt lat="49.616426" lon="6.121608">
				 <ele>312.7</ele>
			 </trkpt>
			 <trkpt lat="49.616743" lon="6.121086">
				 <ele>313.7</ele>
			 </trkpt>
			 <trkpt lat="49.617327" lon="6.120177">
				 <ele>314.9</ele>
			 </trkpt>
			 <trkpt lat="49.617947" lon="6.119312">
				 <ele>316.1</ele>
			 </trkpt>
			 <trkpt lat="49.61859" lon="6.120529">
				 <ele>317.1</ele>
			 </trkpt>
			 <trkpt lat="49.619066" lon="6.121481">
				 <ele>317.9</ele>
			 </trkpt>
			 <trkpt lat="49.61994" lon="6.119777">
				 <ele>318.8</ele>
			 </trkpt>
			 <trkpt lat="49.620331" lon="6.119043">
				 <ele>319.7</ele>
			 </trkpt>
			 <trkpt lat="49.62034" lon="6.118987">
				 <ele>320.5</ele>
			 </trkpt>
			 <trkpt lat="49.620328" lon="6.118917">
				 <ele>320.5</ele>
			 </trkpt>
			 <trkpt lat="49.619763" lon="6.118073">
				 <ele>320.3</ele>
			 </trkpt>
			 <trkpt lat="49.619425" lon="6.117517">
				 <ele>319.6</ele>
			 </trkpt>
			 <trkpt lat="49.619201" lon="6.117063">
				 <ele>319.1</ele>
			 </trkpt>
			 <trkpt lat="49.619566" lon="6.116183">
				 <ele>318.1</ele>
			 </trkpt>
			 <trkpt lat="49.618959" lon="6.115493">
				 <ele>316.5</ele>
			 </trkpt>
			 <trkpt lat="49.619286" lon="6.114934">
				 <ele>315.7</ele>
			 </trkpt>
			 <trkpt lat="49.619345" lon="6.114641">
				 <ele>315.1</ele>
			 </trkpt>
			 <trkpt lat="49.61928" lon="6.113428">
				 <ele>315.1</ele>
			 </trkpt>
			 <trkpt lat="49.619137" lon="6.113062">
				 <ele>315.3</ele>
			 </trkpt>
			 <trkpt lat="49.619398" lon="6.11221">
				 <ele>315.4</ele>
			 </trkpt>
			 <trkpt lat="49.619725" lon="6.112512">
				 <ele>316.2</ele>
			 </trkpt>
			 <trkpt lat="49.619933" lon="6.112265">
				 <ele>317</ele>
			 </trkpt>
			 <trkpt lat="49.62041" lon="6.113097">
				 <ele>318.3</ele>
			 </trkpt>
			 <trkpt lat="49.620933" lon="6.11241">
				 <ele>319.6</ele>
			 </trkpt>
			 <trkpt lat="49.621456" lon="6.113233">
				 <ele>321.4</ele>
			 </trkpt>
			 <trkpt lat="49.62173" lon="6.113729">
				 <ele>323.5</ele>
			 </trkpt>
			 <trkpt lat="49.622308" lon="6.114855">
				 <ele>325</ele>
			 </trkpt>
			 <trkpt lat="49.623028" lon="6.116155">
				 <ele>326.5</ele>
			 </trkpt>
			 <trkpt lat="49.623504" lon="6.115562">
				 <ele>327.7</ele>
			 </trkpt>
			 <trkpt lat="49.623789" lon="6.115276">
				 <ele>328.7</ele>
			 </trkpt>
			 <trkpt lat="49.623975" lon="6.115132">
				 <ele>329.7</ele>
			 </trkpt>
			 <trkpt lat="49.624272" lon="6.114876">
				 <ele>330.5</ele>
			 </trkpt>
			 <trkpt lat="49.624876" lon="6.114399">
				 <ele>331.4</ele>
			 </trkpt>
			 <trkpt lat="49.625072" lon="6.114999">
				 <ele>331.7</ele>
			 </trkpt>
			 <trkpt lat="49.625886" lon="6.117284">
				 <ele>332.4</ele>
			 </trkpt>
			 <trkpt lat="49.62552" lon="6.117588">
				 <ele>332.8</ele>
			 </trkpt>
			 <trkpt lat="49.625337" lon="6.117743">
				 <ele>333</ele>
			 </trkpt>
			 <trkpt lat="49.625064" lon="6.118008">
				 <ele>333.4</ele>
			 </trkpt>
			 <trkpt lat="49.624858" lon="6.118177">
				 <ele>333.6</ele>
			 </trkpt>
			 <trkpt lat="49.624131" lon="6.118845">
				 <ele>333.8</ele>
			 </trkpt>
			 <trkpt lat="49.624235" lon="6.119428">
				 <ele>333.8</ele>
			 </trkpt>
			 <trkpt lat="49.625017" lon="6.120771">
				 <ele>333.7</ele>
			 </trkpt>
			 <trkpt lat="49.624739" lon="6.121369">
				 <ele>333.1</ele>
			 </trkpt>
			 <trkpt lat="49.624627" lon="6.121899">
				 <ele>332.5</ele>
			 </trkpt>
			 <trkpt lat="49.624618" lon="6.122188">
				 <ele>332.3</ele>
			 </trkpt>
			 <trkpt lat="49.624863" lon="6.12592">
				 <ele>331.8</ele>
			 </trkpt>
			 <trkpt lat="49.624834" lon="6.126249">
				 <ele>331.5</ele>
			 </trkpt>
			 <trkpt lat="49.624282" lon="6.126372">
				 <ele>331.9</ele>
			 </trkpt>
			 <trkpt lat="49.623866" lon="6.126349">
				 <ele>332.2</ele>
			 </trkpt>
			 <trkpt lat="49.623843" lon="6.125798">
				 <ele>332.5</ele>
			 </trkpt>
			 <trkpt lat="49.623715" lon="6.124336">
				 <ele>332.7</ele>
			 </trkpt>
			 <trkpt lat="49.624166" lon="6.124187">
				 <ele>333.1</ele>
			 </trkpt>
			 <trkpt lat="49.623904" lon="6.122363">
				 <ele>333</ele>
			 </trkpt>
			 <trkpt lat="49.623755" lon="6.120464">
				 <ele>332.7</ele>
			 </trkpt>
			 <trkpt lat="49.623677" lon="6.119503">
				 <ele>332.1</ele>
			 </trkpt>
			 <trkpt lat="49.623654" lon="6.119108">
				 <ele>331.7</ele>
			 </trkpt>
			 <trkpt lat="49.623619" lon="6.118797">
				 <ele>330.9</ele>
			 </trkpt>
			 <trkpt lat="49.622275" lon="6.117035">
				 <ele>330</ele>
			 </trkpt>
			 <trkpt lat="49.62078" lon="6.11421">
				 <ele>328.9</ele>
			 </trkpt>
			 <trkpt lat="49.619831" lon="6.115754">
				 <ele>327.9</ele>
			 </trkpt>
			 <trkpt lat="49.62111" lon="6.118199">
				 <ele>326.9</ele>
			 </trkpt>
			 <trkpt lat="49.620423" lon="6.118951">
				 <ele>326.2</ele>
			 </trkpt>
			 <trkpt lat="49.620428" lon="6.119058">
				 <ele>325.6</ele>
			 </trkpt>
			 <trkpt lat="49.620888" lon="6.11971">
				 <ele>325.5</ele>
			 </trkpt>
			 <trkpt lat="49.621174" lon="6.120075">
				 <ele>325.9</ele>
			 </trkpt>
			 <trkpt lat="49.621364" lon="6.12031">
				 <ele>326.4</ele>
			 </trkpt>
			 <trkpt lat="49.621612" lon="6.12069">
				 <ele>326.1</ele>
			 </trkpt>
			 <trkpt lat="49.621828" lon="6.120906">
				 <ele>325.9</ele>
			 </trkpt>
			 <trkpt lat="49.622174" lon="6.121802">
				 <ele>325.7</ele>
			 </trkpt>
			 <trkpt lat="49.622437" lon="6.122954">
				 <ele>325.4</ele>
			 </trkpt>
			 <trkpt lat="49.623176" lon="6.126606">
				 <ele>324.7</ele>
			 </trkpt>
			 <trkpt lat="49.621875" lon="6.126814">
				 <ele>324.5</ele>
			 </trkpt>
			 <trkpt lat="49.62139" lon="6.126829">
				 <ele>324.3</ele>
			 </trkpt>
			 <trkpt lat="49.621061" lon="6.126174">
				 <ele>323.8</ele>
			 </trkpt>
			 <trkpt lat="49.620818" lon="6.125702">
				 <ele>323.5</ele>
			 </trkpt>
			 <trkpt lat="49.620558" lon="6.125261">
				 <ele>322.8</ele>
			 </trkpt>
			 <trkpt lat="49.620099" lon="6.124584">
				 <ele>322.3</ele>
			 </trkpt>
			 <trkpt lat="49.620527" lon="6.124119">
				 <ele>321.9</ele>
			 </trkpt>
			 <trkpt lat="49.620991" lon="6.123801">
				 <ele>321.9</ele>
			 </trkpt>
			 <trkpt lat="49.621025" lon="6.123735">
				 <ele>322</ele>
			 </trkpt>
			 <trkpt lat="49.620467" lon="6.122282">
				 <ele>322.4</ele>
			 </trkpt>
			 <trkpt lat="49.620283" lon="6.122452">
				 <ele>322.2</ele>
			 </trkpt>
			 <trkpt lat="49.620141" lon="6.122642">
				 <ele>321.6</ele>
			 </trkpt>
			 <trkpt lat="49.620069" lon="6.122768">
				 <ele>320.9</ele>
			 </trkpt>
			 <trkpt lat="49.619958" lon="6.122941">
				 <ele>319.9</ele>
			 </trkpt>
			 <trkpt lat="49.619159" lon="6.124172">
				 <ele>318.9</ele>
			 </trkpt>
			 <trkpt lat="49.618512" lon="6.12514">
				 <ele>318</ele>
			 </trkpt>
			 <trkpt lat="49.618373" lon="6.125187">
				 <ele>317.2</ele>
			 </trkpt>
			 <trkpt lat="49.618027" lon="6.124408">
				 <ele>316.4</ele>
			 </trkpt>
			 <trkpt lat="49.617598" lon="6.123559">
				 <ele>315.5</ele>
			 </trkpt>
			 <trkpt lat="49.617217" lon="6.122928">
				 <ele>314.5</ele>
			 </trkpt>
			 <trkpt lat="49.617071" lon="6.123139">
				 <ele>313.4</ele>
			 </trkpt>
			 <trkpt lat="49.617033" lon="6.123386">
				 <ele>313</ele>
			 </trkpt>
			 <trkpt lat="49.616883" lon="6.123626">
				 <ele>312.6</ele>
			 </trkpt>
			 <trkpt lat="49.61667" lon="6.123971">
				 <ele>312.3</ele>
			 </trkpt>
			 <trkpt lat="49.616646" lon="6.124016">
				 <ele>312.4</ele>
			 </trkpt>
			 <trkpt lat="49.616772" lon="6.12483">
				 <ele>312.5</ele>
			 </trkpt>
			 <trkpt lat="49.616872" lon="6.12509">
				 <ele>312.8</ele>
			 </trkpt>
			 <trkpt lat="49.616974" lon="6.125405">
				 <ele>313.2</ele>
			 </trkpt>
			 <trkpt lat="49.616994" lon="6.125462">
				 <ele>313.5</ele>
			 </trkpt>
			 <trkpt lat="49.617019" lon="6.1256">
				 <ele>313.9</ele>
			 </trkpt>
			 <trkpt lat="49.617029" lon="6.125735">
				 <ele>314.3</ele>
			 </trkpt>
			 <trkpt lat="49.617029" lon="6.125868">
				 <ele>314.7</ele>
			 </trkpt>
			 <trkpt lat="49.617011" lon="6.126001">
				 <ele>314.8</ele>
			 </trkpt>
			 <trkpt lat="49.616963" lon="6.126098">
				 <ele>314.8</ele>
			 </trkpt>
			 <trkpt lat="49.616855" lon="6.126207">
				 <ele>314.8</ele>
			 </trkpt>
			 <trkpt lat="49.61661" lon="6.126046">
				 <ele>315</ele>
			 </trkpt>
			 <trkpt lat="49.616288" lon="6.126066">
				 <ele>315.2</ele>
			 </trkpt>
			 <trkpt lat="49.615908" lon="6.12625">
				 <ele>315.1</ele>
			 </trkpt>
			 <trkpt lat="49.615675" lon="6.126484">
				 <ele>314.6</ele>
			 </trkpt>
			 <trkpt lat="49.615399" lon="6.126624">
				 <ele>314.2</ele>
			 </trkpt>
			 <trkpt lat="49.61517" lon="6.126573">
				 <ele>313.8</ele>
			 </trkpt>
			 <trkpt lat="49.614956" lon="6.126397">
				 <ele>313.5</ele>
			 </trkpt>
			 <trkpt lat="49.614799" lon="6.125987">
				 <ele>313.2</ele>
			 </trkpt>
			 <trkpt lat="49.614599" lon="6.125314">
				 <ele>313.2</ele>
			 </trkpt>
			 <trkpt lat="49.614523" lon="6.125079">
				 <ele>313.3</ele>
			 </trkpt>
			 <trkpt lat="49.614537" lon="6.124801">
				 <ele>313.3</ele>
			 </trkpt>
			 <trkpt lat="49.614589" lon="6.124669">
				 <ele>312.9</ele>
			 </trkpt>
			 <trkpt lat="49.61468" lon="6.12442">
				 <ele>312.4</ele>
			 </trkpt>
			 <trkpt lat="49.614817" lon="6.12423">
				 <ele>312.2</ele>
			 </trkpt>
			 <trkpt lat="49.614932" lon="6.124112">
				 <ele>312.4</ele>
			 </trkpt>
			 <trkpt lat="49.61505" lon="6.123717">
				 <ele>312.5</ele>
			 </trkpt>
			 <trkpt lat="49.615003" lon="6.123314">
				 <ele>312.5</ele>
			 </trkpt>
			 <trkpt lat="49.614844" lon="6.122746">
				 <ele>312.5</ele>
			 </trkpt>
			 <trkpt lat="49.61475" lon="6.122629">
				 <ele>312.3</ele>
			 </trkpt>
			 <trkpt lat="49.614528" lon="6.122427">
				 <ele>311.9</ele>
			 </trkpt>
			 <trkpt lat="49.614444" lon="6.122422">
				 <ele>311.4</ele>
			 </trkpt>
			 <trkpt lat="49.614275" lon="6.122533">
				 <ele>310.9</ele>
			 </trkpt>
			 <trkpt lat="49.614052" lon="6.122911">
				 <ele>310.7</ele>
			 </trkpt>
			 <trkpt lat="49.61389" lon="6.123354">
				 <ele>310.7</ele>
			 </trkpt>
			 <trkpt lat="49.613598" lon="6.123386">
				 <ele>310.6</ele>
			 </trkpt>
			 <trkpt lat="49.613288" lon="6.123401">
				 <ele>310.6</ele>
			 </trkpt>
			 <trkpt lat="49.613141" lon="6.123672">
				 <ele>310.5</ele>
			 </trkpt>
			 <trkpt lat="49.613112" lon="6.123848">
				 <ele>310.5</ele>
			 </trkpt>
			 <trkpt lat="49.613136" lon="6.124016">
				 <ele>310.4</ele>
			 </trkpt>
			 <trkpt lat="49.61317" lon="6.124155">
				 <ele>310.3</ele>
			 </trkpt>
			 <trkpt lat="49.613265" lon="6.124294">
				 <ele>310.2</ele>
			 </trkpt>
			 <trkpt lat="49.613379" lon="6.12436">
				 <ele>310.1</ele>
			 </trkpt>
			 <trkpt lat="49.613474" lon="6.124448">
				 <ele>310</ele>
			 </trkpt>
			 <trkpt lat="49.613541" lon="6.124506">
				 <ele>309.8</ele>
			 </trkpt>
			 <trkpt lat="49.61355" lon="6.124602">
				 <ele>309.5</ele>
			 </trkpt>
			 <trkpt lat="49.613604" lon="6.124697">
				 <ele>309</ele>
			 </trkpt>
			 <trkpt lat="49.613659" lon="6.124761">
				 <ele>308.5</ele>
			 </trkpt>
			 <trkpt lat="49.613703" lon="6.124814">
				 <ele>308.6</ele>
			 </trkpt>
			 <trkpt lat="49.613741" lon="6.124872">
				 <ele>308.8</ele>
			 </trkpt>
			 <trkpt lat="49.61373" lon="6.125013">
				 <ele>309.5</ele>
			 </trkpt>
			 <trkpt lat="49.613563" lon="6.125461">
				 <ele>309.9</ele>
			 </trkpt>
			 <trkpt lat="49.613415" lon="6.12578">
				 <ele>310.4</ele>
			 </trkpt>
			 <trkpt lat="49.613004" lon="6.126691">
				 <ele>310.9</ele>
			 </trkpt>
			 <trkpt lat="49.612835" lon="6.126697">
				 <ele>311.7</ele>
			 </trkpt>
			 <trkpt lat="49.61222" lon="6.126756">
				 <ele>312.5</ele>
			 </trkpt>
			 <trkpt lat="49.612176" lon="6.127202">
				 <ele>313.5</ele>
			 </trkpt>
			 <trkpt lat="49.612123" lon="6.128139">
				 <ele>314.3</ele>
			 </trkpt>
			 <trkpt lat="49.612013" lon="6.129764">
				 <ele>314.8</ele>
			 </trkpt>
			 <trkpt lat="49.611989" lon="6.130605">
				 <ele>315</ele>
			 </trkpt>
			 <trkpt lat="49.611981" lon="6.130787">
				 <ele>315.2</ele>
			 </trkpt>
			 <trkpt lat="49.611962" lon="6.130941">
				 <ele>314.8</ele>
			 </trkpt>
			 <trkpt lat="49.611952" lon="6.131232">
				 <ele>314.8</ele>
			 </trkpt>
			 <trkpt lat="49.611916" lon="6.13156">
				 <ele>314.8</ele>
			 </trkpt>
			 <trkpt lat="49.611693" lon="6.131607">
				 <ele>314.8</ele>
			 </trkpt>
			 <trkpt lat="49.611603" lon="6.131588">
				 <ele>314.5</ele>
			 </trkpt>
			 <trkpt lat="49.611528" lon="6.131585">
				 <ele>314.2</ele>
			 </trkpt>
			 <trkpt lat="49.611481" lon="6.131588">
				 <ele>313.5</ele>
			 </trkpt>
			 <trkpt lat="49.611431" lon="6.131591">
				 <ele>312.9</ele>
			 </trkpt>
			 <trkpt lat="49.611395" lon="6.131591">
				 <ele>312.3</ele>
			 </trkpt>
			 <trkpt lat="49.611348" lon="6.131575">
				 <ele>311.5</ele>
			 </trkpt>
			 <trkpt lat="49.611251" lon="6.131616">
				 <ele>310.8</ele>
			 </trkpt>
			 <trkpt lat="49.610889" lon="6.131671">
				 <ele>310</ele>
			 </trkpt>
			 <trkpt lat="49.610742" lon="6.13169">
				 <ele>309.1</ele>
			 </trkpt>
			 <trkpt lat="49.610662" lon="6.131607">
				 <ele>308.3</ele>
			 </trkpt>
			 <trkpt lat="49.610631" lon="6.131516">
				 <ele>307.6</ele>
			 </trkpt>
			 <trkpt lat="49.610618" lon="6.131355">
				 <ele>307.4</ele>
			 </trkpt>
			 <trkpt lat="49.610624" lon="6.131077">
				 <ele>307.5</ele>
			 </trkpt>
			 <trkpt lat="49.610612" lon="6.130641">
				 <ele>307.9</ele>
			 </trkpt>
			 <trkpt lat="49.610621" lon="6.130585">
				 <ele>308.5</ele>
			 </trkpt>
			 <trkpt lat="49.610891" lon="6.130389">
				 <ele>309.1</ele>
			 </trkpt>
			 <trkpt lat="49.61115" lon="6.13029">
				 <ele>309.6</ele>
			 </trkpt>
			 <trkpt lat="49.611129" lon="6.129913">
				 <ele>310.1</ele>
			 </trkpt>
			 <trkpt lat="49.611285" lon="6.129665">
				 <ele>310.6</ele>
			 </trkpt>
			 <trkpt lat="49.611252" lon="6.129406">
				 <ele>311.3</ele>
			 </trkpt>
			 <trkpt lat="49.611205" lon="6.129201">
				 <ele>311.8</ele>
			 </trkpt>
			 <trkpt lat="49.611147" lon="6.128934">
				 <ele>312.1</ele>
			 </trkpt>
			 <trkpt lat="49.61099" lon="6.128865">
				 <ele>312</ele>
			 </trkpt>
			 <trkpt lat="49.610926" lon="6.12848">
				 <ele>312.5</ele>
			 </trkpt>
			 <trkpt lat="49.610883" lon="6.128158">
				 <ele>312.7</ele>
			 </trkpt>
			 <trkpt lat="49.610881" lon="6.128028">
				 <ele>311.8</ele>
			 </trkpt>
			 <trkpt lat="49.610776" lon="6.127026">
				 <ele>311</ele>
			 </trkpt>
			 <trkpt lat="49.611271" lon="6.126965">
				 <ele>310.5</ele>
			 </trkpt>
			 <trkpt lat="49.612193" lon="6.126728">
				 <ele>310.3</ele>
			 </trkpt>
			 <trkpt lat="49.612251" lon="6.125873">
				 <ele>310</ele>
			 </trkpt>
			 <trkpt lat="49.610667" lon="6.126112">
				 <ele>309.8</ele>
			 </trkpt>
			 <trkpt lat="49.610647" lon="6.126076">
				 <ele>309.5</ele>
			 </trkpt>
			 <trkpt lat="49.61039" lon="6.124395">
				 <ele>309.3</ele>
			 </trkpt>
			 <trkpt lat="49.610503" lon="6.124128">
				 <ele>309.1</ele>
			 </trkpt>
			 <trkpt lat="49.610534" lon="6.124033">
				 <ele>308.1</ele>
			 </trkpt>
			 <trkpt lat="49.610843" lon="6.124054">
				 <ele>307.2</ele>
			 </trkpt>
			 <trkpt lat="49.611138" lon="6.1239">
				 <ele>307.5</ele>
			 </trkpt>
			 <trkpt lat="49.6114" lon="6.123816">
				 <ele>307.7</ele>
			 </trkpt>
			 <trkpt lat="49.611533" lon="6.123871">
				 <ele>307.7</ele>
			 </trkpt>
			 <trkpt lat="49.611719" lon="6.12398">
				 <ele>307.7</ele>
			 </trkpt>
			 <trkpt lat="49.611819" lon="6.12402">
				 <ele>307.7</ele>
			 </trkpt>
			 <trkpt lat="49.611971" lon="6.123987">
				 <ele>307.7</ele>
			 </trkpt>
			 <trkpt lat="49.612205" lon="6.123897">
				 <ele>307.9</ele>
			 </trkpt>
			 <trkpt lat="49.612238" lon="6.123384">
				 <ele>307.6</ele>
			 </trkpt>
			 <trkpt lat="49.612299" lon="6.122614">
				 <ele>307.2</ele>
			 </trkpt>
			 <trkpt lat="49.612409" lon="6.121978">
				 <ele>306.5</ele>
			 </trkpt>
			 <trkpt lat="49.61256" lon="6.121629">
				 <ele>305.8</ele>
			 </trkpt>
			 <trkpt lat="49.612668" lon="6.121545">
				 <ele>305.2</ele>
			 </trkpt>
			 <trkpt lat="49.612904" lon="6.120889">
				 <ele>304.1</ele>
			 </trkpt>
			 <trkpt lat="49.613142" lon="6.120314">
				 <ele>302.9</ele>
			 </trkpt>
			 <trkpt lat="49.613238" lon="6.119972">
				 <ele>301.7</ele>
			 </trkpt>
			 <trkpt lat="49.613277" lon="6.119647">
				 <ele>300.6</ele>
			 </trkpt>
			 <trkpt lat="49.613335" lon="6.119271">
				 <ele>299.5</ele>
			 </trkpt>
			 <trkpt lat="49.613572" lon="6.117711">
				 <ele>298.5</ele>
			 </trkpt>
			 <trkpt lat="49.613534" lon="6.117389">
				 <ele>297.9</ele>
			 </trkpt>
			 <trkpt lat="49.613353" lon="6.11725">
				 <ele>297.5</ele>
			 </trkpt>
			 <trkpt lat="49.613158" lon="6.117111">
				 <ele>297.4</ele>
			 </trkpt>
			 <trkpt lat="49.613158" lon="6.116848">
				 <ele>297.1</ele>
			 </trkpt>
			 <trkpt lat="49.613201" lon="6.116189">
				 <ele>296.6</ele>
			 </trkpt>
			 <trkpt lat="49.61321" lon="6.11583">
				 <ele>296.6</ele>
			 </trkpt>
			 <trkpt lat="49.613181" lon="6.11539">
				 <ele>296.6</ele>
			 </trkpt>
			 <trkpt lat="49.613124" lon="6.114629">
				 <ele>296.5</ele>
			 </trkpt>
			 <trkpt lat="49.613076" lon="6.114073">
				 <ele>296.3</ele>
			 </trkpt>
			 <trkpt lat="49.613076" lon="6.11386">
				 <ele>296</ele>
			 </trkpt>
			 <trkpt lat="49.613126" lon="6.113748">
				 <ele>295.6</ele>
			 </trkpt>
			 <trkpt lat="49.613145" lon="6.113646">
				 <ele>295.5</ele>
			 </trkpt>
			 <trkpt lat="49.613145" lon="6.113572">
				 <ele>295.7</ele>
			 </trkpt>
			 <trkpt lat="49.613112" lon="6.113417">
				 <ele>295.9</ele>
			 </trkpt>
			 <trkpt lat="49.613137" lon="6.113172">
				 <ele>296.3</ele>
			 </trkpt>
			 <trkpt lat="49.613047" lon="6.112235">
				 <ele>296.7</ele>
			 </trkpt>
			 <trkpt lat="49.612797" lon="6.108706">
				 <ele>297</ele>
			 </trkpt>
			 <trkpt lat="49.612683" lon="6.107622">
				 <ele>297.5</ele>
			 </trkpt>
			 <trkpt lat="49.612616" lon="6.106788">
				 <ele>298</ele>
			 </trkpt>
			 <trkpt lat="49.612491" lon="6.105426">
				 <ele>298.8</ele>
			 </trkpt>
			 <trkpt lat="49.612391" lon="6.104689">
				 <ele>299.7</ele>
			 </trkpt>
			 <trkpt lat="49.611775" lon="6.104659">
				 <ele>300.6</ele>
			 </trkpt>
			 <trkpt lat="49.611647" lon="6.104832">
				 <ele>301.3</ele>
			 </trkpt>
			 <trkpt lat="49.61145" lon="6.104832">
				 <ele>301.6</ele>
			 </trkpt>
			 <trkpt lat="49.611278" lon="6.104805">
				 <ele>301.6</ele>
			 </trkpt>
			 <trkpt lat="49.611216" lon="6.104715">
				 <ele>301.8</ele>
			 </trkpt>
			 <trkpt lat="49.611183" lon="6.104591">
				 <ele>302</ele>
			 </trkpt>
			 <trkpt lat="49.611085" lon="6.104349">
				 <ele>302.6</ele>
			 </trkpt>
			 <trkpt lat="49.611126" lon="6.104065">
				 <ele>303.2</ele>
			 </trkpt>
			 <trkpt lat="49.611435" lon="6.103031">
				 <ele>303.6</ele>
			 </trkpt>
			 <trkpt lat="49.611554" lon="6.102472">
				 <ele>303.9</ele>
			 </trkpt>
			 <trkpt lat="49.611581" lon="6.10168">
				 <ele>304.1</ele>
			 </trkpt>
			 <trkpt lat="49.611517" lon="6.098779">
				 <ele>304.2</ele>
			 </trkpt>
			 <trkpt lat="49.611198" lon="6.098765">
				 <ele>304.6</ele>
			 </trkpt>
			 <trkpt lat="49.610822" lon="6.098795">
				 <ele>305.1</ele>
			 </trkpt>
			 <trkpt lat="49.610805" lon="6.098932">
				 <ele>305.7</ele>
			 </trkpt>
			 <trkpt lat="49.61081" lon="6.099028">
				 <ele>306.1</ele>
			 </trkpt>
			 <trkpt lat="49.610826" lon="6.099115">
				 <ele>306.6</ele>
			 </trkpt>
			 <trkpt lat="49.610839" lon="6.100184">
				 <ele>306.7</ele>
			 </trkpt>
			 <trkpt lat="49.61085" lon="6.101289">
				 <ele>306.6</ele>
			 </trkpt>
			 <trkpt lat="49.610822" lon="6.101992">
				 <ele>306.5</ele>
			 </trkpt>
			 <trkpt lat="49.610713" lon="6.102739">
				 <ele>306.5</ele>
			 </trkpt>
			 <trkpt lat="49.610499" lon="6.103333">
				 <ele>306.2</ele>
			 </trkpt>
			 <trkpt lat="49.61029" lon="6.103823">
				 <ele>306.2</ele>
			 </trkpt>
			 <trkpt lat="49.610009" lon="6.104248">
				 <ele>305.7</ele>
			 </trkpt>
			 <trkpt lat="49.60971" lon="6.104351">
				 <ele>305.5</ele>
			 </trkpt>
			 <trkpt lat="49.609529" lon="6.104413">
				 <ele>305.6</ele>
			 </trkpt>
			 <trkpt lat="49.609565" lon="6.105364">
				 <ele>305.5</ele>
			 </trkpt>
			 <trkpt lat="49.609984" lon="6.10641">
				 <ele>305</ele>
			 </trkpt>
			 <trkpt lat="49.610337" lon="6.107662">
				 <ele>304.8</ele>
			 </trkpt>
			 <trkpt lat="49.610394" lon="6.108057">
				 <ele>304.9</ele>
			 </trkpt>
			 <trkpt lat="49.610438" lon="6.108848">
				 <ele>305.7</ele>
			 </trkpt>
			 <trkpt lat="49.610325" lon="6.112084">
				 <ele>305.9</ele>
			 </trkpt>
			 <trkpt lat="49.610226" lon="6.113329">
				 <ele>306.7</ele>
			 </trkpt>
			 <trkpt lat="49.610217" lon="6.114801">
				 <ele>306.6</ele>
			 </trkpt>
			 <trkpt lat="49.610203" lon="6.115357">
				 <ele>306.5</ele>
			 </trkpt>
			 <trkpt lat="49.610931" lon="6.1154">
				 <ele>306.2</ele>
			 </trkpt>
			 <trkpt lat="49.610884" lon="6.116279">
				 <ele>305.8</ele>
			 </trkpt>
			 <trkpt lat="49.611645" lon="6.116446">
				 <ele>305.7</ele>
			 </trkpt>
			 <trkpt lat="49.611536" lon="6.118189">
				 <ele>305.8</ele>
			 </trkpt>
			 <trkpt lat="49.611689" lon="6.118526">
				 <ele>305.9</ele>
			 </trkpt>
			 <trkpt lat="49.611675" lon="6.119309">
				 <ele>306.2</ele>
			 </trkpt>
			 <trkpt lat="49.611618" lon="6.119954">
				 <ele>305.7</ele>
			 </trkpt>
			 <trkpt lat="49.611494" lon="6.12002">
				 <ele>305.8</ele>
			 </trkpt>
			 <trkpt lat="49.611394" lon="6.120349">
				 <ele>305.6</ele>
			 </trkpt>
			 <trkpt lat="49.611352" lon="6.120957">
				 <ele>306.1</ele>
			 </trkpt>
			 <trkpt lat="49.611687" lon="6.121468">
				 <ele>306.7</ele>
			 </trkpt>
			 <trkpt lat="49.611906" lon="6.122039">
				 <ele>306.9</ele>
			 </trkpt>
			 <trkpt lat="49.611963" lon="6.122697">
				 <ele>306.7</ele>
			 </trkpt>
			 <trkpt lat="49.611849" lon="6.123122">
				 <ele>306.4</ele>
			 </trkpt>
			 <trkpt lat="49.61164" lon="6.123474">
				 <ele>306.2</ele>
			 </trkpt>
			 <trkpt lat="49.611222" lon="6.12343">
				 <ele>306</ele>
			 </trkpt>
			 <trkpt lat="49.610594" lon="6.123533">
				 <ele>305.5</ele>
			 </trkpt>
			 <trkpt lat="49.610394" lon="6.123387">
				 <ele>304.9</ele>
			 </trkpt>
			 <trkpt lat="49.610279" lon="6.122933">
				 <ele>304.1</ele>
			 </trkpt>
			 <trkpt lat="49.610279" lon="6.122523">
				 <ele>303.2</ele>
			 </trkpt>
			 <trkpt lat="49.61029" lon="6.122232">
				 <ele>302.2</ele>
			 </trkpt>
			 <trkpt lat="49.610266" lon="6.122049">
				 <ele>301.1</ele>
			 </trkpt>
			 <trkpt lat="49.610156" lon="6.121852">
				 <ele>300.3</ele>
			 </trkpt>
			 <trkpt lat="49.609833" lon="6.121998">
				 <ele>299.6</ele>
			 </trkpt>
			 <trkpt lat="49.609695" lon="6.122042">
				 <ele>299.3</ele>
			 </trkpt>
			 <trkpt lat="49.609666" lon="6.122234">
				 <ele>298.9</ele>
			 </trkpt>
			 <trkpt lat="49.609541" lon="6.122554">
				 <ele>298.5</ele>
			 </trkpt>
			 <trkpt lat="49.609476" lon="6.123003">
				 <ele>298</ele>
			 </trkpt>
			 <trkpt lat="49.609428" lon="6.123232">
				 <ele>297.7</ele>
			 </trkpt>
			 <trkpt lat="49.609321" lon="6.123387">
				 <ele>297.5</ele>
			 </trkpt>
			 <trkpt lat="49.609203" lon="6.123598">
				 <ele>297.3</ele>
			 </trkpt>
			 <trkpt lat="49.609131" lon="6.123754">
				 <ele>297</ele>
			 </trkpt>
			 <trkpt lat="49.609173" lon="6.124001">
				 <ele>296.5</ele>
			 </trkpt>
			 <trkpt lat="49.609137" lon="6.124065">
				 <ele>295.9</ele>
			 </trkpt>
			 <trkpt lat="49.609005" lon="6.124061">
				 <ele>295.4</ele>
			 </trkpt>
			 <trkpt lat="49.608767" lon="6.124006">
				 <ele>295.1</ele>
			 </trkpt>
			 <trkpt lat="49.608626" lon="6.1238">
				 <ele>294.6</ele>
			 </trkpt>
			 <trkpt lat="49.608203" lon="6.122848">
				 <ele>294.2</ele>
			 </trkpt>
			 <trkpt lat="49.608126" lon="6.122775">
				 <ele>293.8</ele>
			 </trkpt>
			 <trkpt lat="49.607962" lon="6.122799">
				 <ele>293.3</ele>
			 </trkpt>
			 <trkpt lat="49.607489" lon="6.121854">
				 <ele>292.8</ele>
			 </trkpt>
			 <trkpt lat="49.606572" lon="6.12006">
				 <ele>292.5</ele>
			 </trkpt>
			 <trkpt lat="49.606501" lon="6.119672">
				 <ele>292.3</ele>
			 </trkpt>
			 <trkpt lat="49.606719" lon="6.11809">
				 <ele>292.4</ele>
			 </trkpt>
			 <trkpt lat="49.60698" lon="6.116618">
				 <ele>292.7</ele>
			 </trkpt>
			 <trkpt lat="49.607412" lon="6.114582">
				 <ele>293.2</ele>
			 </trkpt>
			 <trkpt lat="49.607953" lon="6.112378">
				 <ele>293.3</ele>
			 </trkpt>
			 <trkpt lat="49.608134" lon="6.111909">
				 <ele>293.4</ele>
			 </trkpt>
			 <trkpt lat="49.608333" lon="6.11114">
				 <ele>293.5</ele>
			 </trkpt>
			 <trkpt lat="49.608447" lon="6.110569">
				 <ele>293.5</ele>
			 </trkpt>
			 <trkpt lat="49.608509" lon="6.110035">
				 <ele>293.6</ele>
			 </trkpt>
			 <trkpt lat="49.608552" lon="6.109632">
				 <ele>293.8</ele>
			 </trkpt>
			 <trkpt lat="49.608561" lon="6.109193">
				 <ele>294</ele>
			 </trkpt>
			 <trkpt lat="49.60857" lon="6.108651">
				 <ele>294.2</ele>
			 </trkpt>
			 <trkpt lat="49.608612" lon="6.108316">
				 <ele>294.2</ele>
			 </trkpt>
			 <trkpt lat="49.608444" lon="6.108091">
				 <ele>294</ele>
			 </trkpt>
			 <trkpt lat="49.608562" lon="6.107783">
				 <ele>293.8</ele>
			 </trkpt>
			 <trkpt lat="49.608434" lon="6.107558">
				 <ele>293.7</ele>
			 </trkpt>
			 <trkpt lat="49.608267" lon="6.107327">
				 <ele>293.8</ele>
			 </trkpt>
			 <trkpt lat="49.60813" lon="6.107113">
				 <ele>293.7</ele>
			 </trkpt>
			 <trkpt lat="49.608116" lon="6.106981">
				 <ele>293.6</ele>
			 </trkpt>
			 <trkpt lat="49.608238" lon="6.106838">
				 <ele>293.3</ele>
			 </trkpt>
			 <trkpt lat="49.608287" lon="6.106762">
				 <ele>293.1</ele>
			 </trkpt>
			 <trkpt lat="49.608242" lon="6.106656">
				 <ele>292.8</ele>
			 </trkpt>
			 <trkpt lat="49.608131" lon="6.106463">
				 <ele>292.3</ele>
			 </trkpt>
			 <trkpt lat="49.608078" lon="6.106261">
				 <ele>291.8</ele>
			 </trkpt>
			 <trkpt lat="49.607979" lon="6.105555">
				 <ele>291.4</ele>
			 </trkpt>
			 <trkpt lat="49.607801" lon="6.104449">
				 <ele>291</ele>
			 </trkpt>
			 <trkpt lat="49.607717" lon="6.103813">
				 <ele>290.2</ele>
			 </trkpt>
			 <trkpt lat="49.607528" lon="6.102717">
				 <ele>289.1</ele>
			 </trkpt>
			 <trkpt lat="49.607408" lon="6.101663">
				 <ele>288.5</ele>
			 </trkpt>
			 <trkpt lat="49.607356" lon="6.100858">
				 <ele>287.9</ele>
			 </trkpt>
			 <trkpt lat="49.607221" lon="6.099196">
				 <ele>287.5</ele>
			 </trkpt>
			 <trkpt lat="49.606474" lon="6.099363">
				 <ele>287.1</ele>
			 </trkpt>
			 <trkpt lat="49.606606" lon="6.100708">
				 <ele>286.9</ele>
			 </trkpt>
			 <trkpt lat="49.606647" lon="6.101321">
				 <ele>286.7</ele>
			 </trkpt>
			 <trkpt lat="49.606828" lon="6.102067">
				 <ele>286.4</ele>
			 </trkpt>
			 <trkpt lat="49.606666" lon="6.102338">
				 <ele>285.9</ele>
			 </trkpt>
			 <trkpt lat="49.606838" lon="6.102982">
				 <ele>285.1</ele>
			 </trkpt>
			 <trkpt lat="49.6071" lon="6.103494">
				 <ele>284.6</ele>
			 </trkpt>
			 <trkpt lat="49.606682" lon="6.103883">
				 <ele>284</ele>
			 </trkpt>
			 <trkpt lat="49.606287" lon="6.103986">
				 <ele>283</ele>
			 </trkpt>
			 <trkpt lat="49.605978" lon="6.104008">
				 <ele>281.6</ele>
			 </trkpt>
			 <trkpt lat="49.605844" lon="6.102559">
				 <ele>280.4</ele>
			 </trkpt>
			 <trkpt lat="49.6056" lon="6.100421">
				 <ele>279.5</ele>
			 </trkpt>
			 <trkpt lat="49.604119" lon="6.100751">
				 <ele>278.8</ele>
			 </trkpt>
			 <trkpt lat="49.604112" lon="6.100868">
				 <ele>278.5</ele>
			 </trkpt>
			 <trkpt lat="49.604549" lon="6.103589">
				 <ele>278.5</ele>
			 </trkpt>
			 <trkpt lat="49.604156" lon="6.1039">
				 <ele>278.6</ele>
			 </trkpt>
			 <trkpt lat="49.604585" lon="6.104778">
				 <ele>279.1</ele>
			 </trkpt>
			 <trkpt lat="49.605025" lon="6.105254">
				 <ele>279.6</ele>
			 </trkpt>
			 <trkpt lat="49.605323" lon="6.105491">
				 <ele>280.6</ele>
			 </trkpt>
			 <trkpt lat="49.606031" lon="6.106102">
				 <ele>281.7</ele>
			 </trkpt>
			 <trkpt lat="49.606126" lon="6.106241">
				 <ele>283.1</ele>
			 </trkpt>
			 <trkpt lat="49.606193" lon="6.106424">
				 <ele>284.5</ele>
			 </trkpt>
			 <trkpt lat="49.606264" lon="6.106716">
				 <ele>285.4</ele>
			 </trkpt>
			 <trkpt lat="49.606288" lon="6.106936">
				 <ele>285.8</ele>
			 </trkpt>
			 <trkpt lat="49.606093" lon="6.107339">
				 <ele>286.3</ele>
			 </trkpt>
			 <trkpt lat="49.605889" lon="6.107778">
				 <ele>286.5</ele>
			 </trkpt>
			 <trkpt lat="49.605922" lon="6.107946">
				 <ele>286.8</ele>
			 </trkpt>
			 <trkpt lat="49.606037" lon="6.108444">
				 <ele>287</ele>
			 </trkpt>
			 <trkpt lat="49.606091" lon="6.108656">
				 <ele>287.1</ele>
			 </trkpt>
			 <trkpt lat="49.606117" lon="6.108763">
				 <ele>287.1</ele>
			 </trkpt>
			 <trkpt lat="49.606133" lon="6.108848">
				 <ele>287</ele>
			 </trkpt>
			 <trkpt lat="49.606149" lon="6.10892">
				 <ele>286.9</ele>
			 </trkpt>
			 <trkpt lat="49.60637" lon="6.109916">
				 <ele>286.8</ele>
			 </trkpt>
			 <trkpt lat="49.606468" lon="6.110138">
				 <ele>286.9</ele>
			 </trkpt>
			 <trkpt lat="49.606559" lon="6.110404">
				 <ele>287</ele>
			 </trkpt>
			 <trkpt lat="49.606591" lon="6.110475">
				 <ele>287.1</ele>
			 </trkpt>
			 <trkpt lat="49.606657" lon="6.110554">
				 <ele>287.1</ele>
			 </trkpt>
			 <trkpt lat="49.606755" lon="6.110581">
				 <ele>286.9</ele>
			 </trkpt>
			 <trkpt lat="49.606976" lon="6.110692">
				 <ele>287</ele>
			 </trkpt>
			 <trkpt lat="49.607093" lon="6.111013">
				 <ele>287.5</ele>
			 </trkpt>
			 <trkpt lat="49.607132" lon="6.111134">
				 <ele>288</ele>
			 </trkpt>
			 <trkpt lat="49.607101" lon="6.111315">
				 <ele>288.5</ele>
			 </trkpt>
			 <trkpt lat="49.607148" lon="6.111511">
				 <ele>288.8</ele>
			 </trkpt>
			 <trkpt lat="49.607275" lon="6.111912">
				 <ele>288.9</ele>
			 </trkpt>
			 <trkpt lat="49.607186" lon="6.112416">
				 <ele>288.8</ele>
			 </trkpt>
			 <trkpt lat="49.607159" lon="6.112515">
				 <ele>288.5</ele>
			 </trkpt>
			 <trkpt lat="49.60709" lon="6.112625">
				 <ele>288.2</ele>
			 </trkpt>
			 <trkpt lat="49.606815" lon="6.113863">
				 <ele>287.6</ele>
			 </trkpt>
			 <trkpt lat="49.606615" lon="6.113807">
				 <ele>287.1</ele>
			 </trkpt>
			 <trkpt lat="49.606554" lon="6.113793">
				 <ele>286.3</ele>
			 </trkpt>
			 <trkpt lat="49.606012" lon="6.11352">
				 <ele>285.2</ele>
			 </trkpt>
			 <trkpt lat="49.606055" lon="6.113075">
				 <ele>284.4</ele>
			 </trkpt>
			 <trkpt lat="49.605538" lon="6.112856">
				 <ele>283.5</ele>
			 </trkpt>
			 <trkpt lat="49.605433" lon="6.112471">
				 <ele>283</ele>
			 </trkpt>
			 <trkpt lat="49.605519" lon="6.112344">
				 <ele>282.4</ele>
			 </trkpt>
			 <trkpt lat="49.605424" lon="6.112058">
				 <ele>281.5</ele>
			 </trkpt>
			 <trkpt lat="49.60481" lon="6.11184">
				 <ele>280.8</ele>
			 </trkpt>
			 <trkpt lat="49.604701" lon="6.111869">
				 <ele>280</ele>
			 </trkpt>
			 <trkpt lat="49.604453" lon="6.111745">
				 <ele>279.5</ele>
			 </trkpt>
			 <trkpt lat="49.604127" lon="6.112004">
				 <ele>279.3</ele>
			 </trkpt>
			 <trkpt lat="49.603794" lon="6.112286">
				 <ele>278.8</ele>
			 </trkpt>
			 <trkpt lat="49.603399" lon="6.112617">
				 <ele>278.3</ele>
			 </trkpt>
			 <trkpt lat="49.602801" lon="6.113107">
				 <ele>277.4</ele>
			 </trkpt>
			 <trkpt lat="49.602607" lon="6.113262">
				 <ele>276.4</ele>
			 </trkpt>
			 <trkpt lat="49.602312" lon="6.113479">
				 <ele>275.4</ele>
			 </trkpt>
			 <trkpt lat="49.601943" lon="6.113752">
				 <ele>275.3</ele>
			 </trkpt>
			 <trkpt lat="49.601199" lon="6.1143">
				 <ele>275.4</ele>
			 </trkpt>
			 <trkpt lat="49.60119" lon="6.114439">
				 <ele>275.5</ele>
			 </trkpt>
			 <trkpt lat="49.601876" lon="6.116034">
				 <ele>275.6</ele>
			 </trkpt>
			 <trkpt lat="49.602414" lon="6.116927">
				 <ele>276.1</ele>
			 </trkpt>
			 <trkpt lat="49.603613" lon="6.115146">
				 <ele>277.2</ele>
			 </trkpt>
			 <trkpt lat="49.603666" lon="6.115204">
				 <ele>278.4</ele>
			 </trkpt>
			 <trkpt lat="49.604009" lon="6.116236">
				 <ele>279.6</ele>
			 </trkpt>
			 <trkpt lat="49.604271" lon="6.115648">
				 <ele>281.1</ele>
			 </trkpt>
			 <trkpt lat="49.604794" lon="6.11608">
				 <ele>281.8</ele>
			 </trkpt>
			 <trkpt lat="49.605432" lon="6.116409">
				 <ele>282.7</ele>
			 </trkpt>
			 <trkpt lat="49.605379" lon="6.116893">
				 <ele>283</ele>
			 </trkpt>
			 <trkpt lat="49.605147" lon="6.118768">
				 <ele>283.8</ele>
			 </trkpt>
			 <trkpt lat="49.605076" lon="6.118797">
				 <ele>284.7</ele>
			 </trkpt>
			 <trkpt lat="49.603701" lon="6.118374">
				 <ele>286.1</ele>
			 </trkpt>
			 <trkpt lat="49.603629" lon="6.118755">
				 <ele>287.2</ele>
			 </trkpt>
			 <trkpt lat="49.60372" lon="6.120629">
				 <ele>287.5</ele>
			 </trkpt>
			 <trkpt lat="49.605585" lon="6.119851">
				 <ele>287.6</ele>
			 </trkpt>
			 <trkpt lat="49.605756" lon="6.11988">
				 <ele>288.2</ele>
			 </trkpt>
			 <trkpt lat="49.60637" lon="6.119997">
				 <ele>288.7</ele>
			 </trkpt>
			 <trkpt lat="49.606513" lon="6.120092">
				 <ele>290.2</ele>
			 </trkpt>
			 <trkpt lat="49.60717" lon="6.121453">
				 <ele>291.3</ele>
			 </trkpt>
			 <trkpt lat="49.60788" lon="6.122909">
				 <ele>292.4</ele>
			 </trkpt>
			 <trkpt lat="49.608856" lon="6.124848">
				 <ele>293.2</ele>
			 </trkpt>
			 <trkpt lat="49.608884" lon="6.124943">
				 <ele>294.2</ele>
			 </trkpt>
			 <trkpt lat="49.608939" lon="6.12512">
				 <ele>294.6</ele>
			 </trkpt>
			 <trkpt lat="49.608887" lon="6.125169">
				 <ele>294.8</ele>
			 </trkpt>
			 <trkpt lat="49.608891" lon="6.125281">
				 <ele>294.8</ele>
			 </trkpt>
			 <trkpt lat="49.609032" lon="6.125532">
				 <ele>294.9</ele>
			 </trkpt>
			 <trkpt lat="49.609108" lon="6.125714">
				 <ele>294.6</ele>
			 </trkpt>
			 <trkpt lat="49.609141" lon="6.126074">
				 <ele>294.2</ele>
			 </trkpt>
			 <trkpt lat="49.609126" lon="6.1262">
				 <ele>293.6</ele>
			 </trkpt>
			 <trkpt lat="49.609093" lon="6.126325">
				 <ele>293.5</ele>
			 </trkpt>
			 <trkpt lat="49.607735" lon="6.127476">
				 <ele>293.4</ele>
			 </trkpt>
			 <trkpt lat="49.607666" lon="6.127402">
				 <ele>293</ele>
			 </trkpt>
			 <trkpt lat="49.607573" lon="6.12732">
				 <ele>292.5</ele>
			 </trkpt>
			 <trkpt lat="49.607532" lon="6.127147">
				 <ele>291.9</ele>
			 </trkpt>
			 <trkpt lat="49.607428" lon="6.127036">
				 <ele>291.5</ele>
			 </trkpt>
			 <trkpt lat="49.607347" lon="6.126969">
				 <ele>291.2</ele>
			 </trkpt>
			 <trkpt lat="49.607304" lon="6.127012">
				 <ele>291.1</ele>
			 </trkpt>
			 <trkpt lat="49.607262" lon="6.126975">
				 <ele>291.3</ele>
			 </trkpt>
			 <trkpt lat="49.607034" lon="6.126487">
				 <ele>291.5</ele>
			 </trkpt>
			 <trkpt lat="49.607" lon="6.126359">
				 <ele>291.5</ele>
			 </trkpt>
			 <trkpt lat="49.60705" lon="6.126246">
				 <ele>291.3</ele>
			 </trkpt>
			 <trkpt lat="49.607115" lon="6.126274">
				 <ele>290.8</ele>
			 </trkpt>
			 <trkpt lat="49.607368" lon="6.126505">
				 <ele>290.3</ele>
			 </trkpt>
			 <trkpt lat="49.607733" lon="6.126947">
				 <ele>289.9</ele>
			 </trkpt>
			 <trkpt lat="49.607819" lon="6.127116">
				 <ele>289.7</ele>
			 </trkpt>
			 <trkpt lat="49.607991" lon="6.127606">
				 <ele>289.6</ele>
			 </trkpt>
			 <trkpt lat="49.60801" lon="6.127848">
				 <ele>289.6</ele>
			 </trkpt>
			 <trkpt lat="49.60801" lon="6.128199">
				 <ele>289.6</ele>
			 </trkpt>
			 <trkpt lat="49.607962" lon="6.128763">
				 <ele>289.4</ele>
			 </trkpt>
			 <trkpt lat="49.607943" lon="6.12899">
				 <ele>288.8</ele>
			 </trkpt>
			 <trkpt lat="49.607791" lon="6.129356">
				 <ele>288.5</ele>
			 </trkpt>
			 <trkpt lat="49.60763" lon="6.129524">
				 <ele>288.3</ele>
			 </trkpt>
			 <trkpt lat="49.607401" lon="6.129708">
				 <ele>288.1</ele>
			 </trkpt>
			 <trkpt lat="49.607149" lon="6.129803">
				 <ele>288.1</ele>
			 </trkpt>
			 <trkpt lat="49.606859" lon="6.130067">
				 <ele>287.8</ele>
			 </trkpt>
			 <trkpt lat="49.606474" lon="6.130521">
				 <ele>287.5</ele>
			 </trkpt>
			 <trkpt lat="49.606184" lon="6.130836">
				 <ele>286.9</ele>
			 </trkpt>
			 <trkpt lat="49.605989" lon="6.130939">
				 <ele>286.4</ele>
			 </trkpt>
			 <trkpt lat="49.605523" lon="6.131466">
				 <ele>285.7</ele>
			 </trkpt>
			 <trkpt lat="49.605561" lon="6.131583">
				 <ele>285</ele>
			 </trkpt>
			 <trkpt lat="49.60567" lon="6.131598">
				 <ele>284.1</ele>
			 </trkpt>
			 <trkpt lat="49.605699" lon="6.131795">
				 <ele>283.1</ele>
			 </trkpt>
			 <trkpt lat="49.605404" lon="6.13214">
				 <ele>281.6</ele>
			 </trkpt>
			 <trkpt lat="49.605294" lon="6.132381">
				 <ele>279.8</ele>
			 </trkpt>
			 <trkpt lat="49.605242" lon="6.132901">
				 <ele>277.9</ele>
			 </trkpt>
			 <trkpt lat="49.605252" lon="6.133736">
				 <ele>276.5</ele>
			 </trkpt>
			 <trkpt lat="49.605319" lon="6.13419">
				 <ele>274.6</ele>
			 </trkpt>
			 <trkpt lat="49.605676" lon="6.135419">
				 <ele>271.9</ele>
			 </trkpt>
			 <trkpt lat="49.6059" lon="6.135961">
				 <ele>268.7</ele>
			 </trkpt>
			 <trkpt lat="49.606119" lon="6.136422">
				 <ele>265.6</ele>
			 </trkpt>
			 <trkpt lat="49.606357" lon="6.136781">
				 <ele>263</ele>
			 </trkpt>
			 <trkpt lat="49.60669" lon="6.137154">
				 <ele>261</ele>
			 </trkpt>
			 <trkpt lat="49.606934" lon="6.137093">
				 <ele>259.2</ele>
			 </trkpt>
			 <trkpt lat="49.607143" lon="6.136792">
				 <ele>257.6</ele>
			 </trkpt>
			 <trkpt lat="49.607143" lon="6.13669">
				 <ele>256.5</ele>
			 </trkpt>
			 <trkpt lat="49.606843" lon="6.136412">
				 <ele>255.5</ele>
			 </trkpt>
			 <trkpt lat="49.606708" lon="6.136458">
				 <ele>254.3</ele>
			 </trkpt>
			 <trkpt lat="49.606417" lon="6.135887">
				 <ele>253.8</ele>
			 </trkpt>
			 <trkpt lat="49.606279" lon="6.135623">
				 <ele>254.6</ele>
			 </trkpt>
			 <trkpt lat="49.606174" lon="6.135235">
				 <ele>255.9</ele>
			 </trkpt>
			 <trkpt lat="49.606112" lon="6.134928">
				 <ele>257</ele>
			 </trkpt>
			 <trkpt lat="49.606122" lon="6.134635">
				 <ele>257.6</ele>
			 </trkpt>
			 <trkpt lat="49.60616" lon="6.134305">
				 <ele>258.1</ele>
			 </trkpt>
			 <trkpt lat="49.606213" lon="6.133967">
				 <ele>258.4</ele>
			 </trkpt>
			 <trkpt lat="49.606192" lon="6.133735">
				 <ele>259.6</ele>
			 </trkpt>
			 <trkpt lat="49.606215" lon="6.133347">
				 <ele>261.6</ele>
			 </trkpt>
			 <trkpt lat="49.606298" lon="6.133061">
				 <ele>263.7</ele>
			 </trkpt>
			 <trkpt lat="49.606527" lon="6.132757">
				 <ele>265</ele>
			 </trkpt>
			 <trkpt lat="49.606726" lon="6.13249">
				 <ele>265.7</ele>
			 </trkpt>
			 <trkpt lat="49.607316" lon="6.131838">
				 <ele>266.2</ele>
			 </trkpt>
			 <trkpt lat="49.607751" lon="6.131358">
				 <ele>266.9</ele>
			 </trkpt>
			 <trkpt lat="49.607996" lon="6.131135">
				 <ele>267.9</ele>
			 </trkpt>
			 <trkpt lat="49.608258" lon="6.13079">
				 <ele>269</ele>
			 </trkpt>
			 <trkpt lat="49.608351" lon="6.13049">
				 <ele>270.1</ele>
			 </trkpt>
			 <trkpt lat="49.60841" lon="6.130329">
				 <ele>271.2</ele>
			 </trkpt>
			 <trkpt lat="49.608467" lon="6.130084">
				 <ele>271.5</ele>
			 </trkpt>
			 <trkpt lat="49.608519" lon="6.12978">
				 <ele>271.2</ele>
			 </trkpt>
			 <trkpt lat="49.608574" lon="6.129483">
				 <ele>270.5</ele>
			 </trkpt>
			 <trkpt lat="49.608614" lon="6.129055">
				 <ele>270.5</ele>
			 </trkpt>
			 <trkpt lat="49.608721" lon="6.128913">
				 <ele>270.8</ele>
			 </trkpt>
			 <trkpt lat="49.608775" lon="6.128693">
				 <ele>270.9</ele>
			 </trkpt>
			 <trkpt lat="49.608776" lon="6.128532">
				 <ele>270.6</ele>
			 </trkpt>
			 <trkpt lat="49.608761" lon="6.128415">
				 <ele>270.4</ele>
			 </trkpt>
			 <trkpt lat="49.608755" lon="6.128324">
				 <ele>270.4</ele>
			 </trkpt>
			 <trkpt lat="49.608753" lon="6.128199">
				 <ele>270.9</ele>
			 </trkpt>
			 <trkpt lat="49.608793" lon="6.127996">
				 <ele>271.1</ele>
			 </trkpt>
			 <trkpt lat="49.608797" lon="6.127654">
				 <ele>271</ele>
			 </trkpt>
			 <trkpt lat="49.608713" lon="6.127229">
				 <ele>271</ele>
			 </trkpt>
			 <trkpt lat="49.608521" lon="6.126702">
				 <ele>271.2</ele>
			 </trkpt>
			 <trkpt lat="49.608262" lon="6.126155">
				 <ele>271.5</ele>
			 </trkpt>
			 <trkpt lat="49.607864" lon="6.125493">
				 <ele>271.9</ele>
			 </trkpt>
			 <trkpt lat="49.607746" lon="6.125356">
				 <ele>272.6</ele>
			 </trkpt>
			 <trkpt lat="49.607641" lon="6.125332">
				 <ele>273.6</ele>
			 </trkpt>
			 <trkpt lat="49.607582" lon="6.125356">
				 <ele>274.3</ele>
			 </trkpt>
			 <trkpt lat="49.607536" lon="6.125388">
				 <ele>274.1</ele>
			 </trkpt>
			 <trkpt lat="49.607506" lon="6.125441">
				 <ele>273.1</ele>
			 </trkpt>
			 <trkpt lat="49.607474" lon="6.125461">
				 <ele>272.5</ele>
			 </trkpt>
			 <trkpt lat="49.607432" lon="6.125532">
				 <ele>273.1</ele>
			 </trkpt>
			 <trkpt lat="49.607314" lon="6.12536">
				 <ele>273.9</ele>
			 </trkpt>
			 <trkpt lat="49.607112" lon="6.125055">
				 <ele>274.2</ele>
			 </trkpt>
			 <trkpt lat="49.606874" lon="6.124768">
				 <ele>274.3</ele>
			 </trkpt>
			 <trkpt lat="49.606718" lon="6.124616">
				 <ele>274.3</ele>
			 </trkpt>
			 <trkpt lat="49.606351" lon="6.124324">
				 <ele>273.7</ele>
			 </trkpt>
			 <trkpt lat="49.606103" lon="6.124128">
				 <ele>273</ele>
			 </trkpt>
			 <trkpt lat="49.60585" lon="6.123967">
				 <ele>272.5</ele>
			 </trkpt>
			 <trkpt lat="49.605646" lon="6.123856">
				 <ele>272.7</ele>
			 </trkpt>
			 <trkpt lat="49.605429" lon="6.123718">
				 <ele>273.2</ele>
			 </trkpt>
			 <trkpt lat="49.605104" lon="6.12347">
				 <ele>273.4</ele>
			 </trkpt>
			 <trkpt lat="49.604935" lon="6.123379">
				 <ele>272.5</ele>
			 </trkpt>
			 <trkpt lat="49.604804" lon="6.123311">
				 <ele>271.3</ele>
			 </trkpt>
			 <trkpt lat="49.604632" lon="6.12333">
				 <ele>270.4</ele>
			 </trkpt>
			 <trkpt lat="49.60432" lon="6.123131">
				 <ele>269.5</ele>
			 </trkpt>
			 <trkpt lat="49.604127" lon="6.12297">
				 <ele>268.7</ele>
			 </trkpt>
			 <trkpt lat="49.603941" lon="6.122835">
				 <ele>268.4</ele>
			 </trkpt>
			 <trkpt lat="49.603713" lon="6.122748">
				 <ele>268</ele>
			 </trkpt>
			 <trkpt lat="49.603549" lon="6.122692">
				 <ele>267.6</ele>
			 </trkpt>
			 <trkpt lat="49.603454" lon="6.122704">
				 <ele>267.3</ele>
			 </trkpt>
			 <trkpt lat="49.603324" lon="6.122733">
				 <ele>267</ele>
			 </trkpt>
			 <trkpt lat="49.603208" lon="6.122707">
				 <ele>266.9</ele>
			 </trkpt>
			 <trkpt lat="49.603109" lon="6.122698">
				 <ele>266.9</ele>
			 </trkpt>
			 <trkpt lat="49.602999" lon="6.122763">
				 <ele>267</ele>
			 </trkpt>
			 <trkpt lat="49.602885" lon="6.123003">
				 <ele>267.2</ele>
			 </trkpt>
			 <trkpt lat="49.602783" lon="6.12328">
				 <ele>267.4</ele>
			 </trkpt>
			 <trkpt lat="49.602717" lon="6.123528">
				 <ele>267.5</ele>
			 </trkpt>
			 <trkpt lat="49.602698" lon="6.123674">
				 <ele>267.7</ele>
			 </trkpt>
			 <trkpt lat="49.602718" lon="6.123734">
				 <ele>267.9</ele>
			 </trkpt>
			 <trkpt lat="49.602778" lon="6.12381">
				 <ele>268.1</ele>
			 </trkpt>
			 <trkpt lat="49.60276" lon="6.123841">
				 <ele>268.2</ele>
			 </trkpt>
			 <trkpt lat="49.602689" lon="6.123844">
				 <ele>268.3</ele>
			 </trkpt>
			 <trkpt lat="49.602601" lon="6.123793">
				 <ele>268.4</ele>
			 </trkpt>
			 <trkpt lat="49.602578" lon="6.123891">
				 <ele>268.2</ele>
			 </trkpt>
			 <trkpt lat="49.602512" lon="6.124165">
				 <ele>267.8</ele>
			 </trkpt>
			 <trkpt lat="49.60221" lon="6.123994">
				 <ele>267.4</ele>
			 </trkpt>
			 <trkpt lat="49.602194" lon="6.123942">
				 <ele>267.1</ele>
			 </trkpt>
			 <trkpt lat="49.602117" lon="6.123818">
				 <ele>267.1</ele>
			 </trkpt>
			 <trkpt lat="49.601891" lon="6.123713">
				 <ele>266.7</ele>
			 </trkpt>
			 <trkpt lat="49.60177" lon="6.123631">
				 <ele>266.3</ele>
			 </trkpt>
			 <trkpt lat="49.601643" lon="6.123524">
				 <ele>265.7</ele>
			 </trkpt>
			 <trkpt lat="49.601479" lon="6.123347">
				 <ele>265.4</ele>
			 </trkpt>
			 <trkpt lat="49.601332" lon="6.123177">
				 <ele>265.1</ele>
			 </trkpt>
			 <trkpt lat="49.600568" lon="6.121843">
				 <ele>265.2</ele>
			 </trkpt>
			 <trkpt lat="49.600431" lon="6.121623">
				 <ele>265.6</ele>
			 </trkpt>
			 <trkpt lat="49.600281" lon="6.121738">
				 <ele>265.8</ele>
			 </trkpt>
			 <trkpt lat="49.600104" lon="6.12187">
				 <ele>266.5</ele>
			 </trkpt>
			 <trkpt lat="49.600089" lon="6.121963">
				 <ele>266.9</ele>
			 </trkpt>
			 <trkpt lat="49.600098" lon="6.122417">
				 <ele>267</ele>
			 </trkpt>
			 <trkpt lat="49.60006" lon="6.122423">
				 <ele>267.8</ele>
			 </trkpt>
			 <trkpt lat="49.600028" lon="6.121925">
				 <ele>269.1</ele>
			 </trkpt>
			 <trkpt lat="49.599973" lon="6.122373">
				 <ele>270.5</ele>
			 </trkpt>
			 <trkpt lat="49.59924" lon="6.122632">
				 <ele>271.8</ele>
			 </trkpt>
			 <trkpt lat="49.599234" lon="6.122708">
				 <ele>273.5</ele>
			 </trkpt>
			 <trkpt lat="49.599517" lon="6.124198">
				 <ele>274.8</ele>
			 </trkpt>
			 <trkpt lat="49.599721" lon="6.125135">
				 <ele>275.9</ele>
			 </trkpt>
			 <trkpt lat="49.600097" lon="6.126757">
				 <ele>277.5</ele>
			 </trkpt>
			 <trkpt lat="49.601772" lon="6.125877">
				 <ele>279.2</ele>
			 </trkpt>
			 <trkpt lat="49.602162" lon="6.126887">
				 <ele>281.1</ele>
			 </trkpt>
			 <trkpt lat="49.603673" lon="6.125353">
				 <ele>282.7</ele>
			 </trkpt>
			 <trkpt lat="49.604697" lon="6.124271">
				 <ele>284.5</ele>
			 </trkpt>
			 <trkpt lat="49.604763" lon="6.124348">
				 <ele>286</ele>
			 </trkpt>
			 <trkpt lat="49.604949" lon="6.12478">
				 <ele>287.4</ele>
			 </trkpt>
			 <trkpt lat="49.604929" lon="6.124882">
				 <ele>288.8</ele>
			 </trkpt>
			 <trkpt lat="49.60411" lon="6.126044">
				 <ele>289.6</ele>
			 </trkpt>
			 <trkpt lat="49.605022" lon="6.128321">
				 <ele>290.6</ele>
			 </trkpt>
			 <trkpt lat="49.605123" lon="6.128339">
				 <ele>291.8</ele>
			 </trkpt>
			 <trkpt lat="49.606882" lon="6.126705">
				 <ele>292.9</ele>
			 </trkpt>
			 <trkpt lat="49.607145" lon="6.12723">
				 <ele>293.5</ele>
			 </trkpt>
			 <trkpt lat="49.607182" lon="6.127284">
				 <ele>294.2</ele>
			 </trkpt>
			 <trkpt lat="49.607125" lon="6.127432">
				 <ele>294.9</ele>
			 </trkpt>
			 <trkpt lat="49.607112" lon="6.127545">
				 <ele>295</ele>
			 </trkpt>
			 <trkpt lat="49.60712" lon="6.127668">
				 <ele>295.1</ele>
			 </trkpt>
			 <trkpt lat="49.607222" lon="6.127872">
				 <ele>295</ele>
			 </trkpt>
			 <trkpt lat="49.60716" lon="6.127941">
				 <ele>294.8</ele>
			 </trkpt>
			 <trkpt lat="49.606505" lon="6.128473">
				 <ele>294.7</ele>
			 </trkpt>
			 <trkpt lat="49.605345" lon="6.129484">
				 <ele>294.6</ele>
			 </trkpt>
			 <trkpt lat="49.605254" lon="6.129547">
				 <ele>294.5</ele>
			 </trkpt>
			 <trkpt lat="49.603399" lon="6.131103">
				 <ele>294.5</ele>
			 </trkpt>
			 <trkpt lat="49.603272" lon="6.131229">
				 <ele>294.3</ele>
			 </trkpt>
			 <trkpt lat="49.603171" lon="6.131305">
				 <ele>294</ele>
			 </trkpt>
			 <trkpt lat="49.602244" lon="6.132041">
				 <ele>293.8</ele>
			 </trkpt>
			 <trkpt lat="49.601338" lon="6.132864">
				 <ele>293.7</ele>
			 </trkpt>
			 <trkpt lat="49.601214" lon="6.132974">
				 <ele>293.5</ele>
			 </trkpt>
			 <trkpt lat="49.601207" lon="6.133041">
				 <ele>293.7</ele>
			 </trkpt>
			 <trkpt lat="49.601239" lon="6.133192">
				 <ele>293.7</ele>
			 </trkpt>
			 <trkpt lat="49.601276" lon="6.133223">
				 <ele>293.8</ele>
			 </trkpt>
			 <trkpt lat="49.601513" lon="6.133171">
				 <ele>293.8</ele>
			 </trkpt>
			 <trkpt lat="49.601779" lon="6.133134">
				 <ele>293.8</ele>
			 </trkpt>
			 <trkpt lat="49.602397" lon="6.133033">
				 <ele>293.7</ele>
			 </trkpt>
			 <trkpt lat="49.603033" lon="6.132954">
				 <ele>293.7</ele>
			 </trkpt>
			 <trkpt lat="49.603653" lon="6.133108">
				 <ele>293.5</ele>
			 </trkpt>
			 <trkpt lat="49.603691" lon="6.133076">
				 <ele>293.5</ele>
			 </trkpt>
			 <trkpt lat="49.603869" lon="6.131717">
				 <ele>293.4</ele>
			 </trkpt>
			 <trkpt lat="49.604758" lon="6.131897">
				 <ele>293.3</ele>
			 </trkpt>
			 <trkpt lat="49.604898" lon="6.131626">
				 <ele>292.1</ele>
			 </trkpt>
			 <trkpt lat="49.604986" lon="6.131655">
				 <ele>290.5</ele>
			 </trkpt>
			 <trkpt lat="49.605022" lon="6.131794">
				 <ele>288.9</ele>
			 </trkpt>
			 <trkpt lat="49.604661" lon="6.133333">
				 <ele>288.1</ele>
			 </trkpt>
			 <trkpt lat="49.604729" lon="6.133399">
				 <ele>288.4</ele>
			 </trkpt>
			 <trkpt lat="49.605047" lon="6.133619">
				 <ele>289</ele>
			 </trkpt>
			 <trkpt lat="49.606779" lon="6.133596">
				 <ele>289.6</ele>
			 </trkpt>
			 <trkpt lat="49.606937" lon="6.133377">
				 <ele>290.3</ele>
			 </trkpt>
			 <trkpt lat="49.60753" lon="6.132932">
				 <ele>290.6</ele>
			 </trkpt>
			 <trkpt lat="49.608139" lon="6.132502">
				 <ele>290.5</ele>
			 </trkpt>
			 <trkpt lat="49.608505" lon="6.132194">
				 <ele>289.4</ele>
			 </trkpt>
			 <trkpt lat="49.608852" lon="6.131505">
				 <ele>289.8</ele>
			 </trkpt>
			 <trkpt lat="49.609418" lon="6.130143">
				 <ele>291.4</ele>
			 </trkpt>
			 <trkpt lat="49.609275" lon="6.130026">
				 <ele>293.2</ele>
			 </trkpt>
			 <trkpt lat="49.609109" lon="6.129902">
				 <ele>294.6</ele>
			 </trkpt>
			 <trkpt lat="49.608899" lon="6.129324">
				 <ele>295.2</ele>
			 </trkpt>
			 <trkpt lat="49.609289" lon="6.128562">
				 <ele>295.5</ele>
			 </trkpt>
			 <trkpt lat="49.609427" lon="6.12862">
				 <ele>296.1</ele>
			 </trkpt>
			 <trkpt lat="49.609589" lon="6.12873">
				 <ele>296.9</ele>
			 </trkpt>
			 <trkpt lat="49.609651" lon="6.129579">
				 <ele>298.1</ele>
			 </trkpt>
			 <trkpt lat="49.609974" lon="6.129638">
				 <ele>299.8</ele>
			 </trkpt>
			 <trkpt lat="49.61008" lon="6.132061">
				 <ele>302.5</ele>
			 </trkpt>
			 <trkpt lat="49.610105" lon="6.132333">
				 <ele>304.4</ele>
			 </trkpt>
			 <trkpt lat="49.610147" lon="6.132476">
				 <ele>305.9</ele>
			 </trkpt>
			 <trkpt lat="49.610358" lon="6.13288">
				 <ele>307</ele>
			 </trkpt>
			 <trkpt lat="49.610632" lon="6.133375">
				 <ele>307.7</ele>
			 </trkpt>
			 <trkpt lat="49.610874" lon="6.133606">
				 <ele>308.2</ele>
			 </trkpt>
			 <trkpt lat="49.611022" lon="6.133557">
				 <ele>308.5</ele>
			 </trkpt>
			 <trkpt lat="49.61117" lon="6.133383">
				 <ele>308.7</ele>
			 </trkpt>
			 <trkpt lat="49.611218" lon="6.133381">
				 <ele>309.2</ele>
			 </trkpt>
			 <trkpt lat="49.611338" lon="6.133427">
				 <ele>309.5</ele>
			 </trkpt>
			 <trkpt lat="49.611403" lon="6.133412">
				 <ele>309.7</ele>
			 </trkpt>
			 <trkpt lat="49.611445" lon="6.133368">
				 <ele>310.1</ele>
			 </trkpt>
			 <trkpt lat="49.611473" lon="6.133228">
				 <ele>310.2</ele>
			 </trkpt>
			 <trkpt lat="49.611515" lon="6.132449">
				 <ele>310</ele>
			 </trkpt>
			 <trkpt lat="49.611827" lon="6.132208">
				 <ele>309.9</ele>
			 </trkpt>
			 <trkpt lat="49.611936" lon="6.132301">
				 <ele>310.2</ele>
			 </trkpt>
			 <trkpt lat="49.612142" lon="6.132387">
				 <ele>310.4</ele>
			 </trkpt>
			 <trkpt lat="49.612364" lon="6.132616">
				 <ele>310.5</ele>
			 </trkpt>
			 <trkpt lat="49.612797" lon="6.13241">
				 <ele>310.6</ele>
			 </trkpt>
			 <trkpt lat="49.61282" lon="6.132213">
				 <ele>310.3</ele>
			 </trkpt>
			 <trkpt lat="49.612744" lon="6.131627">
				 <ele>310</ele>
			 </trkpt>
			 <trkpt lat="49.612739" lon="6.131429">
				 <ele>310</ele>
			 </trkpt>
			 <trkpt lat="49.612796" lon="6.131327">
				 <ele>310.2</ele>
			 </trkpt>
			 <trkpt lat="49.613047" lon="6.131194">
				 <ele>310.5</ele>
			 </trkpt>
			 <trkpt lat="49.613035" lon="6.130967">
				 <ele>311.1</ele>
			 </trkpt>
			 <trkpt lat="49.613024" lon="6.130411">
				 <ele>311.5</ele>
			 </trkpt>
			 <trkpt lat="49.613009" lon="6.129849">
				 <ele>311.5</ele>
			 </trkpt>
			 <trkpt lat="49.613049" lon="6.129693">
				 <ele>312</ele>
			 </trkpt>
			 <trkpt lat="49.613173" lon="6.129693">
				 <ele>312.1</ele>
			 </trkpt>
			 <trkpt lat="49.613405" lon="6.12965">
				 <ele>312.3</ele>
			 </trkpt>
			 <trkpt lat="49.613447" lon="6.128983">
				 <ele>312.5</ele>
			 </trkpt>
			 <trkpt lat="49.613446" lon="6.128672">
				 <ele>312.7</ele>
			 </trkpt>
			 <trkpt lat="49.613325" lon="6.128074">
				 <ele>312.7</ele>
			 </trkpt>
			 <trkpt lat="49.614802" lon="6.127304">
				 <ele>312.6</ele>
			 </trkpt>
			 <trkpt lat="49.614832" lon="6.127291">
				 <ele>312.5</ele>
			 </trkpt>
			 <trkpt lat="49.614984" lon="6.127209">
				 <ele>312.3</ele>
			 </trkpt>
			 <trkpt lat="49.615146" lon="6.127147">
				 <ele>312.2</ele>
			 </trkpt>
			 <trkpt lat="49.61519" lon="6.127121">
				 <ele>312</ele>
			 </trkpt>
			 <trkpt lat="49.615245" lon="6.127191">
				 <ele>311.5</ele>
			 </trkpt>
			 <trkpt lat="49.615359" lon="6.127498">
				 <ele>311.5</ele>
			 </trkpt>
			 <trkpt lat="49.615479" lon="6.12782">
				 <ele>310.8</ele>
			 </trkpt>
			 <trkpt lat="49.61558" lon="6.128099">
				 <ele>310.1</ele>
			 </trkpt>
			 <trkpt lat="49.615622" lon="6.128239">
				 <ele>309.8</ele>
			 </trkpt>
			 <trkpt lat="49.615658" lon="6.128306">
				 <ele>309.6</ele>
			 </trkpt>
			 <trkpt lat="49.61566" lon="6.128388">
				 <ele>309.3</ele>
			 </trkpt>
			 <trkpt lat="49.615835" lon="6.129416">
				 <ele>308.8</ele>
			 </trkpt>
			 <trkpt lat="49.615981" lon="6.129328">
				 <ele>308.4</ele>
			 </trkpt>
			 <trkpt lat="49.616401" lon="6.129033">
				 <ele>307.8</ele>
			 </trkpt>
			 <trkpt lat="49.616475" lon="6.129014">
				 <ele>307.3</ele>
			 </trkpt>
			 <trkpt lat="49.616565" lon="6.129143">
				 <ele>306.9</ele>
			 </trkpt>
			 <trkpt lat="49.616636" lon="6.129242">
				 <ele>306.6</ele>
			 </trkpt>
			 <trkpt lat="49.616689" lon="6.129286">
				 <ele>307.1</ele>
			 </trkpt>
			 <trkpt lat="49.616781" lon="6.129307">
				 <ele>307.7</ele>
			 </trkpt>
			 <trkpt lat="49.616927" lon="6.129286">
				 <ele>307.9</ele>
			 </trkpt>
			 <trkpt lat="49.616975" lon="6.129169">
				 <ele>308</ele>
			 </trkpt>
			 <trkpt lat="49.616982" lon="6.129066">
				 <ele>308.2</ele>
			 </trkpt>
			 <trkpt lat="49.616986" lon="6.128946">
				 <ele>308.5</ele>
			 </trkpt>
			 <trkpt lat="49.616997" lon="6.128858">
				 <ele>308.5</ele>
			 </trkpt>
			 <trkpt lat="49.617041" lon="6.128791">
				 <ele>308.5</ele>
			 </trkpt>
			 <trkpt lat="49.617077" lon="6.128782">
				 <ele>308.6</ele>
			 </trkpt>
			 <trkpt lat="49.617155" lon="6.128803">
				 <ele>308.6</ele>
			 </trkpt>
			 <trkpt lat="49.617218" lon="6.128852">
				 <ele>308.5</ele>
			 </trkpt>
			 <trkpt lat="49.61728" lon="6.128994">
				 <ele>308.2</ele>
			 </trkpt>
			 <trkpt lat="49.617307" lon="6.129177">
				 <ele>307.9</ele>
			 </trkpt>
			 <trkpt lat="49.618092" lon="6.134515">
				 <ele>307.5</ele>
			 </trkpt>
			 <trkpt lat="49.618139" lon="6.134851">
				 <ele>307</ele>
			 </trkpt>
			 <trkpt lat="49.618169" lon="6.13506">
				 <ele>306.4</ele>
			 </trkpt>
			 <trkpt lat="49.618199" lon="6.135298">
				 <ele>306.5</ele>
			 </trkpt>
			 <trkpt lat="49.618243" lon="6.135609">
				 <ele>307.3</ele>
			 </trkpt>
			 <trkpt lat="49.618299" lon="6.13599">
				 <ele>308.8</ele>
			 </trkpt>
			 <trkpt lat="49.618343" lon="6.136307">
				 <ele>309.8</ele>
			 </trkpt>
			 <trkpt lat="49.618427" lon="6.137228">
				 <ele>310.8</ele>
			 </trkpt>
			 <trkpt lat="49.618552" lon="6.138714">
				 <ele>312</ele>
			 </trkpt>
			 <trkpt lat="49.618636" lon="6.139214">
				 <ele>313.1</ele>
			 </trkpt>
			 <trkpt lat="49.618721" lon="6.139651">
				 <ele>314.1</ele>
			 </trkpt>
			 <trkpt lat="49.618883" lon="6.140592">
				 <ele>315.2</ele>
			 </trkpt>
			 <trkpt lat="49.618938" lon="6.140955">
				 <ele>316.5</ele>
			 </trkpt>
			 <trkpt lat="49.618971" lon="6.141215">
				 <ele>318.2</ele>
			 </trkpt>
			 <trkpt lat="49.618944" lon="6.141299">
				 <ele>319.3</ele>
			 </trkpt>
			 <trkpt lat="49.618915" lon="6.14131">
				 <ele>319.9</ele>
			 </trkpt>
			 <trkpt lat="49.618876" lon="6.141298">
				 <ele>319.9</ele>
			 </trkpt>
			 <trkpt lat="49.618833" lon="6.14126">
				 <ele>320.4</ele>
			 </trkpt>
			 <trkpt lat="49.618792" lon="6.141149">
				 <ele>320.7</ele>
			 </trkpt>
			 <trkpt lat="49.618746" lon="6.14103">
				 <ele>321</ele>
			 </trkpt>
			 <trkpt lat="49.618721" lon="6.140951">
				 <ele>321.4</ele>
			 </trkpt>
			 <trkpt lat="49.618703" lon="6.140856">
				 <ele>321.9</ele>
			 </trkpt>
			 <trkpt lat="49.618693" lon="6.1408">
				 <ele>322.5</ele>
			 </trkpt>
			 <trkpt lat="49.618663" lon="6.140642">
				 <ele>323</ele>
			 </trkpt>
			 <trkpt lat="49.618577" lon="6.140492">
				 <ele>323.2</ele>
			 </trkpt>
			 <trkpt lat="49.618524" lon="6.14046">
				 <ele>323.1</ele>
			 </trkpt>
			 <trkpt lat="49.618353" lon="6.140504">
				 <ele>322.8</ele>
			 </trkpt>
			 <trkpt lat="49.61817" lon="6.140557">
				 <ele>322.5</ele>
			 </trkpt>
			 <trkpt lat="49.617985" lon="6.140636">
				 <ele>322.2</ele>
			 </trkpt>
			 <trkpt lat="49.617835" lon="6.140718">
				 <ele>321.8</ele>
			 </trkpt>
			 <trkpt lat="49.617673" lon="6.140798">
				 <ele>321.5</ele>
			 </trkpt>
			 <trkpt lat="49.617631" lon="6.14078">
				 <ele>321</ele>
			 </trkpt>
			 <trkpt lat="49.61758" lon="6.140739">
				 <ele>320.1</ele>
			 </trkpt>
			 <trkpt lat="49.61757" lon="6.139989">
				 <ele>319</ele>
			 </trkpt>
			 <trkpt lat="49.617593" lon="6.139881">
				 <ele>318</ele>
			 </trkpt>
			 <trkpt lat="49.617698" lon="6.139752">
				 <ele>317.3</ele>
			 </trkpt>
			 <trkpt lat="49.61776" lon="6.139687">
				 <ele>316.7</ele>
			 </trkpt>
			 <trkpt lat="49.617652" lon="6.139318">
				 <ele>316.2</ele>
			 </trkpt>
			 <trkpt lat="49.617551" lon="6.139105">
				 <ele>315.6</ele>
			 </trkpt>
			 <trkpt lat="49.617264" lon="6.139178">
				 <ele>315</ele>
			 </trkpt>
			 <trkpt lat="49.617136" lon="6.139213">
				 <ele>314.4</ele>
			 </trkpt>
			 <trkpt lat="49.617018" lon="6.139222">
				 <ele>313.6</ele>
			 </trkpt>
			 <trkpt lat="49.61682" lon="6.139131">
				 <ele>312.8</ele>
			 </trkpt>
			 <trkpt lat="49.616723" lon="6.139064">
				 <ele>312.1</ele>
			 </trkpt>
			 <trkpt lat="49.616607" lon="6.13895">
				 <ele>310.9</ele>
			 </trkpt>
			 <trkpt lat="49.616521" lon="6.13888">
				 <ele>309.6</ele>
			 </trkpt>
			 <trkpt lat="49.616434" lon="6.138821">
				 <ele>308.3</ele>
			 </trkpt>
			 <trkpt lat="49.616362" lon="6.138804">
				 <ele>307.5</ele>
			 </trkpt>
			 <trkpt lat="49.616253" lon="6.138897">
				 <ele>306.9</ele>
			 </trkpt>
			 <trkpt lat="49.616048" lon="6.139275">
				 <ele>306.4</ele>
			 </trkpt>
			 <trkpt lat="49.616086" lon="6.139477">
				 <ele>306.3</ele>
			 </trkpt>
			 <trkpt lat="49.616158" lon="6.139732">
				 <ele>306.5</ele>
			 </trkpt>
			 <trkpt lat="49.616377" lon="6.140646">
				 <ele>306.5</ele>
			 </trkpt>
			 <trkpt lat="49.616427" lon="6.140822">
				 <ele>306.7</ele>
			 </trkpt>
			 <trkpt lat="49.616486" lon="6.141033">
				 <ele>307.1</ele>
			 </trkpt>
			 <trkpt lat="49.616657" lon="6.141229">
				 <ele>308.2</ele>
			 </trkpt>
			 <trkpt lat="49.616869" lon="6.141228">
				 <ele>309.5</ele>
			 </trkpt>
			 <trkpt lat="49.616903" lon="6.14158">
				 <ele>311.5</ele>
			 </trkpt>
			 <trkpt lat="49.616918" lon="6.141749">
				 <ele>313.1</ele>
			 </trkpt>
			 <trkpt lat="49.616933" lon="6.14189">
				 <ele>314.8</ele>
			 </trkpt>
			 <trkpt lat="49.616998" lon="6.142232">
				 <ele>315.9</ele>
			 </trkpt>
			 <trkpt lat="49.61719" lon="6.142188">
				 <ele>316.7</ele>
			 </trkpt>
			 <trkpt lat="49.617549" lon="6.142066">
				 <ele>317.2</ele>
			 </trkpt>
			 <trkpt lat="49.617773" lon="6.141991">
				 <ele>317.6</ele>
			 </trkpt>
			 <trkpt lat="49.618179" lon="6.141821">
				 <ele>318.3</ele>
			 </trkpt>
			 <trkpt lat="49.61895" lon="6.14149">
				 <ele>319.1</ele>
			 </trkpt>
			 <trkpt lat="49.619042" lon="6.141524">
				 <ele>319.9</ele>
			 </trkpt>
			 <trkpt lat="49.6191" lon="6.141877">
				 <ele>320.5</ele>
			 </trkpt>
			 <trkpt lat="49.61919" lon="6.142352">
				 <ele>320.5</ele>
			 </trkpt>
			 <trkpt lat="49.619286" lon="6.142989">
				 <ele>320.1</ele>
			 </trkpt>
			 <trkpt lat="49.619328" lon="6.143246">
				 <ele>319.5</ele>
			 </trkpt>
			 <trkpt lat="49.61939" lon="6.143553">
				 <ele>319.8</ele>
			 </trkpt>
			 <trkpt lat="49.619425" lon="6.143794">
				 <ele>320.4</ele>
			 </trkpt>
			 <trkpt lat="49.619447" lon="6.143918">
				 <ele>321.1</ele>
			 </trkpt>
			 <trkpt lat="49.619479" lon="6.144104">
				 <ele>322.1</ele>
			 </trkpt>
			 <trkpt lat="49.619533" lon="6.14438">
				 <ele>323.2</ele>
			 </trkpt>
			 <trkpt lat="49.619732" lon="6.144638">
				 <ele>324.2</ele>
			 </trkpt>
			 <trkpt lat="49.619813" lon="6.144755">
				 <ele>324.6</ele>
			 </trkpt>
			 <trkpt lat="49.619884" lon="6.145124">
				 <ele>325.4</ele>
			 </trkpt>
			 <trkpt lat="49.620125" lon="6.146274">
				 <ele>326.3</ele>
			 </trkpt>
			 <trkpt lat="49.620236" lon="6.146717">
				 <ele>327.3</ele>
			 </trkpt>
			 <trkpt lat="49.620389" lon="6.147343">
				 <ele>327.6</ele>
			 </trkpt>
			 <trkpt lat="49.620639" lon="6.148332">
				 <ele>327.7</ele>
			 </trkpt>
			 <trkpt lat="49.620762" lon="6.148789">
				 <ele>327.7</ele>
			 </trkpt>
			 <trkpt lat="49.620886" lon="6.149251">
				 <ele>327.9</ele>
			 </trkpt>
			 <trkpt lat="49.62102" lon="6.149716">
				 <ele>328.3</ele>
			 </trkpt>
			 <trkpt lat="49.621638" lon="6.151711">
				 <ele>328.3</ele>
			 </trkpt>
			 <trkpt lat="49.621774" lon="6.152088">
				 <ele>328.3</ele>
			 </trkpt>
			 <trkpt lat="49.621895" lon="6.152418">
				 <ele>328.6</ele>
			 </trkpt>
			 <trkpt lat="49.6221" lon="6.152949">
				 <ele>328.6</ele>
			 </trkpt>
			 <trkpt lat="49.622224" lon="6.153282">
				 <ele>328.6</ele>
			 </trkpt>
			 <trkpt lat="49.622613" lon="6.15435">
				 <ele>328.7</ele>
			 </trkpt>
			 <trkpt lat="49.622891" lon="6.155015">
				 <ele>329.5</ele>
			 </trkpt>
			 <trkpt lat="49.622992" lon="6.155252">
				 <ele>330.4</ele>
			 </trkpt>
			 <trkpt lat="49.623251" lon="6.155853">
				 <ele>331.2</ele>
			 </trkpt>
			 <trkpt lat="49.623395" lon="6.156187">
				 <ele>331.7</ele>
			 </trkpt>
			 <trkpt lat="49.623789" lon="6.157045">
				 <ele>332</ele>
			 </trkpt>
			 <trkpt lat="49.623919" lon="6.157308">
				 <ele>332.5</ele>
			 </trkpt>
			 <trkpt lat="49.624513" lon="6.15848">
				 <ele>332.9</ele>
			 </trkpt>
			 <trkpt lat="49.624885" lon="6.159163">
				 <ele>333.4</ele>
			 </trkpt>
			 <trkpt lat="49.624947" lon="6.159133">
				 <ele>333.9</ele>
			 </trkpt>
			 <trkpt lat="49.625017" lon="6.159207">
				 <ele>334.5</ele>
			 </trkpt>
			 <trkpt lat="49.625373" lon="6.159854">
				 <ele>334.8</ele>
			 </trkpt>
			 <trkpt lat="49.625763" lon="6.160501">
				 <ele>335.4</ele>
			 </trkpt>
			 <trkpt lat="49.626016" lon="6.160923">
				 <ele>335.9</ele>
			 </trkpt>
			 <trkpt lat="49.626178" lon="6.161187">
				 <ele>336.5</ele>
			 </trkpt>
			 <trkpt lat="49.626266" lon="6.161327">
				 <ele>337.4</ele>
			 </trkpt>
			 <trkpt lat="49.626379" lon="6.161186">
				 <ele>338.2</ele>
			 </trkpt>
			 <trkpt lat="49.626602" lon="6.160834">
				 <ele>339</ele>
			 </trkpt>
			 <trkpt lat="49.627126" lon="6.160095">
				 <ele>339.7</ele>
			 </trkpt>
			 <trkpt lat="49.627261" lon="6.16007">
				 <ele>340.7</ele>
			 </trkpt>
			 <trkpt lat="49.627917" lon="6.159287">
				 <ele>341.7</ele>
			 </trkpt>
			 <trkpt lat="49.627984" lon="6.159303">
				 <ele>342.5</ele>
			 </trkpt>
			 <trkpt lat="49.628353" lon="6.159842">
				 <ele>343.6</ele>
			 </trkpt>
			 <trkpt lat="49.628741" lon="6.160354">
				 <ele>344.7</ele>
			 </trkpt>
			 <trkpt lat="49.629002" lon="6.160738">
				 <ele>345.7</ele>
			 </trkpt>
			 <trkpt lat="49.629476" lon="6.161409">
				 <ele>346.7</ele>
			 </trkpt>
			 <trkpt lat="49.629697" lon="6.161737">
				 <ele>347.4</ele>
			 </trkpt>
			 <trkpt lat="49.630051" lon="6.162218">
				 <ele>348</ele>
			 </trkpt>
			 <trkpt lat="49.630296" lon="6.162534">
				 <ele>348.5</ele>
			 </trkpt>
			 <trkpt lat="49.630637" lon="6.162991">
				 <ele>348.8</ele>
			 </trkpt>
			 <trkpt lat="49.630863" lon="6.163331">
				 <ele>348.9</ele>
			 </trkpt>
			 <trkpt lat="49.631284" lon="6.163879">
				 <ele>349</ele>
			 </trkpt>
			 <trkpt lat="49.631516" lon="6.164183">
				 <ele>349.3</ele>
			 </trkpt>
			 <trkpt lat="49.631699" lon="6.164468">
				 <ele>349.5</ele>
			 </trkpt>
			 <trkpt lat="49.632112" lon="6.165016">
				 <ele>349.5</ele>
			 </trkpt>
			 <trkpt lat="49.632713" lon="6.165865">
				 <ele>349.5</ele>
			 </trkpt>
			 <trkpt lat="49.63278" lon="6.165895">
				 <ele>349.4</ele>
			 </trkpt>
			 <trkpt lat="49.632842" lon="6.16601">
				 <ele>349.5</ele>
			 </trkpt>
			 <trkpt lat="49.632922" lon="6.166033">
				 <ele>349.8</ele>
			 </trkpt>
			 <trkpt lat="49.633193" lon="6.165822">
				 <ele>350.3</ele>
			 </trkpt>
			 <trkpt lat="49.633354" lon="6.165831">
				 <ele>350.9</ele>
			 </trkpt>
			 <trkpt lat="49.633623" lon="6.166039">
				 <ele>351.5</ele>
			 </trkpt>
			 <trkpt lat="49.633872" lon="6.166303">
				 <ele>352.3</ele>
			 </trkpt>
			 <trkpt lat="49.633958" lon="6.166417">
				 <ele>352.9</ele>
			 </trkpt>
			 <trkpt lat="49.634098" lon="6.166652">
				 <ele>353.5</ele>
			 </trkpt>
			 <trkpt lat="49.634203" lon="6.16681">
				 <ele>354.2</ele>
			 </trkpt>
			 <trkpt lat="49.634281" lon="6.166971">
				 <ele>354.9</ele>
			 </trkpt>
			 <trkpt lat="49.634378" lon="6.167129">
				 <ele>355.6</ele>
			 </trkpt>
			 <trkpt lat="49.634439" lon="6.167208">
				 <ele>356.3</ele>
			 </trkpt>
			 <trkpt lat="49.63454" lon="6.167375">
				 <ele>356.8</ele>
			 </trkpt>
			 <trkpt lat="49.634593" lon="6.167484">
				 <ele>357.3</ele>
			 </trkpt>
			 <trkpt lat="49.634623" lon="6.167534">
				 <ele>357.5</ele>
			 </trkpt>
			 <trkpt lat="49.634769" lon="6.167749">
				 <ele>357.6</ele>
			 </trkpt>
			 <trkpt lat="49.634916" lon="6.16802">
				 <ele>357.8</ele>
			 </trkpt>
			 <trkpt lat="49.635166" lon="6.168393">
				 <ele>358.1</ele>
			 </trkpt>
			 <trkpt lat="49.635173" lon="6.168484">
				 <ele>358.3</ele>
			 </trkpt>
			 <trkpt lat="49.63477" lon="6.169099">
				 <ele>358.5</ele>
			 </trkpt>
			 <trkpt lat="49.634738" lon="6.169187">
				 <ele>358.5</ele>
			 </trkpt>
			 <trkpt lat="49.634648" lon="6.169354">
				 <ele>358.5</ele>
			 </trkpt>
			 <trkpt lat="49.634576" lon="6.169439">
				 <ele>358.5</ele>
			 </trkpt>
			 <trkpt lat="49.634516" lon="6.169548">
				 <ele>358.6</ele>
			 </trkpt>
			 <trkpt lat="49.634476" lon="6.169627">
				 <ele>358.6</ele>
			 </trkpt>
			 <trkpt lat="49.634362" lon="6.169815">
				 <ele>358.8</ele>
			 </trkpt>
			 <trkpt lat="49.633972" lon="6.170387">
				 <ele>359</ele>
			 </trkpt>
			 <trkpt lat="49.634001" lon="6.170548">
				 <ele>359.1</ele>
			 </trkpt>
			 <trkpt lat="49.633658" lon="6.171007">
				 <ele>359.4</ele>
			 </trkpt>
			 <trkpt lat="49.633345" lon="6.17147">
				 <ele>359.6</ele>
			 </trkpt>
			 <trkpt lat="49.633348" lon="6.171548">
				 <ele>359.8</ele>
			 </trkpt>
			 <trkpt lat="49.633705" lon="6.172165">
				 <ele>359.9</ele>
			 </trkpt>
			 <trkpt lat="49.633839" lon="6.17198">
				 <ele>360</ele>
			 </trkpt>
			 <trkpt lat="49.634122" lon="6.171561">
				 <ele>360.1</ele>
			 </trkpt>
			 <trkpt lat="49.634401" lon="6.172007">
				 <ele>360.1</ele>
			 </trkpt>
			 <trkpt lat="49.634325" lon="6.172121">
				 <ele>360.3</ele>
			 </trkpt>
		 </trkseg>
	 </trk>
</gpx>