<?xml version="1.0" encoding="UTF-8"?>
 <gpx creator="Garmin Connect" version="1.1"
	 xsi:schemaLocation="http://www.topografix.com/GPX/1/1 http://www.topografix.com/GPX/11.xsd"
	 xmlns:ns3="http://www.garmin.com/xmlschemas/TrackPointExtension/v1"
	 xmlns="http://www.topografix.com/GPX/1/1"
	 xmlns:xsi="http://www.w3.org/2001/XMLSchema-instance" xmlns:ns2="http://www.garmin.com/xmlschemas/GpxExtensions/v3">
	 <metadata>
		<name>Kauai Marathon and Half Marathon 2023 - 42.195 km</name>
		 <link href="https://www.goandrace.com">
		 <text>Garmin Connect</text>
		 </link>
	 <time>2026-08-09T17:13:44</time>
	 </metadata>
	 <trk>
		 <name>Kauai Marathon and Half Marathon 2023 - 42.195 km</name>
		 <trkseg>
			 <trkpt lat="21.879038" lon="-159.462235">
				 <ele>12</ele>
			 </trkpt>
			 <trkpt lat="21.87904" lon="-159.46223">
				 <ele>11</ele>
			 </trkpt>
			 <trkpt lat="21.87874" lon="-159.46068">
				 <ele>10</ele>
			 </trkpt>
			 <trkpt lat="21.87832" lon="-159.45888">
				 <ele>8</ele>
			 </trkpt>
			 <trkpt lat="21.87805" lon="-159.45794">
				 <ele>8</ele>
			 </trkpt>
			 <trkpt lat="21.87793" lon="-159.45755">
				 <ele>8</ele>
			 </trkpt>
			 <trkpt lat="21.87772" lon="-159.45693">
				 <ele>8</ele>
			 </trkpt>
			 <trkpt lat="21.87719" lon="-159.45532">
				 <ele>7</ele>
			 </trkpt>
			 <trkpt lat="21.87676" lon="-159.45408">
				 <ele>6</ele>
			 </trkpt>
			 <trkpt lat="21.8764" lon="-159.45297">
				 <ele>6</ele>
			 </trkpt>
			 <trkpt lat="21.87601" lon="-159.45187">
				 <ele>6</ele>
			 </trkpt>
			 <trkpt lat="21.87566" lon="-159.45089">
				 <ele>6</ele>
			 </trkpt>
			 <trkpt lat="21.87559" lon="-159.45031">
				 <ele>6</ele>
			 </trkpt>
			 <trkpt lat="21.87559" lon="-159.44997">
				 <ele>6</ele>
			 </trkpt>
			 <trkpt lat="21.87576" lon="-159.44798">
				 <ele>7</ele>
			 </trkpt>
			 <trkpt lat="21.87581" lon="-159.44759">
				 <ele>7</ele>
			 </trkpt>
			 <trkpt lat="21.87582" lon="-159.44731">
				 <ele>7</ele>
			 </trkpt>
			 <trkpt lat="21.87597" lon="-159.44606">
				 <ele>8</ele>
			 </trkpt>
			 <trkpt lat="21.87597" lon="-159.44606">
				 <ele>11</ele>
			 </trkpt>
			 <trkpt lat="21.87612" lon="-159.44604">
				 <ele>13</ele>
			 </trkpt>
			 <trkpt lat="21.87679" lon="-159.44613">
				 <ele>15</ele>
			 </trkpt>
			 <trkpt lat="21.87699" lon="-159.44617">
				 <ele>15</ele>
			 </trkpt>
			 <trkpt lat="21.87725" lon="-159.44626">
				 <ele>17</ele>
			 </trkpt>
			 <trkpt lat="21.87782" lon="-159.44656">
				 <ele>19</ele>
			 </trkpt>
			 <trkpt lat="21.87883" lon="-159.44742">
				 <ele>21</ele>
			 </trkpt>
			 <trkpt lat="21.8797" lon="-159.44809">
				 <ele>22</ele>
			 </trkpt>
			 <trkpt lat="21.87989" lon="-159.44819">
				 <ele>20</ele>
			 </trkpt>
			 <trkpt lat="21.88104" lon="-159.44854">
				 <ele>20</ele>
			 </trkpt>
			 <trkpt lat="21.88534" lon="-159.44962">
				 <ele>21</ele>
			 </trkpt>
			 <trkpt lat="21.88684" lon="-159.44999">
				 <ele>22</ele>
			 </trkpt>
			 <trkpt lat="21.88976" lon="-159.45074">
				 <ele>23</ele>
			 </trkpt>
			 <trkpt lat="21.89011" lon="-159.45089">
				 <ele>26</ele>
			 </trkpt>
			 <trkpt lat="21.89066" lon="-159.4512">
				 <ele>30</ele>
			 </trkpt>
			 <trkpt lat="21.89364" lon="-159.45303">
				 <ele>35</ele>
			 </trkpt>
			 <trkpt lat="21.89762" lon="-159.45548">
				 <ele>34</ele>
			 </trkpt>
			 <trkpt lat="21.89815" lon="-159.45571">
				 <ele>32</ele>
			 </trkpt>
			 <trkpt lat="21.89864" lon="-159.45587">
				 <ele>32</ele>
			 </trkpt>
			 <trkpt lat="21.8994" lon="-159.45599">
				 <ele>36</ele>
			 </trkpt>
			 <trkpt lat="21.90141" lon="-159.45597">
				 <ele>37</ele>
			 </trkpt>
			 <trkpt lat="21.90198" lon="-159.45596">
				 <ele>38</ele>
			 </trkpt>
			 <trkpt lat="21.90242" lon="-159.45598">
				 <ele>39</ele>
			 </trkpt>
			 <trkpt lat="21.90401" lon="-159.45598">
				 <ele>40</ele>
			 </trkpt>
			 <trkpt lat="21.90456" lon="-159.4561">
				 <ele>41</ele>
			 </trkpt>
			 <trkpt lat="21.90518" lon="-159.45643">
				 <ele>42</ele>
			 </trkpt>
			 <trkpt lat="21.90538" lon="-159.45661">
				 <ele>43</ele>
			 </trkpt>
			 <trkpt lat="21.90573" lon="-159.45703">
				 <ele>45</ele>
			 </trkpt>
			 <trkpt lat="21.90672" lon="-159.45845">
				 <ele>46</ele>
			 </trkpt>
			 <trkpt lat="21.90701" lon="-159.4589">
				 <ele>47</ele>
			 </trkpt>
			 <trkpt lat="21.9073" lon="-159.45955">
				 <ele>48</ele>
			 </trkpt>
			 <trkpt lat="21.90801" lon="-159.46054">
				 <ele>49</ele>
			 </trkpt>
			 <trkpt lat="21.90848" lon="-159.46097">
				 <ele>50</ele>
			 </trkpt>
			 <trkpt lat="21.90983" lon="-159.46207">
				 <ele>52</ele>
			 </trkpt>
			 <trkpt lat="21.91011" lon="-159.46241">
				 <ele>53</ele>
			 </trkpt>
			 <trkpt lat="21.91048" lon="-159.46323">
				 <ele>55</ele>
			 </trkpt>
			 <trkpt lat="21.91055" lon="-159.46379">
				 <ele>56</ele>
			 </trkpt>
			 <trkpt lat="21.91052" lon="-159.46426">
				 <ele>57</ele>
			 </trkpt>
			 <trkpt lat="21.91046" lon="-159.46453">
				 <ele>58</ele>
			 </trkpt>
			 <trkpt lat="21.91025" lon="-159.46515">
				 <ele>59</ele>
			 </trkpt>
			 <trkpt lat="21.91014" lon="-159.46582">
				 <ele>61</ele>
			 </trkpt>
			 <trkpt lat="21.91056" lon="-159.46614">
				 <ele>62</ele>
			 </trkpt>
			 <trkpt lat="21.91096" lon="-159.46638">
				 <ele>63</ele>
			 </trkpt>
			 <trkpt lat="21.91149" lon="-159.46664">
				 <ele>65</ele>
			 </trkpt>
			 <trkpt lat="21.91331" lon="-159.46748">
				 <ele>66</ele>
			 </trkpt>
			 <trkpt lat="21.91419" lon="-159.46779">
				 <ele>67</ele>
			 </trkpt>
			 <trkpt lat="21.91776" lon="-159.46858">
				 <ele>68</ele>
			 </trkpt>
			 <trkpt lat="21.91882" lon="-159.46891">
				 <ele>70</ele>
			 </trkpt>
			 <trkpt lat="21.91915" lon="-159.46899">
				 <ele>70</ele>
			 </trkpt>
			 <trkpt lat="21.9197" lon="-159.46904">
				 <ele>68</ele>
			 </trkpt>
			 <trkpt lat="21.9234" lon="-159.46891">
				 <ele>66</ele>
			 </trkpt>
			 <trkpt lat="21.92918" lon="-159.46872">
				 <ele>65</ele>
			 </trkpt>
			 <trkpt lat="21.93007" lon="-159.46868">
				 <ele>66</ele>
			 </trkpt>
			 <trkpt lat="21.93098" lon="-159.46853">
				 <ele>67</ele>
			 </trkpt>
			 <trkpt lat="21.93153" lon="-159.46817">
				 <ele>68</ele>
			 </trkpt>
			 <trkpt lat="21.93176" lon="-159.46804">
				 <ele>72</ele>
			 </trkpt>
			 <trkpt lat="21.932" lon="-159.46799">
				 <ele>74</ele>
			 </trkpt>
			 <trkpt lat="21.93243" lon="-159.46798">
				 <ele>74</ele>
			 </trkpt>
			 <trkpt lat="21.93307" lon="-159.46825">
				 <ele>73</ele>
			 </trkpt>
			 <trkpt lat="21.9335" lon="-159.46845">
				 <ele>73</ele>
			 </trkpt>
			 <trkpt lat="21.93373" lon="-159.46851">
				 <ele>78</ele>
			 </trkpt>
			 <trkpt lat="21.93414" lon="-159.4685">
				 <ele>83</ele>
			 </trkpt>
			 <trkpt lat="21.93468" lon="-159.46845">
				 <ele>86</ele>
			 </trkpt>
			 <trkpt lat="21.93523" lon="-159.46854">
				 <ele>89</ele>
			 </trkpt>
			 <trkpt lat="21.93558" lon="-159.46861">
				 <ele>90</ele>
			 </trkpt>
			 <trkpt lat="21.93588" lon="-159.46864">
				 <ele>92</ele>
			 </trkpt>
			 <trkpt lat="21.93627" lon="-159.46854">
				 <ele>96</ele>
			 </trkpt>
			 <trkpt lat="21.93673" lon="-159.46826">
				 <ele>99</ele>
			 </trkpt>
			 <trkpt lat="21.93719" lon="-159.46798">
				 <ele>100</ele>
			 </trkpt>
			 <trkpt lat="21.93736" lon="-159.46793">
				 <ele>101</ele>
			 </trkpt>
			 <trkpt lat="21.93793" lon="-159.46787">
				 <ele>101</ele>
			 </trkpt>
			 <trkpt lat="21.93989" lon="-159.46758">
				 <ele>102</ele>
			 </trkpt>
			 <trkpt lat="21.94416" lon="-159.46691">
				 <ele>103</ele>
			 </trkpt>
			 <trkpt lat="21.94633" lon="-159.46654">
				 <ele>104</ele>
			 </trkpt>
			 <trkpt lat="21.94742" lon="-159.46636">
				 <ele>108</ele>
			 </trkpt>
			 <trkpt lat="21.94876" lon="-159.46613">
				 <ele>110</ele>
			 </trkpt>
			 <trkpt lat="21.94901" lon="-159.46616">
				 <ele>111</ele>
			 </trkpt>
			 <trkpt lat="21.95041" lon="-159.46584">
				 <ele>111</ele>
			 </trkpt>
			 <trkpt lat="21.95051" lon="-159.46593">
				 <ele>112</ele>
			 </trkpt>
			 <trkpt lat="21.9498" lon="-159.4667">
				 <ele>113</ele>
			 </trkpt>
			 <trkpt lat="21.94944" lon="-159.4672">
				 <ele>114</ele>
			 </trkpt>
			 <trkpt lat="21.94874" lon="-159.46841">
				 <ele>115</ele>
			 </trkpt>
			 <trkpt lat="21.94844" lon="-159.46918">
				 <ele>116</ele>
			 </trkpt>
			 <trkpt lat="21.94795" lon="-159.4709">
				 <ele>119</ele>
			 </trkpt>
			 <trkpt lat="21.94699" lon="-159.47429">
				 <ele>123</ele>
			 </trkpt>
			 <trkpt lat="21.9467" lon="-159.47514">
				 <ele>126</ele>
			 </trkpt>
			 <trkpt lat="21.94641" lon="-159.4757">
				 <ele>127</ele>
			 </trkpt>
			 <trkpt lat="21.946" lon="-159.47625">
				 <ele>131</ele>
			 </trkpt>
			 <trkpt lat="21.94535" lon="-159.47688">
				 <ele>134</ele>
			 </trkpt>
			 <trkpt lat="21.94395" lon="-159.47789">
				 <ele>140</ele>
			 </trkpt>
			 <trkpt lat="21.94245" lon="-159.47899">
				 <ele>143</ele>
			 </trkpt>
			 <trkpt lat="21.94032" lon="-159.48047">
				 <ele>151</ele>
			 </trkpt>
			 <trkpt lat="21.94003" lon="-159.48076">
				 <ele>158</ele>
			 </trkpt>
			 <trkpt lat="21.93924" lon="-159.4811">
				 <ele>162</ele>
			 </trkpt>
			 <trkpt lat="21.93735" lon="-159.48195">
				 <ele>166</ele>
			 </trkpt>
			 <trkpt lat="21.93663" lon="-159.48239">
				 <ele>169</ele>
			 </trkpt>
			 <trkpt lat="21.93523" lon="-159.48325">
				 <ele>171</ele>
			 </trkpt>
			 <trkpt lat="21.93386" lon="-159.48407">
				 <ele>172</ele>
			 </trkpt>
			 <trkpt lat="21.93259" lon="-159.48457">
				 <ele>177</ele>
			 </trkpt>
			 <trkpt lat="21.93223" lon="-159.48459">
				 <ele>181</ele>
			 </trkpt>
			 <trkpt lat="21.93151" lon="-159.48487">
				 <ele>182</ele>
			 </trkpt>
			 <trkpt lat="21.93125" lon="-159.48494">
				 <ele>185</ele>
			 </trkpt>
			 <trkpt lat="21.93047" lon="-159.48531">
				 <ele>189</ele>
			 </trkpt>
			 <trkpt lat="21.92974" lon="-159.48577">
				 <ele>191</ele>
			 </trkpt>
			 <trkpt lat="21.92925" lon="-159.48618">
				 <ele>193</ele>
			 </trkpt>
			 <trkpt lat="21.92878" lon="-159.48604">
				 <ele>193</ele>
			 </trkpt>
			 <trkpt lat="21.92588" lon="-159.48525">
				 <ele>193</ele>
			 </trkpt>
			 <trkpt lat="21.92486" lon="-159.48499">
				 <ele>193</ele>
			 </trkpt>
			 <trkpt lat="21.92468" lon="-159.48497">
				 <ele>193</ele>
			 </trkpt>
			 <trkpt lat="21.92393" lon="-159.48508">
				 <ele>193</ele>
			 </trkpt>
			 <trkpt lat="21.92193" lon="-159.48542">
				 <ele>192</ele>
			 </trkpt>
			 <trkpt lat="21.92112" lon="-159.48486">
				 <ele>189</ele>
			 </trkpt>
			 <trkpt lat="21.91761" lon="-159.4824">
				 <ele>185</ele>
			 </trkpt>
			 <trkpt lat="21.91722" lon="-159.4821">
				 <ele>185</ele>
			 </trkpt>
			 <trkpt lat="21.91644" lon="-159.48103">
				 <ele>187</ele>
			 </trkpt>
			 <trkpt lat="21.91594" lon="-159.48026">
				 <ele>189</ele>
			 </trkpt>
			 <trkpt lat="21.9159" lon="-159.47939">
				 <ele>191</ele>
			 </trkpt>
			 <trkpt lat="21.91589" lon="-159.47849">
				 <ele>193</ele>
			 </trkpt>
			 <trkpt lat="21.91581" lon="-159.4781">
				 <ele>194</ele>
			 </trkpt>
			 <trkpt lat="21.91534" lon="-159.47734">
				 <ele>195</ele>
			 </trkpt>
			 <trkpt lat="21.91491" lon="-159.47669">
				 <ele>196</ele>
			 </trkpt>
			 <trkpt lat="21.91399" lon="-159.4753">
				 <ele>198</ele>
			 </trkpt>
			 <trkpt lat="21.91344" lon="-159.47475">
				 <ele>200</ele>
			 </trkpt>
			 <trkpt lat="21.91339" lon="-159.47422">
				 <ele>203</ele>
			 </trkpt>
			 <trkpt lat="21.91346" lon="-159.47344">
				 <ele>205</ele>
			 </trkpt>
			 <trkpt lat="21.91319" lon="-159.47273">
				 <ele>208</ele>
			 </trkpt>
			 <trkpt lat="21.91284" lon="-159.47251">
				 <ele>209</ele>
			 </trkpt>
			 <trkpt lat="21.91246" lon="-159.47237">
				 <ele>209</ele>
			 </trkpt>
			 <trkpt lat="21.9119" lon="-159.47252">
				 <ele>211</ele>
			 </trkpt>
			 <trkpt lat="21.91132" lon="-159.47253">
				 <ele>210</ele>
			 </trkpt>
			 <trkpt lat="21.91103" lon="-159.47261">
				 <ele>207</ele>
			 </trkpt>
			 <trkpt lat="21.91057" lon="-159.47258">
				 <ele>206</ele>
			 </trkpt>
			 <trkpt lat="21.9097" lon="-159.472">
				 <ele>207</ele>
			 </trkpt>
			 <trkpt lat="21.90911" lon="-159.4713">
				 <ele>199</ele>
			 </trkpt>
			 <trkpt lat="21.90894" lon="-159.47118">
				 <ele>197</ele>
			 </trkpt>
			 <trkpt lat="21.90872" lon="-159.47113">
				 <ele>198</ele>
			 </trkpt>
			 <trkpt lat="21.90817" lon="-159.47131">
				 <ele>197</ele>
			 </trkpt>
			 <trkpt lat="21.90757" lon="-159.4711">
				 <ele>196</ele>
			 </trkpt>
			 <trkpt lat="21.90731" lon="-159.47099">
				 <ele>190</ele>
			 </trkpt>
			 <trkpt lat="21.90654" lon="-159.47099">
				 <ele>188</ele>
			 </trkpt>
			 <trkpt lat="21.90679" lon="-159.47163">
				 <ele>186</ele>
			 </trkpt>
			 <trkpt lat="21.90693" lon="-159.47235">
				 <ele>183</ele>
			 </trkpt>
			 <trkpt lat="21.90698" lon="-159.47322">
				 <ele>180</ele>
			 </trkpt>
			 <trkpt lat="21.90698" lon="-159.47322">
				 <ele>173</ele>
			 </trkpt>
			 <trkpt lat="21.90707" lon="-159.47501">
				 <ele>167</ele>
			 </trkpt>
			 <trkpt lat="21.90694" lon="-159.47688">
				 <ele>168</ele>
			 </trkpt>
			 <trkpt lat="21.90704" lon="-159.47725">
				 <ele>169</ele>
			 </trkpt>
			 <trkpt lat="21.9072" lon="-159.47758">
				 <ele>169</ele>
			 </trkpt>
			 <trkpt lat="21.90809" lon="-159.47884">
				 <ele>167</ele>
			 </trkpt>
			 <trkpt lat="21.91011" lon="-159.4814">
				 <ele>167</ele>
			 </trkpt>
			 <trkpt lat="21.91155" lon="-159.48281">
				 <ele>167</ele>
			 </trkpt>
			 <trkpt lat="21.91199" lon="-159.48316">
				 <ele>164</ele>
			 </trkpt>
			 <trkpt lat="21.91276" lon="-159.48361">
				 <ele>158</ele>
			 </trkpt>
			 <trkpt lat="21.91324" lon="-159.48397">
				 <ele>154</ele>
			 </trkpt>
			 <trkpt lat="21.91355" lon="-159.48438">
				 <ele>149</ele>
			 </trkpt>
			 <trkpt lat="21.91386" lon="-159.4849">
				 <ele>145</ele>
			 </trkpt>
			 <trkpt lat="21.91402" lon="-159.48508">
				 <ele>142</ele>
			 </trkpt>
			 <trkpt lat="21.91525" lon="-159.48599">
				 <ele>140</ele>
			 </trkpt>
			 <trkpt lat="21.91586" lon="-159.48653">
				 <ele>138</ele>
			 </trkpt>
			 <trkpt lat="21.91615" lon="-159.48703">
				 <ele>137</ele>
			 </trkpt>
			 <trkpt lat="21.91624" lon="-159.48736">
				 <ele>136</ele>
			 </trkpt>
			 <trkpt lat="21.91719" lon="-159.49235">
				 <ele>136</ele>
			 </trkpt>
			 <trkpt lat="21.91781" lon="-159.49615">
				 <ele>135</ele>
			 </trkpt>
			 <trkpt lat="21.91808" lon="-159.49846">
				 <ele>132</ele>
			 </trkpt>
			 <trkpt lat="21.91823" lon="-159.4997">
				 <ele>128</ele>
			 </trkpt>
			 <trkpt lat="21.91853" lon="-159.50071">
				 <ele>125</ele>
			 </trkpt>
			 <trkpt lat="21.91904" lon="-159.50143">
				 <ele>126</ele>
			 </trkpt>
			 <trkpt lat="21.91965" lon="-159.50198">
				 <ele>122</ele>
			 </trkpt>
			 <trkpt lat="21.92005" lon="-159.50217">
				 <ele>118</ele>
			 </trkpt>
			 <trkpt lat="21.92024" lon="-159.50226">
				 <ele>113</ele>
			 </trkpt>
			 <trkpt lat="21.92053" lon="-159.5025">
				 <ele>110</ele>
			 </trkpt>
			 <trkpt lat="21.92074" lon="-159.50279">
				 <ele>112</ele>
			 </trkpt>
			 <trkpt lat="21.92154" lon="-159.50421">
				 <ele>111</ele>
			 </trkpt>
			 <trkpt lat="21.92154" lon="-159.50421">
				 <ele>107</ele>
			 </trkpt>
			 <trkpt lat="21.92172" lon="-159.50485">
				 <ele>102</ele>
			 </trkpt>
			 <trkpt lat="21.92183" lon="-159.50637">
				 <ele>101</ele>
			 </trkpt>
			 <trkpt lat="21.92177" lon="-159.50666">
				 <ele>102</ele>
			 </trkpt>
			 <trkpt lat="21.92162" lon="-159.5067">
				 <ele>103</ele>
			 </trkpt>
			 <trkpt lat="21.92124" lon="-159.50693">
				 <ele>105</ele>
			 </trkpt>
			 <trkpt lat="21.92085" lon="-159.5076">
				 <ele>105</ele>
			 </trkpt>
			 <trkpt lat="21.92056" lon="-159.50775">
				 <ele>104</ele>
			 </trkpt>
			 <trkpt lat="21.92039" lon="-159.50772">
				 <ele>96</ele>
			 </trkpt>
			 <trkpt lat="21.92023" lon="-159.50764">
				 <ele>85</ele>
			 </trkpt>
			 <trkpt lat="21.91998" lon="-159.50729">
				 <ele>79</ele>
			 </trkpt>
			 <trkpt lat="21.9197" lon="-159.5069">
				 <ele>73</ele>
			 </trkpt>
			 <trkpt lat="21.91939" lon="-159.5067">
				 <ele>70</ele>
			 </trkpt>
			 <trkpt lat="21.91919" lon="-159.5067">
				 <ele>69</ele>
			 </trkpt>
			 <trkpt lat="21.91753" lon="-159.50662">
				 <ele>72</ele>
			 </trkpt>
			 <trkpt lat="21.91689" lon="-159.50667">
				 <ele>72</ele>
			 </trkpt>
			 <trkpt lat="21.91675" lon="-159.50682">
				 <ele>72</ele>
			 </trkpt>
			 <trkpt lat="21.91673" lon="-159.50693">
				 <ele>72</ele>
			 </trkpt>
			 <trkpt lat="21.9168" lon="-159.50737">
				 <ele>72</ele>
			 </trkpt>
			 <trkpt lat="21.91724" lon="-159.50851">
				 <ele>72</ele>
			 </trkpt>
			 <trkpt lat="21.9173" lon="-159.50872">
				 <ele>70</ele>
			 </trkpt>
			 <trkpt lat="21.91724" lon="-159.5095">
				 <ele>73</ele>
			 </trkpt>
			 <trkpt lat="21.91721" lon="-159.50988">
				 <ele>75</ele>
			 </trkpt>
			 <trkpt lat="21.91727" lon="-159.51016">
				 <ele>80</ele>
			 </trkpt>
			 <trkpt lat="21.91739" lon="-159.51032">
				 <ele>84</ele>
			 </trkpt>
			 <trkpt lat="21.91777" lon="-159.51053">
				 <ele>88</ele>
			 </trkpt>
			 <trkpt lat="21.91806" lon="-159.51067">
				 <ele>95</ele>
			 </trkpt>
			 <trkpt lat="21.91858" lon="-159.5108">
				 <ele>99</ele>
			 </trkpt>
			 <trkpt lat="21.91886" lon="-159.51116">
				 <ele>103</ele>
			 </trkpt>
			 <trkpt lat="21.91884" lon="-159.51162">
				 <ele>109</ele>
			 </trkpt>
			 <trkpt lat="21.91858" lon="-159.51189">
				 <ele>113</ele>
			 </trkpt>
			 <trkpt lat="21.91837" lon="-159.51196">
				 <ele>116</ele>
			 </trkpt>
			 <trkpt lat="21.91804" lon="-159.51211">
				 <ele>118</ele>
			 </trkpt>
			 <trkpt lat="21.91752" lon="-159.51263">
				 <ele>117</ele>
			 </trkpt>
			 <trkpt lat="21.917" lon="-159.51321">
				 <ele>115</ele>
			 </trkpt>
			 <trkpt lat="21.9169" lon="-159.5138">
				 <ele>114</ele>
			 </trkpt>
			 <trkpt lat="21.91666" lon="-159.51372">
				 <ele>113</ele>
			 </trkpt>
			 <trkpt lat="21.91648" lon="-159.51319">
				 <ele>113</ele>
			 </trkpt>
			 <trkpt lat="21.91659" lon="-159.51278">
				 <ele>116</ele>
			 </trkpt>
			 <trkpt lat="21.91668" lon="-159.51261">
				 <ele>114</ele>
			 </trkpt>
			 <trkpt lat="21.91659" lon="-159.51214">
				 <ele>113</ele>
			 </trkpt>
			 <trkpt lat="21.91626" lon="-159.51195">
				 <ele>111</ele>
			 </trkpt>
			 <trkpt lat="21.91565" lon="-159.51225">
				 <ele>112</ele>
			 </trkpt>
			 <trkpt lat="21.9155" lon="-159.51242">
				 <ele>111</ele>
			 </trkpt>
			 <trkpt lat="21.91543" lon="-159.51276">
				 <ele>112</ele>
			 </trkpt>
			 <trkpt lat="21.91521" lon="-159.51376">
				 <ele>115</ele>
			 </trkpt>
			 <trkpt lat="21.91483" lon="-159.5155">
				 <ele>119</ele>
			 </trkpt>
			 <trkpt lat="21.91436" lon="-159.51801">
				 <ele>124</ele>
			 </trkpt>
			 <trkpt lat="21.91436" lon="-159.51801">
				 <ele>131</ele>
			 </trkpt>
			 <trkpt lat="21.91419" lon="-159.5187">
				 <ele>136</ele>
			 </trkpt>
			 <trkpt lat="21.9132" lon="-159.5188">
				 <ele>139</ele>
			 </trkpt>
			 <trkpt lat="21.91256" lon="-159.51884">
				 <ele>142</ele>
			 </trkpt>
			 <trkpt lat="21.91259" lon="-159.51895">
				 <ele>145</ele>
			 </trkpt>
			 <trkpt lat="21.91305" lon="-159.51998">
				 <ele>148</ele>
			 </trkpt>
			 <trkpt lat="21.91413" lon="-159.52258">
				 <ele>148</ele>
			 </trkpt>
			 <trkpt lat="21.91466" lon="-159.52363">
				 <ele>151</ele>
			 </trkpt>
			 <trkpt lat="21.91515" lon="-159.52418">
				 <ele>158</ele>
			 </trkpt>
			 <trkpt lat="21.91523" lon="-159.52427">
				 <ele>161</ele>
			 </trkpt>
			 <trkpt lat="21.91551" lon="-159.52439">
				 <ele>163</ele>
			 </trkpt>
			 <trkpt lat="21.9158" lon="-159.52434">
				 <ele>167</ele>
			 </trkpt>
			 <trkpt lat="21.91631" lon="-159.52413">
				 <ele>170</ele>
			 </trkpt>
			 <trkpt lat="21.91665" lon="-159.52414">
				 <ele>173</ele>
			 </trkpt>
			 <trkpt lat="21.91721" lon="-159.5242">
				 <ele>173</ele>
			 </trkpt>
			 <trkpt lat="21.9179" lon="-159.52441">
				 <ele>173</ele>
			 </trkpt>
			 <trkpt lat="21.91824" lon="-159.52458">
				 <ele>169</ele>
			 </trkpt>
			 <trkpt lat="21.91876" lon="-159.52516">
				 <ele>163</ele>
			 </trkpt>
			 <trkpt lat="21.9192" lon="-159.52574">
				 <ele>162</ele>
			 </trkpt>
			 <trkpt lat="21.92005" lon="-159.52683">
				 <ele>161</ele>
			 </trkpt>
			 <trkpt lat="21.92075" lon="-159.52759">
				 <ele>153</ele>
			 </trkpt>
			 <trkpt lat="21.92137" lon="-159.52772">
				 <ele>144</ele>
			 </trkpt>
			 <trkpt lat="21.92218" lon="-159.52772">
				 <ele>141</ele>
			 </trkpt>
			 <trkpt lat="21.92288" lon="-159.52772">
				 <ele>136</ele>
			 </trkpt>
			 <trkpt lat="21.92265" lon="-159.5283">
				 <ele>131</ele>
			 </trkpt>
			 <trkpt lat="21.92241" lon="-159.52844">
				 <ele>130</ele>
			 </trkpt>
			 <trkpt lat="21.92235" lon="-159.52852">
				 <ele>133</ele>
			 </trkpt>
			 <trkpt lat="21.92242" lon="-159.52889">
				 <ele>130</ele>
			 </trkpt>
			 <trkpt lat="21.92244" lon="-159.52918">
				 <ele>135</ele>
			 </trkpt>
			 <trkpt lat="21.92209" lon="-159.52959">
				 <ele>139</ele>
			 </trkpt>
			 <trkpt lat="21.92214" lon="-159.52978">
				 <ele>140</ele>
			 </trkpt>
			 <trkpt lat="21.9221" lon="-159.53014">
				 <ele>143</ele>
			 </trkpt>
			 <trkpt lat="21.92167" lon="-159.53021">
				 <ele>142</ele>
			 </trkpt>
			 <trkpt lat="21.92041" lon="-159.53031">
				 <ele>142</ele>
			 </trkpt>
			 <trkpt lat="21.92002" lon="-159.53092">
				 <ele>143</ele>
			 </trkpt>
			 <trkpt lat="21.91971" lon="-159.53143">
				 <ele>144</ele>
			 </trkpt>
			 <trkpt lat="21.91953" lon="-159.53173">
				 <ele>141</ele>
			 </trkpt>
			 <trkpt lat="21.91916" lon="-159.53243">
				 <ele>138</ele>
			 </trkpt>
			 <trkpt lat="21.91875" lon="-159.53329">
				 <ele>131</ele>
			 </trkpt>
			 <trkpt lat="21.91848" lon="-159.53394">
				 <ele>129</ele>
			 </trkpt>
			 <trkpt lat="21.91824" lon="-159.53438">
				 <ele>129</ele>
			 </trkpt>
			 <trkpt lat="21.91718" lon="-159.53499">
				 <ele>133</ele>
			 </trkpt>
			 <trkpt lat="21.91559" lon="-159.5359">
				 <ele>135</ele>
			 </trkpt>
			 <trkpt lat="21.91549" lon="-159.53596">
				 <ele>143</ele>
			 </trkpt>
			 <trkpt lat="21.91538" lon="-159.53596">
				 <ele>144</ele>
			 </trkpt>
			 <trkpt lat="21.91525" lon="-159.53587">
				 <ele>149</ele>
			 </trkpt>
			 <trkpt lat="21.91502" lon="-159.53544">
				 <ele>153</ele>
			 </trkpt>
			 <trkpt lat="21.9149" lon="-159.53543">
				 <ele>162</ele>
			 </trkpt>
			 <trkpt lat="21.91484" lon="-159.53546">
				 <ele>161</ele>
			 </trkpt>
			 <trkpt lat="21.91451" lon="-159.53606">
				 <ele>162</ele>
			 </trkpt>
			 <trkpt lat="21.9144" lon="-159.53623">
				 <ele>170</ele>
			 </trkpt>
			 <trkpt lat="21.91415" lon="-159.53633">
				 <ele>177</ele>
			 </trkpt>
			 <trkpt lat="21.91399" lon="-159.53637">
				 <ele>174</ele>
			 </trkpt>
			 <trkpt lat="21.91376" lon="-159.53665">
				 <ele>182</ele>
			 </trkpt>
			 <trkpt lat="21.91358" lon="-159.53698">
				 <ele>188</ele>
			 </trkpt>
			 <trkpt lat="21.91328" lon="-159.53709">
				 <ele>196</ele>
			 </trkpt>
			 <trkpt lat="21.91271" lon="-159.53713">
				 <ele>199</ele>
			 </trkpt>
			 <trkpt lat="21.91221" lon="-159.53716">
				 <ele>204</ele>
			 </trkpt>
			 <trkpt lat="21.91181" lon="-159.53716">
				 <ele>210</ele>
			 </trkpt>
			 <trkpt lat="21.91127" lon="-159.53686">
				 <ele>216</ele>
			 </trkpt>
			 <trkpt lat="21.91105" lon="-159.53672">
				 <ele>221</ele>
			 </trkpt>
			 <trkpt lat="21.9109" lon="-159.53644">
				 <ele>226</ele>
			 </trkpt>
			 <trkpt lat="21.9109" lon="-159.53616">
				 <ele>232</ele>
			 </trkpt>
			 <trkpt lat="21.91115" lon="-159.53547">
				 <ele>235</ele>
			 </trkpt>
			 <trkpt lat="21.91141" lon="-159.5351">
				 <ele>238</ele>
			 </trkpt>
			 <trkpt lat="21.91143" lon="-159.535">
				 <ele>247</ele>
			 </trkpt>
			 <trkpt lat="21.91137" lon="-159.53489">
				 <ele>248</ele>
			 </trkpt>
			 <trkpt lat="21.91122" lon="-159.53491">
				 <ele>249</ele>
			 </trkpt>
			 <trkpt lat="21.91059" lon="-159.53527">
				 <ele>248</ele>
			 </trkpt>
			 <trkpt lat="21.91034" lon="-159.53535">
				 <ele>249</ele>
			 </trkpt>
			 <trkpt lat="21.91013" lon="-159.53532">
				 <ele>248</ele>
			 </trkpt>
			 <trkpt lat="21.90998" lon="-159.53497">
				 <ele>249</ele>
			 </trkpt>
			 <trkpt lat="21.90992" lon="-159.53461">
				 <ele>243</ele>
			 </trkpt>
			 <trkpt lat="21.90996" lon="-159.53454">
				 <ele>239</ele>
			 </trkpt>
			 <trkpt lat="21.91076" lon="-159.53419">
				 <ele>232</ele>
			 </trkpt>
			 <trkpt lat="21.9109" lon="-159.53402">
				 <ele>227</ele>
			 </trkpt>
			 <trkpt lat="21.91074" lon="-159.53358">
				 <ele>222</ele>
			 </trkpt>
			 <trkpt lat="21.91066" lon="-159.53337">
				 <ele>222</ele>
			 </trkpt>
			 <trkpt lat="21.9107" lon="-159.53322">
				 <ele>221</ele>
			 </trkpt>
			 <trkpt lat="21.91102" lon="-159.53262">
				 <ele>220</ele>
			 </trkpt>
			 <trkpt lat="21.91096" lon="-159.53248">
				 <ele>222</ele>
			 </trkpt>
			 <trkpt lat="21.91068" lon="-159.53242">
				 <ele>226</ele>
			 </trkpt>
			 <trkpt lat="21.91046" lon="-159.53239">
				 <ele>229</ele>
			 </trkpt>
			 <trkpt lat="21.91024" lon="-159.53226">
				 <ele>226</ele>
			 </trkpt>
			 <trkpt lat="21.90972" lon="-159.53148">
				 <ele>224</ele>
			 </trkpt>
			 <trkpt lat="21.90962" lon="-159.53104">
				 <ele>218</ele>
			 </trkpt>
			 <trkpt lat="21.90966" lon="-159.53085">
				 <ele>210</ele>
			 </trkpt>
			 <trkpt lat="21.90967" lon="-159.53055">
				 <ele>205</ele>
			 </trkpt>
			 <trkpt lat="21.90957" lon="-159.53042">
				 <ele>201</ele>
			 </trkpt>
			 <trkpt lat="21.90896" lon="-159.53027">
				 <ele>195</ele>
			 </trkpt>
			 <trkpt lat="21.9083" lon="-159.53007">
				 <ele>197</ele>
			 </trkpt>
			 <trkpt lat="21.9078" lon="-159.52985">
				 <ele>191</ele>
			 </trkpt>
			 <trkpt lat="21.90772" lon="-159.52959">
				 <ele>190</ele>
			 </trkpt>
			 <trkpt lat="21.90769" lon="-159.52911">
				 <ele>192</ele>
			 </trkpt>
			 <trkpt lat="21.90751" lon="-159.52878">
				 <ele>192</ele>
			 </trkpt>
			 <trkpt lat="21.90739" lon="-159.52839">
				 <ele>193</ele>
			 </trkpt>
			 <trkpt lat="21.90718" lon="-159.52752">
				 <ele>190</ele>
			 </trkpt>
			 <trkpt lat="21.90703" lon="-159.52734">
				 <ele>189</ele>
			 </trkpt>
			 <trkpt lat="21.90685" lon="-159.52712">
				 <ele>190</ele>
			 </trkpt>
			 <trkpt lat="21.90686" lon="-159.52697">
				 <ele>187</ele>
			 </trkpt>
			 <trkpt lat="21.90699" lon="-159.52688">
				 <ele>180</ele>
			 </trkpt>
			 <trkpt lat="21.9073" lon="-159.52682">
				 <ele>177</ele>
			 </trkpt>
			 <trkpt lat="21.90761" lon="-159.52681">
				 <ele>179</ele>
			 </trkpt>
			 <trkpt lat="21.90772" lon="-159.52671">
				 <ele>185</ele>
			 </trkpt>
			 <trkpt lat="21.90771" lon="-159.5266">
				 <ele>184</ele>
			 </trkpt>
			 <trkpt lat="21.90761" lon="-159.52647">
				 <ele>188</ele>
			 </trkpt>
			 <trkpt lat="21.90697" lon="-159.52593">
				 <ele>191</ele>
			 </trkpt>
			 <trkpt lat="21.90689" lon="-159.52567">
				 <ele>193</ele>
			 </trkpt>
			 <trkpt lat="21.9071" lon="-159.5256">
				 <ele>193</ele>
			 </trkpt>
			 <trkpt lat="21.90773" lon="-159.52523">
				 <ele>196</ele>
			 </trkpt>
			 <trkpt lat="21.90832" lon="-159.525">
				 <ele>192</ele>
			 </trkpt>
			 <trkpt lat="21.90886" lon="-159.52503">
				 <ele>190</ele>
			 </trkpt>
			 <trkpt lat="21.90928" lon="-159.52512">
				 <ele>188</ele>
			 </trkpt>
			 <trkpt lat="21.90959" lon="-159.52506">
				 <ele>185</ele>
			 </trkpt>
			 <trkpt lat="21.90987" lon="-159.52486">
				 <ele>183</ele>
			 </trkpt>
			 <trkpt lat="21.91039" lon="-159.5245">
				 <ele>179</ele>
			 </trkpt>
			 <trkpt lat="21.91105" lon="-159.5244">
				 <ele>180</ele>
			 </trkpt>
			 <trkpt lat="21.9111" lon="-159.52439">
				 <ele>180</ele>
			 </trkpt>
			 <trkpt lat="21.91138" lon="-159.52433">
				 <ele>178</ele>
			 </trkpt>
			 <trkpt lat="21.91216" lon="-159.5238">
				 <ele>177</ele>
			 </trkpt>
			 <trkpt lat="21.91246" lon="-159.52364">
				 <ele>178</ele>
			 </trkpt>
			 <trkpt lat="21.91254" lon="-159.52364">
				 <ele>187</ele>
			 </trkpt>
			 <trkpt lat="21.91308" lon="-159.52389">
				 <ele>196</ele>
			 </trkpt>
			 <trkpt lat="21.91392" lon="-159.52439">
				 <ele>203</ele>
			 </trkpt>
			 <trkpt lat="21.91415" lon="-159.52442">
				 <ele>206</ele>
			 </trkpt>
			 <trkpt lat="21.91427" lon="-159.52438">
				 <ele>217</ele>
			 </trkpt>
			 <trkpt lat="21.9145" lon="-159.52422">
				 <ele>220</ele>
			 </trkpt>
			 <trkpt lat="21.91478" lon="-159.52376">
				 <ele>218</ele>
			 </trkpt>
			 <trkpt lat="21.91437" lon="-159.52314">
				 <ele>218</ele>
			 </trkpt>
			 <trkpt lat="21.91399" lon="-159.52225">
				 <ele>222</ele>
			 </trkpt>
			 <trkpt lat="21.91377" lon="-159.52172">
				 <ele>232</ele>
			 </trkpt>
			 <trkpt lat="21.91282" lon="-159.51946">
				 <ele>232</ele>
			 </trkpt>
			 <trkpt lat="21.91256" lon="-159.51884">
				 <ele>235</ele>
			 </trkpt>
			 <trkpt lat="21.91355" lon="-159.51881">
				 <ele>235</ele>
			 </trkpt>
			 <trkpt lat="21.91409" lon="-159.51882">
				 <ele>228</ele>
			 </trkpt>
			 <trkpt lat="21.91421" lon="-159.51867">
				 <ele>224</ele>
			 </trkpt>
			 <trkpt lat="21.91435" lon="-159.51806">
				 <ele>218</ele>
			 </trkpt>
			 <trkpt lat="21.915" lon="-159.51473">
				 <ele>213</ele>
			 </trkpt>
			 <trkpt lat="21.915" lon="-159.51473">
				 <ele>206</ele>
			 </trkpt>
			 <trkpt lat="21.9155" lon="-159.51242">
				 <ele>200</ele>
			 </trkpt>
			 <trkpt lat="21.91565" lon="-159.51225">
				 <ele>199</ele>
			 </trkpt>
			 <trkpt lat="21.91626" lon="-159.51195">
				 <ele>192</ele>
			 </trkpt>
			 <trkpt lat="21.91659" lon="-159.51214">
				 <ele>185</ele>
			 </trkpt>
			 <trkpt lat="21.9168" lon="-159.51237">
				 <ele>176</ele>
			 </trkpt>
			 <trkpt lat="21.91659" lon="-159.51278">
				 <ele>176</ele>
			 </trkpt>
			 <trkpt lat="21.91648" lon="-159.51319">
				 <ele>176</ele>
			 </trkpt>
			 <trkpt lat="21.91666" lon="-159.51372">
				 <ele>165</ele>
			 </trkpt>
			 <trkpt lat="21.91675" lon="-159.51382">
				 <ele>161</ele>
			 </trkpt>
			 <trkpt lat="21.917" lon="-159.51321">
				 <ele>162</ele>
			 </trkpt>
			 <trkpt lat="21.91752" lon="-159.51263">
				 <ele>159</ele>
			 </trkpt>
			 <trkpt lat="21.91804" lon="-159.51211">
				 <ele>151</ele>
			 </trkpt>
			 <trkpt lat="21.9182" lon="-159.51201">
				 <ele>145</ele>
			 </trkpt>
			 <trkpt lat="21.91858" lon="-159.51189">
				 <ele>144</ele>
			 </trkpt>
			 <trkpt lat="21.91884" lon="-159.51162">
				 <ele>140</ele>
			 </trkpt>
			 <trkpt lat="21.91886" lon="-159.51116">
				 <ele>135</ele>
			 </trkpt>
			 <trkpt lat="21.91858" lon="-159.5108">
				 <ele>131</ele>
			 </trkpt>
			 <trkpt lat="21.91828" lon="-159.51072">
				 <ele>129</ele>
			 </trkpt>
			 <trkpt lat="21.91777" lon="-159.51053">
				 <ele>129</ele>
			 </trkpt>
			 <trkpt lat="21.91739" lon="-159.51032">
				 <ele>135</ele>
			 </trkpt>
			 <trkpt lat="21.91727" lon="-159.51016">
				 <ele>139</ele>
			 </trkpt>
			 <trkpt lat="21.9172" lon="-159.51">
				 <ele>140</ele>
			 </trkpt>
			 <trkpt lat="21.91724" lon="-159.5095">
				 <ele>146</ele>
			 </trkpt>
			 <trkpt lat="21.9173" lon="-159.50872">
				 <ele>142</ele>
			 </trkpt>
			 <trkpt lat="21.91724" lon="-159.50851">
				 <ele>142</ele>
			 </trkpt>
			 <trkpt lat="21.91695" lon="-159.50777">
				 <ele>142</ele>
			 </trkpt>
			 <trkpt lat="21.91673" lon="-159.50706">
				 <ele>143</ele>
			 </trkpt>
			 <trkpt lat="21.91675" lon="-159.50682">
				 <ele>140</ele>
			 </trkpt>
			 <trkpt lat="21.91689" lon="-159.50667">
				 <ele>136</ele>
			 </trkpt>
			 <trkpt lat="21.91753" lon="-159.50662">
				 <ele>133</ele>
			 </trkpt>
			 <trkpt lat="21.9185" lon="-159.50664">
				 <ele>131</ele>
			 </trkpt>
			 <trkpt lat="21.91939" lon="-159.5067">
				 <ele>133</ele>
			 </trkpt>
			 <trkpt lat="21.9197" lon="-159.5069">
				 <ele>129</ele>
			 </trkpt>
			 <trkpt lat="21.91998" lon="-159.50729">
				 <ele>133</ele>
			 </trkpt>
			 <trkpt lat="21.92003" lon="-159.50748">
				 <ele>137</ele>
			 </trkpt>
			 <trkpt lat="21.92039" lon="-159.50772">
				 <ele>142</ele>
			 </trkpt>
			 <trkpt lat="21.92056" lon="-159.50775">
				 <ele>146</ele>
			 </trkpt>
			 <trkpt lat="21.92085" lon="-159.5076">
				 <ele>154</ele>
			 </trkpt>
			 <trkpt lat="21.92095" lon="-159.50728">
				 <ele>163</ele>
			 </trkpt>
			 <trkpt lat="21.92142" lon="-159.50676">
				 <ele>162</ele>
			 </trkpt>
			 <trkpt lat="21.92184" lon="-159.50664">
				 <ele>164</ele>
			 </trkpt>
			 <trkpt lat="21.92181" lon="-159.50605">
				 <ele>171</ele>
			 </trkpt>
			 <trkpt lat="21.92165" lon="-159.50448">
				 <ele>173</ele>
			 </trkpt>
			 <trkpt lat="21.9215" lon="-159.50412">
				 <ele>173</ele>
			 </trkpt>
			 <trkpt lat="21.92066" lon="-159.50266">
				 <ele>172</ele>
			 </trkpt>
			 <trkpt lat="21.92037" lon="-159.50235">
				 <ele>169</ele>
			 </trkpt>
			 <trkpt lat="21.92005" lon="-159.50217">
				 <ele>166</ele>
			 </trkpt>
			 <trkpt lat="21.91988" lon="-159.5021">
				 <ele>163</ele>
			 </trkpt>
			 <trkpt lat="21.91942" lon="-159.50182">
				 <ele>160</ele>
			 </trkpt>
			 <trkpt lat="21.91905" lon="-159.50143">
				 <ele>157</ele>
			 </trkpt>
			 <trkpt lat="21.91878" lon="-159.50112">
				 <ele>150</ele>
			 </trkpt>
			 <trkpt lat="21.91839" lon="-159.50039">
				 <ele>148</ele>
			 </trkpt>
			 <trkpt lat="21.91826" lon="-159.4999">
				 <ele>148</ele>
			 </trkpt>
			 <trkpt lat="21.91803" lon="-159.49793">
				 <ele>144</ele>
			 </trkpt>
			 <trkpt lat="21.91794" lon="-159.49778">
				 <ele>141</ele>
			 </trkpt>
			 <trkpt lat="21.91782" lon="-159.49668">
				 <ele>138</ele>
			 </trkpt>
			 <trkpt lat="21.91764" lon="-159.49552">
				 <ele>135</ele>
			 </trkpt>
			 <trkpt lat="21.91706" lon="-159.49198">
				 <ele>129</ele>
			 </trkpt>
			 <trkpt lat="21.91614" lon="-159.48724">
				 <ele>122</ele>
			 </trkpt>
			 <trkpt lat="21.91592" lon="-159.48673">
				 <ele>118</ele>
			 </trkpt>
			 <trkpt lat="21.91581" lon="-159.48658">
				 <ele>114</ele>
			 </trkpt>
			 <trkpt lat="21.91537" lon="-159.48618">
				 <ele>111</ele>
			 </trkpt>
			 <trkpt lat="21.9141" lon="-159.48524">
				 <ele>111</ele>
			 </trkpt>
			 <trkpt lat="21.91359" lon="-159.48459">
				 <ele>112</ele>
			 </trkpt>
			 <trkpt lat="21.91319" lon="-159.48403">
				 <ele>111</ele>
			 </trkpt>
			 <trkpt lat="21.91299" lon="-159.48386">
				 <ele>112</ele>
			 </trkpt>
			 <trkpt lat="21.91195" lon="-159.48323">
				 <ele>114</ele>
			 </trkpt>
			 <trkpt lat="21.91119" lon="-159.48257">
				 <ele>115</ele>
			 </trkpt>
			 <trkpt lat="21.91095" lon="-159.48234">
				 <ele>113</ele>
			 </trkpt>
			 <trkpt lat="21.91017" lon="-159.48157">
				 <ele>114</ele>
			 </trkpt>
			 <trkpt lat="21.90945" lon="-159.48076">
				 <ele>114</ele>
			 </trkpt>
			 <trkpt lat="21.90819" lon="-159.47909">
				 <ele>116</ele>
			 </trkpt>
			 <trkpt lat="21.9073" lon="-159.47787">
				 <ele>118</ele>
			 </trkpt>
			 <trkpt lat="21.90719" lon="-159.47771">
				 <ele>118</ele>
			 </trkpt>
			 <trkpt lat="21.90693" lon="-159.47716">
				 <ele>116</ele>
			 </trkpt>
			 <trkpt lat="21.90686" lon="-159.4768">
				 <ele>112</ele>
			 </trkpt>
			 <trkpt lat="21.90699" lon="-159.47516">
				 <ele>108</ele>
			 </trkpt>
			 <trkpt lat="21.90696" lon="-159.474">
				 <ele>101</ele>
			 </trkpt>
			 <trkpt lat="21.90686" lon="-159.47236">
				 <ele>98</ele>
			 </trkpt>
			 <trkpt lat="21.90673" lon="-159.47166">
				 <ele>93</ele>
			 </trkpt>
			 <trkpt lat="21.90627" lon="-159.47053">
				 <ele>86</ele>
			 </trkpt>
			 <trkpt lat="21.90615" lon="-159.47043">
				 <ele>82</ele>
			 </trkpt>
			 <trkpt lat="21.90613" lon="-159.4703">
				 <ele>78</ele>
			 </trkpt>
			 <trkpt lat="21.90578" lon="-159.46963">
				 <ele>74</ele>
			 </trkpt>
			 <trkpt lat="21.90532" lon="-159.46907">
				 <ele>72</ele>
			 </trkpt>
			 <trkpt lat="21.90366" lon="-159.46775">
				 <ele>69</ele>
			 </trkpt>
			 <trkpt lat="21.90358" lon="-159.46764">
				 <ele>67</ele>
			 </trkpt>
			 <trkpt lat="21.9035" lon="-159.4674">
				 <ele>66</ele>
			 </trkpt>
			 <trkpt lat="21.9036" lon="-159.46679">
				 <ele>65</ele>
			 </trkpt>
			 <trkpt lat="21.90351" lon="-159.46665">
				 <ele>64</ele>
			 </trkpt>
			 <trkpt lat="21.90253" lon="-159.46657">
				 <ele>63</ele>
			 </trkpt>
			 <trkpt lat="21.90132" lon="-159.46645">
				 <ele>62</ele>
			 </trkpt>
			 <trkpt lat="21.90069" lon="-159.46638">
				 <ele>62</ele>
			 </trkpt>
			 <trkpt lat="21.8969" lon="-159.46592">
				 <ele>61</ele>
			 </trkpt>
			 <trkpt lat="21.8955" lon="-159.46585">
				 <ele>60</ele>
			 </trkpt>
			 <trkpt lat="21.89495" lon="-159.46585">
				 <ele>58</ele>
			 </trkpt>
			 <trkpt lat="21.89362" lon="-159.46626">
				 <ele>57</ele>
			 </trkpt>
			 <trkpt lat="21.89288" lon="-159.4664">
				 <ele>56</ele>
			 </trkpt>
			 <trkpt lat="21.89012" lon="-159.466">
				 <ele>55</ele>
			 </trkpt>
			 <trkpt lat="21.88944" lon="-159.46592">
				 <ele>53</ele>
			 </trkpt>
			 <trkpt lat="21.88869" lon="-159.4661">
				 <ele>50</ele>
			 </trkpt>
			 <trkpt lat="21.88824" lon="-159.46634">
				 <ele>47</ele>
			 </trkpt>
			 <trkpt lat="21.88792" lon="-159.46661">
				 <ele>44</ele>
			 </trkpt>
			 <trkpt lat="21.88743" lon="-159.46721">
				 <ele>41</ele>
			 </trkpt>
			 <trkpt lat="21.88722" lon="-159.46743">
				 <ele>39</ele>
			 </trkpt>
			 <trkpt lat="21.8867" lon="-159.46773">
				 <ele>38</ele>
			 </trkpt>
			 <trkpt lat="21.88611" lon="-159.46802">
				 <ele>36</ele>
			 </trkpt>
			 <trkpt lat="21.88563" lon="-159.46807">
				 <ele>34</ele>
			 </trkpt>
			 <trkpt lat="21.88545" lon="-159.46804">
				 <ele>32</ele>
			 </trkpt>
			 <trkpt lat="21.88457" lon="-159.4679">
				 <ele>30</ele>
			 </trkpt>
			 <trkpt lat="21.88404" lon="-159.46794">
				 <ele>27</ele>
			 </trkpt>
			 <trkpt lat="21.88384" lon="-159.46803">
				 <ele>26</ele>
			 </trkpt>
			 <trkpt lat="21.88356" lon="-159.46813">
				 <ele>25</ele>
			 </trkpt>
			 <trkpt lat="21.8835" lon="-159.46828">
				 <ele>24</ele>
			 </trkpt>
			 <trkpt lat="21.88337" lon="-159.46836">
				 <ele>23</ele>
			 </trkpt>
			 <trkpt lat="21.88322" lon="-159.46834">
				 <ele>22</ele>
			 </trkpt>
			 <trkpt lat="21.88311" lon="-159.46822">
				 <ele>20</ele>
			 </trkpt>
			 <trkpt lat="21.8831" lon="-159.46819">
				 <ele>17</ele>
			 </trkpt>
			 <trkpt lat="21.88305" lon="-159.46819">
				 <ele>15</ele>
			 </trkpt>
			 <trkpt lat="21.8827" lon="-159.4683">
				 <ele>13</ele>
			 </trkpt>
			 <trkpt lat="21.88236" lon="-159.46839">
				 <ele>12</ele>
			 </trkpt>
			 <trkpt lat="21.88209" lon="-159.46851">
				 <ele>10</ele>
			 </trkpt>
			 <trkpt lat="21.88189" lon="-159.4685">
				 <ele>7</ele>
			 </trkpt>
			 <trkpt lat="21.8805" lon="-159.46866">
				 <ele>7</ele>
			 </trkpt>
			 <trkpt lat="21.88006" lon="-159.46854">
				 <ele>7</ele>
			 </trkpt>
		 </trkseg>
	 </trk>
</gpx>