<?xml version="1.0" encoding="UTF-8"?>
 <gpx creator="Garmin Connect" version="1.1"
	 xsi:schemaLocation="http://www.topografix.com/GPX/1/1 http://www.topografix.com/GPX/11.xsd"
	 xmlns:ns3="http://www.garmin.com/xmlschemas/TrackPointExtension/v1"
	 xmlns="http://www.topografix.com/GPX/1/1"
	 xmlns:xsi="http://www.w3.org/2001/XMLSchema-instance" xmlns:ns2="http://www.garmin.com/xmlschemas/GpxExtensions/v3">
	 <metadata>
		<name>Kitakyushu Marathon 2025 - 42.195 km</name>
		 <link href="https://www.goandrace.com">
		 <text>Garmin Connect</text>
		 </link>
	 <time>2026-08-10T03:10:30</time>
	 </metadata>
	 <trk>
		 <name>Kitakyushu Marathon 2025 - 42.195 km</name>
		 <trkseg>
			 <trkpt lat="33.88336" lon="130.872209">
				 <ele>6.2</ele>
			 </trkpt>
			 <trkpt lat="33.883699" lon="130.871356">
				 <ele>6</ele>
			 </trkpt>
			 <trkpt lat="33.88369" lon="130.87135">
				 <ele>5.8</ele>
			 </trkpt>
			 <trkpt lat="33.88383" lon="130.87078">
				 <ele>5.6</ele>
			 </trkpt>
			 <trkpt lat="33.88397" lon="130.87023">
				 <ele>5.5</ele>
			 </trkpt>
			 <trkpt lat="33.88402" lon="130.86996">
				 <ele>5.6</ele>
			 </trkpt>
			 <trkpt lat="33.8835" lon="130.86979">
				 <ele>5.5</ele>
			 </trkpt>
			 <trkpt lat="33.8832" lon="130.86968">
				 <ele>5.5</ele>
			 </trkpt>
			 <trkpt lat="33.8832" lon="130.86968">
				 <ele>5.5</ele>
			 </trkpt>
			 <trkpt lat="33.88235" lon="130.86938">
				 <ele>5.5</ele>
			 </trkpt>
			 <trkpt lat="33.882" lon="130.8692">
				 <ele>5.7</ele>
			 </trkpt>
			 <trkpt lat="33.88169" lon="130.86897">
				 <ele>6</ele>
			 </trkpt>
			 <trkpt lat="33.88146" lon="130.86878">
				 <ele>6.2</ele>
			 </trkpt>
			 <trkpt lat="33.88127" lon="130.86858">
				 <ele>6.5</ele>
			 </trkpt>
			 <trkpt lat="33.88112" lon="130.8684">
				 <ele>6.9</ele>
			 </trkpt>
			 <trkpt lat="33.88096" lon="130.86816">
				 <ele>7.2</ele>
			 </trkpt>
			 <trkpt lat="33.8805" lon="130.86738">
				 <ele>7.3</ele>
			 </trkpt>
			 <trkpt lat="33.88009" lon="130.86662">
				 <ele>7.5</ele>
			 </trkpt>
			 <trkpt lat="33.87977" lon="130.86605">
				 <ele>7.6</ele>
			 </trkpt>
			 <trkpt lat="33.87965" lon="130.86586">
				 <ele>7.9</ele>
			 </trkpt>
			 <trkpt lat="33.87955" lon="130.86565">
				 <ele>8.4</ele>
			 </trkpt>
			 <trkpt lat="33.87955" lon="130.86565">
				 <ele>8.9</ele>
			 </trkpt>
			 <trkpt lat="33.87926" lon="130.86516">
				 <ele>9.6</ele>
			 </trkpt>
			 <trkpt lat="33.879" lon="130.86456">
				 <ele>10.5</ele>
			 </trkpt>
			 <trkpt lat="33.87869" lon="130.86393">
				 <ele>10.9</ele>
			 </trkpt>
			 <trkpt lat="33.87842" lon="130.86329">
				 <ele>11</ele>
			 </trkpt>
			 <trkpt lat="33.87831" lon="130.86299">
				 <ele>11.1</ele>
			 </trkpt>
			 <trkpt lat="33.8781" lon="130.86225">
				 <ele>11.2</ele>
			 </trkpt>
			 <trkpt lat="33.87799" lon="130.86167">
				 <ele>11.2</ele>
			 </trkpt>
			 <trkpt lat="33.87789" lon="130.86077">
				 <ele>11.2</ele>
			 </trkpt>
			 <trkpt lat="33.87778" lon="130.85972">
				 <ele>11.1</ele>
			 </trkpt>
			 <trkpt lat="33.87775" lon="130.85942">
				 <ele>11</ele>
			 </trkpt>
			 <trkpt lat="33.8777" lon="130.85919">
				 <ele>10.8</ele>
			 </trkpt>
			 <trkpt lat="33.87762" lon="130.85894">
				 <ele>10.6</ele>
			 </trkpt>
			 <trkpt lat="33.87724" lon="130.85808">
				 <ele>10.4</ele>
			 </trkpt>
			 <trkpt lat="33.87652" lon="130.85665">
				 <ele>10.5</ele>
			 </trkpt>
			 <trkpt lat="33.87571" lon="130.85508">
				 <ele>11.3</ele>
			 </trkpt>
			 <trkpt lat="33.87571" lon="130.85508">
				 <ele>12.2</ele>
			 </trkpt>
			 <trkpt lat="33.87514" lon="130.85399">
				 <ele>13.1</ele>
			 </trkpt>
			 <trkpt lat="33.87486" lon="130.85345">
				 <ele>14.3</ele>
			 </trkpt>
			 <trkpt lat="33.87456" lon="130.85286">
				 <ele>15.5</ele>
			 </trkpt>
			 <trkpt lat="33.87215" lon="130.84821">
				 <ele>16.9</ele>
			 </trkpt>
			 <trkpt lat="33.87159" lon="130.84715">
				 <ele>18.2</ele>
			 </trkpt>
			 <trkpt lat="33.8701" lon="130.84424">
				 <ele>19.7</ele>
			 </trkpt>
			 <trkpt lat="33.86929" lon="130.84266">
				 <ele>21.4</ele>
			 </trkpt>
			 <trkpt lat="33.86878" lon="130.84166">
				 <ele>23</ele>
			 </trkpt>
			 <trkpt lat="33.86858" lon="130.84118">
				 <ele>24.5</ele>
			 </trkpt>
			 <trkpt lat="33.86806" lon="130.83974">
				 <ele>25.7</ele>
			 </trkpt>
			 <trkpt lat="33.86749" lon="130.83819">
				 <ele>26.9</ele>
			 </trkpt>
			 <trkpt lat="33.86689" lon="130.83644">
				 <ele>28.1</ele>
			 </trkpt>
			 <trkpt lat="33.86677" lon="130.83607">
				 <ele>29.1</ele>
			 </trkpt>
			 <trkpt lat="33.86672" lon="130.83597">
				 <ele>29.9</ele>
			 </trkpt>
			 <trkpt lat="33.86666" lon="130.83587">
				 <ele>30.9</ele>
			 </trkpt>
			 <trkpt lat="33.8662" lon="130.83456">
				 <ele>31.8</ele>
			 </trkpt>
			 <trkpt lat="33.86606" lon="130.83416">
				 <ele>32.5</ele>
			 </trkpt>
			 <trkpt lat="33.86606" lon="130.83415">
				 <ele>33.1</ele>
			 </trkpt>
			 <trkpt lat="33.86606" lon="130.83415">
				 <ele>33.6</ele>
			 </trkpt>
			 <trkpt lat="33.86559" lon="130.83285">
				 <ele>34.2</ele>
			 </trkpt>
			 <trkpt lat="33.86549" lon="130.83227">
				 <ele>34.9</ele>
			 </trkpt>
			 <trkpt lat="33.86547" lon="130.83199">
				 <ele>35.7</ele>
			 </trkpt>
			 <trkpt lat="33.86546" lon="130.8309">
				 <ele>36.5</ele>
			 </trkpt>
			 <trkpt lat="33.86541" lon="130.83059">
				 <ele>37.5</ele>
			 </trkpt>
			 <trkpt lat="33.86536" lon="130.83038">
				 <ele>38.9</ele>
			 </trkpt>
			 <trkpt lat="33.865" lon="130.82921">
				 <ele>39.9</ele>
			 </trkpt>
			 <trkpt lat="33.86453" lon="130.82777">
				 <ele>41.1</ele>
			 </trkpt>
			 <trkpt lat="33.86437" lon="130.8272">
				 <ele>42.3</ele>
			 </trkpt>
			 <trkpt lat="33.86419" lon="130.82673">
				 <ele>43.4</ele>
			 </trkpt>
			 <trkpt lat="33.86336" lon="130.82407">
				 <ele>44.5</ele>
			 </trkpt>
			 <trkpt lat="33.86327" lon="130.82365">
				 <ele>45.7</ele>
			 </trkpt>
			 <trkpt lat="33.86323" lon="130.82341">
				 <ele>46.6</ele>
			 </trkpt>
			 <trkpt lat="33.8632" lon="130.82307">
				 <ele>47.3</ele>
			 </trkpt>
			 <trkpt lat="33.86323" lon="130.82263">
				 <ele>47.5</ele>
			 </trkpt>
			 <trkpt lat="33.86331" lon="130.82177">
				 <ele>47.3</ele>
			 </trkpt>
			 <trkpt lat="33.86337" lon="130.82138">
				 <ele>46.4</ele>
			 </trkpt>
			 <trkpt lat="33.86349" lon="130.82049">
				 <ele>45.6</ele>
			 </trkpt>
			 <trkpt lat="33.86354" lon="130.82006">
				 <ele>44.5</ele>
			 </trkpt>
			 <trkpt lat="33.86379" lon="130.819">
				 <ele>43.2</ele>
			 </trkpt>
			 <trkpt lat="33.86409" lon="130.81783">
				 <ele>41.7</ele>
			 </trkpt>
			 <trkpt lat="33.86418" lon="130.81734">
				 <ele>40</ele>
			 </trkpt>
			 <trkpt lat="33.86421" lon="130.81711">
				 <ele>38.2</ele>
			 </trkpt>
			 <trkpt lat="33.86436" lon="130.81613">
				 <ele>36.5</ele>
			 </trkpt>
			 <trkpt lat="33.86436" lon="130.81613">
				 <ele>34.8</ele>
			 </trkpt>
			 <trkpt lat="33.86446" lon="130.81544">
				 <ele>33.4</ele>
			 </trkpt>
			 <trkpt lat="33.86449" lon="130.81495">
				 <ele>32.1</ele>
			 </trkpt>
			 <trkpt lat="33.8646" lon="130.81492">
				 <ele>30.7</ele>
			 </trkpt>
			 <trkpt lat="33.86465" lon="130.81487">
				 <ele>29.3</ele>
			 </trkpt>
			 <trkpt lat="33.86472" lon="130.81474">
				 <ele>28.1</ele>
			 </trkpt>
			 <trkpt lat="33.8648" lon="130.81433">
				 <ele>26.7</ele>
			 </trkpt>
			 <trkpt lat="33.86503" lon="130.81341">
				 <ele>25.4</ele>
			 </trkpt>
			 <trkpt lat="33.8652" lon="130.81278">
				 <ele>24.2</ele>
			 </trkpt>
			 <trkpt lat="33.86522" lon="130.81273">
				 <ele>22.9</ele>
			 </trkpt>
			 <trkpt lat="33.86522" lon="130.81273">
				 <ele>21.6</ele>
			 </trkpt>
			 <trkpt lat="33.86542" lon="130.81224">
				 <ele>20.3</ele>
			 </trkpt>
			 <trkpt lat="33.86565" lon="130.81169">
				 <ele>19.1</ele>
			 </trkpt>
			 <trkpt lat="33.866" lon="130.81181">
				 <ele>18.2</ele>
			 </trkpt>
			 <trkpt lat="33.86659" lon="130.81201">
				 <ele>17.4</ele>
			 </trkpt>
			 <trkpt lat="33.86696" lon="130.81213">
				 <ele>16.7</ele>
			 </trkpt>
			 <trkpt lat="33.86712" lon="130.81216">
				 <ele>16.1</ele>
			 </trkpt>
			 <trkpt lat="33.86716" lon="130.81217">
				 <ele>15.6</ele>
			 </trkpt>
			 <trkpt lat="33.86732" lon="130.81212">
				 <ele>15.5</ele>
			 </trkpt>
			 <trkpt lat="33.86749" lon="130.81208">
				 <ele>15.3</ele>
			 </trkpt>
			 <trkpt lat="33.86774" lon="130.81202">
				 <ele>15.2</ele>
			 </trkpt>
			 <trkpt lat="33.86793" lon="130.81195">
				 <ele>15.1</ele>
			 </trkpt>
			 <trkpt lat="33.86808" lon="130.81187">
				 <ele>14.8</ele>
			 </trkpt>
			 <trkpt lat="33.86816" lon="130.81181">
				 <ele>14.7</ele>
			 </trkpt>
			 <trkpt lat="33.86841" lon="130.81161">
				 <ele>14.8</ele>
			 </trkpt>
			 <trkpt lat="33.86886" lon="130.8111">
				 <ele>15</ele>
			 </trkpt>
			 <trkpt lat="33.86886" lon="130.8111">
				 <ele>15.1</ele>
			 </trkpt>
			 <trkpt lat="33.8697" lon="130.81014">
				 <ele>15.1</ele>
			 </trkpt>
			 <trkpt lat="33.86906" lon="130.80934">
				 <ele>14.8</ele>
			 </trkpt>
			 <trkpt lat="33.86829" lon="130.80838">
				 <ele>14.4</ele>
			 </trkpt>
			 <trkpt lat="33.86817" lon="130.80823">
				 <ele>13.8</ele>
			 </trkpt>
			 <trkpt lat="33.86823" lon="130.80816">
				 <ele>13.2</ele>
			 </trkpt>
			 <trkpt lat="33.86837" lon="130.808">
				 <ele>12.5</ele>
			 </trkpt>
			 <trkpt lat="33.869549" lon="130.806707">
				 <ele>12.2</ele>
			 </trkpt>
			 <trkpt lat="33.869798" lon="130.807061">
				 <ele>11.6</ele>
			 </trkpt>
			 <trkpt lat="33.870114" lon="130.807501">
				 <ele>11.5</ele>
			 </trkpt>
			 <trkpt lat="33.870671" lon="130.808182">
				 <ele>11.3</ele>
			 </trkpt>
			 <trkpt lat="33.870934" lon="130.808531">
				 <ele>11.2</ele>
			 </trkpt>
			 <trkpt lat="33.871027" lon="130.808794">
				 <ele>11.3</ele>
			 </trkpt>
			 <trkpt lat="33.87101" lon="130.80878">
				 <ele>11.6</ele>
			 </trkpt>
			 <trkpt lat="33.8692" lon="130.81087">
				 <ele>12</ele>
			 </trkpt>
			 <trkpt lat="33.8692" lon="130.81087">
				 <ele>12.5</ele>
			 </trkpt>
			 <trkpt lat="33.8688" lon="130.81133">
				 <ele>13</ele>
			 </trkpt>
			 <trkpt lat="33.86842" lon="130.81175">
				 <ele>13.5</ele>
			 </trkpt>
			 <trkpt lat="33.86824" lon="130.81189">
				 <ele>14.1</ele>
			 </trkpt>
			 <trkpt lat="33.86803" lon="130.81202">
				 <ele>14.6</ele>
			 </trkpt>
			 <trkpt lat="33.86778" lon="130.81213">
				 <ele>14.6</ele>
			 </trkpt>
			 <trkpt lat="33.86746" lon="130.81221">
				 <ele>14.6</ele>
			 </trkpt>
			 <trkpt lat="33.86735" lon="130.81222">
				 <ele>14.5</ele>
			 </trkpt>
			 <trkpt lat="33.86742" lon="130.81236">
				 <ele>14.3</ele>
			 </trkpt>
			 <trkpt lat="33.8675" lon="130.81253">
				 <ele>13.6</ele>
			 </trkpt>
			 <trkpt lat="33.86769" lon="130.81283">
				 <ele>13.1</ele>
			 </trkpt>
			 <trkpt lat="33.86801" lon="130.81326">
				 <ele>12.5</ele>
			 </trkpt>
			 <trkpt lat="33.86801" lon="130.81326">
				 <ele>11.9</ele>
			 </trkpt>
			 <trkpt lat="33.8683" lon="130.81358">
				 <ele>11.3</ele>
			 </trkpt>
			 <trkpt lat="33.86907" lon="130.81424">
				 <ele>10.6</ele>
			 </trkpt>
			 <trkpt lat="33.86935" lon="130.81445">
				 <ele>10</ele>
			 </trkpt>
			 <trkpt lat="33.86993" lon="130.81479">
				 <ele>9.4</ele>
			 </trkpt>
			 <trkpt lat="33.87043" lon="130.81502">
				 <ele>8.6</ele>
			 </trkpt>
			 <trkpt lat="33.87061" lon="130.8151">
				 <ele>7.8</ele>
			 </trkpt>
			 <trkpt lat="33.8708" lon="130.81515">
				 <ele>7.1</ele>
			 </trkpt>
			 <trkpt lat="33.87095" lon="130.81518">
				 <ele>6.7</ele>
			 </trkpt>
			 <trkpt lat="33.87119" lon="130.81519">
				 <ele>6.2</ele>
			 </trkpt>
			 <trkpt lat="33.87145" lon="130.81516">
				 <ele>5.7</ele>
			 </trkpt>
			 <trkpt lat="33.87186" lon="130.81507">
				 <ele>5.3</ele>
			 </trkpt>
			 <trkpt lat="33.87243" lon="130.81491">
				 <ele>5</ele>
			 </trkpt>
			 <trkpt lat="33.87243" lon="130.81491">
				 <ele>4.7</ele>
			 </trkpt>
			 <trkpt lat="33.87305" lon="130.81473">
				 <ele>4.5</ele>
			 </trkpt>
			 <trkpt lat="33.87327" lon="130.81464">
				 <ele>4.2</ele>
			 </trkpt>
			 <trkpt lat="33.87373" lon="130.81442">
				 <ele>4</ele>
			 </trkpt>
			 <trkpt lat="33.8738" lon="130.81438">
				 <ele>3.9</ele>
			 </trkpt>
			 <trkpt lat="33.87388" lon="130.81429">
				 <ele>3.8</ele>
			 </trkpt>
			 <trkpt lat="33.87407" lon="130.8142">
				 <ele>3.7</ele>
			 </trkpt>
			 <trkpt lat="33.87441" lon="130.81405">
				 <ele>3.8</ele>
			 </trkpt>
			 <trkpt lat="33.87503" lon="130.81385">
				 <ele>3.9</ele>
			 </trkpt>
			 <trkpt lat="33.87559" lon="130.81363">
				 <ele>4</ele>
			 </trkpt>
			 <trkpt lat="33.87587" lon="130.81347">
				 <ele>4</ele>
			 </trkpt>
			 <trkpt lat="33.87631" lon="130.81312">
				 <ele>3.9</ele>
			 </trkpt>
			 <trkpt lat="33.87646" lon="130.81297">
				 <ele>3.8</ele>
			 </trkpt>
			 <trkpt lat="33.8767" lon="130.81268">
				 <ele>3.7</ele>
			 </trkpt>
			 <trkpt lat="33.87676" lon="130.81276">
				 <ele>3.6</ele>
			 </trkpt>
			 <trkpt lat="33.87684" lon="130.81293">
				 <ele>3.5</ele>
			 </trkpt>
			 <trkpt lat="33.87693" lon="130.81301">
				 <ele>3.5</ele>
			 </trkpt>
			 <trkpt lat="33.87709" lon="130.81315">
				 <ele>3.4</ele>
			 </trkpt>
			 <trkpt lat="33.87724" lon="130.81326">
				 <ele>3.3</ele>
			 </trkpt>
			 <trkpt lat="33.87741" lon="130.81333">
				 <ele>3.2</ele>
			 </trkpt>
			 <trkpt lat="33.87758" lon="130.81337">
				 <ele>3.1</ele>
			 </trkpt>
			 <trkpt lat="33.87849" lon="130.81344">
				 <ele>3</ele>
			 </trkpt>
			 <trkpt lat="33.87901" lon="130.81348">
				 <ele>3</ele>
			 </trkpt>
			 <trkpt lat="33.87901" lon="130.81348">
				 <ele>3</ele>
			 </trkpt>
			 <trkpt lat="33.88051" lon="130.81356">
				 <ele>3</ele>
			 </trkpt>
			 <trkpt lat="33.8808" lon="130.81361">
				 <ele>3</ele>
			 </trkpt>
			 <trkpt lat="33.88114" lon="130.81368">
				 <ele>3</ele>
			 </trkpt>
			 <trkpt lat="33.88224" lon="130.81396">
				 <ele>3</ele>
			 </trkpt>
			 <trkpt lat="33.88326" lon="130.81422">
				 <ele>3.2</ele>
			 </trkpt>
			 <trkpt lat="33.88372" lon="130.81431">
				 <ele>3.4</ele>
			 </trkpt>
			 <trkpt lat="33.88391" lon="130.81431">
				 <ele>3.5</ele>
			 </trkpt>
			 <trkpt lat="33.88411" lon="130.81427">
				 <ele>3.9</ele>
			 </trkpt>
			 <trkpt lat="33.88449" lon="130.81414">
				 <ele>4.3</ele>
			 </trkpt>
			 <trkpt lat="33.88557" lon="130.81375">
				 <ele>4.7</ele>
			 </trkpt>
			 <trkpt lat="33.88566" lon="130.8137">
				 <ele>5.3</ele>
			 </trkpt>
			 <trkpt lat="33.88574" lon="130.81365">
				 <ele>6.1</ele>
			 </trkpt>
			 <trkpt lat="33.88608" lon="130.81355">
				 <ele>7.1</ele>
			 </trkpt>
			 <trkpt lat="33.8863" lon="130.81353">
				 <ele>8.4</ele>
			 </trkpt>
			 <trkpt lat="33.88649" lon="130.81352">
				 <ele>9.9</ele>
			 </trkpt>
			 <trkpt lat="33.88689" lon="130.81357">
				 <ele>11.1</ele>
			 </trkpt>
			 <trkpt lat="33.88753" lon="130.81368">
				 <ele>12.4</ele>
			 </trkpt>
			 <trkpt lat="33.88816" lon="130.81381">
				 <ele>13.6</ele>
			 </trkpt>
			 <trkpt lat="33.88838" lon="130.81386">
				 <ele>14.6</ele>
			 </trkpt>
			 <trkpt lat="33.88866" lon="130.81389">
				 <ele>15.5</ele>
			 </trkpt>
			 <trkpt lat="33.88902" lon="130.81387">
				 <ele>16.4</ele>
			 </trkpt>
			 <trkpt lat="33.88923" lon="130.81383">
				 <ele>17.1</ele>
			 </trkpt>
			 <trkpt lat="33.88943" lon="130.81377">
				 <ele>17.5</ele>
			 </trkpt>
			 <trkpt lat="33.88986" lon="130.81356">
				 <ele>17.5</ele>
			 </trkpt>
			 <trkpt lat="33.89006" lon="130.81347">
				 <ele>17.3</ele>
			 </trkpt>
			 <trkpt lat="33.89024" lon="130.81345">
				 <ele>16.5</ele>
			 </trkpt>
			 <trkpt lat="33.89041" lon="130.81346">
				 <ele>15.9</ele>
			 </trkpt>
			 <trkpt lat="33.89054" lon="130.81349">
				 <ele>15.1</ele>
			 </trkpt>
			 <trkpt lat="33.89076" lon="130.81356">
				 <ele>13.9</ele>
			 </trkpt>
			 <trkpt lat="33.89089" lon="130.81362">
				 <ele>12.5</ele>
			 </trkpt>
			 <trkpt lat="33.89128" lon="130.81388">
				 <ele>11.2</ele>
			 </trkpt>
			 <trkpt lat="33.89153" lon="130.8141">
				 <ele>9.8</ele>
			 </trkpt>
			 <trkpt lat="33.89171" lon="130.81437">
				 <ele>8.5</ele>
			 </trkpt>
			 <trkpt lat="33.89212" lon="130.81527">
				 <ele>7.2</ele>
			 </trkpt>
			 <trkpt lat="33.89256" lon="130.81625">
				 <ele>6</ele>
			 </trkpt>
			 <trkpt lat="33.89295" lon="130.81721">
				 <ele>5</ele>
			 </trkpt>
			 <trkpt lat="33.89296" lon="130.81729">
				 <ele>4.2</ele>
			 </trkpt>
			 <trkpt lat="33.89324" lon="130.81794">
				 <ele>3.5</ele>
			 </trkpt>
			 <trkpt lat="33.89344" lon="130.81844">
				 <ele>2.8</ele>
			 </trkpt>
			 <trkpt lat="33.89344" lon="130.81844">
				 <ele>2.5</ele>
			 </trkpt>
			 <trkpt lat="33.89353" lon="130.81865">
				 <ele>2.4</ele>
			 </trkpt>
			 <trkpt lat="33.89362" lon="130.81873">
				 <ele>2.5</ele>
			 </trkpt>
			 <trkpt lat="33.89367" lon="130.81881">
				 <ele>2.5</ele>
			 </trkpt>
			 <trkpt lat="33.89378" lon="130.81903">
				 <ele>2.6</ele>
			 </trkpt>
			 <trkpt lat="33.89397" lon="130.81938">
				 <ele>2.7</ele>
			 </trkpt>
			 <trkpt lat="33.89416" lon="130.81964">
				 <ele>2.7</ele>
			 </trkpt>
			 <trkpt lat="33.89437" lon="130.81991">
				 <ele>2.7</ele>
			 </trkpt>
			 <trkpt lat="33.89489" lon="130.82045">
				 <ele>2.7</ele>
			 </trkpt>
			 <trkpt lat="33.89545" lon="130.82101">
				 <ele>2.7</ele>
			 </trkpt>
			 <trkpt lat="33.89577" lon="130.8213">
				 <ele>2.6</ele>
			 </trkpt>
			 <trkpt lat="33.89623" lon="130.82164">
				 <ele>2.6</ele>
			 </trkpt>
			 <trkpt lat="33.89663" lon="130.82198">
				 <ele>2.7</ele>
			 </trkpt>
			 <trkpt lat="33.89697" lon="130.8223">
				 <ele>2.7</ele>
			 </trkpt>
			 <trkpt lat="33.89728" lon="130.82265">
				 <ele>2.7</ele>
			 </trkpt>
			 <trkpt lat="33.89758" lon="130.82298">
				 <ele>2.7</ele>
			 </trkpt>
			 <trkpt lat="33.89758" lon="130.82299">
				 <ele>2.8</ele>
			 </trkpt>
			 <trkpt lat="33.8978" lon="130.82328">
				 <ele>3</ele>
			 </trkpt>
			 <trkpt lat="33.89782" lon="130.82338">
				 <ele>3.1</ele>
			 </trkpt>
			 <trkpt lat="33.89795" lon="130.82355">
				 <ele>3.3</ele>
			 </trkpt>
			 <trkpt lat="33.89848" lon="130.82417">
				 <ele>3.5</ele>
			 </trkpt>
			 <trkpt lat="33.89821" lon="130.82455">
				 <ele>3.8</ele>
			 </trkpt>
			 <trkpt lat="33.89818" lon="130.82459">
				 <ele>4.4</ele>
			 </trkpt>
			 <trkpt lat="33.89818" lon="130.82459">
				 <ele>4.8</ele>
			 </trkpt>
			 <trkpt lat="33.89688" lon="130.82642">
				 <ele>5.9</ele>
			 </trkpt>
			 <trkpt lat="33.89665" lon="130.82676">
				 <ele>6.8</ele>
			 </trkpt>
			 <trkpt lat="33.89654" lon="130.82715">
				 <ele>7.5</ele>
			 </trkpt>
			 <trkpt lat="33.89623" lon="130.82831">
				 <ele>8.3</ele>
			 </trkpt>
			 <trkpt lat="33.89623" lon="130.82831">
				 <ele>9</ele>
			 </trkpt>
			 <trkpt lat="33.8954" lon="130.83143">
				 <ele>9.7</ele>
			 </trkpt>
			 <trkpt lat="33.89524" lon="130.83208">
				 <ele>10.2</ele>
			 </trkpt>
			 <trkpt lat="33.8951" lon="130.83265">
				 <ele>10.7</ele>
			 </trkpt>
			 <trkpt lat="33.89534" lon="130.83274">
				 <ele>11.3</ele>
			 </trkpt>
			 <trkpt lat="33.89547" lon="130.83279">
				 <ele>11.5</ele>
			 </trkpt>
			 <trkpt lat="33.89547" lon="130.83279">
				 <ele>11.7</ele>
			 </trkpt>
			 <trkpt lat="33.89738" lon="130.83344">
				 <ele>11.3</ele>
			 </trkpt>
			 <trkpt lat="33.89775" lon="130.83356">
				 <ele>11</ele>
			 </trkpt>
			 <trkpt lat="33.89812" lon="130.83368">
				 <ele>10.9</ele>
			 </trkpt>
			 <trkpt lat="33.8985" lon="130.83375">
				 <ele>10.7</ele>
			 </trkpt>
			 <trkpt lat="33.8989" lon="130.83381">
				 <ele>10.5</ele>
			 </trkpt>
			 <trkpt lat="33.89899" lon="130.83377">
				 <ele>10.2</ele>
			 </trkpt>
			 <trkpt lat="33.89907" lon="130.83376">
				 <ele>10.1</ele>
			 </trkpt>
			 <trkpt lat="33.89908" lon="130.83404">
				 <ele>9.9</ele>
			 </trkpt>
			 <trkpt lat="33.89914" lon="130.83411">
				 <ele>9.5</ele>
			 </trkpt>
			 <trkpt lat="33.89915" lon="130.83459">
				 <ele>9.4</ele>
			 </trkpt>
			 <trkpt lat="33.89915" lon="130.83459">
				 <ele>9.3</ele>
			 </trkpt>
			 <trkpt lat="33.89917" lon="130.8348">
				 <ele>9.2</ele>
			 </trkpt>
			 <trkpt lat="33.89919" lon="130.83483">
				 <ele>9.1</ele>
			 </trkpt>
			 <trkpt lat="33.89921" lon="130.83498">
				 <ele>9</ele>
			 </trkpt>
			 <trkpt lat="33.89921" lon="130.83515">
				 <ele>8.9</ele>
			 </trkpt>
			 <trkpt lat="33.89923" lon="130.83526">
				 <ele>8.9</ele>
			 </trkpt>
			 <trkpt lat="33.89921" lon="130.83536">
				 <ele>8.9</ele>
			 </trkpt>
			 <trkpt lat="33.89919" lon="130.8355">
				 <ele>8.9</ele>
			 </trkpt>
			 <trkpt lat="33.89919" lon="130.83572">
				 <ele>8.9</ele>
			 </trkpt>
			 <trkpt lat="33.89923" lon="130.83672">
				 <ele>8.8</ele>
			 </trkpt>
			 <trkpt lat="33.89922" lon="130.83677">
				 <ele>8.5</ele>
			 </trkpt>
			 <trkpt lat="33.89919" lon="130.83683">
				 <ele>8.3</ele>
			 </trkpt>
			 <trkpt lat="33.89919" lon="130.83697">
				 <ele>8.1</ele>
			 </trkpt>
			 <trkpt lat="33.8993" lon="130.83933">
				 <ele>7.9</ele>
			 </trkpt>
			 <trkpt lat="33.89949" lon="130.84412">
				 <ele>7.7</ele>
			 </trkpt>
			 <trkpt lat="33.8995" lon="130.84475">
				 <ele>7.5</ele>
			 </trkpt>
			 <trkpt lat="33.8995" lon="130.84539">
				 <ele>7.2</ele>
			 </trkpt>
			 <trkpt lat="33.89947" lon="130.84594">
				 <ele>6.8</ele>
			 </trkpt>
			 <trkpt lat="33.89944" lon="130.84635">
				 <ele>6.4</ele>
			 </trkpt>
			 <trkpt lat="33.89929" lon="130.84749">
				 <ele>6</ele>
			 </trkpt>
			 <trkpt lat="33.89917" lon="130.84833">
				 <ele>6</ele>
			 </trkpt>
			 <trkpt lat="33.89917" lon="130.84833">
				 <ele>6.2</ele>
			 </trkpt>
			 <trkpt lat="33.89904" lon="130.84924">
				 <ele>6.3</ele>
			 </trkpt>
			 <trkpt lat="33.89893" lon="130.85009">
				 <ele>6.5</ele>
			 </trkpt>
			 <trkpt lat="33.89878" lon="130.85098">
				 <ele>6.7</ele>
			 </trkpt>
			 <trkpt lat="33.89869" lon="130.85162">
				 <ele>6.9</ele>
			 </trkpt>
			 <trkpt lat="33.89863" lon="130.85185">
				 <ele>7.3</ele>
			 </trkpt>
			 <trkpt lat="33.89852" lon="130.85213">
				 <ele>7.5</ele>
			 </trkpt>
			 <trkpt lat="33.89838" lon="130.85241">
				 <ele>7.6</ele>
			 </trkpt>
			 <trkpt lat="33.89826" lon="130.85261">
				 <ele>7.7</ele>
			 </trkpt>
			 <trkpt lat="33.89809" lon="130.85282">
				 <ele>7.6</ele>
			 </trkpt>
			 <trkpt lat="33.89771" lon="130.85324">
				 <ele>7.4</ele>
			 </trkpt>
			 <trkpt lat="33.89728" lon="130.85381">
				 <ele>7</ele>
			 </trkpt>
			 <trkpt lat="33.89583" lon="130.85609">
				 <ele>6.5</ele>
			 </trkpt>
			 <trkpt lat="33.8948" lon="130.85762">
				 <ele>5.9</ele>
			 </trkpt>
			 <trkpt lat="33.89422" lon="130.8585">
				 <ele>5.2</ele>
			 </trkpt>
			 <trkpt lat="33.89376" lon="130.8592">
				 <ele>4.5</ele>
			 </trkpt>
			 <trkpt lat="33.89342" lon="130.85972">
				 <ele>3.8</ele>
			 </trkpt>
			 <trkpt lat="33.8928" lon="130.86071">
				 <ele>3.3</ele>
			 </trkpt>
			 <trkpt lat="33.89259" lon="130.86101">
				 <ele>2.9</ele>
			 </trkpt>
			 <trkpt lat="33.89241" lon="130.86123">
				 <ele>2.8</ele>
			 </trkpt>
			 <trkpt lat="33.89224" lon="130.86138">
				 <ele>2.8</ele>
			 </trkpt>
			 <trkpt lat="33.89205" lon="130.86151">
				 <ele>2.8</ele>
			 </trkpt>
			 <trkpt lat="33.89121" lon="130.86196">
				 <ele>2.8</ele>
			 </trkpt>
			 <trkpt lat="33.89043" lon="130.86239">
				 <ele>2.8</ele>
			 </trkpt>
			 <trkpt lat="33.88934" lon="130.86298">
				 <ele>2.8</ele>
			 </trkpt>
			 <trkpt lat="33.88837" lon="130.86351">
				 <ele>2.8</ele>
			 </trkpt>
			 <trkpt lat="33.88819" lon="130.86363">
				 <ele>2.8</ele>
			 </trkpt>
			 <trkpt lat="33.88797" lon="130.86384">
				 <ele>2.8</ele>
			 </trkpt>
			 <trkpt lat="33.88779" lon="130.86408">
				 <ele>2.8</ele>
			 </trkpt>
			 <trkpt lat="33.88769" lon="130.86426">
				 <ele>2.7</ele>
			 </trkpt>
			 <trkpt lat="33.88761" lon="130.86431">
				 <ele>2.6</ele>
			 </trkpt>
			 <trkpt lat="33.88754" lon="130.86445">
				 <ele>2.5</ele>
			 </trkpt>
			 <trkpt lat="33.88741" lon="130.86487">
				 <ele>2.5</ele>
			 </trkpt>
			 <trkpt lat="33.88734" lon="130.86512">
				 <ele>2.5</ele>
			 </trkpt>
			 <trkpt lat="33.88734" lon="130.86512">
				 <ele>2.5</ele>
			 </trkpt>
			 <trkpt lat="33.88719" lon="130.8657">
				 <ele>2.7</ele>
			 </trkpt>
			 <trkpt lat="33.88718" lon="130.86576">
				 <ele>2.9</ele>
			 </trkpt>
			 <trkpt lat="33.88743" lon="130.86594">
				 <ele>3.2</ele>
			 </trkpt>
			 <trkpt lat="33.88773" lon="130.86616">
				 <ele>3.4</ele>
			 </trkpt>
			 <trkpt lat="33.88811" lon="130.86642">
				 <ele>3.5</ele>
			 </trkpt>
			 <trkpt lat="33.88835" lon="130.86656">
				 <ele>3.5</ele>
			 </trkpt>
			 <trkpt lat="33.88835" lon="130.86656">
				 <ele>3.5</ele>
			 </trkpt>
			 <trkpt lat="33.88859" lon="130.86671">
				 <ele>3.5</ele>
			 </trkpt>
			 <trkpt lat="33.88875" lon="130.86694">
				 <ele>3.5</ele>
			 </trkpt>
			 <trkpt lat="33.8892" lon="130.86721">
				 <ele>3.5</ele>
			 </trkpt>
			 <trkpt lat="33.88948" lon="130.86742">
				 <ele>3.5</ele>
			 </trkpt>
			 <trkpt lat="33.88984" lon="130.86761">
				 <ele>3.5</ele>
			 </trkpt>
			 <trkpt lat="33.89008" lon="130.86769">
				 <ele>3.4</ele>
			 </trkpt>
			 <trkpt lat="33.8903" lon="130.86776">
				 <ele>3.2</ele>
			 </trkpt>
			 <trkpt lat="33.89096" lon="130.86792">
				 <ele>3.1</ele>
			 </trkpt>
			 <trkpt lat="33.89139" lon="130.86806">
				 <ele>3.1</ele>
			 </trkpt>
			 <trkpt lat="33.89168" lon="130.86819">
				 <ele>3</ele>
			 </trkpt>
			 <trkpt lat="33.89199" lon="130.86835">
				 <ele>2.9</ele>
			 </trkpt>
			 <trkpt lat="33.89266" lon="130.86874">
				 <ele>2.8</ele>
			 </trkpt>
			 <trkpt lat="33.89287" lon="130.86891">
				 <ele>2.7</ele>
			 </trkpt>
			 <trkpt lat="33.89349" lon="130.86928">
				 <ele>2.6</ele>
			 </trkpt>
			 <trkpt lat="33.89395" lon="130.86829">
				 <ele>2.5</ele>
			 </trkpt>
			 <trkpt lat="33.89451" lon="130.86725">
				 <ele>2.4</ele>
			 </trkpt>
			 <trkpt lat="33.894814" lon="130.86667">
				 <ele>2.3</ele>
			 </trkpt>
			 <trkpt lat="33.894853" lon="130.866717">
				 <ele>2.2</ele>
			 </trkpt>
			 <trkpt lat="33.89454" lon="130.867318">
				 <ele>2.1</ele>
			 </trkpt>
			 <trkpt lat="33.893927" lon="130.868408">
				 <ele>2</ele>
			 </trkpt>
			 <trkpt lat="33.892974" lon="130.870399">
				 <ele>2.1</ele>
			 </trkpt>
			 <trkpt lat="33.89297" lon="130.8704">
				 <ele>2.2</ele>
			 </trkpt>
			 <trkpt lat="33.89264" lon="130.87108">
				 <ele>2.3</ele>
			 </trkpt>
			 <trkpt lat="33.89253" lon="130.87125">
				 <ele>2.4</ele>
			 </trkpt>
			 <trkpt lat="33.89245" lon="130.87133">
				 <ele>2.5</ele>
			 </trkpt>
			 <trkpt lat="33.89232" lon="130.87143">
				 <ele>2.5</ele>
			 </trkpt>
			 <trkpt lat="33.8922" lon="130.87149">
				 <ele>2.6</ele>
			 </trkpt>
			 <trkpt lat="33.89206" lon="130.87153">
				 <ele>3.1</ele>
			 </trkpt>
			 <trkpt lat="33.89177" lon="130.87154">
				 <ele>3.5</ele>
			 </trkpt>
			 <trkpt lat="33.89138" lon="130.87153">
				 <ele>3.9</ele>
			 </trkpt>
			 <trkpt lat="33.89138" lon="130.87153">
				 <ele>4.4</ele>
			 </trkpt>
			 <trkpt lat="33.89058" lon="130.87152">
				 <ele>4.6</ele>
			 </trkpt>
			 <trkpt lat="33.89032" lon="130.87154">
				 <ele>4.8</ele>
			 </trkpt>
			 <trkpt lat="33.8901" lon="130.87158">
				 <ele>5.2</ele>
			 </trkpt>
			 <trkpt lat="33.8898" lon="130.8716">
				 <ele>5.4</ele>
			 </trkpt>
			 <trkpt lat="33.88973" lon="130.87159">
				 <ele>5.5</ele>
			 </trkpt>
			 <trkpt lat="33.88966" lon="130.87202">
				 <ele>5.5</ele>
			 </trkpt>
			 <trkpt lat="33.88959" lon="130.87252">
				 <ele>5.6</ele>
			 </trkpt>
			 <trkpt lat="33.88952" lon="130.87303">
				 <ele>5.3</ele>
			 </trkpt>
			 <trkpt lat="33.88948" lon="130.8733">
				 <ele>5</ele>
			 </trkpt>
			 <trkpt lat="33.88934" lon="130.87416">
				 <ele>4.6</ele>
			 </trkpt>
			 <trkpt lat="33.88914" lon="130.87534">
				 <ele>4.4</ele>
			 </trkpt>
			 <trkpt lat="33.88908" lon="130.87577">
				 <ele>4.2</ele>
			 </trkpt>
			 <trkpt lat="33.88904" lon="130.87642">
				 <ele>4.1</ele>
			 </trkpt>
			 <trkpt lat="33.88905" lon="130.87679">
				 <ele>3.7</ele>
			 </trkpt>
			 <trkpt lat="33.88909" lon="130.87716">
				 <ele>3.5</ele>
			 </trkpt>
			 <trkpt lat="33.88914" lon="130.87741">
				 <ele>3.3</ele>
			 </trkpt>
			 <trkpt lat="33.88924" lon="130.87784">
				 <ele>3.1</ele>
			 </trkpt>
			 <trkpt lat="33.88946" lon="130.87866">
				 <ele>2.9</ele>
			 </trkpt>
			 <trkpt lat="33.88958" lon="130.87914">
				 <ele>2.8</ele>
			 </trkpt>
			 <trkpt lat="33.88966" lon="130.87961">
				 <ele>2.7</ele>
			 </trkpt>
			 <trkpt lat="33.88972" lon="130.88038">
				 <ele>2.6</ele>
			 </trkpt>
			 <trkpt lat="33.88973" lon="130.88097">
				 <ele>2.5</ele>
			 </trkpt>
			 <trkpt lat="33.88969" lon="130.8816">
				 <ele>2.3</ele>
			 </trkpt>
			 <trkpt lat="33.88956" lon="130.88243">
				 <ele>2.1</ele>
			 </trkpt>
			 <trkpt lat="33.88936" lon="130.88333">
				 <ele>2.1</ele>
			 </trkpt>
			 <trkpt lat="33.88926" lon="130.88372">
				 <ele>2.2</ele>
			 </trkpt>
			 <trkpt lat="33.889018" lon="130.884277">
				 <ele>2.2</ele>
			 </trkpt>
			 <trkpt lat="33.888562" lon="130.885945">
				 <ele>2.2</ele>
			 </trkpt>
			 <trkpt lat="33.888415" lon="130.886648">
				 <ele>2.2</ele>
			 </trkpt>
			 <trkpt lat="33.888195" lon="130.887197">
				 <ele>2.2</ele>
			 </trkpt>
			 <trkpt lat="33.887874" lon="130.887653">
				 <ele>2.2</ele>
			 </trkpt>
			 <trkpt lat="33.887139" lon="130.888286">
				 <ele>2.1</ele>
			 </trkpt>
			 <trkpt lat="33.886373" lon="130.88911">
				 <ele>2.1</ele>
			 </trkpt>
			 <trkpt lat="33.886222" lon="130.889453">
				 <ele>2.1</ele>
			 </trkpt>
			 <trkpt lat="33.886111" lon="130.889942">
				 <ele>2.2</ele>
			 </trkpt>
			 <trkpt lat="33.886097" lon="130.890296">
				 <ele>2.1</ele>
			 </trkpt>
			 <trkpt lat="33.886177" lon="130.890897">
				 <ele>2</ele>
			 </trkpt>
			 <trkpt lat="33.886307" lon="130.891605">
				 <ele>2.1</ele>
			 </trkpt>
			 <trkpt lat="33.886721" lon="130.892983">
				 <ele>2.2</ele>
			 </trkpt>
			 <trkpt lat="33.887121" lon="130.894137">
				 <ele>2.2</ele>
			 </trkpt>
			 <trkpt lat="33.887353" lon="130.894555">
				 <ele>2.2</ele>
			 </trkpt>
			 <trkpt lat="33.887629" lon="130.894957">
				 <ele>2.2</ele>
			 </trkpt>
			 <trkpt lat="33.888074" lon="130.895403">
				 <ele>2.4</ele>
			 </trkpt>
			 <trkpt lat="33.888504" lon="130.895739">
				 <ele>2.4</ele>
			 </trkpt>
			 <trkpt lat="33.888717" lon="130.89598">
				 <ele>2.4</ele>
			 </trkpt>
			 <trkpt lat="33.888895" lon="130.896232">
				 <ele>2.3</ele>
			 </trkpt>
			 <trkpt lat="33.889167" lon="130.896898">
				 <ele>2.3</ele>
			 </trkpt>
			 <trkpt lat="33.89004" lon="130.898952">
				 <ele>2.3</ele>
			 </trkpt>
			 <trkpt lat="33.890289" lon="130.899671">
				 <ele>2.2</ele>
			 </trkpt>
			 <trkpt lat="33.890352" lon="130.9001">
				 <ele>2.2</ele>
			 </trkpt>
			 <trkpt lat="33.890432" lon="130.900529">
				 <ele>2.3</ele>
			 </trkpt>
			 <trkpt lat="33.89049" lon="130.900862">
				 <ele>2.4</ele>
			 </trkpt>
			 <trkpt lat="33.890646" lon="130.901221">
				 <ele>2.5</ele>
			 </trkpt>
			 <trkpt lat="33.891791" lon="130.903579">
				 <ele>2.4</ele>
			 </trkpt>
			 <trkpt lat="33.892091" lon="130.904287">
				 <ele>2.5</ele>
			 </trkpt>
			 <trkpt lat="33.892189" lon="130.904631">
				 <ele>2.5</ele>
			 </trkpt>
			 <trkpt lat="33.892305" lon="130.905226">
				 <ele>2.5</ele>
			 </trkpt>
			 <trkpt lat="33.892764" lon="130.908295">
				 <ele>2.6</ele>
			 </trkpt>
			 <trkpt lat="33.892942" lon="130.909882">
				 <ele>2.6</ele>
			 </trkpt>
			 <trkpt lat="33.893089" lon="130.91176">
				 <ele>2.7</ele>
			 </trkpt>
			 <trkpt lat="33.893191" lon="130.912994">
				 <ele>2.8</ele>
			 </trkpt>
			 <trkpt lat="33.893298" lon="130.913734">
				 <ele>2.8</ele>
			 </trkpt>
			 <trkpt lat="33.893463" lon="130.914453">
				 <ele>2.8</ele>
			 </trkpt>
			 <trkpt lat="33.89375" lon="130.915541">
				 <ele>2.9</ele>
			 </trkpt>
			 <trkpt lat="33.894084" lon="130.91633">
				 <ele>3</ele>
			 </trkpt>
			 <trkpt lat="33.894874" lon="130.917807">
				 <ele>3</ele>
			 </trkpt>
			 <trkpt lat="33.896133" lon="130.919595">
				 <ele>3</ele>
			 </trkpt>
			 <trkpt lat="33.897367" lon="130.921338">
				 <ele>3.1</ele>
			 </trkpt>
			 <trkpt lat="33.898105" lon="130.922283">
				 <ele>3</ele>
			 </trkpt>
			 <trkpt lat="33.900015" lon="130.924109">
				 <ele>3.2</ele>
			 </trkpt>
			 <trkpt lat="33.900638" lon="130.924775">
				 <ele>3.1</ele>
			 </trkpt>
			 <trkpt lat="33.901508" lon="130.925827">
				 <ele>3</ele>
			 </trkpt>
			 <trkpt lat="33.902852" lon="130.927275">
				 <ele>3</ele>
			 </trkpt>
			 <trkpt lat="33.904622" lon="130.929084">
				 <ele>3</ele>
			 </trkpt>
			 <trkpt lat="33.906839" lon="130.931234">
				 <ele>2.9</ele>
			 </trkpt>
			 <trkpt lat="33.907835" lon="130.93208">
				 <ele>2.9</ele>
			 </trkpt>
			 <trkpt lat="33.908147" lon="130.932327">
				 <ele>2.8</ele>
			 </trkpt>
			 <trkpt lat="33.908414" lon="130.932627">
				 <ele>2.8</ele>
			 </trkpt>
			 <trkpt lat="33.908672" lon="130.932949">
				 <ele>2.8</ele>
			 </trkpt>
			 <trkpt lat="33.909029" lon="130.933291">
				 <ele>2.9</ele>
			 </trkpt>
			 <trkpt lat="33.909641" lon="130.933685">
				 <ele>2.7</ele>
			 </trkpt>
			 <trkpt lat="33.910281" lon="130.933851">
				 <ele>2.8</ele>
			 </trkpt>
			 <trkpt lat="33.910811" lon="130.933996">
				 <ele>2.8</ele>
			 </trkpt>
			 <trkpt lat="33.912008" lon="130.934543">
				 <ele>2.9</ele>
			 </trkpt>
			 <trkpt lat="33.912191" lon="130.93472">
				 <ele>3.1</ele>
			 </trkpt>
			 <trkpt lat="33.912333" lon="130.934962">
				 <ele>3.4</ele>
			 </trkpt>
			 <trkpt lat="33.912458" lon="130.935251">
				 <ele>3.5</ele>
			 </trkpt>
			 <trkpt lat="33.912583" lon="130.935568">
				 <ele>3.5</ele>
			 </trkpt>
			 <trkpt lat="33.912716" lon="130.935788">
				 <ele>3.5</ele>
			 </trkpt>
			 <trkpt lat="33.91346" lon="130.936399">
				 <ele>3.6</ele>
			 </trkpt>
			 <trkpt lat="33.915448" lon="130.937958">
				 <ele>3.7</ele>
			 </trkpt>
			 <trkpt lat="33.916079" lon="130.938331">
				 <ele>3.9</ele>
			 </trkpt>
			 <trkpt lat="33.916892" lon="130.938724">
				 <ele>3.8</ele>
			 </trkpt>
			 <trkpt lat="33.917662" lon="130.939025">
				 <ele>3.8</ele>
			 </trkpt>
			 <trkpt lat="33.91853" lon="130.939337">
				 <ele>3.7</ele>
			 </trkpt>
			 <trkpt lat="33.918869" lon="130.939509">
				 <ele>3.5</ele>
			 </trkpt>
			 <trkpt lat="33.919323" lon="130.939681">
				 <ele>3.2</ele>
			 </trkpt>
			 <trkpt lat="33.919928" lon="130.939772">
				 <ele>2.9</ele>
			 </trkpt>
			 <trkpt lat="33.920449" lon="130.939783">
				 <ele>2.7</ele>
			 </trkpt>
			 <trkpt lat="33.921185" lon="130.939665">
				 <ele>2.6</ele>
			 </trkpt>
			 <trkpt lat="33.921581" lon="130.939596">
				 <ele>2.5</ele>
			 </trkpt>
			 <trkpt lat="33.922007" lon="130.939585">
				 <ele>2.5</ele>
			 </trkpt>
			 <trkpt lat="33.922372" lon="130.939687">
				 <ele>2.4</ele>
			 </trkpt>
			 <trkpt lat="33.922821" lon="130.939929">
				 <ele>2.4</ele>
			 </trkpt>
			 <trkpt lat="33.923137" lon="130.940218">
				 <ele>2.4</ele>
			 </trkpt>
			 <trkpt lat="33.92348" lon="130.940644">
				 <ele>2.4</ele>
			 </trkpt>
			 <trkpt lat="33.923743" lon="130.940976">
				 <ele>2.3</ele>
			 </trkpt>
			 <trkpt lat="33.924063" lon="130.941271">
				 <ele>2.3</ele>
			 </trkpt>
			 <trkpt lat="33.92447" lon="130.941436">
				 <ele>2.4</ele>
			 </trkpt>
			 <trkpt lat="33.925569" lon="130.941876">
				 <ele>2.5</ele>
			 </trkpt>
			 <trkpt lat="33.92599" lon="130.941996">
				 <ele>2.5</ele>
			 </trkpt>
			 <trkpt lat="33.927975" lon="130.942008">
				 <ele>2.4</ele>
			 </trkpt>
			 <trkpt lat="33.928331" lon="130.94205">
				 <ele>2.5</ele>
			 </trkpt>
			 <trkpt lat="33.928915" lon="130.942229">
				 <ele>2.5</ele>
			 </trkpt>
			 <trkpt lat="33.930362" lon="130.942749">
				 <ele>2.7</ele>
			 </trkpt>
			 <trkpt lat="33.931131" lon="130.943021">
				 <ele>2.8</ele>
			 </trkpt>
			 <trkpt lat="33.931442" lon="130.943235">
				 <ele>2.9</ele>
			 </trkpt>
			 <trkpt lat="33.932149" lon="130.943778">
				 <ele>3.1</ele>
			 </trkpt>
			 <trkpt lat="33.932839" lon="130.94425">
				 <ele>3.2</ele>
			 </trkpt>
			 <trkpt lat="33.935218" lon="130.945634">
				 <ele>3.3</ele>
			 </trkpt>
			 <trkpt lat="33.935456" lon="130.945814">
				 <ele>3.3</ele>
			 </trkpt>
			 <trkpt lat="33.936349" lon="130.946427">
				 <ele>3.5</ele>
			 </trkpt>
			 <trkpt lat="33.937658" lon="130.947189">
				 <ele>3.6</ele>
			 </trkpt>
			 <trkpt lat="33.937853" lon="130.947426">
				 <ele>3.5</ele>
			 </trkpt>
			 <trkpt lat="33.938027" lon="130.947608">
				 <ele>3.3</ele>
			 </trkpt>
			 <trkpt lat="33.938238" lon="130.947981">
				 <ele>3.2</ele>
			 </trkpt>
			 <trkpt lat="33.939133" lon="130.950106">
				 <ele>3</ele>
			 </trkpt>
			 <trkpt lat="33.940619" lon="130.95348">
				 <ele>3</ele>
			 </trkpt>
			 <trkpt lat="33.941456" lon="130.955019">
				 <ele>2.7</ele>
			 </trkpt>
			 <trkpt lat="33.941602" lon="130.955002">
				 <ele>2.6</ele>
			 </trkpt>
			 <trkpt lat="33.942082" lon="130.954809">
				 <ele>2.5</ele>
			 </trkpt>
			 <trkpt lat="33.942425" lon="130.955308">
				 <ele>2.5</ele>
			 </trkpt>
			 <trkpt lat="33.943453" lon="130.95689">
				 <ele>2.5</ele>
			 </trkpt>
			 <trkpt lat="33.944178" lon="130.958011">
				 <ele>2.3</ele>
			 </trkpt>
			 <trkpt lat="33.944414" lon="130.958429">
				 <ele>2.3</ele>
			 </trkpt>
			 <trkpt lat="33.944681" lon="130.958922">
				 <ele>2.2</ele>
			 </trkpt>
			 <trkpt lat="33.945037" lon="130.959636">
				 <ele>2.1</ele>
			 </trkpt>
			 <trkpt lat="33.945259" lon="130.960086">
				 <ele>2.1</ele>
			 </trkpt>
			 <trkpt lat="33.945539" lon="130.960558">
				 <ele>1.9</ele>
			 </trkpt>
			 <trkpt lat="33.945664" lon="130.960719">
				 <ele>2</ele>
			 </trkpt>
			 <trkpt lat="33.945709" lon="130.960961">
				 <ele>2</ele>
			 </trkpt>
			 <trkpt lat="33.945806" lon="130.961132">
				 <ele>2</ele>
			 </trkpt>
			 <trkpt lat="33.945953" lon="130.960982">
				 <ele>2</ele>
			 </trkpt>
			 <trkpt lat="33.945842" lon="130.960859">
				 <ele>1.9</ele>
			 </trkpt>
			 <trkpt lat="33.945513" lon="130.96043">
				 <ele>2.1</ele>
			 </trkpt>
			 <trkpt lat="33.945246" lon="130.959957">
				 <ele>2.2</ele>
			 </trkpt>
			 <trkpt lat="33.944952" lon="130.959442">
				 <ele>2.4</ele>
			 </trkpt>
			 <trkpt lat="33.9446" lon="130.958659">
				 <ele>2.3</ele>
			 </trkpt>
			 <trkpt lat="33.944405" lon="130.958289">
				 <ele>2.4</ele>
			 </trkpt>
			 <trkpt lat="33.94359" lon="130.956996">
				 <ele>2.5</ele>
			 </trkpt>
			 <trkpt lat="33.942283" lon="130.954976">
				 <ele>2.4</ele>
			 </trkpt>
			 <trkpt lat="33.942141" lon="130.95475">
				 <ele>2.5</ele>
			 </trkpt>
			 <trkpt lat="33.942622" lon="130.954289">
				 <ele>2.5</ele>
			 </trkpt>
			 <trkpt lat="33.943707" lon="130.956022">
				 <ele>2.5</ele>
			 </trkpt>
			 <trkpt lat="33.943761" lon="130.955957">
				 <ele>2.7</ele>
			 </trkpt>
			 <trkpt lat="33.942657" lon="130.954176">
				 <ele>2.7</ele>
			 </trkpt>
			 <trkpt lat="33.942065" lon="130.954745">
				 <ele>2.6</ele>
			 </trkpt>
			 <trkpt lat="33.9415" lon="130.95497">
				 <ele>2.5</ele>
			 </trkpt>
			 <trkpt lat="33.941082" lon="130.95423">
				 <ele>2.7</ele>
			 </trkpt>
			 <trkpt lat="33.940499" lon="130.953141">
				 <ele>2.7</ele>
			 </trkpt>
			 <trkpt lat="33.939075" lon="130.949818">
				 <ele>2.8</ele>
			 </trkpt>
			 <trkpt lat="33.938377" lon="130.948171">
				 <ele>3.1</ele>
			 </trkpt>
			 <trkpt lat="33.938223" lon="130.947843">
				 <ele>3.2</ele>
			 </trkpt>
			 <trkpt lat="33.938031" lon="130.947542">
				 <ele>3.4</ele>
			 </trkpt>
			 <trkpt lat="33.937846" lon="130.947322">
				 <ele>3.4</ele>
			 </trkpt>
			 <trkpt lat="33.937592" lon="130.947113">
				 <ele>3.2</ele>
			 </trkpt>
			 <trkpt lat="33.936184" lon="130.94625">
				 <ele>3</ele>
			 </trkpt>
			 <trkpt lat="33.935149" lon="130.945555">
				 <ele>3</ele>
			 </trkpt>
			 <trkpt lat="33.933034" lon="130.944305">
				 <ele>3</ele>
			 </trkpt>
			 <trkpt lat="33.932046" lon="130.943641">
				 <ele>2.9</ele>
			 </trkpt>
			 <trkpt lat="33.931423" lon="130.943142">
				 <ele>2.8</ele>
			 </trkpt>
			 <trkpt lat="33.931077" lon="130.942949">
				 <ele>2.7</ele>
			 </trkpt>
			 <trkpt lat="33.92954" lon="130.942396">
				 <ele>2.6</ele>
			 </trkpt>
			 <trkpt lat="33.928819" lon="130.94215">
				 <ele>2.5</ele>
			 </trkpt>
			 <trkpt lat="33.928319" lon="130.942016">
				 <ele>2.4</ele>
			 </trkpt>
			 <trkpt lat="33.927929" lon="130.941963">
				 <ele>2.4</ele>
			 </trkpt>
			 <trkpt lat="33.926683" lon="130.941957">
				 <ele>2.5</ele>
			 </trkpt>
			 <trkpt lat="33.925962" lon="130.941927">
				 <ele>2.5</ele>
			 </trkpt>
			 <trkpt lat="33.925473" lon="130.941777">
				 <ele>2.5</ele>
			 </trkpt>
			 <trkpt lat="33.924264" lon="130.941321">
				 <ele>2.4</ele>
			 </trkpt>
			 <trkpt lat="33.924006" lon="130.941148">
				 <ele>2.3</ele>
			 </trkpt>
			 <trkpt lat="33.923699" lon="130.940864">
				 <ele>2.3</ele>
			 </trkpt>
			 <trkpt lat="33.923316" lon="130.940349">
				 <ele>2.3</ele>
			 </trkpt>
			 <trkpt lat="33.923073" lon="130.940091">
				 <ele>2.3</ele>
			 </trkpt>
			 <trkpt lat="33.922804" lon="130.939871">
				 <ele>2.4</ele>
			 </trkpt>
			 <trkpt lat="33.922288" lon="130.939646">
				 <ele>2.4</ele>
			 </trkpt>
			 <trkpt lat="33.921923" lon="130.93955">
				 <ele>2.4</ele>
			 </trkpt>
			 <trkpt lat="33.921545" lon="130.93956">
				 <ele>2.5</ele>
			 </trkpt>
			 <trkpt lat="33.920721" lon="130.939684">
				 <ele>2.5</ele>
			 </trkpt>
			 <trkpt lat="33.92028" lon="130.939748">
				 <ele>2.5</ele>
			 </trkpt>
			 <trkpt lat="33.919844" lon="130.939711">
				 <ele>2.9</ele>
			 </trkpt>
			 <trkpt lat="33.91931" lon="130.939614">
				 <ele>3.2</ele>
			 </trkpt>
			 <trkpt lat="33.918803" lon="130.939464">
				 <ele>3.5</ele>
			 </trkpt>
			 <trkpt lat="33.918326" lon="130.939233">
				 <ele>3.5</ele>
			 </trkpt>
			 <trkpt lat="33.91712" lon="130.938766">
				 <ele>3.5</ele>
			 </trkpt>
			 <trkpt lat="33.916494" lon="130.938493">
				 <ele>3.5</ele>
			 </trkpt>
			 <trkpt lat="33.915255" lon="130.937769">
				 <ele>3.4</ele>
			 </trkpt>
			 <trkpt lat="33.913331" lon="130.936234">
				 <ele>3.4</ele>
			 </trkpt>
			 <trkpt lat="33.912851" lon="130.935845">
				 <ele>3.3</ele>
			 </trkpt>
			 <trkpt lat="33.912677" lon="130.935644">
				 <ele>3.3</ele>
			 </trkpt>
			 <trkpt lat="33.912561" lon="130.935398">
				 <ele>3.3</ele>
			 </trkpt>
			 <trkpt lat="33.912343" lon="130.934861">
				 <ele>3.1</ele>
			 </trkpt>
			 <trkpt lat="33.912161" lon="130.934622">
				 <ele>3</ele>
			 </trkpt>
			 <trkpt lat="33.911959" lon="130.934496">
				 <ele>2.8</ele>
			 </trkpt>
			 <trkpt lat="33.911021" lon="130.934035">
				 <ele>2.8</ele>
			 </trkpt>
			 <trkpt lat="33.910571" lon="130.933885">
				 <ele>2.8</ele>
			 </trkpt>
			 <trkpt lat="33.909955" lon="130.933727">
				 <ele>2.8</ele>
			 </trkpt>
			 <trkpt lat="33.909617" lon="130.933625">
				 <ele>3</ele>
			 </trkpt>
			 <trkpt lat="33.908949" lon="130.933158">
				 <ele>2.9</ele>
			 </trkpt>
			 <trkpt lat="33.908647" lon="130.932853">
				 <ele>2.9</ele>
			 </trkpt>
			 <trkpt lat="33.908132" lon="130.932251">
				 <ele>3</ele>
			 </trkpt>
			 <trkpt lat="33.907477" lon="130.931645">
				 <ele>3</ele>
			 </trkpt>
			 <trkpt lat="33.906393" lon="130.930652">
				 <ele>3.2</ele>
			 </trkpt>
			 <trkpt lat="33.904336" lon="130.928624">
				 <ele>3.2</ele>
			 </trkpt>
			 <trkpt lat="33.90117" lon="130.92531">
				 <ele>3.3</ele>
			 </trkpt>
			 <trkpt lat="33.899981" lon="130.923954">
				 <ele>3.3</ele>
			 </trkpt>
			 <trkpt lat="33.898718" lon="130.922766">
				 <ele>3.3</ele>
			 </trkpt>
			 <trkpt lat="33.898061" lon="130.922056">
				 <ele>3.3</ele>
			 </trkpt>
			 <trkpt lat="33.895879" lon="130.919041">
				 <ele>3.2</ele>
			 </trkpt>
			 <trkpt lat="33.894781" lon="130.917461">
				 <ele>3.3</ele>
			 </trkpt>
			 <trkpt lat="33.894024" lon="130.916013">
				 <ele>3.3</ele>
			 </trkpt>
			 <trkpt lat="33.893606" lon="130.914683">
				 <ele>3.2</ele>
			 </trkpt>
			 <trkpt lat="33.893356" lon="130.913545">
				 <ele>3.2</ele>
			 </trkpt>
			 <trkpt lat="33.893223" lon="130.91244">
				 <ele>3.1</ele>
			 </trkpt>
			 <trkpt lat="33.893134" lon="130.911335">
				 <ele>3.1</ele>
			 </trkpt>
			 <trkpt lat="33.892919" lon="130.909012">
				 <ele>2.9</ele>
			 </trkpt>
			 <trkpt lat="33.89275" lon="130.907822">
				 <ele>2.8</ele>
			 </trkpt>
			 <trkpt lat="33.892406" lon="130.905504">
				 <ele>2.7</ele>
			 </trkpt>
			 <trkpt lat="33.892322" lon="130.904893">
				 <ele>2.5</ele>
			 </trkpt>
			 <trkpt lat="33.892206" lon="130.904463">
				 <ele>2.5</ele>
			 </trkpt>
			 <trkpt lat="33.891948" lon="130.903793">
				 <ele>2.4</ele>
			 </trkpt>
			 <trkpt lat="33.890782" lon="130.901347">
				 <ele>2.3</ele>
			 </trkpt>
			 <trkpt lat="33.890626" lon="130.901019">
				 <ele>2.3</ele>
			 </trkpt>
			 <trkpt lat="33.890546" lon="130.90066">
				 <ele>2.2</ele>
			 </trkpt>
			 <trkpt lat="33.890461" lon="130.900274">
				 <ele>2.1</ele>
			 </trkpt>
			 <trkpt lat="33.89039" lon="130.89993">
				 <ele>2</ele>
			 </trkpt>
			 <trkpt lat="33.890305" lon="130.899496">
				 <ele>2</ele>
			 </trkpt>
			 <trkpt lat="33.889579" lon="130.897645">
				 <ele>2</ele>
			 </trkpt>
			 <trkpt lat="33.889103" lon="130.896422">
				 <ele>2</ele>
			 </trkpt>
			 <trkpt lat="33.888746" lon="130.895929">
				 <ele>2.1</ele>
			 </trkpt>
			 <trkpt lat="33.888034" lon="130.895221">
				 <ele>2.1</ele>
			 </trkpt>
			 <trkpt lat="33.887633" lon="130.894802">
				 <ele>2.1</ele>
			 </trkpt>
			 <trkpt lat="33.887357" lon="130.894351">
				 <ele>2.1</ele>
			 </trkpt>
			 <trkpt lat="33.887004" lon="130.893568">
				 <ele>2</ele>
			 </trkpt>
			 <trkpt lat="33.886484" lon="130.891862">
				 <ele>2</ele>
			 </trkpt>
			 <trkpt lat="33.886288" lon="130.891186">
				 <ele>2</ele>
			 </trkpt>
			 <trkpt lat="33.886195" lon="130.890334">
				 <ele>2</ele>
			 </trkpt>
			 <trkpt lat="33.886208" lon="130.890049">
				 <ele>2</ele>
			 </trkpt>
			 <trkpt lat="33.886297" lon="130.889566">
				 <ele>2</ele>
			 </trkpt>
			 <trkpt lat="33.88644" lon="130.889239">
				 <ele>2</ele>
			 </trkpt>
			 <trkpt lat="33.886609" lon="130.888933">
				 <ele>2</ele>
			 </trkpt>
			 <trkpt lat="33.887221" lon="130.888385">
				 <ele>2.1</ele>
			 </trkpt>
			 <trkpt lat="33.887822" lon="130.887849">
				 <ele>2.2</ele>
			 </trkpt>
			 <trkpt lat="33.88821" lon="130.887435">
				 <ele>2.2</ele>
			 </trkpt>
			 <trkpt lat="33.888437" lon="130.887006">
				 <ele>2.2</ele>
			 </trkpt>
			 <trkpt lat="33.888607" lon="130.886515">
				 <ele>2.3</ele>
			 </trkpt>
			 <trkpt lat="33.889239" lon="130.886955">
				 <ele>2.3</ele>
			 </trkpt>
			 <trkpt lat="33.8897" lon="130.887276">
				 <ele>2.3</ele>
			 </trkpt>
		 </trkseg>
	 </trk>
</gpx>