<?xml version="1.0" encoding="UTF-8"?>
 <gpx creator="Garmin Connect" version="1.1"
	 xsi:schemaLocation="http://www.topografix.com/GPX/1/1 http://www.topografix.com/GPX/11.xsd"
	 xmlns:ns3="http://www.garmin.com/xmlschemas/TrackPointExtension/v1"
	 xmlns="http://www.topografix.com/GPX/1/1"
	 xmlns:xsi="http://www.w3.org/2001/XMLSchema-instance" xmlns:ns2="http://www.garmin.com/xmlschemas/GpxExtensions/v3">
	 <metadata>
		<name>Kyoto Marathon 2025 - 42.195 km</name>
		 <link href="https://www.goandrace.com">
		 <text>Garmin Connect</text>
		 </link>
	 <time>2026-08-10T03:10:36</time>
	 </metadata>
	 <trk>
		 <name>Kyoto Marathon 2025 - 42.195 km</name>
		 <trkseg>
			 <trkpt lat="34.99352" lon="135.71349">
				 <ele>25.5</ele>
			 </trkpt>
			 <trkpt lat="34.99369" lon="135.71359">
				 <ele>25.6</ele>
			 </trkpt>
			 <trkpt lat="34.99408" lon="135.71374">
				 <ele>25.8</ele>
			 </trkpt>
			 <trkpt lat="34.9944" lon="135.71375">
				 <ele>25.8</ele>
			 </trkpt>
			 <trkpt lat="34.99454" lon="135.71381">
				 <ele>25.8</ele>
			 </trkpt>
			 <trkpt lat="34.99469" lon="135.71395">
				 <ele>25.7</ele>
			 </trkpt>
			 <trkpt lat="34.99476" lon="135.71416">
				 <ele>26.1</ele>
			 </trkpt>
			 <trkpt lat="34.99505" lon="135.71421">
				 <ele>26.1</ele>
			 </trkpt>
			 <trkpt lat="34.99543" lon="135.71421">
				 <ele>26.1</ele>
			 </trkpt>
			 <trkpt lat="34.99582" lon="135.7143">
				 <ele>26.1</ele>
			 </trkpt>
			 <trkpt lat="34.99597" lon="135.71456">
				 <ele>25.8</ele>
			 </trkpt>
			 <trkpt lat="34.996115" lon="135.716105">
				 <ele>25.5</ele>
			 </trkpt>
			 <trkpt lat="34.996154" lon="135.719588">
				 <ele>25.1</ele>
			 </trkpt>
			 <trkpt lat="34.996604" lon="135.719592">
				 <ele>24.8</ele>
			 </trkpt>
			 <trkpt lat="34.997053" lon="135.719597">
				 <ele>24.6</ele>
			 </trkpt>
			 <trkpt lat="34.997503" lon="135.719601">
				 <ele>24.5</ele>
			 </trkpt>
			 <trkpt lat="34.997952" lon="135.719605">
				 <ele>24.6</ele>
			 </trkpt>
			 <trkpt lat="34.998402" lon="135.719609">
				 <ele>24.5</ele>
			 </trkpt>
			 <trkpt lat="34.998852" lon="135.719614">
				 <ele>24.7</ele>
			 </trkpt>
			 <trkpt lat="34.999301" lon="135.719618">
				 <ele>25</ele>
			 </trkpt>
			 <trkpt lat="34.999751" lon="135.719622">
				 <ele>25.2</ele>
			 </trkpt>
			 <trkpt lat="35.000201" lon="135.719626">
				 <ele>25.5</ele>
			 </trkpt>
			 <trkpt lat="35.00065" lon="135.719631">
				 <ele>26.3</ele>
			 </trkpt>
			 <trkpt lat="35.0011" lon="135.719635">
				 <ele>27</ele>
			 </trkpt>
			 <trkpt lat="35.00155" lon="135.719639">
				 <ele>27.5</ele>
			 </trkpt>
			 <trkpt lat="35.001999" lon="135.719643">
				 <ele>28.1</ele>
			 </trkpt>
			 <trkpt lat="35.002449" lon="135.719648">
				 <ele>28.7</ele>
			 </trkpt>
			 <trkpt lat="35.002899" lon="135.719652">
				 <ele>29.1</ele>
			 </trkpt>
			 <trkpt lat="35.003348" lon="135.719656">
				 <ele>29.2</ele>
			 </trkpt>
			 <trkpt lat="35.003598" lon="135.719659">
				 <ele>29.2</ele>
			 </trkpt>
			 <trkpt lat="35.003609" lon="135.71911">
				 <ele>29.3</ele>
			 </trkpt>
			 <trkpt lat="35.003619" lon="135.718561">
				 <ele>29.5</ele>
			 </trkpt>
			 <trkpt lat="35.003629" lon="135.718012">
				 <ele>29.5</ele>
			 </trkpt>
			 <trkpt lat="35.00364" lon="135.717463">
				 <ele>29.3</ele>
			 </trkpt>
			 <trkpt lat="35.00365" lon="135.716914">
				 <ele>29.4</ele>
			 </trkpt>
			 <trkpt lat="35.00366" lon="135.716366">
				 <ele>29.9</ele>
			 </trkpt>
			 <trkpt lat="35.003671" lon="135.715817">
				 <ele>30.2</ele>
			 </trkpt>
			 <trkpt lat="35.003681" lon="135.715268">
				 <ele>30.1</ele>
			 </trkpt>
			 <trkpt lat="35.003691" lon="135.714719">
				 <ele>30</ele>
			 </trkpt>
			 <trkpt lat="35.003702" lon="135.71417">
				 <ele>30</ele>
			 </trkpt>
			 <trkpt lat="35.003712" lon="135.713622">
				 <ele>30.1</ele>
			 </trkpt>
			 <trkpt lat="35.003722" lon="135.713073">
				 <ele>30.1</ele>
			 </trkpt>
			 <trkpt lat="35.003733" lon="135.712524">
				 <ele>30</ele>
			 </trkpt>
			 <trkpt lat="35.003743" lon="135.711975">
				 <ele>30</ele>
			 </trkpt>
			 <trkpt lat="35.003753" lon="135.711426">
				 <ele>30.1</ele>
			 </trkpt>
			 <trkpt lat="35.003764" lon="135.710877">
				 <ele>30.2</ele>
			 </trkpt>
			 <trkpt lat="35.003774" lon="135.710329">
				 <ele>29.5</ele>
			 </trkpt>
			 <trkpt lat="35.003784" lon="135.70978">
				 <ele>28.9</ele>
			 </trkpt>
			 <trkpt lat="35.003795" lon="135.709231">
				 <ele>28.7</ele>
			 </trkpt>
			 <trkpt lat="35.003805" lon="135.708682">
				 <ele>28.7</ele>
			 </trkpt>
			 <trkpt lat="35.003815" lon="135.708136">
				 <ele>28.9</ele>
			 </trkpt>
			 <trkpt lat="35.003766" lon="135.70759">
				 <ele>29.3</ele>
			 </trkpt>
			 <trkpt lat="35.003717" lon="135.707044">
				 <ele>29.3</ele>
			 </trkpt>
			 <trkpt lat="35.003668" lon="135.706498">
				 <ele>29.1</ele>
			 </trkpt>
			 <trkpt lat="35.003619" lon="135.705953">
				 <ele>29</ele>
			 </trkpt>
			 <trkpt lat="35.003574" lon="135.705449">
				 <ele>28.9</ele>
			 </trkpt>
			 <trkpt lat="35.003565" lon="135.704901">
				 <ele>28.5</ele>
			 </trkpt>
			 <trkpt lat="35.003556" lon="135.704352">
				 <ele>28.4</ele>
			 </trkpt>
			 <trkpt lat="35.003547" lon="135.703803">
				 <ele>28.4</ele>
			 </trkpt>
			 <trkpt lat="35.003538" lon="135.703254">
				 <ele>28.4</ele>
			 </trkpt>
			 <trkpt lat="35.003529" lon="135.702705">
				 <ele>28.5</ele>
			 </trkpt>
			 <trkpt lat="35.00352" lon="135.702156">
				 <ele>28.3</ele>
			 </trkpt>
			 <trkpt lat="35.003511" lon="135.701608">
				 <ele>28</ele>
			 </trkpt>
			 <trkpt lat="35.00351" lon="135.701518">
				 <ele>28</ele>
			 </trkpt>
			 <trkpt lat="35.003456" lon="135.700973">
				 <ele>28.3</ele>
			 </trkpt>
			 <trkpt lat="35.003403" lon="135.700428">
				 <ele>28.6</ele>
			 </trkpt>
			 <trkpt lat="35.00335" lon="135.699883">
				 <ele>28.7</ele>
			 </trkpt>
			 <trkpt lat="35.003296" lon="135.699338">
				 <ele>28.8</ele>
			 </trkpt>
			 <trkpt lat="35.003243" lon="135.698793">
				 <ele>28.7</ele>
			 </trkpt>
			 <trkpt lat="35.003229" lon="135.698647">
				 <ele>28.8</ele>
			 </trkpt>
			 <trkpt lat="35.003169" lon="135.698103">
				 <ele>28.7</ele>
			 </trkpt>
			 <trkpt lat="35.003132" lon="135.697765">
				 <ele>28.5</ele>
			 </trkpt>
			 <trkpt lat="35.002978" lon="135.69725">
				 <ele>28.5</ele>
			 </trkpt>
			 <trkpt lat="35.002824" lon="135.696734">
				 <ele>28.5</ele>
			 </trkpt>
			 <trkpt lat="35.00267" lon="135.696218">
				 <ele>28.5</ele>
			 </trkpt>
			 <trkpt lat="35.00257" lon="135.695884">
				 <ele>28.4</ele>
			 </trkpt>
			 <trkpt lat="35.002462" lon="135.695351">
				 <ele>28.2</ele>
			 </trkpt>
			 <trkpt lat="35.002354" lon="135.694818">
				 <ele>28.2</ele>
			 </trkpt>
			 <trkpt lat="35.002326" lon="135.694243">
				 <ele>28.5</ele>
			 </trkpt>
			 <trkpt lat="35.002304" lon="135.693695">
				 <ele>29</ele>
			 </trkpt>
			 <trkpt lat="35.002282" lon="135.693147">
				 <ele>29.1</ele>
			 </trkpt>
			 <trkpt lat="35.00226" lon="135.692598">
				 <ele>29.3</ele>
			 </trkpt>
			 <trkpt lat="35.002237" lon="135.69205">
				 <ele>29.5</ele>
			 </trkpt>
			 <trkpt lat="35.002216" lon="135.691522">
				 <ele>29.6</ele>
			 </trkpt>
			 <trkpt lat="35.002057" lon="135.691008">
				 <ele>29.7</ele>
			 </trkpt>
			 <trkpt lat="35.001902" lon="135.690505">
				 <ele>29.9</ele>
			 </trkpt>
			 <trkpt lat="35.002347" lon="135.690422">
				 <ele>30.1</ele>
			 </trkpt>
			 <trkpt lat="35.002791" lon="135.69034">
				 <ele>30.2</ele>
			 </trkpt>
			 <trkpt lat="35.003236" lon="135.690257">
				 <ele>30.2</ele>
			 </trkpt>
			 <trkpt lat="35.003326" lon="135.69024">
				 <ele>30</ele>
			 </trkpt>
			 <trkpt lat="35.003773" lon="135.6903">
				 <ele>29.7</ele>
			 </trkpt>
			 <trkpt lat="35.003985" lon="135.690328">
				 <ele>29.5</ele>
			 </trkpt>
			 <trkpt lat="35.004411" lon="135.690502">
				 <ele>28.9</ele>
			 </trkpt>
			 <trkpt lat="35.004491" lon="135.690535">
				 <ele>27.9</ele>
			 </trkpt>
			 <trkpt lat="35.004939" lon="135.690588">
				 <ele>27.5</ele>
			 </trkpt>
			 <trkpt lat="35.005386" lon="135.690642">
				 <ele>27.3</ele>
			 </trkpt>
			 <trkpt lat="35.005834" lon="135.690696">
				 <ele>27.4</ele>
			 </trkpt>
			 <trkpt lat="35.006205" lon="135.690741">
				 <ele>27.6</ele>
			 </trkpt>
			 <trkpt lat="35.006649" lon="135.69066">
				 <ele>27.5</ele>
			 </trkpt>
			 <trkpt lat="35.007094" lon="135.690578">
				 <ele>27.2</ele>
			 </trkpt>
			 <trkpt lat="35.007333" lon="135.690535">
				 <ele>27.1</ele>
			 </trkpt>
			 <trkpt lat="35.007765" lon="135.690381">
				 <ele>27</ele>
			 </trkpt>
			 <trkpt lat="35.008196" lon="135.690228">
				 <ele>27.4</ele>
			 </trkpt>
			 <trkpt lat="35.008628" lon="135.690074">
				 <ele>28.1</ele>
			 </trkpt>
			 <trkpt lat="35.00906" lon="135.689921">
				 <ele>29.4</ele>
			 </trkpt>
			 <trkpt lat="35.009492" lon="135.689767">
				 <ele>30.4</ele>
			 </trkpt>
			 <trkpt lat="35.00968" lon="135.6897">
				 <ele>31</ele>
			 </trkpt>
			 <trkpt lat="35.0108" lon="135.68892">
				 <ele>31</ele>
			 </trkpt>
			 <trkpt lat="35.01111" lon="135.68865">
				 <ele>31</ele>
			 </trkpt>
			 <trkpt lat="35.01123" lon="135.68849">
				 <ele>31.5</ele>
			 </trkpt>
			 <trkpt lat="35.0115" lon="135.68796">
				 <ele>32.1</ele>
			 </trkpt>
			 <trkpt lat="35.01198" lon="135.6869">
				 <ele>32.7</ele>
			 </trkpt>
			 <trkpt lat="35.01235" lon="135.68619">
				 <ele>33.4</ele>
			 </trkpt>
			 <trkpt lat="35.01324" lon="135.68482">
				 <ele>33.8</ele>
			 </trkpt>
			 <trkpt lat="35.01368" lon="135.68375">
				 <ele>33.9</ele>
			 </trkpt>
			 <trkpt lat="35.01379" lon="135.68355">
				 <ele>33.9</ele>
			 </trkpt>
			 <trkpt lat="35.01393" lon="135.68311">
				 <ele>33.7</ele>
			 </trkpt>
			 <trkpt lat="35.01397" lon="135.68291">
				 <ele>33.8</ele>
			 </trkpt>
			 <trkpt lat="35.01401" lon="135.68252">
				 <ele>34.2</ele>
			 </trkpt>
			 <trkpt lat="35.01384" lon="135.68137">
				 <ele>34.5</ele>
			 </trkpt>
			 <trkpt lat="35.01379" lon="135.68054">
				 <ele>35</ele>
			 </trkpt>
			 <trkpt lat="35.01385" lon="135.68034">
				 <ele>35.5</ele>
			 </trkpt>
			 <trkpt lat="35.01422" lon="135.68015">
				 <ele>35.9</ele>
			 </trkpt>
			 <trkpt lat="35.01454" lon="135.67993">
				 <ele>36.5</ele>
			 </trkpt>
			 <trkpt lat="35.01591" lon="135.67924">
				 <ele>37.2</ele>
			 </trkpt>
			 <trkpt lat="35.01619" lon="135.67917">
				 <ele>38.2</ele>
			 </trkpt>
			 <trkpt lat="35.01666" lon="135.67915">
				 <ele>39.3</ele>
			 </trkpt>
			 <trkpt lat="35.01687" lon="135.6791">
				 <ele>40.5</ele>
			 </trkpt>
			 <trkpt lat="35.0174" lon="135.67887">
				 <ele>41.5</ele>
			 </trkpt>
			 <trkpt lat="35.0176" lon="135.67881">
				 <ele>42.5</ele>
			 </trkpt>
			 <trkpt lat="35.01864" lon="135.67833">
				 <ele>43.4</ele>
			 </trkpt>
			 <trkpt lat="35.0193" lon="135.67809">
				 <ele>44.5</ele>
			 </trkpt>
			 <trkpt lat="35.02028" lon="135.67763">
				 <ele>45.5</ele>
			 </trkpt>
			 <trkpt lat="35.02046" lon="135.67763">
				 <ele>46.4</ele>
			 </trkpt>
			 <trkpt lat="35.02124" lon="135.67726">
				 <ele>47.1</ele>
			 </trkpt>
			 <trkpt lat="35.02193" lon="135.67688">
				 <ele>47.8</ele>
			 </trkpt>
			 <trkpt lat="35.0224" lon="135.67659">
				 <ele>48.5</ele>
			 </trkpt>
			 <trkpt lat="35.0229" lon="135.6762">
				 <ele>49.1</ele>
			 </trkpt>
			 <trkpt lat="35.02308" lon="135.67609">
				 <ele>49.5</ele>
			 </trkpt>
			 <trkpt lat="35.02326" lon="135.67606">
				 <ele>50</ele>
			 </trkpt>
			 <trkpt lat="35.023322" lon="135.676019">
				 <ele>50.4</ele>
			 </trkpt>
			 <trkpt lat="35.023378" lon="135.676151">
				 <ele>50.5</ele>
			 </trkpt>
			 <trkpt lat="35.023492" lon="135.676526">
				 <ele>50.5</ele>
			 </trkpt>
			 <trkpt lat="35.023817" lon="135.677715">
				 <ele>50.4</ele>
			 </trkpt>
			 <trkpt lat="35.023973" lon="135.678248">
				 <ele>50.3</ele>
			 </trkpt>
			 <trkpt lat="35.024014" lon="135.678485">
				 <ele>50.1</ele>
			 </trkpt>
			 <trkpt lat="35.023934" lon="135.678721">
				 <ele>49.9</ele>
			 </trkpt>
			 <trkpt lat="35.023838" lon="135.678887">
				 <ele>49.6</ele>
			 </trkpt>
			 <trkpt lat="35.023807" lon="135.678971">
				 <ele>49.3</ele>
			 </trkpt>
			 <trkpt lat="35.023794" lon="135.679047">
				 <ele>48.8</ele>
			 </trkpt>
			 <trkpt lat="35.02376" lon="135.679837">
				 <ele>48.1</ele>
			 </trkpt>
			 <trkpt lat="35.023767" lon="135.680237">
				 <ele>47.5</ele>
			 </trkpt>
			 <trkpt lat="35.023787" lon="135.680377">
				 <ele>47</ele>
			 </trkpt>
			 <trkpt lat="35.023892" lon="135.680661">
				 <ele>46.5</ele>
			 </trkpt>
			 <trkpt lat="35.024332" lon="135.681719">
				 <ele>46.1</ele>
			 </trkpt>
			 <trkpt lat="35.024971" lon="135.683302">
				 <ele>45.6</ele>
			 </trkpt>
			 <trkpt lat="35.025133" lon="135.683647">
				 <ele>45</ele>
			 </trkpt>
			 <trkpt lat="35.025194" lon="135.683852">
				 <ele>44.4</ele>
			 </trkpt>
			 <trkpt lat="35.025237" lon="135.684062">
				 <ele>43.8</ele>
			 </trkpt>
			 <trkpt lat="35.025239" lon="135.68464">
				 <ele>43.3</ele>
			 </trkpt>
			 <trkpt lat="35.025278" lon="135.684981">
				 <ele>42.9</ele>
			 </trkpt>
			 <trkpt lat="35.02577" lon="135.686953">
				 <ele>42.9</ele>
			 </trkpt>
			 <trkpt lat="35.02583" lon="135.687242">
				 <ele>42.8</ele>
			 </trkpt>
			 <trkpt lat="35.025831" lon="135.687496">
				 <ele>42.7</ele>
			 </trkpt>
			 <trkpt lat="35.02574" lon="135.688346">
				 <ele>42.5</ele>
			 </trkpt>
			 <trkpt lat="35.025695" lon="135.688565">
				 <ele>42.4</ele>
			 </trkpt>
			 <trkpt lat="35.025596" lon="135.688815">
				 <ele>42.1</ele>
			 </trkpt>
			 <trkpt lat="35.025364" lon="135.689253">
				 <ele>42.2</ele>
			 </trkpt>
			 <trkpt lat="35.025268" lon="135.689529">
				 <ele>42.4</ele>
			 </trkpt>
			 <trkpt lat="35.025201" lon="135.68986">
				 <ele>42.9</ele>
			 </trkpt>
			 <trkpt lat="35.025189" lon="135.690101">
				 <ele>43.5</ele>
			 </trkpt>
			 <trkpt lat="35.025229" lon="135.691351">
				 <ele>43.8</ele>
			 </trkpt>
			 <trkpt lat="35.025254" lon="135.691741">
				 <ele>45.3</ele>
			 </trkpt>
			 <trkpt lat="35.025314" lon="135.692011">
				 <ele>46.9</ele>
			 </trkpt>
			 <trkpt lat="35.025725" lon="135.693135">
				 <ele>48.9</ele>
			 </trkpt>
			 <trkpt lat="35.026036" lon="135.693697">
				 <ele>51.1</ele>
			 </trkpt>
			 <trkpt lat="35.026446" lon="135.694379">
				 <ele>53.4</ele>
			 </trkpt>
			 <trkpt lat="35.027207" lon="135.695508">
				 <ele>55.7</ele>
			 </trkpt>
			 <trkpt lat="35.027262" lon="135.695724">
				 <ele>58.1</ele>
			 </trkpt>
			 <trkpt lat="35.027266" lon="135.696897">
				 <ele>60.4</ele>
			 </trkpt>
			 <trkpt lat="35.027256" lon="135.697007">
				 <ele>62.2</ele>
			 </trkpt>
			 <trkpt lat="35.027153" lon="135.697221">
				 <ele>64</ele>
			 </trkpt>
			 <trkpt lat="35.026317" lon="135.698513">
				 <ele>65.9</ele>
			 </trkpt>
			 <trkpt lat="35.026229" lon="135.698698">
				 <ele>66.8</ele>
			 </trkpt>
			 <trkpt lat="35.026162" lon="135.698903">
				 <ele>67.6</ele>
			 </trkpt>
			 <trkpt lat="35.026125" lon="135.699118">
				 <ele>68.2</ele>
			 </trkpt>
			 <trkpt lat="35.026063" lon="135.699835">
				 <ele>68.7</ele>
			 </trkpt>
			 <trkpt lat="35.026064" lon="135.700151">
				 <ele>69.5</ele>
			 </trkpt>
			 <trkpt lat="35.026087" lon="135.700273">
				 <ele>70.7</ele>
			 </trkpt>
			 <trkpt lat="35.026195" lon="135.700677">
				 <ele>71.9</ele>
			 </trkpt>
			 <trkpt lat="35.026307" lon="135.701006">
				 <ele>73.2</ele>
			 </trkpt>
			 <trkpt lat="35.026394" lon="135.701172">
				 <ele>74.5</ele>
			 </trkpt>
			 <trkpt lat="35.026907" lon="135.701887">
				 <ele>75.8</ele>
			 </trkpt>
			 <trkpt lat="35.027496" lon="135.702631">
				 <ele>77</ele>
			 </trkpt>
			 <trkpt lat="35.027608" lon="135.702814">
				 <ele>78.1</ele>
			 </trkpt>
			 <trkpt lat="35.027656" lon="135.702937">
				 <ele>79</ele>
			 </trkpt>
			 <trkpt lat="35.027712" lon="135.703303">
				 <ele>79.7</ele>
			 </trkpt>
			 <trkpt lat="35.027739" lon="135.703613">
				 <ele>80.1</ele>
			 </trkpt>
			 <trkpt lat="35.027738" lon="135.703816">
				 <ele>79.7</ele>
			 </trkpt>
			 <trkpt lat="35.027725" lon="135.703949">
				 <ele>78.8</ele>
			 </trkpt>
			 <trkpt lat="35.027674" lon="135.704135">
				 <ele>77.5</ele>
			 </trkpt>
			 <trkpt lat="35.027651" lon="135.704282">
				 <ele>76</ele>
			 </trkpt>
			 <trkpt lat="35.02767" lon="135.704478">
				 <ele>74.6</ele>
			 </trkpt>
			 <trkpt lat="35.027816" lon="135.70483">
				 <ele>73.5</ele>
			 </trkpt>
			 <trkpt lat="35.027887" lon="135.705085">
				 <ele>72.7</ele>
			 </trkpt>
			 <trkpt lat="35.028165" lon="135.706498">
				 <ele>72.2</ele>
			 </trkpt>
			 <trkpt lat="35.028239" lon="135.7069">
				 <ele>71.8</ele>
			 </trkpt>
			 <trkpt lat="35.028366" lon="135.707668">
				 <ele>71.4</ele>
			 </trkpt>
			 <trkpt lat="35.028401" lon="135.707791">
				 <ele>71.2</ele>
			 </trkpt>
			 <trkpt lat="35.028642" lon="135.708427">
				 <ele>71.4</ele>
			 </trkpt>
			 <trkpt lat="35.028758" lon="135.708894">
				 <ele>71.7</ele>
			 </trkpt>
			 <trkpt lat="35.028765" lon="135.709063">
				 <ele>72.5</ele>
			 </trkpt>
			 <trkpt lat="35.028722" lon="135.709718">
				 <ele>73.3</ele>
			 </trkpt>
			 <trkpt lat="35.028566" lon="135.71119">
				 <ele>73.9</ele>
			 </trkpt>
			 <trkpt lat="35.028522" lon="135.711477">
				 <ele>74.5</ele>
			 </trkpt>
			 <trkpt lat="35.028482" lon="135.711626">
				 <ele>74.7</ele>
			 </trkpt>
			 <trkpt lat="35.028407" lon="135.711835">
				 <ele>74.8</ele>
			 </trkpt>
			 <trkpt lat="35.028297" lon="135.712054">
				 <ele>74.8</ele>
			 </trkpt>
			 <trkpt lat="35.028138" lon="135.712292">
				 <ele>74.8</ele>
			 </trkpt>
			 <trkpt lat="35.02809" lon="135.712382">
				 <ele>74.7</ele>
			 </trkpt>
			 <trkpt lat="35.028037" lon="135.712559">
				 <ele>74.6</ele>
			 </trkpt>
			 <trkpt lat="35.028059" lon="135.714001">
				 <ele>74.5</ele>
			 </trkpt>
			 <trkpt lat="35.028122" lon="135.714417">
				 <ele>74.3</ele>
			 </trkpt>
			 <trkpt lat="35.028246" lon="135.715485">
				 <ele>74</ele>
			 </trkpt>
			 <trkpt lat="35.028283" lon="135.715728">
				 <ele>73.7</ele>
			 </trkpt>
			 <trkpt lat="35.028245" lon="135.715739">
				 <ele>73.5</ele>
			 </trkpt>
			 <trkpt lat="35.028291" lon="135.715975">
				 <ele>73.2</ele>
			 </trkpt>
			 <trkpt lat="35.028355" lon="135.716131">
				 <ele>72.9</ele>
			 </trkpt>
			 <trkpt lat="35.02833" lon="135.71617">
				 <ele>72.6</ele>
			 </trkpt>
			 <trkpt lat="35.028361" lon="135.716144">
				 <ele>72.5</ele>
			 </trkpt>
			 <trkpt lat="35.028291" lon="135.715975">
				 <ele>72.4</ele>
			 </trkpt>
			 <trkpt lat="35.028245" lon="135.715739">
				 <ele>72.3</ele>
			 </trkpt>
			 <trkpt lat="35.028283" lon="135.715728">
				 <ele>72.4</ele>
			 </trkpt>
			 <trkpt lat="35.028328" lon="135.71596">
				 <ele>72.5</ele>
			 </trkpt>
			 <trkpt lat="35.02837" lon="135.716074">
				 <ele>72.6</ele>
			 </trkpt>
			 <trkpt lat="35.028475" lon="135.716272">
				 <ele>72.9</ele>
			 </trkpt>
			 <trkpt lat="35.028583" lon="135.716412">
				 <ele>73.2</ele>
			 </trkpt>
			 <trkpt lat="35.02872" lon="135.716528">
				 <ele>73.5</ele>
			 </trkpt>
			 <trkpt lat="35.028863" lon="135.716609">
				 <ele>74.2</ele>
			 </trkpt>
			 <trkpt lat="35.029133" lon="135.716705">
				 <ele>75.1</ele>
			 </trkpt>
			 <trkpt lat="35.029387" lon="135.71675">
				 <ele>76.3</ele>
			 </trkpt>
			 <trkpt lat="35.029636" lon="135.716748">
				 <ele>77.7</ele>
			 </trkpt>
			 <trkpt lat="35.029818" lon="135.716724">
				 <ele>79.6</ele>
			 </trkpt>
			 <trkpt lat="35.030667" lon="135.716566">
				 <ele>81.5</ele>
			 </trkpt>
			 <trkpt lat="35.030852" lon="135.71656">
				 <ele>83.4</ele>
			 </trkpt>
			 <trkpt lat="35.031128" lon="135.716603">
				 <ele>85</ele>
			 </trkpt>
			 <trkpt lat="35.031459" lon="135.716672">
				 <ele>86.4</ele>
			 </trkpt>
			 <trkpt lat="35.031961" lon="135.716812">
				 <ele>87.5</ele>
			 </trkpt>
			 <trkpt lat="35.032176" lon="135.716979">
				 <ele>88.4</ele>
			 </trkpt>
			 <trkpt lat="35.032301" lon="135.717143">
				 <ele>88.5</ele>
			 </trkpt>
			 <trkpt lat="35.032377" lon="135.717295">
				 <ele>88.4</ele>
			 </trkpt>
			 <trkpt lat="35.032422" lon="135.717451">
				 <ele>88.1</ele>
			 </trkpt>
			 <trkpt lat="35.032451" lon="135.717706">
				 <ele>87.6</ele>
			 </trkpt>
			 <trkpt lat="35.032469" lon="135.718236">
				 <ele>86.8</ele>
			 </trkpt>
			 <trkpt lat="35.032494" lon="135.71982">
				 <ele>86.2</ele>
			 </trkpt>
			 <trkpt lat="35.032509" lon="135.719994">
				 <ele>85.8</ele>
			 </trkpt>
			 <trkpt lat="35.032537" lon="135.720112">
				 <ele>85.6</ele>
			 </trkpt>
			 <trkpt lat="35.032572" lon="135.720218">
				 <ele>85.7</ele>
			 </trkpt>
			 <trkpt lat="35.03264" lon="135.720369">
				 <ele>86.5</ele>
			 </trkpt>
			 <trkpt lat="35.032868" lon="135.720685">
				 <ele>87.7</ele>
			 </trkpt>
			 <trkpt lat="35.033008" lon="135.72097">
				 <ele>89.2</ele>
			 </trkpt>
			 <trkpt lat="35.033165" lon="135.721359">
				 <ele>90.5</ele>
			 </trkpt>
			 <trkpt lat="35.033261" lon="135.72162">
				 <ele>91.6</ele>
			 </trkpt>
			 <trkpt lat="35.033455" lon="135.722472">
				 <ele>92.2</ele>
			 </trkpt>
			 <trkpt lat="35.033628" lon="135.722973">
				 <ele>92.4</ele>
			 </trkpt>
			 <trkpt lat="35.034283" lon="135.724002">
				 <ele>91.8</ele>
			 </trkpt>
			 <trkpt lat="35.034536" lon="135.724433">
				 <ele>91</ele>
			 </trkpt>
			 <trkpt lat="35.03467" lon="135.724758">
				 <ele>90.1</ele>
			 </trkpt>
			 <trkpt lat="35.034707" lon="135.724926">
				 <ele>89.1</ele>
			 </trkpt>
			 <trkpt lat="35.03477" lon="135.72547">
				 <ele>87.5</ele>
			 </trkpt>
			 <trkpt lat="35.0348" lon="135.72627">
				 <ele>85.9</ele>
			 </trkpt>
			 <trkpt lat="35.03476" lon="135.72697">
				 <ele>84.1</ele>
			 </trkpt>
			 <trkpt lat="35.03478" lon="135.72721">
				 <ele>82.2</ele>
			 </trkpt>
			 <trkpt lat="35.03475" lon="135.72774">
				 <ele>80.3</ele>
			 </trkpt>
			 <trkpt lat="35.03462" lon="135.72787">
				 <ele>78.8</ele>
			 </trkpt>
			 <trkpt lat="35.03418" lon="135.72785">
				 <ele>77.5</ele>
			 </trkpt>
			 <trkpt lat="35.03318" lon="135.72788">
				 <ele>76.8</ele>
			 </trkpt>
			 <trkpt lat="35.03278" lon="135.72784">
				 <ele>76.3</ele>
			 </trkpt>
			 <trkpt lat="35.03205" lon="135.72785">
				 <ele>75.8</ele>
			 </trkpt>
			 <trkpt lat="35.03199" lon="135.72787">
				 <ele>75.4</ele>
			 </trkpt>
			 <trkpt lat="35.03181" lon="135.72941">
				 <ele>74.9</ele>
			 </trkpt>
			 <trkpt lat="35.0318" lon="135.73035">
				 <ele>74.5</ele>
			 </trkpt>
			 <trkpt lat="35.03177" lon="135.73086">
				 <ele>74.3</ele>
			 </trkpt>
			 <trkpt lat="35.03179" lon="135.73133">
				 <ele>74.3</ele>
			 </trkpt>
			 <trkpt lat="35.03183" lon="135.73139">
				 <ele>75.3</ele>
			 </trkpt>
			 <trkpt lat="35.03222" lon="135.73141">
				 <ele>76.4</ele>
			 </trkpt>
			 <trkpt lat="35.03275" lon="135.73136">
				 <ele>77.6</ele>
			 </trkpt>
			 <trkpt lat="35.03294" lon="135.73138">
				 <ele>78.8</ele>
			 </trkpt>
			 <trkpt lat="35.03333" lon="135.73147">
				 <ele>80.3</ele>
			 </trkpt>
			 <trkpt lat="35.03594" lon="135.73232">
				 <ele>81.7</ele>
			 </trkpt>
			 <trkpt lat="35.03634" lon="135.7324">
				 <ele>83.3</ele>
			 </trkpt>
			 <trkpt lat="35.037" lon="135.73264">
				 <ele>84.9</ele>
			 </trkpt>
			 <trkpt lat="35.03737" lon="135.73273">
				 <ele>86.5</ele>
			 </trkpt>
			 <trkpt lat="35.03793" lon="135.73296">
				 <ele>88.2</ele>
			 </trkpt>
			 <trkpt lat="35.03908" lon="135.73326">
				 <ele>89.8</ele>
			 </trkpt>
			 <trkpt lat="35.03956" lon="135.73341">
				 <ele>90.7</ele>
			 </trkpt>
			 <trkpt lat="35.03997" lon="135.73357">
				 <ele>91.5</ele>
			 </trkpt>
			 <trkpt lat="35.04014" lon="135.73368">
				 <ele>92.1</ele>
			 </trkpt>
			 <trkpt lat="35.04031" lon="135.73385">
				 <ele>92.9</ele>
			 </trkpt>
			 <trkpt lat="35.04038" lon="135.73401">
				 <ele>93.5</ele>
			 </trkpt>
			 <trkpt lat="35.04043" lon="135.73423">
				 <ele>94.2</ele>
			 </trkpt>
			 <trkpt lat="35.04047" lon="135.73478">
				 <ele>94.6</ele>
			 </trkpt>
			 <trkpt lat="35.04065" lon="135.73571">
				 <ele>94.8</ele>
			 </trkpt>
			 <trkpt lat="35.04072" lon="135.73641">
				 <ele>94.8</ele>
			 </trkpt>
			 <trkpt lat="35.04074" lon="135.73687">
				 <ele>93.9</ele>
			 </trkpt>
			 <trkpt lat="35.04085" lon="135.73755">
				 <ele>92.9</ele>
			 </trkpt>
			 <trkpt lat="35.04086" lon="135.73805">
				 <ele>92</ele>
			 </trkpt>
			 <trkpt lat="35.04095" lon="135.73854">
				 <ele>91.1</ele>
			 </trkpt>
			 <trkpt lat="35.04097" lon="135.73905">
				 <ele>90.5</ele>
			 </trkpt>
			 <trkpt lat="35.04132" lon="135.74223">
				 <ele>89.6</ele>
			 </trkpt>
			 <trkpt lat="35.04137" lon="135.74244">
				 <ele>88.8</ele>
			 </trkpt>
			 <trkpt lat="35.04188" lon="135.74249">
				 <ele>87.8</ele>
			 </trkpt>
			 <trkpt lat="35.04209" lon="135.74246">
				 <ele>87</ele>
			 </trkpt>
			 <trkpt lat="35.04243" lon="135.74246">
				 <ele>86.5</ele>
			 </trkpt>
			 <trkpt lat="35.043" lon="135.74238">
				 <ele>86.1</ele>
			 </trkpt>
			 <trkpt lat="35.04383" lon="135.74235">
				 <ele>86.5</ele>
			 </trkpt>
			 <trkpt lat="35.04396" lon="135.74231">
				 <ele>87</ele>
			 </trkpt>
			 <trkpt lat="35.0444" lon="135.74232">
				 <ele>87.3</ele>
			 </trkpt>
			 <trkpt lat="35.0448" lon="135.74227">
				 <ele>87.5</ele>
			 </trkpt>
			 <trkpt lat="35.04483" lon="135.74228">
				 <ele>87.7</ele>
			 </trkpt>
			 <trkpt lat="35.04492" lon="135.74246">
				 <ele>87.9</ele>
			 </trkpt>
			 <trkpt lat="35.04499" lon="135.74271">
				 <ele>88.2</ele>
			 </trkpt>
			 <trkpt lat="35.04514" lon="135.74366">
				 <ele>88.4</ele>
			 </trkpt>
			 <trkpt lat="35.04526" lon="135.74384">
				 <ele>88.5</ele>
			 </trkpt>
			 <trkpt lat="35.04543" lon="135.74392">
				 <ele>88.5</ele>
			 </trkpt>
			 <trkpt lat="35.04563" lon="135.74396">
				 <ele>88.5</ele>
			 </trkpt>
			 <trkpt lat="35.04673" lon="135.74407">
				 <ele>88.5</ele>
			 </trkpt>
			 <trkpt lat="35.04705" lon="135.74415">
				 <ele>88.8</ele>
			 </trkpt>
			 <trkpt lat="35.04725" lon="135.74415">
				 <ele>89.3</ele>
			 </trkpt>
			 <trkpt lat="35.04745" lon="135.74419">
				 <ele>89.8</ele>
			 </trkpt>
			 <trkpt lat="35.04825" lon="135.74415">
				 <ele>90.5</ele>
			 </trkpt>
			 <trkpt lat="35.04862" lon="135.74417">
				 <ele>91.3</ele>
			 </trkpt>
			 <trkpt lat="35.04901" lon="135.74414">
				 <ele>91.8</ele>
			 </trkpt>
			 <trkpt lat="35.04962" lon="135.74414">
				 <ele>92.5</ele>
			 </trkpt>
			 <trkpt lat="35.04994" lon="135.74411">
				 <ele>93.2</ele>
			 </trkpt>
			 <trkpt lat="35.0507" lon="135.74415">
				 <ele>93.7</ele>
			 </trkpt>
			 <trkpt lat="35.05108" lon="135.7441">
				 <ele>94.2</ele>
			 </trkpt>
			 <trkpt lat="35.05147" lon="135.74412">
				 <ele>94.5</ele>
			 </trkpt>
			 <trkpt lat="35.05226" lon="135.74408">
				 <ele>94.8</ele>
			 </trkpt>
			 <trkpt lat="35.05399" lon="135.74408">
				 <ele>94.9</ele>
			 </trkpt>
			 <trkpt lat="35.05461" lon="135.74404">
				 <ele>94.7</ele>
			 </trkpt>
			 <trkpt lat="35.055" lon="135.74407">
				 <ele>94.2</ele>
			 </trkpt>
			 <trkpt lat="35.05625" lon="135.744">
				 <ele>93.5</ele>
			 </trkpt>
			 <trkpt lat="35.05671" lon="135.74404">
				 <ele>92.8</ele>
			 </trkpt>
			 <trkpt lat="35.05694" lon="135.74409">
				 <ele>91.9</ele>
			 </trkpt>
			 <trkpt lat="35.057" lon="135.74502">
				 <ele>90.9</ele>
			 </trkpt>
			 <trkpt lat="35.05698" lon="135.74789">
				 <ele>90.1</ele>
			 </trkpt>
			 <trkpt lat="35.05694" lon="135.74883">
				 <ele>89.5</ele>
			 </trkpt>
			 <trkpt lat="35.05697" lon="135.74983">
				 <ele>88.8</ele>
			 </trkpt>
			 <trkpt lat="35.05695" lon="135.7503">
				 <ele>88.2</ele>
			 </trkpt>
			 <trkpt lat="35.05696" lon="135.75054">
				 <ele>87.5</ele>
			 </trkpt>
			 <trkpt lat="35.05701" lon="135.7506">
				 <ele>87.1</ele>
			 </trkpt>
			 <trkpt lat="35.05751" lon="135.75033">
				 <ele>86.7</ele>
			 </trkpt>
			 <trkpt lat="35.0577" lon="135.75026">
				 <ele>86.4</ele>
			 </trkpt>
			 <trkpt lat="35.05802" lon="135.75009">
				 <ele>86.2</ele>
			 </trkpt>
			 <trkpt lat="35.05821" lon="135.75001">
				 <ele>86.2</ele>
			 </trkpt>
			 <trkpt lat="35.05839" lon="135.74997">
				 <ele>86.3</ele>
			 </trkpt>
			 <trkpt lat="35.05894" lon="135.74965">
				 <ele>86.4</ele>
			 </trkpt>
			 <trkpt lat="35.05933" lon="135.74949">
				 <ele>86.5</ele>
			 </trkpt>
			 <trkpt lat="35.05961" lon="135.74934">
				 <ele>86.6</ele>
			 </trkpt>
			 <trkpt lat="35.05991" lon="135.74921">
				 <ele>86.8</ele>
			 </trkpt>
			 <trkpt lat="35.0603" lon="135.74911">
				 <ele>87.1</ele>
			 </trkpt>
			 <trkpt lat="35.0608" lon="135.74892">
				 <ele>87.5</ele>
			 </trkpt>
			 <trkpt lat="35.06097" lon="135.74877">
				 <ele>88</ele>
			 </trkpt>
			 <trkpt lat="35.06114" lon="135.74868">
				 <ele>88.5</ele>
			 </trkpt>
			 <trkpt lat="35.06143" lon="135.74859">
				 <ele>89</ele>
			 </trkpt>
			 <trkpt lat="35.06197" lon="135.7483">
				 <ele>89.4</ele>
			 </trkpt>
			 <trkpt lat="35.06314" lon="135.74754">
				 <ele>89.7</ele>
			 </trkpt>
			 <trkpt lat="35.06345" lon="135.7473">
				 <ele>90.1</ele>
			 </trkpt>
			 <trkpt lat="35.06382" lon="135.74696">
				 <ele>90.4</ele>
			 </trkpt>
			 <trkpt lat="35.06434" lon="135.7466">
				 <ele>90.5</ele>
			 </trkpt>
			 <trkpt lat="35.06452" lon="135.74658">
				 <ele>90.7</ele>
			 </trkpt>
			 <trkpt lat="35.06459" lon="135.74665">
				 <ele>90.9</ele>
			 </trkpt>
			 <trkpt lat="35.06481" lon="135.74704">
				 <ele>91</ele>
			 </trkpt>
			 <trkpt lat="35.06488" lon="135.74726">
				 <ele>91.1</ele>
			 </trkpt>
			 <trkpt lat="35.06484" lon="135.74742">
				 <ele>91.1</ele>
			 </trkpt>
			 <trkpt lat="35.06446" lon="135.7478">
				 <ele>91.1</ele>
			 </trkpt>
			 <trkpt lat="35.06396" lon="135.74816">
				 <ele>91</ele>
			 </trkpt>
			 <trkpt lat="35.06306" lon="135.74887">
				 <ele>90.7</ele>
			 </trkpt>
			 <trkpt lat="35.0625" lon="135.74925">
				 <ele>90.3</ele>
			 </trkpt>
			 <trkpt lat="35.06198" lon="135.74953">
				 <ele>89.7</ele>
			 </trkpt>
			 <trkpt lat="35.0617" lon="135.74963">
				 <ele>89.1</ele>
			 </trkpt>
			 <trkpt lat="35.06153" lon="135.74974">
				 <ele>88.6</ele>
			 </trkpt>
			 <trkpt lat="35.06114" lon="135.7499">
				 <ele>88.3</ele>
			 </trkpt>
			 <trkpt lat="35.06063" lon="135.75005">
				 <ele>87.7</ele>
			 </trkpt>
			 <trkpt lat="35.06028" lon="135.75018">
				 <ele>87.1</ele>
			 </trkpt>
			 <trkpt lat="35.05951" lon="135.75039">
				 <ele>86.5</ele>
			 </trkpt>
			 <trkpt lat="35.05882" lon="135.75061">
				 <ele>86</ele>
			 </trkpt>
			 <trkpt lat="35.05809" lon="135.75098">
				 <ele>85.5</ele>
			 </trkpt>
			 <trkpt lat="35.05752" lon="135.75138">
				 <ele>85.2</ele>
			 </trkpt>
			 <trkpt lat="35.05735" lon="135.75143">
				 <ele>85</ele>
			 </trkpt>
			 <trkpt lat="35.05722" lon="135.75127">
				 <ele>84.9</ele>
			 </trkpt>
			 <trkpt lat="35.057" lon="135.75086">
				 <ele>84.7</ele>
			 </trkpt>
			 <trkpt lat="35.05682" lon="135.75087">
				 <ele>84.3</ele>
			 </trkpt>
			 <trkpt lat="35.0564" lon="135.7512">
				 <ele>83.7</ele>
			 </trkpt>
			 <trkpt lat="35.05604" lon="135.75141">
				 <ele>83.4</ele>
			 </trkpt>
			 <trkpt lat="35.055684" lon="135.751745">
				 <ele>83.1</ele>
			 </trkpt>
			 <trkpt lat="35.055327" lon="135.75208">
				 <ele>82.8</ele>
			 </trkpt>
			 <trkpt lat="35.055155" lon="135.752241">
				 <ele>82.4</ele>
			 </trkpt>
			 <trkpt lat="35.054857" lon="135.752652">
				 <ele>81.7</ele>
			 </trkpt>
			 <trkpt lat="35.054667" lon="135.752914">
				 <ele>81.2</ele>
			 </trkpt>
			 <trkpt lat="35.054381" lon="135.753337">
				 <ele>80.8</ele>
			 </trkpt>
			 <trkpt lat="35.054095" lon="135.753761">
				 <ele>80.5</ele>
			 </trkpt>
			 <trkpt lat="35.053808" lon="135.754184">
				 <ele>80.5</ele>
			 </trkpt>
			 <trkpt lat="35.053522" lon="135.754608">
				 <ele>80.5</ele>
			 </trkpt>
			 <trkpt lat="35.053405" lon="135.754781">
				 <ele>80.4</ele>
			 </trkpt>
			 <trkpt lat="35.053051" lon="135.75512">
				 <ele>80.1</ele>
			 </trkpt>
			 <trkpt lat="35.052697" lon="135.755459">
				 <ele>79.7</ele>
			 </trkpt>
			 <trkpt lat="35.052612" lon="135.75554">
				 <ele>79.2</ele>
			 </trkpt>
			 <trkpt lat="35.052241" lon="135.755852">
				 <ele>78.8</ele>
			 </trkpt>
			 <trkpt lat="35.051871" lon="135.756164">
				 <ele>78.6</ele>
			 </trkpt>
			 <trkpt lat="35.051501" lon="135.756476">
				 <ele>78.5</ele>
			 </trkpt>
			 <trkpt lat="35.051131" lon="135.756787">
				 <ele>78.1</ele>
			 </trkpt>
			 <trkpt lat="35.05076" lon="135.757099">
				 <ele>77.7</ele>
			 </trkpt>
			 <trkpt lat="35.05039" lon="135.757411">
				 <ele>77.4</ele>
			 </trkpt>
			 <trkpt lat="35.050082" lon="135.757671">
				 <ele>76.9</ele>
			 </trkpt>
			 <trkpt lat="35.050276" lon="135.758166">
				 <ele>76.5</ele>
			 </trkpt>
			 <trkpt lat="35.05047" lon="135.758662">
				 <ele>76.6</ele>
			 </trkpt>
			 <trkpt lat="35.050505" lon="135.758751">
				 <ele>76.7</ele>
			 </trkpt>
			 <trkpt lat="35.050638" lon="135.759276">
				 <ele>77</ele>
			 </trkpt>
			 <trkpt lat="35.050685" lon="135.75946">
				 <ele>77.1</ele>
			 </trkpt>
			 <trkpt lat="35.050735" lon="135.760005">
				 <ele>77.2</ele>
			 </trkpt>
			 <trkpt lat="35.050786" lon="135.760551">
				 <ele>77.2</ele>
			 </trkpt>
			 <trkpt lat="35.050836" lon="135.761097">
				 <ele>77</ele>
			 </trkpt>
			 <trkpt lat="35.050887" lon="135.761643">
				 <ele>76.7</ele>
			 </trkpt>
			 <trkpt lat="35.050937" lon="135.762189">
				 <ele>76.3</ele>
			 </trkpt>
			 <trkpt lat="35.050988" lon="135.762734">
				 <ele>75.9</ele>
			 </trkpt>
			 <trkpt lat="35.05101" lon="135.76297">
				 <ele>75.6</ele>
			 </trkpt>
			 <trkpt lat="35.051063" lon="135.763516">
				 <ele>75.1</ele>
			 </trkpt>
			 <trkpt lat="35.051117" lon="135.764061">
				 <ele>74.5</ele>
			 </trkpt>
			 <trkpt lat="35.051171" lon="135.764606">
				 <ele>74</ele>
			 </trkpt>
			 <trkpt lat="35.051225" lon="135.765152">
				 <ele>73.7</ele>
			 </trkpt>
			 <trkpt lat="35.051279" lon="135.765697">
				 <ele>73.5</ele>
			 </trkpt>
			 <trkpt lat="35.051333" lon="135.766242">
				 <ele>73.3</ele>
			 </trkpt>
			 <trkpt lat="35.051386" lon="135.766788">
				 <ele>73.1</ele>
			 </trkpt>
			 <trkpt lat="35.05144" lon="135.767333">
				 <ele>72.8</ele>
			 </trkpt>
			 <trkpt lat="35.051449" lon="135.767426">
				 <ele>72.6</ele>
			 </trkpt>
			 <trkpt lat="35.051455" lon="135.767975">
				 <ele>72.4</ele>
			 </trkpt>
			 <trkpt lat="35.051461" lon="135.768525">
				 <ele>72</ele>
			 </trkpt>
			 <trkpt lat="35.051467" lon="135.769074">
				 <ele>71.7</ele>
			 </trkpt>
			 <trkpt lat="35.051473" lon="135.769623">
				 <ele>71.6</ele>
			 </trkpt>
			 <trkpt lat="35.051479" lon="135.770172">
				 <ele>71.3</ele>
			 </trkpt>
			 <trkpt lat="35.051481" lon="135.770345">
				 <ele>70.7</ele>
			 </trkpt>
			 <trkpt lat="35.051493" lon="135.770894">
				 <ele>70</ele>
			 </trkpt>
			 <trkpt lat="35.051506" lon="135.771443">
				 <ele>69.5</ele>
			 </trkpt>
			 <trkpt lat="35.051518" lon="135.771992">
				 <ele>69.2</ele>
			 </trkpt>
			 <trkpt lat="35.051531" lon="135.772541">
				 <ele>68.8</ele>
			 </trkpt>
			 <trkpt lat="35.051543" lon="135.77309">
				 <ele>68.5</ele>
			 </trkpt>
			 <trkpt lat="35.051556" lon="135.773639">
				 <ele>68.5</ele>
			 </trkpt>
			 <trkpt lat="35.051568" lon="135.774188">
				 <ele>68.4</ele>
			 </trkpt>
			 <trkpt lat="35.051581" lon="135.774737">
				 <ele>68.3</ele>
			 </trkpt>
			 <trkpt lat="35.051593" lon="135.775287">
				 <ele>68.1</ele>
			 </trkpt>
			 <trkpt lat="35.051606" lon="135.775836">
				 <ele>68</ele>
			 </trkpt>
			 <trkpt lat="35.051618" lon="135.776385">
				 <ele>68.1</ele>
			 </trkpt>
			 <trkpt lat="35.051631" lon="135.776934">
				 <ele>68.3</ele>
			 </trkpt>
			 <trkpt lat="35.051643" lon="135.777483">
				 <ele>68.4</ele>
			 </trkpt>
			 <trkpt lat="35.051646" lon="135.777613">
				 <ele>68.5</ele>
			 </trkpt>
			 <trkpt lat="35.051655" lon="135.778162">
				 <ele>68.8</ele>
			 </trkpt>
			 <trkpt lat="35.051663" lon="135.778711">
				 <ele>69.1</ele>
			 </trkpt>
			 <trkpt lat="35.051671" lon="135.779261">
				 <ele>69.3</ele>
			 </trkpt>
			 <trkpt lat="35.05168" lon="135.77981">
				 <ele>69.5</ele>
			 </trkpt>
			 <trkpt lat="35.051688" lon="135.780359">
				 <ele>69.7</ele>
			 </trkpt>
			 <trkpt lat="35.051697" lon="135.780908">
				 <ele>70.2</ele>
			 </trkpt>
			 <trkpt lat="35.051705" lon="135.781457">
				 <ele>70.5</ele>
			 </trkpt>
			 <trkpt lat="35.051713" lon="135.782007">
				 <ele>70.7</ele>
			 </trkpt>
			 <trkpt lat="35.051722" lon="135.782556">
				 <ele>71.2</ele>
			 </trkpt>
			 <trkpt lat="35.05173" lon="135.783105">
				 <ele>71.7</ele>
			 </trkpt>
			 <trkpt lat="35.051739" lon="135.783654">
				 <ele>72.4</ele>
			 </trkpt>
			 <trkpt lat="35.051747" lon="135.784203">
				 <ele>72.9</ele>
			 </trkpt>
			 <trkpt lat="35.051755" lon="135.784753">
				 <ele>73.5</ele>
			 </trkpt>
			 <trkpt lat="35.051763" lon="135.785239">
				 <ele>74</ele>
			 </trkpt>
			 <trkpt lat="35.051776" lon="135.785788">
				 <ele>74.5</ele>
			 </trkpt>
			 <trkpt lat="35.051789" lon="135.786337">
				 <ele>74.9</ele>
			 </trkpt>
			 <trkpt lat="35.051802" lon="135.786886">
				 <ele>75.2</ele>
			 </trkpt>
			 <trkpt lat="35.051815" lon="135.787435">
				 <ele>75.5</ele>
			 </trkpt>
			 <trkpt lat="35.051782" lon="135.787896">
				 <ele>75.9</ele>
			 </trkpt>
			 <trkpt lat="35.051678" lon="135.788338">
				 <ele>76.2</ele>
			 </trkpt>
			 <trkpt lat="35.05164" lon="135.78834">
				 <ele>76.2</ele>
			 </trkpt>
			 <trkpt lat="35.051753" lon="135.787881">
				 <ele>75.9</ele>
			 </trkpt>
			 <trkpt lat="35.051794" lon="135.78742">
				 <ele>75.5</ele>
			 </trkpt>
			 <trkpt lat="35.051779" lon="135.786871">
				 <ele>75.2</ele>
			 </trkpt>
			 <trkpt lat="35.051765" lon="135.786322">
				 <ele>74.9</ele>
			 </trkpt>
			 <trkpt lat="35.051751" lon="135.785773">
				 <ele>74.5</ele>
			 </trkpt>
			 <trkpt lat="35.051737" lon="135.785224">
				 <ele>74.2</ele>
			 </trkpt>
			 <trkpt lat="35.051723" lon="135.784675">
				 <ele>73.6</ele>
			 </trkpt>
			 <trkpt lat="35.051718" lon="135.784479">
				 <ele>73.1</ele>
			 </trkpt>
			 <trkpt lat="35.051708" lon="135.78393">
				 <ele>72.5</ele>
			 </trkpt>
			 <trkpt lat="35.051699" lon="135.783381">
				 <ele>71.9</ele>
			 </trkpt>
			 <trkpt lat="35.051689" lon="135.782832">
				 <ele>71.4</ele>
			 </trkpt>
			 <trkpt lat="35.05168" lon="135.782282">
				 <ele>70.9</ele>
			 </trkpt>
			 <trkpt lat="35.05167" lon="135.781733">
				 <ele>70.6</ele>
			 </trkpt>
			 <trkpt lat="35.051661" lon="135.781184">
				 <ele>70.4</ele>
			 </trkpt>
			 <trkpt lat="35.051651" lon="135.780635">
				 <ele>70.1</ele>
			 </trkpt>
			 <trkpt lat="35.051642" lon="135.780086">
				 <ele>69.8</ele>
			 </trkpt>
			 <trkpt lat="35.051632" lon="135.779537">
				 <ele>69.4</ele>
			 </trkpt>
			 <trkpt lat="35.051622" lon="135.778988">
				 <ele>69.1</ele>
			 </trkpt>
			 <trkpt lat="35.051613" lon="135.778438">
				 <ele>68.8</ele>
			 </trkpt>
			 <trkpt lat="35.051606" lon="135.778044">
				 <ele>68.5</ele>
			 </trkpt>
			 <trkpt lat="35.051595" lon="135.777495">
				 <ele>68.4</ele>
			 </trkpt>
			 <trkpt lat="35.051584" lon="135.776946">
				 <ele>68.4</ele>
			 </trkpt>
			 <trkpt lat="35.051572" lon="135.776397">
				 <ele>68.3</ele>
			 </trkpt>
			 <trkpt lat="35.051561" lon="135.775848">
				 <ele>68.2</ele>
			 </trkpt>
			 <trkpt lat="35.05155" lon="135.775299">
				 <ele>68.3</ele>
			 </trkpt>
			 <trkpt lat="35.051539" lon="135.774749">
				 <ele>68.4</ele>
			 </trkpt>
			 <trkpt lat="35.051528" lon="135.7742">
				 <ele>68.5</ele>
			 </trkpt>
			 <trkpt lat="35.051516" lon="135.773651">
				 <ele>68.6</ele>
			 </trkpt>
			 <trkpt lat="35.051505" lon="135.773102">
				 <ele>68.7</ele>
			 </trkpt>
			 <trkpt lat="35.051494" lon="135.772553">
				 <ele>68.9</ele>
			 </trkpt>
			 <trkpt lat="35.051483" lon="135.772004">
				 <ele>69.2</ele>
			 </trkpt>
			 <trkpt lat="35.051472" lon="135.771455">
				 <ele>69.4</ele>
			 </trkpt>
			 <trkpt lat="35.05146" lon="135.770906">
				 <ele>69.5</ele>
			 </trkpt>
			 <trkpt lat="35.051454" lon="135.770589">
				 <ele>69.6</ele>
			 </trkpt>
			 <trkpt lat="35.051004" lon="135.770595">
				 <ele>69.8</ele>
			 </trkpt>
			 <trkpt lat="35.050555" lon="135.7706">
				 <ele>69.8</ele>
			 </trkpt>
			 <trkpt lat="35.050105" lon="135.770605">
				 <ele>69.7</ele>
			 </trkpt>
			 <trkpt lat="35.049655" lon="135.770611">
				 <ele>69.6</ele>
			 </trkpt>
			 <trkpt lat="35.049426" lon="135.770613">
				 <ele>69.5</ele>
			 </trkpt>
			 <trkpt lat="35.048976" lon="135.770635">
				 <ele>69.4</ele>
			 </trkpt>
			 <trkpt lat="35.048527" lon="135.770656">
				 <ele>69.2</ele>
			 </trkpt>
			 <trkpt lat="35.04813" lon="135.770675">
				 <ele>68.8</ele>
			 </trkpt>
			 <trkpt lat="35.047681" lon="135.770699">
				 <ele>68.5</ele>
			 </trkpt>
			 <trkpt lat="35.047232" lon="135.770723">
				 <ele>68</ele>
			 </trkpt>
			 <trkpt lat="35.047134" lon="135.770728">
				 <ele>67.6</ele>
			 </trkpt>
			 <trkpt lat="35.046685" lon="135.770751">
				 <ele>67.4</ele>
			 </trkpt>
			 <trkpt lat="35.046236" lon="135.770774">
				 <ele>67.1</ele>
			 </trkpt>
			 <trkpt lat="35.045917" lon="135.77079">
				 <ele>66.8</ele>
			 </trkpt>
			 <trkpt lat="35.045468" lon="135.770817">
				 <ele>66.5</ele>
			 </trkpt>
			 <trkpt lat="35.045019" lon="135.770844">
				 <ele>66.4</ele>
			 </trkpt>
			 <trkpt lat="35.04457" lon="135.770871">
				 <ele>66.3</ele>
			 </trkpt>
			 <trkpt lat="35.044281" lon="135.770889">
				 <ele>66.2</ele>
			 </trkpt>
			 <trkpt lat="35.044278" lon="135.770823">
				 <ele>66.3</ele>
			 </trkpt>
			 <trkpt lat="35.044727" lon="135.770802">
				 <ele>66.4</ele>
			 </trkpt>
			 <trkpt lat="35.045177" lon="135.770781">
				 <ele>66.6</ele>
			 </trkpt>
			 <trkpt lat="35.045626" lon="135.77076">
				 <ele>66.8</ele>
			 </trkpt>
			 <trkpt lat="35.046075" lon="135.770739">
				 <ele>67.1</ele>
			 </trkpt>
			 <trkpt lat="35.046525" lon="135.770718">
				 <ele>67.4</ele>
			 </trkpt>
			 <trkpt lat="35.046974" lon="135.770697">
				 <ele>67.6</ele>
			 </trkpt>
			 <trkpt lat="35.047074" lon="135.770692">
				 <ele>68</ele>
			 </trkpt>
			 <trkpt lat="35.047524" lon="135.77067">
				 <ele>68.4</ele>
			 </trkpt>
			 <trkpt lat="35.047973" lon="135.770647">
				 <ele>68.7</ele>
			 </trkpt>
			 <trkpt lat="35.048128" lon="135.770639">
				 <ele>69.1</ele>
			 </trkpt>
			 <trkpt lat="35.048577" lon="135.770621">
				 <ele>69.3</ele>
			 </trkpt>
			 <trkpt lat="35.048915" lon="135.770607">
				 <ele>69.5</ele>
			 </trkpt>
			 <trkpt lat="35.049364" lon="135.770585">
				 <ele>69.5</ele>
			 </trkpt>
			 <trkpt lat="35.049813" lon="135.770563">
				 <ele>69.7</ele>
			 </trkpt>
			 <trkpt lat="35.050263" lon="135.770541">
				 <ele>69.9</ele>
			 </trkpt>
			 <trkpt lat="35.050712" lon="135.770519">
				 <ele>70.2</ele>
			 </trkpt>
			 <trkpt lat="35.051161" lon="135.770497">
				 <ele>70.6</ele>
			 </trkpt>
			 <trkpt lat="35.051428" lon="135.770484">
				 <ele>71.1</ele>
			 </trkpt>
			 <trkpt lat="35.051398" lon="135.769936">
				 <ele>71.4</ele>
			 </trkpt>
			 <trkpt lat="35.051368" lon="135.769388">
				 <ele>71.6</ele>
			 </trkpt>
			 <trkpt lat="35.051337" lon="135.76884">
				 <ele>72</ele>
			 </trkpt>
			 <trkpt lat="35.051307" lon="135.768292">
				 <ele>72.3</ele>
			 </trkpt>
			 <trkpt lat="35.051277" lon="135.767744">
				 <ele>72.5</ele>
			 </trkpt>
			 <trkpt lat="35.051246" lon="135.767196">
				 <ele>72.8</ele>
			 </trkpt>
			 <trkpt lat="35.051216" lon="135.766647">
				 <ele>73.1</ele>
			 </trkpt>
			 <trkpt lat="35.051186" lon="135.766099">
				 <ele>73.4</ele>
			 </trkpt>
			 <trkpt lat="35.051155" lon="135.765551">
				 <ele>73.6</ele>
			 </trkpt>
			 <trkpt lat="35.051125" lon="135.765003">
				 <ele>73.7</ele>
			 </trkpt>
			 <trkpt lat="35.05112" lon="135.76491">
				 <ele>73.8</ele>
			 </trkpt>
			 <trkpt lat="35.05072" lon="135.76482">
				 <ele>74.1</ele>
			 </trkpt>
			 <trkpt lat="35.05034" lon="135.7648">
				 <ele>74.3</ele>
			 </trkpt>
			 <trkpt lat="35.05004" lon="135.76485">
				 <ele>74.4</ele>
			 </trkpt>
			 <trkpt lat="35.04985" lon="135.76491">
				 <ele>74.6</ele>
			 </trkpt>
			 <trkpt lat="35.04967" lon="135.76488">
				 <ele>74.8</ele>
			 </trkpt>
			 <trkpt lat="35.04947" lon="135.76492">
				 <ele>75</ele>
			 </trkpt>
			 <trkpt lat="35.04913" lon="135.76512">
				 <ele>75.2</ele>
			 </trkpt>
			 <trkpt lat="35.04892" lon="135.76516">
				 <ele>75.2</ele>
			 </trkpt>
			 <trkpt lat="35.04873" lon="135.76513">
				 <ele>75</ele>
			 </trkpt>
			 <trkpt lat="35.04849" lon="135.76504">
				 <ele>74.9</ele>
			 </trkpt>
			 <trkpt lat="35.04819" lon="135.76475">
				 <ele>74.9</ele>
			 </trkpt>
			 <trkpt lat="35.04801" lon="135.76448">
				 <ele>74.9</ele>
			 </trkpt>
			 <trkpt lat="35.04792" lon="135.76428">
				 <ele>75</ele>
			 </trkpt>
			 <trkpt lat="35.04776" lon="135.76359">
				 <ele>75</ele>
			 </trkpt>
			 <trkpt lat="35.04765" lon="135.76297">
				 <ele>75</ele>
			 </trkpt>
			 <trkpt lat="35.04763" lon="135.76274">
				 <ele>75</ele>
			 </trkpt>
			 <trkpt lat="35.04752" lon="135.76226">
				 <ele>75</ele>
			 </trkpt>
			 <trkpt lat="35.04752" lon="135.76204">
				 <ele>74.9</ele>
			 </trkpt>
			 <trkpt lat="35.04768" lon="135.76191">
				 <ele>74.9</ele>
			 </trkpt>
			 <trkpt lat="35.04788" lon="135.76185">
				 <ele>75</ele>
			 </trkpt>
			 <trkpt lat="35.04828" lon="135.76182">
				 <ele>75.1</ele>
			 </trkpt>
			 <trkpt lat="35.04871" lon="135.76173">
				 <ele>75.2</ele>
			 </trkpt>
			 <trkpt lat="35.04887" lon="135.76174">
				 <ele>75.4</ele>
			 </trkpt>
			 <trkpt lat="35.04904" lon="135.76216">
				 <ele>75.5</ele>
			 </trkpt>
			 <trkpt lat="35.04915" lon="135.76236">
				 <ele>75.7</ele>
			 </trkpt>
			 <trkpt lat="35.04928" lon="135.76254">
				 <ele>75.9</ele>
			 </trkpt>
			 <trkpt lat="35.04959" lon="135.76283">
				 <ele>76.2</ele>
			 </trkpt>
			 <trkpt lat="35.04993" lon="135.76335">
				 <ele>76.5</ele>
			 </trkpt>
			 <trkpt lat="35.05" lon="135.76355">
				 <ele>76.8</ele>
			 </trkpt>
			 <trkpt lat="35.05003" lon="135.76378">
				 <ele>77.1</ele>
			 </trkpt>
			 <trkpt lat="35.05006" lon="135.76385">
				 <ele>77.4</ele>
			 </trkpt>
			 <trkpt lat="35.05012" lon="135.76387">
				 <ele>77.6</ele>
			 </trkpt>
			 <trkpt lat="35.05043" lon="135.7636">
				 <ele>77.7</ele>
			 </trkpt>
			 <trkpt lat="35.05063" lon="135.76295">
				 <ele>77.7</ele>
			 </trkpt>
			 <trkpt lat="35.05067" lon="135.76274">
				 <ele>77.8</ele>
			 </trkpt>
			 <trkpt lat="35.05068" lon="135.7625">
				 <ele>77.9</ele>
			 </trkpt>
			 <trkpt lat="35.05062" lon="135.76203">
				 <ele>77.8</ele>
			 </trkpt>
			 <trkpt lat="35.05027" lon="135.76106">
				 <ele>77.7</ele>
			 </trkpt>
			 <trkpt lat="35.05045" lon="135.76097">
				 <ele>77.6</ele>
			 </trkpt>
			 <trkpt lat="35.05076" lon="135.76091">
				 <ele>77.4</ele>
			 </trkpt>
			 <trkpt lat="35.05076" lon="135.76067">
				 <ele>77.2</ele>
			 </trkpt>
			 <trkpt lat="35.05067" lon="135.75973">
				 <ele>77</ele>
			 </trkpt>
			 <trkpt lat="35.0506" lon="135.75924">
				 <ele>76.7</ele>
			 </trkpt>
			 <trkpt lat="35.05046" lon="135.75879">
				 <ele>76.5</ele>
			 </trkpt>
			 <trkpt lat="35.05023" lon="135.75826">
				 <ele>76.3</ele>
			 </trkpt>
			 <trkpt lat="35.05016" lon="135.75803">
				 <ele>75.8</ele>
			 </trkpt>
			 <trkpt lat="35.05006" lon="135.75782">
				 <ele>75.4</ele>
			 </trkpt>
			 <trkpt lat="35.05001" lon="135.7578">
				 <ele>74.9</ele>
			 </trkpt>
			 <trkpt lat="35.04799" lon="135.75916">
				 <ele>74.4</ele>
			 </trkpt>
			 <trkpt lat="35.04765" lon="135.75945">
				 <ele>73.8</ele>
			 </trkpt>
			 <trkpt lat="35.04711" lon="135.75983">
				 <ele>73.5</ele>
			 </trkpt>
			 <trkpt lat="35.04694" lon="135.75998">
				 <ele>73</ele>
			 </trkpt>
			 <trkpt lat="35.04625" lon="135.76041">
				 <ele>72.5</ele>
			 </trkpt>
			 <trkpt lat="35.04608" lon="135.76054">
				 <ele>72</ele>
			 </trkpt>
			 <trkpt lat="35.04525" lon="135.76103">
				 <ele>71.4</ele>
			 </trkpt>
			 <trkpt lat="35.04512" lon="135.7612">
				 <ele>70.8</ele>
			 </trkpt>
			 <trkpt lat="35.04502" lon="135.76129">
				 <ele>70.4</ele>
			 </trkpt>
			 <trkpt lat="35.04472" lon="135.76171">
				 <ele>70</ele>
			 </trkpt>
			 <trkpt lat="35.04446" lon="135.7619">
				 <ele>69.5</ele>
			 </trkpt>
			 <trkpt lat="35.04415" lon="135.76217">
				 <ele>68.9</ele>
			 </trkpt>
			 <trkpt lat="35.04381" lon="135.76238">
				 <ele>68.3</ele>
			 </trkpt>
			 <trkpt lat="35.04368" lon="135.76251">
				 <ele>67.5</ele>
			 </trkpt>
			 <trkpt lat="35.04342" lon="135.76266">
				 <ele>66.8</ele>
			 </trkpt>
			 <trkpt lat="35.04167" lon="135.76384">
				 <ele>66</ele>
			 </trkpt>
			 <trkpt lat="35.04017" lon="135.76479">
				 <ele>65.3</ele>
			 </trkpt>
			 <trkpt lat="35.03921" lon="135.76552">
				 <ele>64.5</ele>
			 </trkpt>
			 <trkpt lat="35.03893" lon="135.7657">
				 <ele>63.7</ele>
			 </trkpt>
			 <trkpt lat="35.03875" lon="135.76581">
				 <ele>62.9</ele>
			 </trkpt>
			 <trkpt lat="35.03856" lon="135.76588">
				 <ele>62</ele>
			 </trkpt>
			 <trkpt lat="35.0384" lon="135.76597">
				 <ele>61.4</ele>
			 </trkpt>
			 <trkpt lat="35.03805" lon="135.7662">
				 <ele>60.6</ele>
			 </trkpt>
			 <trkpt lat="35.03733" lon="135.76654">
				 <ele>59.9</ele>
			 </trkpt>
			 <trkpt lat="35.03687" lon="135.76689">
				 <ele>59.2</ele>
			 </trkpt>
			 <trkpt lat="35.0365" lon="135.76711">
				 <ele>58.5</ele>
			 </trkpt>
			 <trkpt lat="35.03616" lon="135.76726">
				 <ele>57.8</ele>
			 </trkpt>
			 <trkpt lat="35.0353" lon="135.76786">
				 <ele>57.1</ele>
			 </trkpt>
			 <trkpt lat="35.03492" lon="135.76801">
				 <ele>56.5</ele>
			 </trkpt>
			 <trkpt lat="35.03434" lon="135.76843">
				 <ele>56</ele>
			 </trkpt>
			 <trkpt lat="35.03401" lon="135.76864">
				 <ele>55.6</ele>
			 </trkpt>
			 <trkpt lat="35.03383" lon="135.76872">
				 <ele>55.3</ele>
			 </trkpt>
			 <trkpt lat="35.03317" lon="135.76918">
				 <ele>55</ele>
			 </trkpt>
			 <trkpt lat="35.03301" lon="135.76927">
				 <ele>54.8</ele>
			 </trkpt>
			 <trkpt lat="35.03282" lon="135.76934">
				 <ele>54.5</ele>
			 </trkpt>
			 <trkpt lat="35.03252" lon="135.76951">
				 <ele>54.2</ele>
			 </trkpt>
			 <trkpt lat="35.032" lon="135.76993">
				 <ele>53.9</ele>
			 </trkpt>
			 <trkpt lat="35.03112" lon="135.7704">
				 <ele>53.6</ele>
			 </trkpt>
			 <trkpt lat="35.03042" lon="135.77083">
				 <ele>53.4</ele>
			 </trkpt>
			 <trkpt lat="35.0298" lon="135.77104">
				 <ele>53.1</ele>
			 </trkpt>
			 <trkpt lat="35.02922" lon="135.77112">
				 <ele>52.8</ele>
			 </trkpt>
			 <trkpt lat="35.02909" lon="135.77106">
				 <ele>52.4</ele>
			 </trkpt>
			 <trkpt lat="35.02898" lon="135.77105">
				 <ele>51.9</ele>
			 </trkpt>
			 <trkpt lat="35.02817" lon="135.77117">
				 <ele>51.5</ele>
			 </trkpt>
			 <trkpt lat="35.02774" lon="135.77118">
				 <ele>51</ele>
			 </trkpt>
			 <trkpt lat="35.02735" lon="135.77115">
				 <ele>50.6</ele>
			 </trkpt>
			 <trkpt lat="35.02697" lon="135.77109">
				 <ele>50.3</ele>
			 </trkpt>
			 <trkpt lat="35.0267" lon="135.77109">
				 <ele>49.9</ele>
			 </trkpt>
			 <trkpt lat="35.0265" lon="135.77111">
				 <ele>49.7</ele>
			 </trkpt>
			 <trkpt lat="35.02621" lon="135.77119">
				 <ele>49.6</ele>
			 </trkpt>
			 <trkpt lat="35.02601" lon="135.7712">
				 <ele>49.6</ele>
			 </trkpt>
			 <trkpt lat="35.02587" lon="135.77119">
				 <ele>49.5</ele>
			 </trkpt>
			 <trkpt lat="35.0257" lon="135.77113">
				 <ele>49.5</ele>
			 </trkpt>
			 <trkpt lat="35.02497" lon="135.77115">
				 <ele>49.5</ele>
			 </trkpt>
			 <trkpt lat="35.02485" lon="135.77114">
				 <ele>49.4</ele>
			 </trkpt>
			 <trkpt lat="35.02467" lon="135.77107">
				 <ele>49.4</ele>
			 </trkpt>
			 <trkpt lat="35.02448" lon="135.77104">
				 <ele>49.4</ele>
			 </trkpt>
			 <trkpt lat="35.0241" lon="135.77107">
				 <ele>49.5</ele>
			 </trkpt>
			 <trkpt lat="35.0239" lon="135.77104">
				 <ele>49.5</ele>
			 </trkpt>
			 <trkpt lat="35.02329" lon="135.77115">
				 <ele>49.2</ele>
			 </trkpt>
			 <trkpt lat="35.02244" lon="135.77114">
				 <ele>48.9</ele>
			 </trkpt>
			 <trkpt lat="35.02168" lon="135.77118">
				 <ele>48.5</ele>
			 </trkpt>
			 <trkpt lat="35.02149" lon="135.77116">
				 <ele>48</ele>
			 </trkpt>
			 <trkpt lat="35.02142" lon="135.77112">
				 <ele>47.5</ele>
			 </trkpt>
			 <trkpt lat="35.02103" lon="135.77115">
				 <ele>47.2</ele>
			 </trkpt>
			 <trkpt lat="35.02079" lon="135.7711">
				 <ele>47.1</ele>
			 </trkpt>
			 <trkpt lat="35.02059" lon="135.77115">
				 <ele>46.9</ele>
			 </trkpt>
			 <trkpt lat="35.0204" lon="135.77116">
				 <ele>46.8</ele>
			 </trkpt>
			 <trkpt lat="35.01965" lon="135.77115">
				 <ele>46.5</ele>
			 </trkpt>
			 <trkpt lat="35.01916" lon="135.77118">
				 <ele>46.3</ele>
			 </trkpt>
			 <trkpt lat="35.01877" lon="135.77117">
				 <ele>46.1</ele>
			 </trkpt>
			 <trkpt lat="35.01857" lon="135.77113">
				 <ele>46.1</ele>
			 </trkpt>
			 <trkpt lat="35.0183" lon="135.771">
				 <ele>46.3</ele>
			 </trkpt>
			 <trkpt lat="35.01786" lon="135.77102">
				 <ele>46.6</ele>
			 </trkpt>
			 <trkpt lat="35.01771" lon="135.7709">
				 <ele>47</ele>
			 </trkpt>
			 <trkpt lat="35.01765" lon="135.77068">
				 <ele>47</ele>
			 </trkpt>
			 <trkpt lat="35.01757" lon="135.7702">
				 <ele>47.3</ele>
			 </trkpt>
			 <trkpt lat="35.017456" lon="135.766904">
				 <ele>47.2</ele>
			 </trkpt>
			 <trkpt lat="35.017399" lon="135.75992">
				 <ele>46.8</ele>
			 </trkpt>
			 <trkpt lat="35.017373" lon="135.759909">
				 <ele>46.6</ele>
			 </trkpt>
			 <trkpt lat="35.017448" lon="135.768982">
				 <ele>46.8</ele>
			 </trkpt>
			 <trkpt lat="35.01656" lon="135.768903">
				 <ele>47.1</ele>
			 </trkpt>
			 <trkpt lat="35.011025" lon="135.768915">
				 <ele>47.4</ele>
			 </trkpt>
			 <trkpt lat="35.010911" lon="135.767243">
				 <ele>47.2</ele>
			 </trkpt>
			 <trkpt lat="35.010865" lon="135.767258">
				 <ele>46.6</ele>
			 </trkpt>
			 <trkpt lat="35.011009" lon="135.768985">
				 <ele>46.2</ele>
			 </trkpt>
			 <trkpt lat="35.014952" lon="135.768935">
				 <ele>46.5</ele>
			 </trkpt>
			 <trkpt lat="35.016555" lon="135.768964">
				 <ele>46.5</ele>
			 </trkpt>
			 <trkpt lat="35.01748" lon="135.769065">
				 <ele>47.4</ele>
			 </trkpt>
			 <trkpt lat="35.017574" lon="135.772205">
				 <ele>48.6</ele>
			 </trkpt>
			 <trkpt lat="35.01772" lon="135.77222">
				 <ele>50</ele>
			 </trkpt>
			 <trkpt lat="35.022026" lon="135.772211">
				 <ele>51.4</ele>
			 </trkpt>
			 <trkpt lat="35.025292" lon="135.772313">
				 <ele>52.9</ele>
			 </trkpt>
			 <trkpt lat="35.025283" lon="135.77852">
				 <ele>54.5</ele>
			 </trkpt>
			 <trkpt lat="35.026379" lon="135.778563">
				 <ele>57.4</ele>
			 </trkpt>
			 <trkpt lat="35.028807" lon="135.779137">
				 <ele>60.5</ele>
			 </trkpt>
			 <trkpt lat="35.028576" lon="135.781613">
				 <ele>62.5</ele>
			 </trkpt>
			 <trkpt lat="35.028591" lon="135.784261">
				 <ele>63.9</ele>
			 </trkpt>
			 <trkpt lat="35.028932" lon="135.786476">
				 <ele>65</ele>
			 </trkpt>
			 <trkpt lat="35.02808" lon="135.79079">
				 <ele>65.3</ele>
			 </trkpt>
			 <trkpt lat="35.028024" lon="135.790795">
				 <ele>65.4</ele>
			 </trkpt>
			 <trkpt lat="35.02888" lon="135.786482">
				 <ele>64.3</ele>
			 </trkpt>
			 <trkpt lat="35.028531" lon="135.784255">
				 <ele>63</ele>
			 </trkpt>
			 <trkpt lat="35.028515" lon="135.781633">
				 <ele>61.5</ele>
			 </trkpt>
			 <trkpt lat="35.028755" lon="135.779291">
				 <ele>60.3</ele>
			 </trkpt>
			 <trkpt lat="35.026392" lon="135.778698">
				 <ele>58.1</ele>
			 </trkpt>
			 <trkpt lat="35.015395" lon="135.778329">
				 <ele>55.6</ele>
			 </trkpt>
			 <trkpt lat="35.015372" lon="135.779882">
				 <ele>53.9</ele>
			 </trkpt>
			 <trkpt lat="35.014968" lon="135.779871">
				 <ele>52.8</ele>
			 </trkpt>
			 <trkpt lat="35.01502" lon="135.78234">
				 <ele>51.8</ele>
			 </trkpt>
			 <trkpt lat="35.01494" lon="135.7825">
				 <ele>50.9</ele>
			 </trkpt>
			 <trkpt lat="35.01455" lon="135.78256">
				 <ele>49.9</ele>
			 </trkpt>
			 <trkpt lat="35.01415" lon="135.78259">
				 <ele>50.5</ele>
			 </trkpt>
		 </trkseg>
	 </trk>
</gpx>