<?xml version="1.0" encoding="UTF-8"?>
 <gpx creator="Garmin Connect" version="1.1"
	 xsi:schemaLocation="http://www.topografix.com/GPX/1/1 http://www.topografix.com/GPX/11.xsd"
	 xmlns:ns3="http://www.garmin.com/xmlschemas/TrackPointExtension/v1"
	 xmlns="http://www.topografix.com/GPX/1/1"
	 xmlns:xsi="http://www.w3.org/2001/XMLSchema-instance" xmlns:ns2="http://www.garmin.com/xmlschemas/GpxExtensions/v3">
	 <metadata>
		<name>Access Lagos City Marathon 2025 - 42.195 km</name>
		 <link href="https://www.goandrace.com">
		 <text>Garmin Connect</text>
		 </link>
	 <time>2026-08-09T21:29:32</time>
	 </metadata>
	 <trk>
		 <name>Access Lagos City Marathon 2025 - 42.195 km</name>
		 <trkseg>
			 <trkpt lat="6.497999" lon="3.362104">
				 <ele>7</ele>
			 </trkpt>
			 <trkpt lat="6.498205" lon="3.362153">
				 <ele>7.1</ele>
			 </trkpt>
			 <trkpt lat="6.499134" lon="3.362366">
				 <ele>7.3</ele>
			 </trkpt>
			 <trkpt lat="6.499795" lon="3.362563">
				 <ele>7.1</ele>
			 </trkpt>
			 <trkpt lat="6.500205" lon="3.3627">
				 <ele>7</ele>
			 </trkpt>
			 <trkpt lat="6.500818" lon="3.362923">
				 <ele>6.8</ele>
			 </trkpt>
			 <trkpt lat="6.501197" lon="3.363021">
				 <ele>6.6</ele>
			 </trkpt>
			 <trkpt lat="6.501469" lon="3.363143">
				 <ele>6.4</ele>
			 </trkpt>
			 <trkpt lat="6.502213" lon="3.363424">
				 <ele>6.7</ele>
			 </trkpt>
			 <trkpt lat="6.502993" lon="3.363732">
				 <ele>7.1</ele>
			 </trkpt>
			 <trkpt lat="6.503296" lon="3.363844">
				 <ele>7.3</ele>
			 </trkpt>
			 <trkpt lat="6.503458" lon="3.363904">
				 <ele>7.4</ele>
			 </trkpt>
			 <trkpt lat="6.503729" lon="3.363994">
				 <ele>7.5</ele>
			 </trkpt>
			 <trkpt lat="6.503915" lon="3.364044">
				 <ele>7.6</ele>
			 </trkpt>
			 <trkpt lat="6.504064" lon="3.364099">
				 <ele>7.8</ele>
			 </trkpt>
			 <trkpt lat="6.50423" lon="3.364141">
				 <ele>8</ele>
			 </trkpt>
			 <trkpt lat="6.504377" lon="3.364167">
				 <ele>8.3</ele>
			 </trkpt>
			 <trkpt lat="6.50457" lon="3.364186">
				 <ele>8.5</ele>
			 </trkpt>
			 <trkpt lat="6.504749" lon="3.364188">
				 <ele>8.7</ele>
			 </trkpt>
			 <trkpt lat="6.504975" lon="3.364179">
				 <ele>8.7</ele>
			 </trkpt>
			 <trkpt lat="6.505138" lon="3.364158">
				 <ele>8.6</ele>
			 </trkpt>
			 <trkpt lat="6.505276" lon="3.364143">
				 <ele>8.5</ele>
			 </trkpt>
			 <trkpt lat="6.505463" lon="3.364112">
				 <ele>8.3</ele>
			 </trkpt>
			 <trkpt lat="6.505706" lon="3.364087">
				 <ele>8.1</ele>
			 </trkpt>
			 <trkpt lat="6.505846" lon="3.364056">
				 <ele>8</ele>
			 </trkpt>
			 <trkpt lat="6.505879" lon="3.364048">
				 <ele>7.9</ele>
			 </trkpt>
			 <trkpt lat="6.506063" lon="3.364006">
				 <ele>8.2</ele>
			 </trkpt>
			 <trkpt lat="6.506524" lon="3.36384">
				 <ele>8.6</ele>
			 </trkpt>
			 <trkpt lat="6.506738" lon="3.363784">
				 <ele>9.1</ele>
			 </trkpt>
			 <trkpt lat="6.506834" lon="3.363759">
				 <ele>9.5</ele>
			 </trkpt>
			 <trkpt lat="6.507007" lon="3.363641">
				 <ele>10.1</ele>
			 </trkpt>
			 <trkpt lat="6.507445" lon="3.363535">
				 <ele>10.5</ele>
			 </trkpt>
			 <trkpt lat="6.507882" lon="3.36343">
				 <ele>10.9</ele>
			 </trkpt>
			 <trkpt lat="6.508047" lon="3.36339">
				 <ele>11.4</ele>
			 </trkpt>
			 <trkpt lat="6.508421" lon="3.363311">
				 <ele>11.8</ele>
			 </trkpt>
			 <trkpt lat="6.508675" lon="3.363251">
				 <ele>12.1</ele>
			 </trkpt>
			 <trkpt lat="6.508966" lon="3.36321">
				 <ele>12.3</ele>
			 </trkpt>
			 <trkpt lat="6.509254" lon="3.363196">
				 <ele>12</ele>
			 </trkpt>
			 <trkpt lat="6.509704" lon="3.363204">
				 <ele>11.6</ele>
			 </trkpt>
			 <trkpt lat="6.509744" lon="3.363204">
				 <ele>11.4</ele>
			 </trkpt>
			 <trkpt lat="6.510018" lon="3.363245">
				 <ele>11.1</ele>
			 </trkpt>
			 <trkpt lat="6.510459" lon="3.363335">
				 <ele>10.9</ele>
			 </trkpt>
			 <trkpt lat="6.510593" lon="3.363362">
				 <ele>10.8</ele>
			 </trkpt>
			 <trkpt lat="6.51102" lon="3.363501">
				 <ele>10.5</ele>
			 </trkpt>
			 <trkpt lat="6.511448" lon="3.363641">
				 <ele>10.3</ele>
			 </trkpt>
			 <trkpt lat="6.511876" lon="3.36378">
				 <ele>9.8</ele>
			 </trkpt>
			 <trkpt lat="6.512304" lon="3.36392">
				 <ele>9.4</ele>
			 </trkpt>
			 <trkpt lat="6.512731" lon="3.364059">
				 <ele>9.4</ele>
			 </trkpt>
			 <trkpt lat="6.513159" lon="3.364199">
				 <ele>9.5</ele>
			 </trkpt>
			 <trkpt lat="6.513587" lon="3.364339">
				 <ele>9.5</ele>
			 </trkpt>
			 <trkpt lat="6.514015" lon="3.364478">
				 <ele>9.5</ele>
			 </trkpt>
			 <trkpt lat="6.514442" lon="3.364618">
				 <ele>9.5</ele>
			 </trkpt>
			 <trkpt lat="6.51487" lon="3.364757">
				 <ele>9.2</ele>
			 </trkpt>
			 <trkpt lat="6.515151" lon="3.364849">
				 <ele>8.8</ele>
			 </trkpt>
			 <trkpt lat="6.515578" lon="3.364992">
				 <ele>8.7</ele>
			 </trkpt>
			 <trkpt lat="6.515852" lon="3.365084">
				 <ele>8.7</ele>
			 </trkpt>
			 <trkpt lat="6.516282" lon="3.365218">
				 <ele>9</ele>
			 </trkpt>
			 <trkpt lat="6.516433" lon="3.365265">
				 <ele>9.6</ele>
			 </trkpt>
			 <trkpt lat="6.516865" lon="3.365392">
				 <ele>10</ele>
			 </trkpt>
			 <trkpt lat="6.516919" lon="3.365408">
				 <ele>10.4</ele>
			 </trkpt>
			 <trkpt lat="6.517234" lon="3.365552">
				 <ele>10.7</ele>
			 </trkpt>
			 <trkpt lat="6.517654" lon="3.365746">
				 <ele>11.1</ele>
			 </trkpt>
			 <trkpt lat="6.518005" lon="3.365973">
				 <ele>11.5</ele>
			 </trkpt>
			 <trkpt lat="6.518292" lon="3.366192">
				 <ele>12.1</ele>
			 </trkpt>
			 <trkpt lat="6.518592" lon="3.366488">
				 <ele>12.7</ele>
			 </trkpt>
			 <trkpt lat="6.519467" lon="3.367285">
				 <ele>13.5</ele>
			 </trkpt>
			 <trkpt lat="6.519574" lon="3.367357">
				 <ele>14</ele>
			 </trkpt>
			 <trkpt lat="6.519616" lon="3.367386">
				 <ele>14.5</ele>
			 </trkpt>
			 <trkpt lat="6.519783" lon="3.367473">
				 <ele>14.9</ele>
			 </trkpt>
			 <trkpt lat="6.519925" lon="3.367536">
				 <ele>15.9</ele>
			 </trkpt>
			 <trkpt lat="6.520135" lon="3.367594">
				 <ele>16.7</ele>
			 </trkpt>
			 <trkpt lat="6.520306" lon="3.367623">
				 <ele>17.4</ele>
			 </trkpt>
			 <trkpt lat="6.52067" lon="3.367637">
				 <ele>18</ele>
			 </trkpt>
			 <trkpt lat="6.521085" lon="3.367609">
				 <ele>18.6</ele>
			 </trkpt>
			 <trkpt lat="6.522685" lon="3.367564">
				 <ele>19.5</ele>
			 </trkpt>
			 <trkpt lat="6.524047" lon="3.36756">
				 <ele>20.5</ele>
			 </trkpt>
			 <trkpt lat="6.524259" lon="3.367555">
				 <ele>21.5</ele>
			 </trkpt>
			 <trkpt lat="6.525335" lon="3.36753">
				 <ele>22.5</ele>
			 </trkpt>
			 <trkpt lat="6.526378" lon="3.367524">
				 <ele>23.6</ele>
			 </trkpt>
			 <trkpt lat="6.529472" lon="3.367454">
				 <ele>24.1</ele>
			 </trkpt>
			 <trkpt lat="6.529994" lon="3.367441">
				 <ele>23.9</ele>
			 </trkpt>
			 <trkpt lat="6.53035" lon="3.367444">
				 <ele>24.4</ele>
			 </trkpt>
			 <trkpt lat="6.531697" lon="3.367412">
				 <ele>24.5</ele>
			 </trkpt>
			 <trkpt lat="6.532984" lon="3.367382">
				 <ele>24.3</ele>
			 </trkpt>
			 <trkpt lat="6.534644" lon="3.367361">
				 <ele>24.4</ele>
			 </trkpt>
			 <trkpt lat="6.536673" lon="3.367344">
				 <ele>24.2</ele>
			 </trkpt>
			 <trkpt lat="6.53957" lon="3.3673">
				 <ele>23.9</ele>
			 </trkpt>
			 <trkpt lat="6.541856" lon="3.367267">
				 <ele>23.5</ele>
			 </trkpt>
			 <trkpt lat="6.544535" lon="3.367213">
				 <ele>23.4</ele>
			 </trkpt>
			 <trkpt lat="6.547946" lon="3.367123">
				 <ele>22.6</ele>
			 </trkpt>
			 <trkpt lat="6.550338" lon="3.367082">
				 <ele>22.5</ele>
			 </trkpt>
			 <trkpt lat="6.551486" lon="3.367061">
				 <ele>22.6</ele>
			 </trkpt>
			 <trkpt lat="6.553332" lon="3.367029">
				 <ele>22.5</ele>
			 </trkpt>
			 <trkpt lat="6.555497" lon="3.367004">
				 <ele>22.8</ele>
			 </trkpt>
			 <trkpt lat="6.555762" lon="3.366996">
				 <ele>23.1</ele>
			 </trkpt>
			 <trkpt lat="6.555913" lon="3.367121">
				 <ele>22.9</ele>
			 </trkpt>
			 <trkpt lat="6.556363" lon="3.367121">
				 <ele>22.6</ele>
			 </trkpt>
			 <trkpt lat="6.556465" lon="3.367115">
				 <ele>22.4</ele>
			 </trkpt>
			 <trkpt lat="6.556924" lon="3.367107">
				 <ele>22.1</ele>
			 </trkpt>
			 <trkpt lat="6.556866" lon="3.367866">
				 <ele>21.8</ele>
			 </trkpt>
			 <trkpt lat="6.556866" lon="3.368051">
				 <ele>21.8</ele>
			 </trkpt>
			 <trkpt lat="6.556898" lon="3.368344">
				 <ele>22.1</ele>
			 </trkpt>
			 <trkpt lat="6.556924" lon="3.36845">
				 <ele>22.1</ele>
			 </trkpt>
			 <trkpt lat="6.556968" lon="3.368555">
				 <ele>22</ele>
			 </trkpt>
			 <trkpt lat="6.557076" lon="3.368714">
				 <ele>21.7</ele>
			 </trkpt>
			 <trkpt lat="6.557159" lon="3.368876">
				 <ele>21.8</ele>
			 </trkpt>
			 <trkpt lat="6.55734" lon="3.369131">
				 <ele>21.9</ele>
			 </trkpt>
			 <trkpt lat="6.557415" lon="3.369302">
				 <ele>21.8</ele>
			 </trkpt>
			 <trkpt lat="6.557414" lon="3.369499">
				 <ele>21.7</ele>
			 </trkpt>
			 <trkpt lat="6.557414" lon="3.369552">
				 <ele>21.5</ele>
			 </trkpt>
			 <trkpt lat="6.557351" lon="3.369745">
				 <ele>20.9</ele>
			 </trkpt>
			 <trkpt lat="6.557173" lon="3.369991">
				 <ele>20.1</ele>
			 </trkpt>
			 <trkpt lat="6.556945" lon="3.370271">
				 <ele>19</ele>
			 </trkpt>
			 <trkpt lat="6.556852" lon="3.37037">
				 <ele>17.7</ele>
			 </trkpt>
			 <trkpt lat="6.556534" lon="3.370709">
				 <ele>16.5</ele>
			 </trkpt>
			 <trkpt lat="6.556391" lon="3.370909">
				 <ele>14.6</ele>
			 </trkpt>
			 <trkpt lat="6.556334" lon="3.370992">
				 <ele>13.1</ele>
			 </trkpt>
			 <trkpt lat="6.556103" lon="3.371265">
				 <ele>12.1</ele>
			 </trkpt>
			 <trkpt lat="6.555865" lon="3.371518">
				 <ele>11.2</ele>
			 </trkpt>
			 <trkpt lat="6.55568" lon="3.37172">
				 <ele>10.1</ele>
			 </trkpt>
			 <trkpt lat="6.554751" lon="3.372646">
				 <ele>9.1</ele>
			 </trkpt>
			 <trkpt lat="6.553449" lon="3.373946">
				 <ele>8.3</ele>
			 </trkpt>
			 <trkpt lat="6.549938" lon="3.37745">
				 <ele>7.5</ele>
			 </trkpt>
			 <trkpt lat="6.549431" lon="3.378017">
				 <ele>7</ele>
			 </trkpt>
			 <trkpt lat="6.549122" lon="3.378414">
				 <ele>6.5</ele>
			 </trkpt>
			 <trkpt lat="6.548632" lon="3.379175">
				 <ele>5.9</ele>
			 </trkpt>
			 <trkpt lat="6.54844" lon="3.379551">
				 <ele>6.2</ele>
			 </trkpt>
			 <trkpt lat="6.548269" lon="3.379937">
				 <ele>6.4</ele>
			 </trkpt>
			 <trkpt lat="6.548183" lon="3.380161">
				 <ele>6.3</ele>
			 </trkpt>
			 <trkpt lat="6.548094" lon="3.380393">
				 <ele>6.2</ele>
			 </trkpt>
			 <trkpt lat="6.54796" lon="3.380838">
				 <ele>6.2</ele>
			 </trkpt>
			 <trkpt lat="6.547849" lon="3.381359">
				 <ele>6.4</ele>
			 </trkpt>
			 <trkpt lat="6.547779" lon="3.381804">
				 <ele>6.8</ele>
			 </trkpt>
			 <trkpt lat="6.547748" lon="3.382275">
				 <ele>7.4</ele>
			 </trkpt>
			 <trkpt lat="6.547756" lon="3.382849">
				 <ele>7.9</ele>
			 </trkpt>
			 <trkpt lat="6.547788" lon="3.383393">
				 <ele>8.3</ele>
			 </trkpt>
			 <trkpt lat="6.547849" lon="3.38388">
				 <ele>8.9</ele>
			 </trkpt>
			 <trkpt lat="6.547943" lon="3.384346">
				 <ele>8.8</ele>
			 </trkpt>
			 <trkpt lat="6.548066" lon="3.384863">
				 <ele>9.1</ele>
			 </trkpt>
			 <trkpt lat="6.548191" lon="3.385354">
				 <ele>9.4</ele>
			 </trkpt>
			 <trkpt lat="6.548973" lon="3.388295">
				 <ele>9.7</ele>
			 </trkpt>
			 <trkpt lat="6.549122" lon="3.388874">
				 <ele>10.2</ele>
			 </trkpt>
			 <trkpt lat="6.550034" lon="3.392335">
				 <ele>10.3</ele>
			 </trkpt>
			 <trkpt lat="6.550158" lon="3.392829">
				 <ele>10.3</ele>
			 </trkpt>
			 <trkpt lat="6.55028" lon="3.393367">
				 <ele>10</ele>
			 </trkpt>
			 <trkpt lat="6.550317" lon="3.393635">
				 <ele>9.5</ele>
			 </trkpt>
			 <trkpt lat="6.550323" lon="3.393914">
				 <ele>9</ele>
			 </trkpt>
			 <trkpt lat="6.550305" lon="3.394243">
				 <ele>8.4</ele>
			 </trkpt>
			 <trkpt lat="6.550207" lon="3.39476">
				 <ele>8.2</ele>
			 </trkpt>
			 <trkpt lat="6.550109" lon="3.395145">
				 <ele>7.7</ele>
			 </trkpt>
			 <trkpt lat="6.550045" lon="3.395371">
				 <ele>7</ele>
			 </trkpt>
			 <trkpt lat="6.549979" lon="3.395548">
				 <ele>6.4</ele>
			 </trkpt>
			 <trkpt lat="6.549899" lon="3.39574">
				 <ele>5.8</ele>
			 </trkpt>
			 <trkpt lat="6.54979" lon="3.395922">
				 <ele>5.5</ele>
			 </trkpt>
			 <trkpt lat="6.54965" lon="3.396129">
				 <ele>5</ele>
			 </trkpt>
			 <trkpt lat="6.549498" lon="3.396287">
				 <ele>4.5</ele>
			 </trkpt>
			 <trkpt lat="6.549326" lon="3.39644">
				 <ele>4.5</ele>
			 </trkpt>
			 <trkpt lat="6.549143" lon="3.396574">
				 <ele>4.6</ele>
			 </trkpt>
			 <trkpt lat="6.548957" lon="3.396685">
				 <ele>4.5</ele>
			 </trkpt>
			 <trkpt lat="6.548762" lon="3.396784">
				 <ele>4.7</ele>
			 </trkpt>
			 <trkpt lat="6.548561" lon="3.396866">
				 <ele>4.9</ele>
			 </trkpt>
			 <trkpt lat="6.548003" lon="3.397071">
				 <ele>4.9</ele>
			 </trkpt>
			 <trkpt lat="6.547398" lon="3.397311">
				 <ele>4.6</ele>
			 </trkpt>
			 <trkpt lat="6.546994" lon="3.397449">
				 <ele>4.4</ele>
			 </trkpt>
			 <trkpt lat="6.546245" lon="3.39773">
				 <ele>4.1</ele>
			 </trkpt>
			 <trkpt lat="6.545801" lon="3.397918">
				 <ele>4.1</ele>
			 </trkpt>
			 <trkpt lat="6.544057" lon="3.398712">
				 <ele>4.2</ele>
			 </trkpt>
			 <trkpt lat="6.54358" lon="3.398904">
				 <ele>3.7</ele>
			 </trkpt>
			 <trkpt lat="6.542917" lon="3.399131">
				 <ele>3.2</ele>
			 </trkpt>
			 <trkpt lat="6.542226" lon="3.399291">
				 <ele>3.3</ele>
			 </trkpt>
			 <trkpt lat="6.541521" lon="3.399475">
				 <ele>2.8</ele>
			 </trkpt>
			 <trkpt lat="6.540778" lon="3.399631">
				 <ele>2.1</ele>
			 </trkpt>
			 <trkpt lat="6.53996" lon="3.399775">
				 <ele>1.8</ele>
			 </trkpt>
			 <trkpt lat="6.539052" lon="3.399893">
				 <ele>1.6</ele>
			 </trkpt>
			 <trkpt lat="6.538118" lon="3.399997">
				 <ele>1.4</ele>
			 </trkpt>
			 <trkpt lat="6.536956" lon="3.400201">
				 <ele>1.1</ele>
			 </trkpt>
			 <trkpt lat="6.535585" lon="3.40051">
				 <ele>0.6</ele>
			 </trkpt>
			 <trkpt lat="6.534876" lon="3.400689">
				 <ele>0.3</ele>
			 </trkpt>
			 <trkpt lat="6.534332" lon="3.400854">
				 <ele>0.4</ele>
			 </trkpt>
			 <trkpt lat="6.523325" lon="3.404341">
				 <ele>0.5</ele>
			 </trkpt>
			 <trkpt lat="6.522517" lon="3.404558">
				 <ele>0.1</ele>
			 </trkpt>
			 <trkpt lat="6.521841" lon="3.404718">
				 <ele>0</ele>
			 </trkpt>
			 <trkpt lat="6.521059" lon="3.404894">
				 <ele>0.1</ele>
			 </trkpt>
			 <trkpt lat="6.520211" lon="3.405054">
				 <ele>0</ele>
			 </trkpt>
			 <trkpt lat="6.519353" lon="3.40519">
				 <ele>0</ele>
			 </trkpt>
			 <trkpt lat="6.51836" lon="3.405303">
				 <ele>0</ele>
			 </trkpt>
			 <trkpt lat="6.517415" lon="3.405382">
				 <ele>0</ele>
			 </trkpt>
			 <trkpt lat="6.516513" lon="3.405413">
				 <ele>0</ele>
			 </trkpt>
			 <trkpt lat="6.515594" lon="3.405426">
				 <ele>0</ele>
			 </trkpt>
			 <trkpt lat="6.514768" lon="3.405408">
				 <ele>0</ele>
			 </trkpt>
			 <trkpt lat="6.513775" lon="3.405344">
				 <ele>0</ele>
			 </trkpt>
			 <trkpt lat="6.512907" lon="3.405265">
				 <ele>0</ele>
			 </trkpt>
			 <trkpt lat="6.511777" lon="3.405133">
				 <ele>0</ele>
			 </trkpt>
			 <trkpt lat="6.510821" lon="3.404986">
				 <ele>0</ele>
			 </trkpt>
			 <trkpt lat="6.509923" lon="3.404802">
				 <ele>0</ele>
			 </trkpt>
			 <trkpt lat="6.509026" lon="3.404579">
				 <ele>0</ele>
			 </trkpt>
			 <trkpt lat="6.508118" lon="3.404336">
				 <ele>0</ele>
			 </trkpt>
			 <trkpt lat="6.507144" lon="3.404026">
				 <ele>0</ele>
			 </trkpt>
			 <trkpt lat="6.506158" lon="3.403688">
				 <ele>0</ele>
			 </trkpt>
			 <trkpt lat="6.495079" lon="3.399641">
				 <ele>0</ele>
			 </trkpt>
			 <trkpt lat="6.494099" lon="3.399263">
				 <ele>0</ele>
			 </trkpt>
			 <trkpt lat="6.493213" lon="3.398856">
				 <ele>0.1</ele>
			 </trkpt>
			 <trkpt lat="6.492603" lon="3.398563">
				 <ele>0.5</ele>
			 </trkpt>
			 <trkpt lat="6.49164" lon="3.398067">
				 <ele>0.5</ele>
			 </trkpt>
			 <trkpt lat="6.491416" lon="3.397942">
				 <ele>1</ele>
			 </trkpt>
			 <trkpt lat="6.491157" lon="3.397785">
				 <ele>1.6</ele>
			 </trkpt>
			 <trkpt lat="6.490408" lon="3.397332">
				 <ele>2</ele>
			 </trkpt>
			 <trkpt lat="6.489774" lon="3.396963">
				 <ele>2.3</ele>
			 </trkpt>
			 <trkpt lat="6.489292" lon="3.396696">
				 <ele>2.5</ele>
			 </trkpt>
			 <trkpt lat="6.488083" lon="3.395988">
				 <ele>2.7</ele>
			 </trkpt>
			 <trkpt lat="6.48684" lon="3.395281">
				 <ele>2.5</ele>
			 </trkpt>
			 <trkpt lat="6.485221" lon="3.394342">
				 <ele>2.4</ele>
			 </trkpt>
			 <trkpt lat="6.48357" lon="3.393346">
				 <ele>2.2</ele>
			 </trkpt>
			 <trkpt lat="6.4832" lon="3.393115">
				 <ele>1.7</ele>
			 </trkpt>
			 <trkpt lat="6.482357" lon="3.39265">
				 <ele>1.8</ele>
			 </trkpt>
			 <trkpt lat="6.481417" lon="3.392151">
				 <ele>1.4</ele>
			 </trkpt>
			 <trkpt lat="6.480864" lon="3.39188">
				 <ele>0.7</ele>
			 </trkpt>
			 <trkpt lat="6.480384" lon="3.391661">
				 <ele>0.5</ele>
			 </trkpt>
			 <trkpt lat="6.480119" lon="3.391546">
				 <ele>0.3</ele>
			 </trkpt>
			 <trkpt lat="6.479646" lon="3.391356">
				 <ele>0.1</ele>
			 </trkpt>
			 <trkpt lat="6.478983" lon="3.391124">
				 <ele>-0.1</ele>
			 </trkpt>
			 <trkpt lat="6.478064" lon="3.39083">
				 <ele>0.2</ele>
			 </trkpt>
			 <trkpt lat="6.477797" lon="3.390759">
				 <ele>0.3</ele>
			 </trkpt>
			 <trkpt lat="6.477564" lon="3.390701">
				 <ele>0.4</ele>
			 </trkpt>
			 <trkpt lat="6.477165" lon="3.390611">
				 <ele>0.5</ele>
			 </trkpt>
			 <trkpt lat="6.476723" lon="3.390521">
				 <ele>0.4</ele>
			 </trkpt>
			 <trkpt lat="6.475851" lon="3.390381">
				 <ele>0.3</ele>
			 </trkpt>
			 <trkpt lat="6.47518" lon="3.390293">
				 <ele>0.3</ele>
			 </trkpt>
			 <trkpt lat="6.474956" lon="3.390273">
				 <ele>0.2</ele>
			 </trkpt>
			 <trkpt lat="6.474314" lon="3.390233">
				 <ele>0.1</ele>
			 </trkpt>
			 <trkpt lat="6.473439" lon="3.390209">
				 <ele>0</ele>
			 </trkpt>
			 <trkpt lat="6.472483" lon="3.390244">
				 <ele>0</ele>
			 </trkpt>
			 <trkpt lat="6.471712" lon="3.390315">
				 <ele>0</ele>
			 </trkpt>
			 <trkpt lat="6.471039" lon="3.390397">
				 <ele>0.4</ele>
			 </trkpt>
			 <trkpt lat="6.47009" lon="3.390566">
				 <ele>0.2</ele>
			 </trkpt>
			 <trkpt lat="6.469185" lon="3.390768">
				 <ele>0.4</ele>
			 </trkpt>
			 <trkpt lat="6.468508" lon="3.390952">
				 <ele>0.7</ele>
			 </trkpt>
			 <trkpt lat="6.467718" lon="3.391219">
				 <ele>1</ele>
			 </trkpt>
			 <trkpt lat="6.466779" lon="3.391593">
				 <ele>1.2</ele>
			 </trkpt>
			 <trkpt lat="6.466168" lon="3.391877">
				 <ele>1.4</ele>
			 </trkpt>
			 <trkpt lat="6.465394" lon="3.392276">
				 <ele>1.6</ele>
			 </trkpt>
			 <trkpt lat="6.464804" lon="3.392654">
				 <ele>2.7</ele>
			 </trkpt>
			 <trkpt lat="6.464184" lon="3.393072">
				 <ele>3.1</ele>
			 </trkpt>
			 <trkpt lat="6.463494" lon="3.39364">
				 <ele>3.3</ele>
			 </trkpt>
			 <trkpt lat="6.463131" lon="3.393991">
				 <ele>3.2</ele>
			 </trkpt>
			 <trkpt lat="6.46265" lon="3.394544">
				 <ele>3.6</ele>
			 </trkpt>
			 <trkpt lat="6.462091" lon="3.395153">
				 <ele>3.6</ele>
			 </trkpt>
			 <trkpt lat="6.461166" lon="3.39621">
				 <ele>3.5</ele>
			 </trkpt>
			 <trkpt lat="6.460521" lon="3.397079">
				 <ele>3.4</ele>
			 </trkpt>
			 <trkpt lat="6.460045" lon="3.397781">
				 <ele>3.3</ele>
			 </trkpt>
			 <trkpt lat="6.459695" lon="3.398325">
				 <ele>3.4</ele>
			 </trkpt>
			 <trkpt lat="6.459267" lon="3.399027">
				 <ele>3.5</ele>
			 </trkpt>
			 <trkpt lat="6.45919" lon="3.399221">
				 <ele>2.6</ele>
			 </trkpt>
			 <trkpt lat="6.459042" lon="3.399628">
				 <ele>2.5</ele>
			 </trkpt>
			 <trkpt lat="6.45894" lon="3.399905">
				 <ele>2.3</ele>
			 </trkpt>
			 <trkpt lat="6.458804" lon="3.400318">
				 <ele>2.1</ele>
			 </trkpt>
			 <trkpt lat="6.45869" lon="3.400708">
				 <ele>2.2</ele>
			 </trkpt>
			 <trkpt lat="6.458622" lon="3.401003">
				 <ele>2.3</ele>
			 </trkpt>
			 <trkpt lat="6.45856" lon="3.40128">
				 <ele>2.2</ele>
			 </trkpt>
			 <trkpt lat="6.458497" lon="3.401671">
				 <ele>2.3</ele>
			 </trkpt>
			 <trkpt lat="6.45844" lon="3.402078">
				 <ele>2.5</ele>
			 </trkpt>
			 <trkpt lat="6.458383" lon="3.402757">
				 <ele>2.6</ele>
			 </trkpt>
			 <trkpt lat="6.458308" lon="3.403892">
				 <ele>2.7</ele>
			 </trkpt>
			 <trkpt lat="6.458294" lon="3.404095">
				 <ele>2.9</ele>
			 </trkpt>
			 <trkpt lat="6.458252" lon="3.404523">
				 <ele>3.4</ele>
			 </trkpt>
			 <trkpt lat="6.458201" lon="3.404854">
				 <ele>4.2</ele>
			 </trkpt>
			 <trkpt lat="6.4581" lon="3.405287">
				 <ele>4.7</ele>
			 </trkpt>
			 <trkpt lat="6.458038" lon="3.405494">
				 <ele>4.8</ele>
			 </trkpt>
			 <trkpt lat="6.457963" lon="3.405703">
				 <ele>4.7</ele>
			 </trkpt>
			 <trkpt lat="6.457782" lon="3.40612">
				 <ele>4.8</ele>
			 </trkpt>
			 <trkpt lat="6.457612" lon="3.406404">
				 <ele>5.1</ele>
			 </trkpt>
			 <trkpt lat="6.45744" lon="3.406667">
				 <ele>5.5</ele>
			 </trkpt>
			 <trkpt lat="6.457288" lon="3.406865">
				 <ele>5.8</ele>
			 </trkpt>
			 <trkpt lat="6.456981" lon="3.407201">
				 <ele>6.1</ele>
			 </trkpt>
			 <trkpt lat="6.456805" lon="3.407362">
				 <ele>6.2</ele>
			 </trkpt>
			 <trkpt lat="6.456573" lon="3.407549">
				 <ele>5.9</ele>
			 </trkpt>
			 <trkpt lat="6.456434" lon="3.407661">
				 <ele>5.3</ele>
			 </trkpt>
			 <trkpt lat="6.456261" lon="3.40779">
				 <ele>4.7</ele>
			 </trkpt>
			 <trkpt lat="6.455906" lon="3.407979">
				 <ele>4.4</ele>
			 </trkpt>
			 <trkpt lat="6.455696" lon="3.408072">
				 <ele>4.2</ele>
			 </trkpt>
			 <trkpt lat="6.455554" lon="3.408102">
				 <ele>3.9</ele>
			 </trkpt>
			 <trkpt lat="6.455399" lon="3.408127">
				 <ele>3.5</ele>
			 </trkpt>
			 <trkpt lat="6.455276" lon="3.408129">
				 <ele>2.9</ele>
			 </trkpt>
			 <trkpt lat="6.455182" lon="3.408102">
				 <ele>2.3</ele>
			 </trkpt>
			 <trkpt lat="6.4551" lon="3.408064">
				 <ele>1.8</ele>
			 </trkpt>
			 <trkpt lat="6.454986" lon="3.407953">
				 <ele>1.5</ele>
			 </trkpt>
			 <trkpt lat="6.454946" lon="3.407902">
				 <ele>1.5</ele>
			 </trkpt>
			 <trkpt lat="6.454888" lon="3.40777">
				 <ele>1.7</ele>
			 </trkpt>
			 <trkpt lat="6.454873" lon="3.407686">
				 <ele>2</ele>
			 </trkpt>
			 <trkpt lat="6.454879" lon="3.407573">
				 <ele>2.3</ele>
			 </trkpt>
			 <trkpt lat="6.454896" lon="3.407494">
				 <ele>2.6</ele>
			 </trkpt>
			 <trkpt lat="6.454939" lon="3.4074">
				 <ele>3</ele>
			 </trkpt>
			 <trkpt lat="6.454989" lon="3.407319">
				 <ele>3.4</ele>
			 </trkpt>
			 <trkpt lat="6.45507" lon="3.407252">
				 <ele>3.6</ele>
			 </trkpt>
			 <trkpt lat="6.455177" lon="3.407187">
				 <ele>3.9</ele>
			 </trkpt>
			 <trkpt lat="6.455267" lon="3.407161">
				 <ele>4.2</ele>
			 </trkpt>
			 <trkpt lat="6.45536" lon="3.407152">
				 <ele>4.6</ele>
			 </trkpt>
			 <trkpt lat="6.455479" lon="3.407164">
				 <ele>5.2</ele>
			 </trkpt>
			 <trkpt lat="6.455531" lon="3.407181">
				 <ele>5.6</ele>
			 </trkpt>
			 <trkpt lat="6.455701" lon="3.407288">
				 <ele>6</ele>
			 </trkpt>
			 <trkpt lat="6.45586" lon="3.407454">
				 <ele>6.6</ele>
			 </trkpt>
			 <trkpt lat="6.456024" lon="3.407792">
				 <ele>6.5</ele>
			 </trkpt>
			 <trkpt lat="6.456151" lon="3.408053">
				 <ele>6.4</ele>
			 </trkpt>
			 <trkpt lat="6.45629" lon="3.408277">
				 <ele>6.2</ele>
			 </trkpt>
			 <trkpt lat="6.456427" lon="3.40848">
				 <ele>6.2</ele>
			 </trkpt>
			 <trkpt lat="6.456799" lon="3.40901">
				 <ele>6.3</ele>
			 </trkpt>
			 <trkpt lat="6.457656" lon="3.410275">
				 <ele>6.1</ele>
			 </trkpt>
			 <trkpt lat="6.457818" lon="3.410516">
				 <ele>5.7</ele>
			 </trkpt>
			 <trkpt lat="6.45798" lon="3.410752">
				 <ele>5.5</ele>
			 </trkpt>
			 <trkpt lat="6.458196" lon="3.411106">
				 <ele>5.2</ele>
			 </trkpt>
			 <trkpt lat="6.459276" lon="3.412668">
				 <ele>5</ele>
			 </trkpt>
			 <trkpt lat="6.460582" lon="3.414618">
				 <ele>4.4</ele>
			 </trkpt>
			 <trkpt lat="6.461142" lon="3.415469">
				 <ele>4.4</ele>
			 </trkpt>
			 <trkpt lat="6.461564" lon="3.416123">
				 <ele>4.5</ele>
			 </trkpt>
			 <trkpt lat="6.461607" lon="3.41619">
				 <ele>4.9</ele>
			 </trkpt>
			 <trkpt lat="6.461673" lon="3.416307">
				 <ele>5.1</ele>
			 </trkpt>
			 <trkpt lat="6.46192" lon="3.416746">
				 <ele>5</ele>
			 </trkpt>
			 <trkpt lat="6.462299" lon="3.41743">
				 <ele>5.2</ele>
			 </trkpt>
			 <trkpt lat="6.46253" lon="3.417917">
				 <ele>5.4</ele>
			 </trkpt>
			 <trkpt lat="6.462652" lon="3.418185">
				 <ele>5.3</ele>
			 </trkpt>
			 <trkpt lat="6.462922" lon="3.418811">
				 <ele>5.2</ele>
			 </trkpt>
			 <trkpt lat="6.463067" lon="3.419171">
				 <ele>5</ele>
			 </trkpt>
			 <trkpt lat="6.46325" lon="3.419678">
				 <ele>4.9</ele>
			 </trkpt>
			 <trkpt lat="6.463322" lon="3.419916">
				 <ele>5.1</ele>
			 </trkpt>
			 <trkpt lat="6.463418" lon="3.420226">
				 <ele>5.1</ele>
			 </trkpt>
			 <trkpt lat="6.463499" lon="3.420525">
				 <ele>4.8</ele>
			 </trkpt>
			 <trkpt lat="6.463568" lon="3.420808">
				 <ele>4.6</ele>
			 </trkpt>
			 <trkpt lat="6.46365" lon="3.421281">
				 <ele>4.6</ele>
			 </trkpt>
			 <trkpt lat="6.463682" lon="3.421568">
				 <ele>4.5</ele>
			 </trkpt>
			 <trkpt lat="6.463715" lon="3.42217">
				 <ele>4.3</ele>
			 </trkpt>
			 <trkpt lat="6.46371" lon="3.42263">
				 <ele>4</ele>
			 </trkpt>
			 <trkpt lat="6.463698" lon="3.422843">
				 <ele>4</ele>
			 </trkpt>
			 <trkpt lat="6.463642" lon="3.42327">
				 <ele>4.1</ele>
			 </trkpt>
			 <trkpt lat="6.463567" lon="3.423696">
				 <ele>4.3</ele>
			 </trkpt>
			 <trkpt lat="6.463439" lon="3.424193">
				 <ele>4.3</ele>
			 </trkpt>
			 <trkpt lat="6.463378" lon="3.424406">
				 <ele>5</ele>
			 </trkpt>
			 <trkpt lat="6.463193" lon="3.424956">
				 <ele>6</ele>
			 </trkpt>
			 <trkpt lat="6.462933" lon="3.425673">
				 <ele>6.9</ele>
			 </trkpt>
			 <trkpt lat="6.46275" lon="3.426193">
				 <ele>7.8</ele>
			 </trkpt>
			 <trkpt lat="6.462481" lon="3.426959">
				 <ele>8.5</ele>
			 </trkpt>
			 <trkpt lat="6.462063" lon="3.428099">
				 <ele>9.8</ele>
			 </trkpt>
			 <trkpt lat="6.461907" lon="3.428503">
				 <ele>10.4</ele>
			 </trkpt>
			 <trkpt lat="6.461855" lon="3.428628">
				 <ele>10.8</ele>
			 </trkpt>
			 <trkpt lat="6.461723" lon="3.428944">
				 <ele>11.3</ele>
			 </trkpt>
			 <trkpt lat="6.461554" lon="3.429376">
				 <ele>11.8</ele>
			 </trkpt>
			 <trkpt lat="6.461165" lon="3.430439">
				 <ele>12.4</ele>
			 </trkpt>
			 <trkpt lat="6.460661" lon="3.43194">
				 <ele>12.3</ele>
			 </trkpt>
			 <trkpt lat="6.460481" lon="3.432478">
				 <ele>12</ele>
			 </trkpt>
			 <trkpt lat="6.460431" lon="3.432561">
				 <ele>11.7</ele>
			 </trkpt>
			 <trkpt lat="6.46035" lon="3.432672">
				 <ele>11.4</ele>
			 </trkpt>
			 <trkpt lat="6.460271" lon="3.432748">
				 <ele>11.2</ele>
			 </trkpt>
			 <trkpt lat="6.460226" lon="3.43278">
				 <ele>10.6</ele>
			 </trkpt>
			 <trkpt lat="6.460152" lon="3.432815">
				 <ele>10.5</ele>
			 </trkpt>
			 <trkpt lat="6.460065" lon="3.432835">
				 <ele>10.5</ele>
			 </trkpt>
			 <trkpt lat="6.459969" lon="3.432845">
				 <ele>10.5</ele>
			 </trkpt>
			 <trkpt lat="6.459846" lon="3.43284">
				 <ele>10.4</ele>
			 </trkpt>
			 <trkpt lat="6.459725" lon="3.432811">
				 <ele>10.4</ele>
			 </trkpt>
			 <trkpt lat="6.459295" lon="3.43265">
				 <ele>10.4</ele>
			 </trkpt>
			 <trkpt lat="6.458245" lon="3.432266">
				 <ele>10.7</ele>
			 </trkpt>
			 <trkpt lat="6.457062" lon="3.431832">
				 <ele>10.9</ele>
			 </trkpt>
			 <trkpt lat="6.455958" lon="3.431428">
				 <ele>10.7</ele>
			 </trkpt>
			 <trkpt lat="6.454771" lon="3.431">
				 <ele>10.5</ele>
			 </trkpt>
			 <trkpt lat="6.453721" lon="3.430613">
				 <ele>10.3</ele>
			 </trkpt>
			 <trkpt lat="6.453213" lon="3.430433">
				 <ele>10.2</ele>
			 </trkpt>
			 <trkpt lat="6.452507" lon="3.430181">
				 <ele>10.1</ele>
			 </trkpt>
			 <trkpt lat="6.451849" lon="3.429947">
				 <ele>9.9</ele>
			 </trkpt>
			 <trkpt lat="6.451387" lon="3.429781">
				 <ele>9.8</ele>
			 </trkpt>
			 <trkpt lat="6.45117" lon="3.429703">
				 <ele>9.5</ele>
			 </trkpt>
			 <trkpt lat="6.450876" lon="3.429597">
				 <ele>9</ele>
			 </trkpt>
			 <trkpt lat="6.449723" lon="3.429175">
				 <ele>8.3</ele>
			 </trkpt>
			 <trkpt lat="6.449508" lon="3.429098">
				 <ele>7.5</ele>
			 </trkpt>
			 <trkpt lat="6.448836" lon="3.428858">
				 <ele>7</ele>
			 </trkpt>
			 <trkpt lat="6.44856" lon="3.428758">
				 <ele>7</ele>
			 </trkpt>
			 <trkpt lat="6.448307" lon="3.428666">
				 <ele>7.2</ele>
			 </trkpt>
			 <trkpt lat="6.448128" lon="3.4286">
				 <ele>7.5</ele>
			 </trkpt>
			 <trkpt lat="6.447213" lon="3.428263">
				 <ele>8</ele>
			 </trkpt>
			 <trkpt lat="6.447027" lon="3.428195">
				 <ele>8.4</ele>
			 </trkpt>
			 <trkpt lat="6.445771" lon="3.427695">
				 <ele>8.9</ele>
			 </trkpt>
			 <trkpt lat="6.445432" lon="3.427567">
				 <ele>9.5</ele>
			 </trkpt>
			 <trkpt lat="6.445285" lon="3.427518">
				 <ele>10</ele>
			 </trkpt>
			 <trkpt lat="6.445068" lon="3.427447">
				 <ele>10.4</ele>
			 </trkpt>
			 <trkpt lat="6.444977" lon="3.427392">
				 <ele>10.8</ele>
			 </trkpt>
			 <trkpt lat="6.44483" lon="3.427231">
				 <ele>11.2</ele>
			 </trkpt>
			 <trkpt lat="6.444764" lon="3.427152">
				 <ele>11</ele>
			 </trkpt>
			 <trkpt lat="6.444721" lon="3.427098">
				 <ele>10.7</ele>
			 </trkpt>
			 <trkpt lat="6.444667" lon="3.427055">
				 <ele>10.4</ele>
			 </trkpt>
			 <trkpt lat="6.444578" lon="3.427016">
				 <ele>9.8</ele>
			 </trkpt>
			 <trkpt lat="6.444482" lon="3.427008">
				 <ele>9.2</ele>
			 </trkpt>
			 <trkpt lat="6.444387" lon="3.427029">
				 <ele>8.5</ele>
			 </trkpt>
			 <trkpt lat="6.44431" lon="3.427077">
				 <ele>7.8</ele>
			 </trkpt>
			 <trkpt lat="6.444246" lon="3.427143">
				 <ele>7.3</ele>
			 </trkpt>
			 <trkpt lat="6.444208" lon="3.427219">
				 <ele>6.8</ele>
			 </trkpt>
			 <trkpt lat="6.444192" lon="3.427302">
				 <ele>6.5</ele>
			 </trkpt>
			 <trkpt lat="6.444199" lon="3.427387">
				 <ele>6.3</ele>
			 </trkpt>
			 <trkpt lat="6.444228" lon="3.427467">
				 <ele>6.1</ele>
			 </trkpt>
			 <trkpt lat="6.444267" lon="3.427523">
				 <ele>6.3</ele>
			 </trkpt>
			 <trkpt lat="6.444301" lon="3.427558">
				 <ele>6.5</ele>
			 </trkpt>
			 <trkpt lat="6.444308" lon="3.427672">
				 <ele>6.5</ele>
			 </trkpt>
			 <trkpt lat="6.444301" lon="3.427765">
				 <ele>6.6</ele>
			 </trkpt>
			 <trkpt lat="6.444263" lon="3.427887">
				 <ele>6.7</ele>
			 </trkpt>
			 <trkpt lat="6.443905" lon="3.428919">
				 <ele>6.8</ele>
			 </trkpt>
			 <trkpt lat="6.443864" lon="3.429064">
				 <ele>7</ele>
			 </trkpt>
			 <trkpt lat="6.443815" lon="3.429325">
				 <ele>7.2</ele>
			 </trkpt>
			 <trkpt lat="6.443796" lon="3.429573">
				 <ele>7.3</ele>
			 </trkpt>
			 <trkpt lat="6.443788" lon="3.429853">
				 <ele>7.5</ele>
			 </trkpt>
			 <trkpt lat="6.443803" lon="3.430115">
				 <ele>7.7</ele>
			 </trkpt>
			 <trkpt lat="6.44383" lon="3.430325">
				 <ele>7.9</ele>
			 </trkpt>
			 <trkpt lat="6.443884" lon="3.430586">
				 <ele>7.7</ele>
			 </trkpt>
			 <trkpt lat="6.443946" lon="3.4308">
				 <ele>7.7</ele>
			 </trkpt>
			 <trkpt lat="6.444021" lon="3.431034">
				 <ele>7.9</ele>
			 </trkpt>
			 <trkpt lat="6.444078" lon="3.431209">
				 <ele>8.1</ele>
			 </trkpt>
			 <trkpt lat="6.444361" lon="3.431988">
				 <ele>8.3</ele>
			 </trkpt>
			 <trkpt lat="6.444819" lon="3.433324">
				 <ele>8.3</ele>
			 </trkpt>
			 <trkpt lat="6.445799" lon="3.436092">
				 <ele>8.5</ele>
			 </trkpt>
			 <trkpt lat="6.446012" lon="3.436718">
				 <ele>8.6</ele>
			 </trkpt>
			 <trkpt lat="6.446063" lon="3.436867">
				 <ele>8.5</ele>
			 </trkpt>
			 <trkpt lat="6.446203" lon="3.437262">
				 <ele>8.5</ele>
			 </trkpt>
			 <trkpt lat="6.446305" lon="3.437548">
				 <ele>8.2</ele>
			 </trkpt>
			 <trkpt lat="6.446651" lon="3.438526">
				 <ele>8.5</ele>
			 </trkpt>
			 <trkpt lat="6.447047" lon="3.439699">
				 <ele>8.6</ele>
			 </trkpt>
			 <trkpt lat="6.447185" lon="3.440093">
				 <ele>8.5</ele>
			 </trkpt>
			 <trkpt lat="6.447227" lon="3.440207">
				 <ele>8.3</ele>
			 </trkpt>
			 <trkpt lat="6.447359" lon="3.440567">
				 <ele>8</ele>
			 </trkpt>
			 <trkpt lat="6.447473" lon="3.440905">
				 <ele>8</ele>
			 </trkpt>
			 <trkpt lat="6.447522" lon="3.441099">
				 <ele>7.8</ele>
			 </trkpt>
			 <trkpt lat="6.44758" lon="3.441373">
				 <ele>8</ele>
			 </trkpt>
			 <trkpt lat="6.447663" lon="3.442023">
				 <ele>8.4</ele>
			 </trkpt>
			 <trkpt lat="6.447673" lon="3.442244">
				 <ele>8.5</ele>
			 </trkpt>
			 <trkpt lat="6.44767" lon="3.442419">
				 <ele>8.5</ele>
			 </trkpt>
			 <trkpt lat="6.447653" lon="3.44255">
				 <ele>8.5</ele>
			 </trkpt>
			 <trkpt lat="6.447621" lon="3.442723">
				 <ele>8.5</ele>
			 </trkpt>
			 <trkpt lat="6.447575" lon="3.442931">
				 <ele>8.7</ele>
			 </trkpt>
			 <trkpt lat="6.447497" lon="3.443164">
				 <ele>8.8</ele>
			 </trkpt>
			 <trkpt lat="6.447374" lon="3.44347">
				 <ele>8.9</ele>
			 </trkpt>
			 <trkpt lat="6.447224" lon="3.443783">
				 <ele>8.7</ele>
			 </trkpt>
			 <trkpt lat="6.447099" lon="3.443974">
				 <ele>8.5</ele>
			 </trkpt>
			 <trkpt lat="6.446926" lon="3.444206">
				 <ele>8.1</ele>
			 </trkpt>
			 <trkpt lat="6.444951" lon="3.446518">
				 <ele>7.7</ele>
			 </trkpt>
			 <trkpt lat="6.444776" lon="3.446741">
				 <ele>7.6</ele>
			 </trkpt>
			 <trkpt lat="6.444643" lon="3.446935">
				 <ele>7.6</ele>
			 </trkpt>
			 <trkpt lat="6.444572" lon="3.44706">
				 <ele>7.6</ele>
			 </trkpt>
			 <trkpt lat="6.444435" lon="3.447354">
				 <ele>7.5</ele>
			 </trkpt>
			 <trkpt lat="6.444375" lon="3.447517">
				 <ele>7.3</ele>
			 </trkpt>
			 <trkpt lat="6.444299" lon="3.447783">
				 <ele>7.4</ele>
			 </trkpt>
			 <trkpt lat="6.444267" lon="3.447924">
				 <ele>7.5</ele>
			 </trkpt>
			 <trkpt lat="6.444227" lon="3.448189">
				 <ele>7.6</ele>
			 </trkpt>
			 <trkpt lat="6.444209" lon="3.448347">
				 <ele>7.8</ele>
			 </trkpt>
			 <trkpt lat="6.444195" lon="3.448556">
				 <ele>8</ele>
			 </trkpt>
			 <trkpt lat="6.444191" lon="3.448725">
				 <ele>8.2</ele>
			 </trkpt>
			 <trkpt lat="6.444211" lon="3.448948">
				 <ele>8.2</ele>
			 </trkpt>
			 <trkpt lat="6.44425" lon="3.449094">
				 <ele>8</ele>
			 </trkpt>
			 <trkpt lat="6.444281" lon="3.449183">
				 <ele>7.6</ele>
			 </trkpt>
			 <trkpt lat="6.444378" lon="3.449368">
				 <ele>7.4</ele>
			 </trkpt>
			 <trkpt lat="6.444439" lon="3.449443">
				 <ele>7.2</ele>
			 </trkpt>
			 <trkpt lat="6.444611" lon="3.449631">
				 <ele>7</ele>
			 </trkpt>
			 <trkpt lat="6.444699" lon="3.4497">
				 <ele>6.9</ele>
			 </trkpt>
			 <trkpt lat="6.444766" lon="3.449738">
				 <ele>6.9</ele>
			 </trkpt>
			 <trkpt lat="6.444907" lon="3.449801">
				 <ele>7</ele>
			 </trkpt>
			 <trkpt lat="6.444978" lon="3.449818">
				 <ele>7.1</ele>
			 </trkpt>
			 <trkpt lat="6.445168" lon="3.449839">
				 <ele>7.3</ele>
			 </trkpt>
			 <trkpt lat="6.445292" lon="3.449841">
				 <ele>7.5</ele>
			 </trkpt>
			 <trkpt lat="6.445459" lon="3.449826">
				 <ele>7.9</ele>
			 </trkpt>
			 <trkpt lat="6.445627" lon="3.449797">
				 <ele>8.4</ele>
			 </trkpt>
			 <trkpt lat="6.446205" lon="3.449707">
				 <ele>8.7</ele>
			 </trkpt>
			 <trkpt lat="6.446437" lon="3.449667">
				 <ele>8.8</ele>
			 </trkpt>
			 <trkpt lat="6.447034" lon="3.44957">
				 <ele>8.9</ele>
			 </trkpt>
			 <trkpt lat="6.447153" lon="3.44955">
				 <ele>8.9</ele>
			 </trkpt>
			 <trkpt lat="6.447643" lon="3.449459">
				 <ele>8.8</ele>
			 </trkpt>
			 <trkpt lat="6.447945" lon="3.44941">
				 <ele>8.7</ele>
			 </trkpt>
			 <trkpt lat="6.448547" lon="3.449309">
				 <ele>8.6</ele>
			 </trkpt>
			 <trkpt lat="6.448812" lon="3.44928">
				 <ele>8.5</ele>
			 </trkpt>
			 <trkpt lat="6.448982" lon="3.449268">
				 <ele>8.3</ele>
			 </trkpt>
			 <trkpt lat="6.449118" lon="3.44927">
				 <ele>8.1</ele>
			 </trkpt>
			 <trkpt lat="6.449218" lon="3.449262">
				 <ele>7.8</ele>
			 </trkpt>
			 <trkpt lat="6.449281" lon="3.449263">
				 <ele>7.5</ele>
			 </trkpt>
			 <trkpt lat="6.449339" lon="3.449273">
				 <ele>7.5</ele>
			 </trkpt>
			 <trkpt lat="6.449396" lon="3.449291">
				 <ele>7.5</ele>
			 </trkpt>
			 <trkpt lat="6.449479" lon="3.449342">
				 <ele>6.9</ele>
			 </trkpt>
			 <trkpt lat="6.449545" lon="3.449384">
				 <ele>6.3</ele>
			 </trkpt>
			 <trkpt lat="6.449578" lon="3.449439">
				 <ele>5.5</ele>
			 </trkpt>
			 <trkpt lat="6.449623" lon="3.449539">
				 <ele>4.8</ele>
			 </trkpt>
			 <trkpt lat="6.449637" lon="3.44964">
				 <ele>4.1</ele>
			 </trkpt>
			 <trkpt lat="6.450176" lon="3.455414">
				 <ele>3.4</ele>
			 </trkpt>
			 <trkpt lat="6.450197" lon="3.455718">
				 <ele>2.6</ele>
			 </trkpt>
			 <trkpt lat="6.450197" lon="3.455942">
				 <ele>1.9</ele>
			 </trkpt>
			 <trkpt lat="6.450188" lon="3.456182">
				 <ele>1.3</ele>
			 </trkpt>
			 <trkpt lat="6.45015" lon="3.456439">
				 <ele>0.6</ele>
			 </trkpt>
			 <trkpt lat="6.450104" lon="3.456684">
				 <ele>0</ele>
			 </trkpt>
			 <trkpt lat="6.450033" lon="3.456917">
				 <ele>0</ele>
			 </trkpt>
			 <trkpt lat="6.449939" lon="3.457177">
				 <ele>0</ele>
			 </trkpt>
			 <trkpt lat="6.449827" lon="3.457431">
				 <ele>0</ele>
			 </trkpt>
			 <trkpt lat="6.4497" lon="3.457668">
				 <ele>0</ele>
			 </trkpt>
			 <trkpt lat="6.449535" lon="3.457919">
				 <ele>0.1</ele>
			 </trkpt>
			 <trkpt lat="6.448366" lon="3.45956">
				 <ele>0.2</ele>
			 </trkpt>
			 <trkpt lat="6.447938" lon="3.460157">
				 <ele>0.3</ele>
			 </trkpt>
			 <trkpt lat="6.4478" lon="3.460339">
				 <ele>0.4</ele>
			 </trkpt>
			 <trkpt lat="6.447661" lon="3.460489">
				 <ele>0.5</ele>
			 </trkpt>
			 <trkpt lat="6.447528" lon="3.460613">
				 <ele>0.6</ele>
			 </trkpt>
			 <trkpt lat="6.447357" lon="3.460752">
				 <ele>0.8</ele>
			 </trkpt>
			 <trkpt lat="6.447119" lon="3.460918">
				 <ele>1</ele>
			 </trkpt>
			 <trkpt lat="6.447032" lon="3.460969">
				 <ele>1.2</ele>
			 </trkpt>
			 <trkpt lat="6.446988" lon="3.460979">
				 <ele>1.4</ele>
			 </trkpt>
			 <trkpt lat="6.446909" lon="3.460976">
				 <ele>1.5</ele>
			 </trkpt>
			 <trkpt lat="6.446854" lon="3.460957">
				 <ele>2</ele>
			 </trkpt>
			 <trkpt lat="6.446813" lon="3.460918">
				 <ele>2.5</ele>
			 </trkpt>
			 <trkpt lat="6.446787" lon="3.460884">
				 <ele>2.9</ele>
			 </trkpt>
			 <trkpt lat="6.446737" lon="3.460784">
				 <ele>3.3</ele>
			 </trkpt>
			 <trkpt lat="6.446687" lon="3.460612">
				 <ele>3.9</ele>
			 </trkpt>
			 <trkpt lat="6.446584" lon="3.460229">
				 <ele>4.5</ele>
			 </trkpt>
			 <trkpt lat="6.446472" lon="3.459875">
				 <ele>4.8</ele>
			 </trkpt>
			 <trkpt lat="6.446348" lon="3.459591">
				 <ele>5.2</ele>
			 </trkpt>
			 <trkpt lat="6.446307" lon="3.45946">
				 <ele>5.4</ele>
			 </trkpt>
			 <trkpt lat="6.445989" lon="3.458815">
				 <ele>5.5</ele>
			 </trkpt>
			 <trkpt lat="6.445935" lon="3.458704">
				 <ele>5.5</ele>
			 </trkpt>
			 <trkpt lat="6.445093" lon="3.457011">
				 <ele>5.3</ele>
			 </trkpt>
			 <trkpt lat="6.444227" lon="3.455268">
				 <ele>4.9</ele>
			 </trkpt>
			 <trkpt lat="6.444139" lon="3.455103">
				 <ele>4.7</ele>
			 </trkpt>
			 <trkpt lat="6.444047" lon="3.454948">
				 <ele>4.6</ele>
			 </trkpt>
			 <trkpt lat="6.443962" lon="3.454822">
				 <ele>4.3</ele>
			 </trkpt>
			 <trkpt lat="6.443858" lon="3.454701">
				 <ele>4</ele>
			 </trkpt>
			 <trkpt lat="6.443762" lon="3.45462">
				 <ele>3.9</ele>
			 </trkpt>
			 <trkpt lat="6.443723" lon="3.454581">
				 <ele>3.8</ele>
			 </trkpt>
			 <trkpt lat="6.443618" lon="3.454507">
				 <ele>3.8</ele>
			 </trkpt>
			 <trkpt lat="6.443473" lon="3.454433">
				 <ele>3.9</ele>
			 </trkpt>
			 <trkpt lat="6.443357" lon="3.454387">
				 <ele>4.1</ele>
			 </trkpt>
			 <trkpt lat="6.443226" lon="3.454346">
				 <ele>4.4</ele>
			 </trkpt>
			 <trkpt lat="6.443051" lon="3.454312">
				 <ele>4.6</ele>
			 </trkpt>
			 <trkpt lat="6.442836" lon="3.454282">
				 <ele>4.8</ele>
			 </trkpt>
			 <trkpt lat="6.44258" lon="3.454261">
				 <ele>4.8</ele>
			 </trkpt>
			 <trkpt lat="6.441628" lon="3.454168">
				 <ele>4.9</ele>
			 </trkpt>
			 <trkpt lat="6.441386" lon="3.454153">
				 <ele>5</ele>
			 </trkpt>
			 <trkpt lat="6.441139" lon="3.454186">
				 <ele>5.1</ele>
			 </trkpt>
			 <trkpt lat="6.440989" lon="3.454215">
				 <ele>5.3</ele>
			 </trkpt>
			 <trkpt lat="6.440825" lon="3.454277">
				 <ele>5.6</ele>
			 </trkpt>
			 <trkpt lat="6.440684" lon="3.454345">
				 <ele>5.7</ele>
			 </trkpt>
			 <trkpt lat="6.440547" lon="3.454438">
				 <ele>5.5</ele>
			 </trkpt>
			 <trkpt lat="6.440411" lon="3.45456">
				 <ele>5.3</ele>
			 </trkpt>
			 <trkpt lat="6.440305" lon="3.454666">
				 <ele>5.4</ele>
			 </trkpt>
			 <trkpt lat="6.440206" lon="3.45478">
				 <ele>5.7</ele>
			 </trkpt>
			 <trkpt lat="6.439907" lon="3.455177">
				 <ele>6.3</ele>
			 </trkpt>
			 <trkpt lat="6.439529" lon="3.455718">
				 <ele>6.6</ele>
			 </trkpt>
			 <trkpt lat="6.439429" lon="3.455849">
				 <ele>6.8</ele>
			 </trkpt>
			 <trkpt lat="6.439299" lon="3.455993">
				 <ele>6.9</ele>
			 </trkpt>
			 <trkpt lat="6.439176" lon="3.456108">
				 <ele>6.7</ele>
			 </trkpt>
			 <trkpt lat="6.439062" lon="3.456193">
				 <ele>6.5</ele>
			 </trkpt>
			 <trkpt lat="6.438902" lon="3.456289">
				 <ele>6.5</ele>
			 </trkpt>
			 <trkpt lat="6.438731" lon="3.456371">
				 <ele>6.8</ele>
			 </trkpt>
			 <trkpt lat="6.438571" lon="3.456421">
				 <ele>7.1</ele>
			 </trkpt>
			 <trkpt lat="6.438241" lon="3.45649">
				 <ele>7.2</ele>
			 </trkpt>
			 <trkpt lat="6.438098" lon="3.456498">
				 <ele>7.3</ele>
			 </trkpt>
			 <trkpt lat="6.437946" lon="3.456486">
				 <ele>7.4</ele>
			 </trkpt>
			 <trkpt lat="6.437805" lon="3.456462">
				 <ele>7.5</ele>
			 </trkpt>
			 <trkpt lat="6.437664" lon="3.456429">
				 <ele>7.7</ele>
			 </trkpt>
			 <trkpt lat="6.437541" lon="3.456387">
				 <ele>7.6</ele>
			 </trkpt>
			 <trkpt lat="6.437405" lon="3.456325">
				 <ele>7.7</ele>
			 </trkpt>
			 <trkpt lat="6.437263" lon="3.456249">
				 <ele>7.8</ele>
			 </trkpt>
			 <trkpt lat="6.437139" lon="3.456168">
				 <ele>7.9</ele>
			 </trkpt>
			 <trkpt lat="6.437016" lon="3.456064">
				 <ele>8</ele>
			 </trkpt>
			 <trkpt lat="6.436692" lon="3.455769">
				 <ele>8.1</ele>
			 </trkpt>
			 <trkpt lat="6.436634" lon="3.455716">
				 <ele>8.1</ele>
			 </trkpt>
			 <trkpt lat="6.436499" lon="3.455477">
				 <ele>7.5</ele>
			 </trkpt>
			 <trkpt lat="6.436471" lon="3.455418">
				 <ele>6.6</ele>
			 </trkpt>
			 <trkpt lat="6.436456" lon="3.455334">
				 <ele>5.9</ele>
			 </trkpt>
			 <trkpt lat="6.436456" lon="3.45508">
				 <ele>5.5</ele>
			 </trkpt>
			 <trkpt lat="6.436504" lon="3.454988">
				 <ele>5.5</ele>
			 </trkpt>
			 <trkpt lat="6.436776" lon="3.454585">
				 <ele>5.5</ele>
			 </trkpt>
			 <trkpt lat="6.437486" lon="3.453811">
				 <ele>5.4</ele>
			 </trkpt>
			 <trkpt lat="6.437589" lon="3.453685">
				 <ele>5.2</ele>
			 </trkpt>
			 <trkpt lat="6.437678" lon="3.453552">
				 <ele>4.9</ele>
			 </trkpt>
			 <trkpt lat="6.437764" lon="3.453392">
				 <ele>4.5</ele>
			 </trkpt>
			 <trkpt lat="6.437831" lon="3.453237">
				 <ele>4.3</ele>
			 </trkpt>
			 <trkpt lat="6.437879" lon="3.453087">
				 <ele>4.5</ele>
			 </trkpt>
			 <trkpt lat="6.437913" lon="3.452922">
				 <ele>4.6</ele>
			 </trkpt>
			 <trkpt lat="6.437935" lon="3.452754">
				 <ele>4.6</ele>
			 </trkpt>
			 <trkpt lat="6.437941" lon="3.452554">
				 <ele>4.5</ele>
			 </trkpt>
			 <trkpt lat="6.437933" lon="3.452385">
				 <ele>4.1</ele>
			 </trkpt>
			 <trkpt lat="6.437907" lon="3.452212">
				 <ele>3.9</ele>
			 </trkpt>
			 <trkpt lat="6.437862" lon="3.452034">
				 <ele>3.9</ele>
			 </trkpt>
			 <trkpt lat="6.437812" lon="3.451898">
				 <ele>3.9</ele>
			 </trkpt>
			 <trkpt lat="6.437798" lon="3.451861">
				 <ele>3.9</ele>
			 </trkpt>
			 <trkpt lat="6.437714" lon="3.451681">
				 <ele>3.8</ele>
			 </trkpt>
			 <trkpt lat="6.436968" lon="3.450283">
				 <ele>3.5</ele>
			 </trkpt>
			 <trkpt lat="6.436832" lon="3.450005">
				 <ele>3.4</ele>
			 </trkpt>
			 <trkpt lat="6.436758" lon="3.449833">
				 <ele>3.4</ele>
			 </trkpt>
			 <trkpt lat="6.436699" lon="3.449672">
				 <ele>3.5</ele>
			 </trkpt>
			 <trkpt lat="6.436614" lon="3.449393">
				 <ele>3.8</ele>
			 </trkpt>
			 <trkpt lat="6.436418" lon="3.448845">
				 <ele>4.1</ele>
			 </trkpt>
			 <trkpt lat="6.43545" lon="3.445116">
				 <ele>4.2</ele>
			 </trkpt>
			 <trkpt lat="6.435422" lon="3.444624">
				 <ele>4.2</ele>
			 </trkpt>
			 <trkpt lat="6.435406" lon="3.44437">
				 <ele>4.2</ele>
			 </trkpt>
			 <trkpt lat="6.43541" lon="3.444101">
				 <ele>4.1</ele>
			 </trkpt>
			 <trkpt lat="6.435424" lon="3.443843">
				 <ele>4.1</ele>
			 </trkpt>
			 <trkpt lat="6.435446" lon="3.443645">
				 <ele>4.1</ele>
			 </trkpt>
			 <trkpt lat="6.435478" lon="3.443449">
				 <ele>4</ele>
			 </trkpt>
			 <trkpt lat="6.435526" lon="3.443252">
				 <ele>4</ele>
			 </trkpt>
			 <trkpt lat="6.435592" lon="3.443052">
				 <ele>4.2</ele>
			 </trkpt>
			 <trkpt lat="6.435748" lon="3.442653">
				 <ele>4.1</ele>
			 </trkpt>
			 <trkpt lat="6.435774" lon="3.442594">
				 <ele>4.1</ele>
			 </trkpt>
			 <trkpt lat="6.435999" lon="3.442176">
				 <ele>4</ele>
			 </trkpt>
			 <trkpt lat="6.436249" lon="3.441729">
				 <ele>4</ele>
			 </trkpt>
			 <trkpt lat="6.436536" lon="3.441238">
				 <ele>4</ele>
			 </trkpt>
			 <trkpt lat="6.436686" lon="3.440996">
				 <ele>4.1</ele>
			 </trkpt>
			 <trkpt lat="6.43686" lon="3.44073">
				 <ele>4.4</ele>
			 </trkpt>
			 <trkpt lat="6.437309" lon="3.440054">
				 <ele>4.5</ele>
			 </trkpt>
			 <trkpt lat="6.437509" lon="3.439755">
				 <ele>4.9</ele>
			 </trkpt>
			 <trkpt lat="6.437747" lon="3.439429">
				 <ele>5.2</ele>
			 </trkpt>
			 <trkpt lat="6.437818" lon="3.439328">
				 <ele>5</ele>
			 </trkpt>
			 <trkpt lat="6.438053" lon="3.438936">
				 <ele>5</ele>
			 </trkpt>
			 <trkpt lat="6.438398" lon="3.438318">
				 <ele>5.3</ele>
			 </trkpt>
			 <trkpt lat="6.438911" lon="3.437353">
				 <ele>5.7</ele>
			 </trkpt>
			 <trkpt lat="6.439173" lon="3.436893">
				 <ele>6.1</ele>
			 </trkpt>
			 <trkpt lat="6.439321" lon="3.436659">
				 <ele>6.4</ele>
			 </trkpt>
			 <trkpt lat="6.439464" lon="3.436469">
				 <ele>6.5</ele>
			 </trkpt>
			 <trkpt lat="6.439891" lon="3.435954">
				 <ele>6.5</ele>
			 </trkpt>
			 <trkpt lat="6.440191" lon="3.435576">
				 <ele>6.7</ele>
			 </trkpt>
			 <trkpt lat="6.440284" lon="3.43544">
				 <ele>6.7</ele>
			 </trkpt>
			 <trkpt lat="6.440365" lon="3.435309">
				 <ele>6.6</ele>
			 </trkpt>
			 <trkpt lat="6.44044" lon="3.43517">
				 <ele>6.7</ele>
			 </trkpt>
			 <trkpt lat="6.44051" lon="3.435017">
				 <ele>6.9</ele>
			 </trkpt>
			 <trkpt lat="6.440564" lon="3.434865">
				 <ele>6.8</ele>
			 </trkpt>
			 <trkpt lat="6.440609" lon="3.434696">
				 <ele>6.7</ele>
			 </trkpt>
			 <trkpt lat="6.440636" lon="3.434534">
				 <ele>6.6</ele>
			 </trkpt>
			 <trkpt lat="6.440657" lon="3.434354">
				 <ele>6.6</ele>
			 </trkpt>
			 <trkpt lat="6.440662" lon="3.434176">
				 <ele>6.7</ele>
			 </trkpt>
			 <trkpt lat="6.44065" lon="3.434019">
				 <ele>6.4</ele>
			 </trkpt>
			 <trkpt lat="6.440629" lon="3.433829">
				 <ele>6.1</ele>
			 </trkpt>
			 <trkpt lat="6.440586" lon="3.433632">
				 <ele>5.7</ele>
			 </trkpt>
			 <trkpt lat="6.440544" lon="3.433472">
				 <ele>5.4</ele>
			 </trkpt>
			 <trkpt lat="6.44046" lon="3.433213">
				 <ele>5.1</ele>
			 </trkpt>
			 <trkpt lat="6.440161" lon="3.432344">
				 <ele>4.7</ele>
			 </trkpt>
			 <trkpt lat="6.440033" lon="3.431943">
				 <ele>4.2</ele>
			 </trkpt>
			 <trkpt lat="6.439921" lon="3.431555">
				 <ele>3.6</ele>
			 </trkpt>
			 <trkpt lat="6.439832" lon="3.431209">
				 <ele>3.1</ele>
			 </trkpt>
			 <trkpt lat="6.439769" lon="3.430899">
				 <ele>2.5</ele>
			 </trkpt>
			 <trkpt lat="6.43971" lon="3.430564">
				 <ele>2.2</ele>
			 </trkpt>
			 <trkpt lat="6.439708" lon="3.430526">
				 <ele>2.3</ele>
			 </trkpt>
			 <trkpt lat="6.439698" lon="3.430485">
				 <ele>2.5</ele>
			 </trkpt>
			 <trkpt lat="6.439638" lon="3.430051">
				 <ele>2.8</ele>
			 </trkpt>
			 <trkpt lat="6.439619" lon="3.429914">
				 <ele>3.2</ele>
			 </trkpt>
			 <trkpt lat="6.43958" lon="3.429484">
				 <ele>3.5</ele>
			 </trkpt>
			 <trkpt lat="6.439577" lon="3.429449">
				 <ele>3.5</ele>
			 </trkpt>
			 <trkpt lat="6.439527" lon="3.4289">
				 <ele>3.8</ele>
			 </trkpt>
			 <trkpt lat="6.439474" lon="3.428051">
				 <ele>4.2</ele>
			 </trkpt>
			 <trkpt lat="6.439401" lon="3.427323">
				 <ele>4.6</ele>
			 </trkpt>
			 <trkpt lat="6.43936" lon="3.427022">
				 <ele>5</ele>
			 </trkpt>
			 <trkpt lat="6.439285" lon="3.426611">
				 <ele>5.1</ele>
			 </trkpt>
			 <trkpt lat="6.43911" lon="3.425882">
				 <ele>5.1</ele>
			 </trkpt>
			 <trkpt lat="6.439068" lon="3.425739">
				 <ele>4.8</ele>
			 </trkpt>
			 <trkpt lat="6.438988" lon="3.425463">
				 <ele>4.7</ele>
			 </trkpt>
			 <trkpt lat="6.438969" lon="3.425412">
				 <ele>4.8</ele>
			 </trkpt>
			 <trkpt lat="6.438935" lon="3.425321">
				 <ele>4.9</ele>
			 </trkpt>
			 <trkpt lat="6.438749" lon="3.424813">
				 <ele>5.4</ele>
			 </trkpt>
			 <trkpt lat="6.438493" lon="3.424227">
				 <ele>5.5</ele>
			 </trkpt>
			 <trkpt lat="6.438129" lon="3.423419">
				 <ele>5.5</ele>
			 </trkpt>
			 <trkpt lat="6.437692" lon="3.423313">
				 <ele>5.5</ele>
			 </trkpt>
			 <trkpt lat="6.437659" lon="3.423305">
				 <ele>5.7</ele>
			 </trkpt>
			 <trkpt lat="6.437332" lon="3.423494">
				 <ele>6.1</ele>
			 </trkpt>
			 <trkpt lat="6.437128" lon="3.423831">
				 <ele>6.6</ele>
			 </trkpt>
			 <trkpt lat="6.437101" lon="3.423815">
				 <ele>7.4</ele>
			 </trkpt>
			 <trkpt lat="6.437061" lon="3.423883">
				 <ele>8.1</ele>
			 </trkpt>
			 <trkpt lat="6.437009" lon="3.423957">
				 <ele>8.6</ele>
			 </trkpt>
			 <trkpt lat="6.436907" lon="3.424048">
				 <ele>9.4</ele>
			 </trkpt>
			 <trkpt lat="6.43685" lon="3.424081">
				 <ele>9.9</ele>
			 </trkpt>
			 <trkpt lat="6.436723" lon="3.424114">
				 <ele>10.7</ele>
			 </trkpt>
			 <trkpt lat="6.436661" lon="3.424121">
				 <ele>11.1</ele>
			 </trkpt>
			 <trkpt lat="6.436544" lon="3.424119">
				 <ele>11.2</ele>
			 </trkpt>
			 <trkpt lat="6.436189" lon="3.424027">
				 <ele>11.4</ele>
			 </trkpt>
			 <trkpt lat="6.436125" lon="3.424011">
				 <ele>11.2</ele>
			 </trkpt>
			 <trkpt lat="6.435995" lon="3.423986">
				 <ele>11.1</ele>
			 </trkpt>
			 <trkpt lat="6.435597" lon="3.423936">
				 <ele>11</ele>
			 </trkpt>
			 <trkpt lat="6.434972" lon="3.423883">
				 <ele>10.7</ele>
			 </trkpt>
			 <trkpt lat="6.434589" lon="3.423876">
				 <ele>10.4</ele>
			 </trkpt>
			 <trkpt lat="6.433374" lon="3.423895">
				 <ele>9.3</ele>
			 </trkpt>
			 <trkpt lat="6.431111" lon="3.423881">
				 <ele>8.5</ele>
			 </trkpt>
			 <trkpt lat="6.430678" lon="3.423883">
				 <ele>7.7</ele>
			 </trkpt>
			 <trkpt lat="6.429245" lon="3.423878">
				 <ele>7.5</ele>
			 </trkpt>
			 <trkpt lat="6.429163" lon="3.423878">
				 <ele>7.7</ele>
			 </trkpt>
			 <trkpt lat="6.428279" lon="3.423894">
				 <ele>7.6</ele>
			 </trkpt>
			 <trkpt lat="6.427081" lon="3.423894">
				 <ele>7.8</ele>
			 </trkpt>
			 <trkpt lat="6.425652" lon="3.423906">
				 <ele>7.6</ele>
			 </trkpt>
			 <trkpt lat="6.424838" lon="3.423906">
				 <ele>7.4</ele>
			 </trkpt>
			 <trkpt lat="6.424086" lon="3.423897">
				 <ele>7.5</ele>
			 </trkpt>
			 <trkpt lat="6.423466" lon="3.423906">
				 <ele>7.3</ele>
			 </trkpt>
			 <trkpt lat="6.422731" lon="3.423906">
				 <ele>7.6</ele>
			 </trkpt>
			 <trkpt lat="6.422585" lon="3.420651">
				 <ele>7.8</ele>
			 </trkpt>
			 <trkpt lat="6.422551" lon="3.419658">
				 <ele>8.1</ele>
			 </trkpt>
			 <trkpt lat="6.422537" lon="3.419244">
				 <ele>8.1</ele>
			 </trkpt>
			 <trkpt lat="6.42249" lon="3.417896">
				 <ele>7.8</ele>
			 </trkpt>
			 <trkpt lat="6.422477" lon="3.417704">
				 <ele>7.8</ele>
			 </trkpt>
			 <trkpt lat="6.422422" lon="3.416277">
				 <ele>7.9</ele>
			 </trkpt>
			 <trkpt lat="6.422395" lon="3.415559">
				 <ele>7.4</ele>
			 </trkpt>
			 <trkpt lat="6.422341" lon="3.414808">
				 <ele>6.7</ele>
			 </trkpt>
			 <trkpt lat="6.422204" lon="3.413536">
				 <ele>5.7</ele>
			 </trkpt>
			 <trkpt lat="6.422195" lon="3.41344">
				 <ele>5.2</ele>
			 </trkpt>
			 <trkpt lat="6.422107" lon="3.41345">
				 <ele>4.5</ele>
			 </trkpt>
			 <trkpt lat="6.420484" lon="3.41364">
				 <ele>3.8</ele>
			 </trkpt>
			 <trkpt lat="6.419534" lon="3.413841">
				 <ele>2.9</ele>
			 </trkpt>
			 <trkpt lat="6.419177" lon="3.413934">
				 <ele>2.2</ele>
			 </trkpt>
			 <trkpt lat="6.41835" lon="3.414236">
				 <ele>1.5</ele>
			 </trkpt>
			 <trkpt lat="6.417471" lon="3.414594">
				 <ele>0.8</ele>
			 </trkpt>
			 <trkpt lat="6.417242" lon="3.414632">
				 <ele>0</ele>
			 </trkpt>
			 <trkpt lat="6.417053" lon="3.414602">
				 <ele>0</ele>
			 </trkpt>
			 <trkpt lat="6.416956" lon="3.41455">
				 <ele>0</ele>
			 </trkpt>
			 <trkpt lat="6.41685" lon="3.414524">
				 <ele>0</ele>
			 </trkpt>
			 <trkpt lat="6.416741" lon="3.414527">
				 <ele>0</ele>
			 </trkpt>
			 <trkpt lat="6.416673" lon="3.414544">
				 <ele>0</ele>
			 </trkpt>
			 <trkpt lat="6.416608" lon="3.414573">
				 <ele>0</ele>
			 </trkpt>
			 <trkpt lat="6.416513" lon="3.414643">
				 <ele>0</ele>
			 </trkpt>
			 <trkpt lat="6.416441" lon="3.414738">
				 <ele>0</ele>
			 </trkpt>
			 <trkpt lat="6.416398" lon="3.414849">
				 <ele>0</ele>
			 </trkpt>
			 <trkpt lat="6.416274" lon="3.414986">
				 <ele>0</ele>
			 </trkpt>
			 <trkpt lat="6.416164" lon="3.415064">
				 <ele>0</ele>
			 </trkpt>
			 <trkpt lat="6.415219" lon="3.415446">
				 <ele>0</ele>
			 </trkpt>
			 <trkpt lat="6.414241" lon="3.415851">
				 <ele>0</ele>
			 </trkpt>
			 <trkpt lat="6.413559" lon="3.416134">
				 <ele>0</ele>
			 </trkpt>
			 <trkpt lat="6.412987" lon="3.416358">
				 <ele>0</ele>
			 </trkpt>
			 <trkpt lat="6.412759" lon="3.416427">
				 <ele>0</ele>
			 </trkpt>
			 <trkpt lat="6.41143" lon="3.416977">
				 <ele>0</ele>
			 </trkpt>
			 <trkpt lat="6.410973" lon="3.417162">
				 <ele>0</ele>
			 </trkpt>
		 </trkseg>
	 </trk>
</gpx>