<?xml version="1.0" encoding="UTF-8"?>
 <gpx creator="Garmin Connect" version="1.1"
	 xsi:schemaLocation="http://www.topografix.com/GPX/1/1 http://www.topografix.com/GPX/11.xsd"
	 xmlns:ns3="http://www.garmin.com/xmlschemas/TrackPointExtension/v1"
	 xmlns="http://www.topografix.com/GPX/1/1"
	 xmlns:xsi="http://www.w3.org/2001/XMLSchema-instance" xmlns:ns2="http://www.garmin.com/xmlschemas/GpxExtensions/v3">
	 <metadata>
		<name>Lake Garda 42K 2026 - 42.195 km</name>
		 <link href="https://www.goandrace.com">
		 <text>Garmin Connect</text>
		 </link>
	 <time>2026-08-09T22:15:12</time>
	 </metadata>
	 <trk>
		 <name>Lake Garda 42K 2026 - 42.195 km</name>
		 <trkseg>
			 <trkpt lat="45.814094" lon="10.793756">
				 <ele>73.8</ele>
			 </trkpt>
			 <trkpt lat="45.81409" lon="10.79366">
				 <ele>74.4</ele>
			 </trkpt>
			 <trkpt lat="45.81444" lon="10.79358">
				 <ele>75.1</ele>
			 </trkpt>
			 <trkpt lat="45.81478" lon="10.79345">
				 <ele>75.9</ele>
			 </trkpt>
			 <trkpt lat="45.81507" lon="10.79331">
				 <ele>76.6</ele>
			 </trkpt>
			 <trkpt lat="45.81509" lon="10.79327">
				 <ele>77.4</ele>
			 </trkpt>
			 <trkpt lat="45.8151" lon="10.7931">
				 <ele>78.7</ele>
			 </trkpt>
			 <trkpt lat="45.81512" lon="10.79299">
				 <ele>80.2</ele>
			 </trkpt>
			 <trkpt lat="45.81523" lon="10.793">
				 <ele>81.8</ele>
			 </trkpt>
			 <trkpt lat="45.81529" lon="10.79299">
				 <ele>83.5</ele>
			 </trkpt>
			 <trkpt lat="45.81554" lon="10.79294">
				 <ele>85.3</ele>
			 </trkpt>
			 <trkpt lat="45.81603" lon="10.79284">
				 <ele>86.9</ele>
			 </trkpt>
			 <trkpt lat="45.81612" lon="10.79284">
				 <ele>88.5</ele>
			 </trkpt>
			 <trkpt lat="45.81628" lon="10.79298">
				 <ele>89.8</ele>
			 </trkpt>
			 <trkpt lat="45.81632" lon="10.79305">
				 <ele>91.1</ele>
			 </trkpt>
			 <trkpt lat="45.81657" lon="10.79353">
				 <ele>92.3</ele>
			 </trkpt>
			 <trkpt lat="45.81666" lon="10.79374">
				 <ele>93.3</ele>
			 </trkpt>
			 <trkpt lat="45.8167" lon="10.79383">
				 <ele>94.1</ele>
			 </trkpt>
			 <trkpt lat="45.81675" lon="10.79375">
				 <ele>94.6</ele>
			 </trkpt>
			 <trkpt lat="45.81681" lon="10.7937">
				 <ele>95</ele>
			 </trkpt>
			 <trkpt lat="45.81686" lon="10.79372">
				 <ele>95.2</ele>
			 </trkpt>
			 <trkpt lat="45.81695" lon="10.79386">
				 <ele>95.2</ele>
			 </trkpt>
			 <trkpt lat="45.81697" lon="10.79404">
				 <ele>95.2</ele>
			 </trkpt>
			 <trkpt lat="45.81701" lon="10.79413">
				 <ele>95.1</ele>
			 </trkpt>
			 <trkpt lat="45.81709" lon="10.79421">
				 <ele>94.9</ele>
			 </trkpt>
			 <trkpt lat="45.81714" lon="10.79427">
				 <ele>94.6</ele>
			 </trkpt>
			 <trkpt lat="45.8172" lon="10.7944">
				 <ele>94.4</ele>
			 </trkpt>
			 <trkpt lat="45.81737" lon="10.79488">
				 <ele>94.1</ele>
			 </trkpt>
			 <trkpt lat="45.81745" lon="10.79502">
				 <ele>93.8</ele>
			 </trkpt>
			 <trkpt lat="45.81759" lon="10.79521">
				 <ele>93.6</ele>
			 </trkpt>
			 <trkpt lat="45.81768" lon="10.79536">
				 <ele>93.5</ele>
			 </trkpt>
			 <trkpt lat="45.81774" lon="10.79566">
				 <ele>93.3</ele>
			 </trkpt>
			 <trkpt lat="45.8178" lon="10.79589">
				 <ele>93.2</ele>
			 </trkpt>
			 <trkpt lat="45.81794" lon="10.79606">
				 <ele>93.1</ele>
			 </trkpt>
			 <trkpt lat="45.81798" lon="10.79613">
				 <ele>93</ele>
			 </trkpt>
			 <trkpt lat="45.81807" lon="10.79618">
				 <ele>93</ele>
			 </trkpt>
			 <trkpt lat="45.81828" lon="10.79626">
				 <ele>93</ele>
			 </trkpt>
			 <trkpt lat="45.81833" lon="10.79629">
				 <ele>93</ele>
			 </trkpt>
			 <trkpt lat="45.8184" lon="10.79639">
				 <ele>93</ele>
			 </trkpt>
			 <trkpt lat="45.81845" lon="10.79657">
				 <ele>92.9</ele>
			 </trkpt>
			 <trkpt lat="45.81848" lon="10.79665">
				 <ele>92.8</ele>
			 </trkpt>
			 <trkpt lat="45.81852" lon="10.79668">
				 <ele>92.7</ele>
			 </trkpt>
			 <trkpt lat="45.8187" lon="10.79674">
				 <ele>92.7</ele>
			 </trkpt>
			 <trkpt lat="45.81879" lon="10.79692">
				 <ele>92.7</ele>
			 </trkpt>
			 <trkpt lat="45.81886" lon="10.79703">
				 <ele>92.7</ele>
			 </trkpt>
			 <trkpt lat="45.81894" lon="10.79711">
				 <ele>92.8</ele>
			 </trkpt>
			 <trkpt lat="45.81899" lon="10.79719">
				 <ele>92.9</ele>
			 </trkpt>
			 <trkpt lat="45.81904" lon="10.79734">
				 <ele>93.1</ele>
			 </trkpt>
			 <trkpt lat="45.81911" lon="10.79746">
				 <ele>93.3</ele>
			 </trkpt>
			 <trkpt lat="45.81918" lon="10.79751">
				 <ele>93.5</ele>
			 </trkpt>
			 <trkpt lat="45.81927" lon="10.79753">
				 <ele>93.9</ele>
			 </trkpt>
			 <trkpt lat="45.81933" lon="10.79758">
				 <ele>94.4</ele>
			 </trkpt>
			 <trkpt lat="45.81936" lon="10.79766">
				 <ele>94.8</ele>
			 </trkpt>
			 <trkpt lat="45.81945" lon="10.79783">
				 <ele>95.2</ele>
			 </trkpt>
			 <trkpt lat="45.81955" lon="10.79797">
				 <ele>95.5</ele>
			 </trkpt>
			 <trkpt lat="45.81962" lon="10.79807">
				 <ele>95.9</ele>
			 </trkpt>
			 <trkpt lat="45.81972" lon="10.79831">
				 <ele>96.2</ele>
			 </trkpt>
			 <trkpt lat="45.81983" lon="10.79861">
				 <ele>96.4</ele>
			 </trkpt>
			 <trkpt lat="45.81993" lon="10.7989">
				 <ele>96.5</ele>
			 </trkpt>
			 <trkpt lat="45.82002" lon="10.79907">
				 <ele>96.5</ele>
			 </trkpt>
			 <trkpt lat="45.82013" lon="10.79927">
				 <ele>96.5</ele>
			 </trkpt>
			 <trkpt lat="45.82024" lon="10.79938">
				 <ele>96.4</ele>
			 </trkpt>
			 <trkpt lat="45.8204" lon="10.79956">
				 <ele>96.1</ele>
			 </trkpt>
			 <trkpt lat="45.82045" lon="10.79964">
				 <ele>95.8</ele>
			 </trkpt>
			 <trkpt lat="45.82052" lon="10.79978">
				 <ele>95.5</ele>
			 </trkpt>
			 <trkpt lat="45.82056" lon="10.79993">
				 <ele>95.1</ele>
			 </trkpt>
			 <trkpt lat="45.82063" lon="10.80008">
				 <ele>94.7</ele>
			 </trkpt>
			 <trkpt lat="45.82068" lon="10.80039">
				 <ele>94.4</ele>
			 </trkpt>
			 <trkpt lat="45.82085" lon="10.80073">
				 <ele>94.1</ele>
			 </trkpt>
			 <trkpt lat="45.82101" lon="10.80102">
				 <ele>93.8</ele>
			 </trkpt>
			 <trkpt lat="45.82105" lon="10.80113">
				 <ele>93.5</ele>
			 </trkpt>
			 <trkpt lat="45.82107" lon="10.80121">
				 <ele>93.4</ele>
			 </trkpt>
			 <trkpt lat="45.82114" lon="10.80133">
				 <ele>93.2</ele>
			 </trkpt>
			 <trkpt lat="45.82123" lon="10.80136">
				 <ele>93.1</ele>
			 </trkpt>
			 <trkpt lat="45.8213" lon="10.80138">
				 <ele>93</ele>
			 </trkpt>
			 <trkpt lat="45.82132" lon="10.80142">
				 <ele>93</ele>
			 </trkpt>
			 <trkpt lat="45.82132" lon="10.80153">
				 <ele>93</ele>
			 </trkpt>
			 <trkpt lat="45.82126" lon="10.80165">
				 <ele>93</ele>
			 </trkpt>
			 <trkpt lat="45.82122" lon="10.8019">
				 <ele>93</ele>
			 </trkpt>
			 <trkpt lat="45.82125" lon="10.80216">
				 <ele>93</ele>
			 </trkpt>
			 <trkpt lat="45.8213" lon="10.80225">
				 <ele>93</ele>
			 </trkpt>
			 <trkpt lat="45.82134" lon="10.80229">
				 <ele>92.9</ele>
			 </trkpt>
			 <trkpt lat="45.82139" lon="10.80229">
				 <ele>92.8</ele>
			 </trkpt>
			 <trkpt lat="45.8214" lon="10.80247">
				 <ele>92.6</ele>
			 </trkpt>
			 <trkpt lat="45.82144" lon="10.8028">
				 <ele>92.5</ele>
			 </trkpt>
			 <trkpt lat="45.82147" lon="10.8033">
				 <ele>92.3</ele>
			 </trkpt>
			 <trkpt lat="45.82149" lon="10.80357">
				 <ele>92.1</ele>
			 </trkpt>
			 <trkpt lat="45.82151" lon="10.80382">
				 <ele>91.8</ele>
			 </trkpt>
			 <trkpt lat="45.82157" lon="10.80407">
				 <ele>91.5</ele>
			 </trkpt>
			 <trkpt lat="45.8217" lon="10.80463">
				 <ele>91.3</ele>
			 </trkpt>
			 <trkpt lat="45.82174" lon="10.80463">
				 <ele>91</ele>
			 </trkpt>
			 <trkpt lat="45.82182" lon="10.8046">
				 <ele>90.6</ele>
			 </trkpt>
			 <trkpt lat="45.82185" lon="10.80463">
				 <ele>90.4</ele>
			 </trkpt>
			 <trkpt lat="45.82186" lon="10.80482">
				 <ele>90.1</ele>
			 </trkpt>
			 <trkpt lat="45.82183" lon="10.80501">
				 <ele>89.9</ele>
			 </trkpt>
			 <trkpt lat="45.82183" lon="10.8051">
				 <ele>89.7</ele>
			 </trkpt>
			 <trkpt lat="45.82185" lon="10.80515">
				 <ele>89.5</ele>
			 </trkpt>
			 <trkpt lat="45.82198" lon="10.80532">
				 <ele>89.4</ele>
			 </trkpt>
			 <trkpt lat="45.8221" lon="10.80542">
				 <ele>89.3</ele>
			 </trkpt>
			 <trkpt lat="45.82231" lon="10.80558">
				 <ele>89.1</ele>
			 </trkpt>
			 <trkpt lat="45.82242" lon="10.80578">
				 <ele>88.9</ele>
			 </trkpt>
			 <trkpt lat="45.82246" lon="10.806">
				 <ele>88.7</ele>
			 </trkpt>
			 <trkpt lat="45.82245" lon="10.80621">
				 <ele>88.6</ele>
			 </trkpt>
			 <trkpt lat="45.82243" lon="10.8064">
				 <ele>88.5</ele>
			 </trkpt>
			 <trkpt lat="45.8225" lon="10.80653">
				 <ele>88.5</ele>
			 </trkpt>
			 <trkpt lat="45.82254" lon="10.80664">
				 <ele>88.4</ele>
			 </trkpt>
			 <trkpt lat="45.82255" lon="10.8067">
				 <ele>88.3</ele>
			 </trkpt>
			 <trkpt lat="45.82259" lon="10.80688">
				 <ele>88.3</ele>
			 </trkpt>
			 <trkpt lat="45.82262" lon="10.80696">
				 <ele>88.3</ele>
			 </trkpt>
			 <trkpt lat="45.82275" lon="10.80716">
				 <ele>88.3</ele>
			 </trkpt>
			 <trkpt lat="45.8228" lon="10.80734">
				 <ele>88.5</ele>
			 </trkpt>
			 <trkpt lat="45.82281" lon="10.80748">
				 <ele>88.6</ele>
			 </trkpt>
			 <trkpt lat="45.82282" lon="10.8076">
				 <ele>88.9</ele>
			 </trkpt>
			 <trkpt lat="45.82284" lon="10.80765">
				 <ele>89.2</ele>
			 </trkpt>
			 <trkpt lat="45.82288" lon="10.80768">
				 <ele>89.5</ele>
			 </trkpt>
			 <trkpt lat="45.82293" lon="10.8077">
				 <ele>89.9</ele>
			 </trkpt>
			 <trkpt lat="45.82294" lon="10.80774">
				 <ele>90.4</ele>
			 </trkpt>
			 <trkpt lat="45.82298" lon="10.80794">
				 <ele>90.9</ele>
			 </trkpt>
			 <trkpt lat="45.82306" lon="10.80809">
				 <ele>91.5</ele>
			 </trkpt>
			 <trkpt lat="45.82311" lon="10.8082">
				 <ele>92.1</ele>
			 </trkpt>
			 <trkpt lat="45.82317" lon="10.80828">
				 <ele>92.8</ele>
			 </trkpt>
			 <trkpt lat="45.82322" lon="10.80838">
				 <ele>93.5</ele>
			 </trkpt>
			 <trkpt lat="45.82325" lon="10.80854">
				 <ele>94.4</ele>
			 </trkpt>
			 <trkpt lat="45.82328" lon="10.80862">
				 <ele>95.1</ele>
			 </trkpt>
			 <trkpt lat="45.82335" lon="10.80872">
				 <ele>95.8</ele>
			 </trkpt>
			 <trkpt lat="45.82358" lon="10.80891">
				 <ele>96.5</ele>
			 </trkpt>
			 <trkpt lat="45.82364" lon="10.80891">
				 <ele>97.3</ele>
			 </trkpt>
			 <trkpt lat="45.82371" lon="10.80893">
				 <ele>97.9</ele>
			 </trkpt>
			 <trkpt lat="45.82379" lon="10.80912">
				 <ele>98.5</ele>
			 </trkpt>
			 <trkpt lat="45.82385" lon="10.80929">
				 <ele>98.8</ele>
			 </trkpt>
			 <trkpt lat="45.82394" lon="10.80945">
				 <ele>99.1</ele>
			 </trkpt>
			 <trkpt lat="45.82403" lon="10.80975">
				 <ele>99.3</ele>
			 </trkpt>
			 <trkpt lat="45.82403" lon="10.80989">
				 <ele>99.4</ele>
			 </trkpt>
			 <trkpt lat="45.82401" lon="10.81001">
				 <ele>99.3</ele>
			 </trkpt>
			 <trkpt lat="45.824" lon="10.81016">
				 <ele>99.2</ele>
			 </trkpt>
			 <trkpt lat="45.82403" lon="10.81037">
				 <ele>99.2</ele>
			 </trkpt>
			 <trkpt lat="45.82406" lon="10.81056">
				 <ele>99.1</ele>
			 </trkpt>
			 <trkpt lat="45.82408" lon="10.8106">
				 <ele>99</ele>
			 </trkpt>
			 <trkpt lat="45.8241" lon="10.81072">
				 <ele>98.9</ele>
			 </trkpt>
			 <trkpt lat="45.82412" lon="10.81092">
				 <ele>98.9</ele>
			 </trkpt>
			 <trkpt lat="45.82413" lon="10.81098">
				 <ele>99</ele>
			 </trkpt>
			 <trkpt lat="45.82416" lon="10.8109">
				 <ele>99.2</ele>
			 </trkpt>
			 <trkpt lat="45.82415" lon="10.81079">
				 <ele>99.4</ele>
			 </trkpt>
			 <trkpt lat="45.82414" lon="10.81074">
				 <ele>99.5</ele>
			 </trkpt>
			 <trkpt lat="45.82413" lon="10.81056">
				 <ele>99.8</ele>
			 </trkpt>
			 <trkpt lat="45.82421" lon="10.81054">
				 <ele>100.1</ele>
			 </trkpt>
			 <trkpt lat="45.82422" lon="10.8107">
				 <ele>100.3</ele>
			 </trkpt>
			 <trkpt lat="45.82428" lon="10.81102">
				 <ele>100.5</ele>
			 </trkpt>
			 <trkpt lat="45.82458" lon="10.81237">
				 <ele>100.7</ele>
			 </trkpt>
			 <trkpt lat="45.82477" lon="10.81304">
				 <ele>101</ele>
			 </trkpt>
			 <trkpt lat="45.82488" lon="10.81326">
				 <ele>101.2</ele>
			 </trkpt>
			 <trkpt lat="45.82502" lon="10.81348">
				 <ele>101.4</ele>
			 </trkpt>
			 <trkpt lat="45.82533" lon="10.81382">
				 <ele>101.5</ele>
			 </trkpt>
			 <trkpt lat="45.82552" lon="10.81403">
				 <ele>101.8</ele>
			 </trkpt>
			 <trkpt lat="45.82574" lon="10.81441">
				 <ele>102.2</ele>
			 </trkpt>
			 <trkpt lat="45.82593" lon="10.81487">
				 <ele>102.5</ele>
			 </trkpt>
			 <trkpt lat="45.8261" lon="10.81526">
				 <ele>102.9</ele>
			 </trkpt>
			 <trkpt lat="45.82626" lon="10.81547">
				 <ele>103.3</ele>
			 </trkpt>
			 <trkpt lat="45.82656" lon="10.81576">
				 <ele>103.6</ele>
			 </trkpt>
			 <trkpt lat="45.82682" lon="10.81598">
				 <ele>103.8</ele>
			 </trkpt>
			 <trkpt lat="45.82715" lon="10.81631">
				 <ele>104</ele>
			 </trkpt>
			 <trkpt lat="45.82727" lon="10.81647">
				 <ele>104.1</ele>
			 </trkpt>
			 <trkpt lat="45.82737" lon="10.81668">
				 <ele>104.1</ele>
			 </trkpt>
			 <trkpt lat="45.82748" lon="10.81689">
				 <ele>103.8</ele>
			 </trkpt>
			 <trkpt lat="45.82751" lon="10.81696">
				 <ele>103.4</ele>
			 </trkpt>
			 <trkpt lat="45.82761" lon="10.81721">
				 <ele>102.6</ele>
			 </trkpt>
			 <trkpt lat="45.82765" lon="10.81738">
				 <ele>101.8</ele>
			 </trkpt>
			 <trkpt lat="45.82771" lon="10.81785">
				 <ele>100.9</ele>
			 </trkpt>
			 <trkpt lat="45.8277" lon="10.81882">
				 <ele>99.9</ele>
			 </trkpt>
			 <trkpt lat="45.82772" lon="10.81939">
				 <ele>98.9</ele>
			 </trkpt>
			 <trkpt lat="45.82776" lon="10.81964">
				 <ele>97.9</ele>
			 </trkpt>
			 <trkpt lat="45.82783" lon="10.81996">
				 <ele>96.9</ele>
			 </trkpt>
			 <trkpt lat="45.82788" lon="10.82012">
				 <ele>96</ele>
			 </trkpt>
			 <trkpt lat="45.82792" lon="10.82022">
				 <ele>95.2</ele>
			 </trkpt>
			 <trkpt lat="45.82791" lon="10.82031">
				 <ele>94.5</ele>
			 </trkpt>
			 <trkpt lat="45.82792" lon="10.82036">
				 <ele>94</ele>
			 </trkpt>
			 <trkpt lat="45.82799" lon="10.82051">
				 <ele>93.6</ele>
			 </trkpt>
			 <trkpt lat="45.82821" lon="10.8209">
				 <ele>93.4</ele>
			 </trkpt>
			 <trkpt lat="45.82843" lon="10.82115">
				 <ele>93.3</ele>
			 </trkpt>
			 <trkpt lat="45.82868" lon="10.82143">
				 <ele>93.3</ele>
			 </trkpt>
			 <trkpt lat="45.82894" lon="10.82178">
				 <ele>93.3</ele>
			 </trkpt>
			 <trkpt lat="45.82905" lon="10.82209">
				 <ele>93.5</ele>
			 </trkpt>
			 <trkpt lat="45.82909" lon="10.82221">
				 <ele>93.6</ele>
			 </trkpt>
			 <trkpt lat="45.82913" lon="10.82228">
				 <ele>93.7</ele>
			 </trkpt>
			 <trkpt lat="45.82929" lon="10.82241">
				 <ele>93.8</ele>
			 </trkpt>
			 <trkpt lat="45.82952" lon="10.82249">
				 <ele>93.8</ele>
			 </trkpt>
			 <trkpt lat="45.82969" lon="10.82255">
				 <ele>93.8</ele>
			 </trkpt>
			 <trkpt lat="45.83007" lon="10.82273">
				 <ele>93.7</ele>
			 </trkpt>
			 <trkpt lat="45.83034" lon="10.82289">
				 <ele>93.5</ele>
			 </trkpt>
			 <trkpt lat="45.83051" lon="10.82297">
				 <ele>93.2</ele>
			 </trkpt>
			 <trkpt lat="45.83076" lon="10.8231">
				 <ele>92.7</ele>
			 </trkpt>
			 <trkpt lat="45.83097" lon="10.82325">
				 <ele>92.1</ele>
			 </trkpt>
			 <trkpt lat="45.83111" lon="10.82338">
				 <ele>91.3</ele>
			 </trkpt>
			 <trkpt lat="45.83125" lon="10.82353">
				 <ele>90.4</ele>
			 </trkpt>
			 <trkpt lat="45.83185" lon="10.82442">
				 <ele>89.5</ele>
			 </trkpt>
			 <trkpt lat="45.83198" lon="10.8246">
				 <ele>88.5</ele>
			 </trkpt>
			 <trkpt lat="45.83221" lon="10.82483">
				 <ele>87.5</ele>
			 </trkpt>
			 <trkpt lat="45.83234" lon="10.82493">
				 <ele>86.4</ele>
			 </trkpt>
			 <trkpt lat="45.83238" lon="10.825">
				 <ele>85.4</ele>
			 </trkpt>
			 <trkpt lat="45.83253" lon="10.82509">
				 <ele>84.4</ele>
			 </trkpt>
			 <trkpt lat="45.83259" lon="10.82511">
				 <ele>83.4</ele>
			 </trkpt>
			 <trkpt lat="45.83269" lon="10.82517">
				 <ele>82.5</ele>
			 </trkpt>
			 <trkpt lat="45.83286" lon="10.82521">
				 <ele>81.6</ele>
			 </trkpt>
			 <trkpt lat="45.83307" lon="10.82531">
				 <ele>80.9</ele>
			 </trkpt>
			 <trkpt lat="45.83363" lon="10.82549">
				 <ele>80.2</ele>
			 </trkpt>
			 <trkpt lat="45.83384" lon="10.82556">
				 <ele>79.5</ele>
			 </trkpt>
			 <trkpt lat="45.83398" lon="10.82556">
				 <ele>78.9</ele>
			 </trkpt>
			 <trkpt lat="45.83419" lon="10.82555">
				 <ele>78.4</ele>
			 </trkpt>
			 <trkpt lat="45.83428" lon="10.82559">
				 <ele>77.9</ele>
			 </trkpt>
			 <trkpt lat="45.83433" lon="10.82563">
				 <ele>77.5</ele>
			 </trkpt>
			 <trkpt lat="45.83437" lon="10.82565">
				 <ele>77.1</ele>
			 </trkpt>
			 <trkpt lat="45.83448" lon="10.82565">
				 <ele>76.9</ele>
			 </trkpt>
			 <trkpt lat="45.83454" lon="10.82564">
				 <ele>76.7</ele>
			 </trkpt>
			 <trkpt lat="45.83459" lon="10.8256">
				 <ele>76.7</ele>
			 </trkpt>
			 <trkpt lat="45.83479" lon="10.8257">
				 <ele>76.7</ele>
			 </trkpt>
			 <trkpt lat="45.83482" lon="10.8257">
				 <ele>76.9</ele>
			 </trkpt>
			 <trkpt lat="45.83487" lon="10.8257">
				 <ele>77.1</ele>
			 </trkpt>
			 <trkpt lat="45.83494" lon="10.82565">
				 <ele>77.5</ele>
			 </trkpt>
			 <trkpt lat="45.83499" lon="10.82564">
				 <ele>77.8</ele>
			 </trkpt>
			 <trkpt lat="45.83521" lon="10.82556">
				 <ele>78.2</ele>
			 </trkpt>
			 <trkpt lat="45.83528" lon="10.82556">
				 <ele>78.5</ele>
			 </trkpt>
			 <trkpt lat="45.83533" lon="10.82553">
				 <ele>78.9</ele>
			 </trkpt>
			 <trkpt lat="45.83543" lon="10.82548">
				 <ele>79.2</ele>
			 </trkpt>
			 <trkpt lat="45.83551" lon="10.82546">
				 <ele>79.5</ele>
			 </trkpt>
			 <trkpt lat="45.83565" lon="10.82534">
				 <ele>79.6</ele>
			 </trkpt>
			 <trkpt lat="45.83575" lon="10.8253">
				 <ele>79.8</ele>
			 </trkpt>
			 <trkpt lat="45.83591" lon="10.8253">
				 <ele>79.9</ele>
			 </trkpt>
			 <trkpt lat="45.83621" lon="10.82549">
				 <ele>80</ele>
			 </trkpt>
			 <trkpt lat="45.83634" lon="10.82552">
				 <ele>80</ele>
			 </trkpt>
			 <trkpt lat="45.83652" lon="10.82545">
				 <ele>80</ele>
			 </trkpt>
			 <trkpt lat="45.83678" lon="10.82538">
				 <ele>80</ele>
			 </trkpt>
			 <trkpt lat="45.83686" lon="10.82544">
				 <ele>80</ele>
			 </trkpt>
			 <trkpt lat="45.83704" lon="10.82557">
				 <ele>80</ele>
			 </trkpt>
			 <trkpt lat="45.83718" lon="10.82563">
				 <ele>80.1</ele>
			 </trkpt>
			 <trkpt lat="45.83731" lon="10.8257">
				 <ele>80.2</ele>
			 </trkpt>
			 <trkpt lat="45.83742" lon="10.8257">
				 <ele>80.4</ele>
			 </trkpt>
			 <trkpt lat="45.83749" lon="10.82566">
				 <ele>80.5</ele>
			 </trkpt>
			 <trkpt lat="45.83753" lon="10.82562">
				 <ele>80.8</ele>
			 </trkpt>
			 <trkpt lat="45.83769" lon="10.82567">
				 <ele>81.1</ele>
			 </trkpt>
			 <trkpt lat="45.838169" lon="10.825742">
				 <ele>81.5</ele>
			 </trkpt>
			 <trkpt lat="45.83906" lon="10.82596">
				 <ele>81.8</ele>
			 </trkpt>
			 <trkpt lat="45.8394" lon="10.82603">
				 <ele>82.2</ele>
			 </trkpt>
			 <trkpt lat="45.83975" lon="10.82604">
				 <ele>82.5</ele>
			 </trkpt>
			 <trkpt lat="45.84004" lon="10.826">
				 <ele>82.9</ele>
			 </trkpt>
			 <trkpt lat="45.84023" lon="10.82594">
				 <ele>83.1</ele>
			 </trkpt>
			 <trkpt lat="45.84074" lon="10.82578">
				 <ele>83.3</ele>
			 </trkpt>
			 <trkpt lat="45.84105" lon="10.82577">
				 <ele>83.3</ele>
			 </trkpt>
			 <trkpt lat="45.84136" lon="10.82581">
				 <ele>83.3</ele>
			 </trkpt>
			 <trkpt lat="45.8414" lon="10.82582">
				 <ele>83.1</ele>
			 </trkpt>
			 <trkpt lat="45.84171" lon="10.8259">
				 <ele>82.9</ele>
			 </trkpt>
			 <trkpt lat="45.84189" lon="10.82601">
				 <ele>82.5</ele>
			 </trkpt>
			 <trkpt lat="45.84218" lon="10.82624">
				 <ele>82.2</ele>
			 </trkpt>
			 <trkpt lat="45.84236" lon="10.82635">
				 <ele>81.7</ele>
			 </trkpt>
			 <trkpt lat="45.84292" lon="10.82655">
				 <ele>81.3</ele>
			 </trkpt>
			 <trkpt lat="45.84352" lon="10.8269">
				 <ele>80.7</ele>
			 </trkpt>
			 <trkpt lat="45.84374" lon="10.82709">
				 <ele>80.3</ele>
			 </trkpt>
			 <trkpt lat="45.84399" lon="10.8274">
				 <ele>79.8</ele>
			 </trkpt>
			 <trkpt lat="45.84442" lon="10.82805">
				 <ele>79.4</ele>
			 </trkpt>
			 <trkpt lat="45.84457" lon="10.82821">
				 <ele>78.9</ele>
			 </trkpt>
			 <trkpt lat="45.84473" lon="10.82836">
				 <ele>78.5</ele>
			 </trkpt>
			 <trkpt lat="45.84519" lon="10.82875">
				 <ele>78.2</ele>
			 </trkpt>
			 <trkpt lat="45.84532" lon="10.82889">
				 <ele>77.9</ele>
			 </trkpt>
			 <trkpt lat="45.84548" lon="10.82914">
				 <ele>77.6</ele>
			 </trkpt>
			 <trkpt lat="45.84582" lon="10.82976">
				 <ele>77.5</ele>
			 </trkpt>
			 <trkpt lat="45.84595" lon="10.82995">
				 <ele>77.4</ele>
			 </trkpt>
			 <trkpt lat="45.84608" lon="10.83007">
				 <ele>77.4</ele>
			 </trkpt>
			 <trkpt lat="45.84619" lon="10.83014">
				 <ele>77.4</ele>
			 </trkpt>
			 <trkpt lat="45.84651" lon="10.83027">
				 <ele>77.4</ele>
			 </trkpt>
			 <trkpt lat="45.84697" lon="10.83042">
				 <ele>77.5</ele>
			 </trkpt>
			 <trkpt lat="45.84714" lon="10.83045">
				 <ele>77.7</ele>
			 </trkpt>
			 <trkpt lat="45.84749" lon="10.83049">
				 <ele>78</ele>
			 </trkpt>
			 <trkpt lat="45.84807" lon="10.83055">
				 <ele>78.3</ele>
			 </trkpt>
			 <trkpt lat="45.84824" lon="10.83061">
				 <ele>78.5</ele>
			 </trkpt>
			 <trkpt lat="45.84867" lon="10.83081">
				 <ele>78.7</ele>
			 </trkpt>
			 <trkpt lat="45.84925" lon="10.83107">
				 <ele>78.8</ele>
			 </trkpt>
			 <trkpt lat="45.84945" lon="10.83118">
				 <ele>78.8</ele>
			 </trkpt>
			 <trkpt lat="45.84978" lon="10.83141">
				 <ele>78.7</ele>
			 </trkpt>
			 <trkpt lat="45.85009" lon="10.83163">
				 <ele>78.6</ele>
			 </trkpt>
			 <trkpt lat="45.85028" lon="10.83173">
				 <ele>78.5</ele>
			 </trkpt>
			 <trkpt lat="45.85051" lon="10.83182">
				 <ele>78.1</ele>
			 </trkpt>
			 <trkpt lat="45.85097" lon="10.83194">
				 <ele>77.6</ele>
			 </trkpt>
			 <trkpt lat="45.8512" lon="10.832">
				 <ele>77</ele>
			 </trkpt>
			 <trkpt lat="45.85184" lon="10.83217">
				 <ele>76.3</ele>
			 </trkpt>
			 <trkpt lat="45.85204" lon="10.83224">
				 <ele>75.5</ele>
			 </trkpt>
			 <trkpt lat="45.85317" lon="10.83288">
				 <ele>74.9</ele>
			 </trkpt>
			 <trkpt lat="45.85372" lon="10.83322">
				 <ele>74.4</ele>
			 </trkpt>
			 <trkpt lat="45.85423" lon="10.83355">
				 <ele>73.8</ele>
			 </trkpt>
			 <trkpt lat="45.8546" lon="10.83382">
				 <ele>73.4</ele>
			 </trkpt>
			 <trkpt lat="45.85476" lon="10.83393">
				 <ele>72.9</ele>
			 </trkpt>
			 <trkpt lat="45.85494" lon="10.83403">
				 <ele>72.6</ele>
			 </trkpt>
			 <trkpt lat="45.85554" lon="10.83403">
				 <ele>72.5</ele>
			 </trkpt>
			 <trkpt lat="45.8558" lon="10.83397">
				 <ele>72.5</ele>
			 </trkpt>
			 <trkpt lat="45.85634" lon="10.83361">
				 <ele>72.7</ele>
			 </trkpt>
			 <trkpt lat="45.85749" lon="10.83296">
				 <ele>73</ele>
			 </trkpt>
			 <trkpt lat="45.85766" lon="10.83291">
				 <ele>73.2</ele>
			 </trkpt>
			 <trkpt lat="45.85799" lon="10.83283">
				 <ele>73.4</ele>
			 </trkpt>
			 <trkpt lat="45.85878" lon="10.83256">
				 <ele>73.5</ele>
			 </trkpt>
			 <trkpt lat="45.85896" lon="10.83255">
				 <ele>73.6</ele>
			 </trkpt>
			 <trkpt lat="45.85912" lon="10.83258">
				 <ele>73.7</ele>
			 </trkpt>
			 <trkpt lat="45.85942" lon="10.83268">
				 <ele>73.7</ele>
			 </trkpt>
			 <trkpt lat="45.85999" lon="10.83274">
				 <ele>73.6</ele>
			 </trkpt>
			 <trkpt lat="45.8604" lon="10.83264">
				 <ele>73.4</ele>
			 </trkpt>
			 <trkpt lat="45.86072" lon="10.83249">
				 <ele>73.1</ele>
			 </trkpt>
			 <trkpt lat="45.86086" lon="10.83246">
				 <ele>72.6</ele>
			 </trkpt>
			 <trkpt lat="45.86102" lon="10.83251">
				 <ele>72.2</ele>
			 </trkpt>
			 <trkpt lat="45.86135" lon="10.83273">
				 <ele>71.8</ele>
			 </trkpt>
			 <trkpt lat="45.862658" lon="10.833025">
				 <ele>71.5</ele>
			 </trkpt>
			 <trkpt lat="45.86299" lon="10.832966">
				 <ele>71.1</ele>
			 </trkpt>
			 <trkpt lat="45.864062" lon="10.83361">
				 <ele>70.8</ele>
			 </trkpt>
			 <trkpt lat="45.864437" lon="10.833844">
				 <ele>70.5</ele>
			 </trkpt>
			 <trkpt lat="45.86468" lon="10.833994">
				 <ele>70.4</ele>
			 </trkpt>
			 <trkpt lat="45.86482" lon="10.83404">
				 <ele>70.2</ele>
			 </trkpt>
			 <trkpt lat="45.86501" lon="10.83418">
				 <ele>70.1</ele>
			 </trkpt>
			 <trkpt lat="45.86506" lon="10.83419">
				 <ele>70</ele>
			 </trkpt>
			 <trkpt lat="45.86519" lon="10.83408">
				 <ele>70</ele>
			 </trkpt>
			 <trkpt lat="45.86538" lon="10.83388">
				 <ele>70</ele>
			 </trkpt>
			 <trkpt lat="45.86548" lon="10.83379">
				 <ele>70</ele>
			 </trkpt>
			 <trkpt lat="45.86561" lon="10.83375">
				 <ele>70</ele>
			 </trkpt>
			 <trkpt lat="45.86572" lon="10.83375">
				 <ele>70</ele>
			 </trkpt>
			 <trkpt lat="45.86586" lon="10.83382">
				 <ele>70</ele>
			 </trkpt>
			 <trkpt lat="45.86601" lon="10.83396">
				 <ele>70</ele>
			 </trkpt>
			 <trkpt lat="45.86617" lon="10.8341">
				 <ele>70</ele>
			 </trkpt>
			 <trkpt lat="45.86639" lon="10.83425">
				 <ele>70</ele>
			 </trkpt>
			 <trkpt lat="45.86685" lon="10.83434">
				 <ele>70</ele>
			 </trkpt>
			 <trkpt lat="45.86752" lon="10.83427">
				 <ele>70</ele>
			 </trkpt>
			 <trkpt lat="45.86791" lon="10.83423">
				 <ele>70</ele>
			 </trkpt>
			 <trkpt lat="45.86809" lon="10.83419">
				 <ele>70</ele>
			 </trkpt>
			 <trkpt lat="45.86826" lon="10.83423">
				 <ele>70</ele>
			 </trkpt>
			 <trkpt lat="45.86845" lon="10.83452">
				 <ele>70</ele>
			 </trkpt>
			 <trkpt lat="45.8685" lon="10.83456">
				 <ele>70</ele>
			 </trkpt>
			 <trkpt lat="45.86853" lon="10.83455">
				 <ele>70</ele>
			 </trkpt>
			 <trkpt lat="45.8687" lon="10.83446">
				 <ele>70</ele>
			 </trkpt>
			 <trkpt lat="45.86876" lon="10.83442">
				 <ele>70</ele>
			 </trkpt>
			 <trkpt lat="45.868926" lon="10.834388">
				 <ele>70</ele>
			 </trkpt>
			 <trkpt lat="45.869538" lon="10.834636">
				 <ele>70</ele>
			 </trkpt>
			 <trkpt lat="45.869851" lon="10.834834">
				 <ele>70</ele>
			 </trkpt>
			 <trkpt lat="45.870285" lon="10.835226">
				 <ele>70</ele>
			 </trkpt>
			 <trkpt lat="45.870501" lon="10.835387">
				 <ele>70</ele>
			 </trkpt>
			 <trkpt lat="45.870849" lon="10.835591">
				 <ele>70</ele>
			 </trkpt>
			 <trkpt lat="45.871599" lon="10.835843">
				 <ele>70</ele>
			 </trkpt>
			 <trkpt lat="45.872928" lon="10.836222">
				 <ele>70</ele>
			 </trkpt>
			 <trkpt lat="45.875932" lon="10.836897">
				 <ele>70</ele>
			 </trkpt>
			 <trkpt lat="45.877486" lon="10.837257">
				 <ele>70</ele>
			 </trkpt>
			 <trkpt lat="45.878924" lon="10.837552">
				 <ele>70</ele>
			 </trkpt>
			 <trkpt lat="45.880234" lon="10.837873">
				 <ele>70</ele>
			 </trkpt>
			 <trkpt lat="45.88146" lon="10.83808">
				 <ele>69.9</ele>
			 </trkpt>
			 <trkpt lat="45.88197" lon="10.83817">
				 <ele>69.8</ele>
			 </trkpt>
			 <trkpt lat="45.8824" lon="10.83825">
				 <ele>69.7</ele>
			 </trkpt>
			 <trkpt lat="45.88325" lon="10.83851">
				 <ele>69.5</ele>
			 </trkpt>
			 <trkpt lat="45.88326" lon="10.83867">
				 <ele>69.4</ele>
			 </trkpt>
			 <trkpt lat="45.88336" lon="10.83877">
				 <ele>69.2</ele>
			 </trkpt>
			 <trkpt lat="45.88358" lon="10.83882">
				 <ele>68.9</ele>
			 </trkpt>
			 <trkpt lat="45.88365" lon="10.83888">
				 <ele>68.6</ele>
			 </trkpt>
			 <trkpt lat="45.88378" lon="10.83896">
				 <ele>68.4</ele>
			 </trkpt>
			 <trkpt lat="45.88439" lon="10.83894">
				 <ele>68.1</ele>
			 </trkpt>
			 <trkpt lat="45.8845" lon="10.8389">
				 <ele>67.8</ele>
			 </trkpt>
			 <trkpt lat="45.88454" lon="10.83892">
				 <ele>67.6</ele>
			 </trkpt>
			 <trkpt lat="45.8846" lon="10.83901">
				 <ele>67.5</ele>
			 </trkpt>
			 <trkpt lat="45.88463" lon="10.83929">
				 <ele>67.3</ele>
			 </trkpt>
			 <trkpt lat="45.88466" lon="10.83935">
				 <ele>67.1</ele>
			 </trkpt>
			 <trkpt lat="45.88474" lon="10.83942">
				 <ele>66.9</ele>
			 </trkpt>
			 <trkpt lat="45.88492" lon="10.83949">
				 <ele>66.7</ele>
			 </trkpt>
			 <trkpt lat="45.88484" lon="10.84009">
				 <ele>66.6</ele>
			 </trkpt>
			 <trkpt lat="45.88476" lon="10.8403">
				 <ele>66.5</ele>
			 </trkpt>
			 <trkpt lat="45.88459" lon="10.84128">
				 <ele>66.4</ele>
			 </trkpt>
			 <trkpt lat="45.88459" lon="10.84143">
				 <ele>66.2</ele>
			 </trkpt>
			 <trkpt lat="45.88462" lon="10.84149">
				 <ele>66</ele>
			 </trkpt>
			 <trkpt lat="45.884815" lon="10.841789">
				 <ele>65.8</ele>
			 </trkpt>
			 <trkpt lat="45.884853" lon="10.842931">
				 <ele>65.5</ele>
			 </trkpt>
			 <trkpt lat="45.884819" lon="10.843012">
				 <ele>65.3</ele>
			 </trkpt>
			 <trkpt lat="45.884412" lon="10.843049">
				 <ele>65.1</ele>
			 </trkpt>
			 <trkpt lat="45.884128" lon="10.843387">
				 <ele>64.9</ele>
			 </trkpt>
			 <trkpt lat="45.884128" lon="10.843672">
				 <ele>64.7</ele>
			 </trkpt>
			 <trkpt lat="45.884039" lon="10.843795">
				 <ele>64.5</ele>
			 </trkpt>
			 <trkpt lat="45.88402" lon="10.84446">
				 <ele>64.4</ele>
			 </trkpt>
			 <trkpt lat="45.88359" lon="10.84441">
				 <ele>64.3</ele>
			 </trkpt>
			 <trkpt lat="45.88349" lon="10.8444">
				 <ele>64.2</ele>
			 </trkpt>
			 <trkpt lat="45.88344" lon="10.84442">
				 <ele>64</ele>
			 </trkpt>
			 <trkpt lat="45.88339" lon="10.84448">
				 <ele>63.8</ele>
			 </trkpt>
			 <trkpt lat="45.88331" lon="10.84458">
				 <ele>63.7</ele>
			 </trkpt>
			 <trkpt lat="45.88329" lon="10.84469">
				 <ele>63.6</ele>
			 </trkpt>
			 <trkpt lat="45.88327" lon="10.84483">
				 <ele>63.5</ele>
			 </trkpt>
			 <trkpt lat="45.88321" lon="10.84502">
				 <ele>63.5</ele>
			 </trkpt>
			 <trkpt lat="45.88305" lon="10.84543">
				 <ele>63.4</ele>
			 </trkpt>
			 <trkpt lat="45.88285" lon="10.84581">
				 <ele>63.3</ele>
			 </trkpt>
			 <trkpt lat="45.88276" lon="10.84589">
				 <ele>63.3</ele>
			 </trkpt>
			 <trkpt lat="45.88269" lon="10.84594">
				 <ele>63.3</ele>
			 </trkpt>
			 <trkpt lat="45.88226" lon="10.84578">
				 <ele>63.3</ele>
			 </trkpt>
			 <trkpt lat="45.88176" lon="10.84556">
				 <ele>63.4</ele>
			 </trkpt>
			 <trkpt lat="45.8817" lon="10.84562">
				 <ele>63.5</ele>
			 </trkpt>
			 <trkpt lat="45.88166" lon="10.8458">
				 <ele>63.6</ele>
			 </trkpt>
			 <trkpt lat="45.88162" lon="10.84621">
				 <ele>63.8</ele>
			 </trkpt>
			 <trkpt lat="45.88166" lon="10.84661">
				 <ele>64</ele>
			 </trkpt>
			 <trkpt lat="45.88169" lon="10.84715">
				 <ele>64.2</ele>
			 </trkpt>
			 <trkpt lat="45.88168" lon="10.84754">
				 <ele>64.4</ele>
			 </trkpt>
			 <trkpt lat="45.88164" lon="10.8478">
				 <ele>64.5</ele>
			 </trkpt>
			 <trkpt lat="45.88156" lon="10.84825">
				 <ele>64.6</ele>
			 </trkpt>
			 <trkpt lat="45.88152" lon="10.84834">
				 <ele>64.7</ele>
			 </trkpt>
			 <trkpt lat="45.8815" lon="10.84846">
				 <ele>64.8</ele>
			 </trkpt>
			 <trkpt lat="45.8815" lon="10.84858">
				 <ele>64.9</ele>
			 </trkpt>
			 <trkpt lat="45.88154" lon="10.84885">
				 <ele>65</ele>
			 </trkpt>
			 <trkpt lat="45.88154" lon="10.849">
				 <ele>64.9</ele>
			 </trkpt>
			 <trkpt lat="45.88148" lon="10.84913">
				 <ele>64.8</ele>
			 </trkpt>
			 <trkpt lat="45.88143" lon="10.84924">
				 <ele>64.7</ele>
			 </trkpt>
			 <trkpt lat="45.88138" lon="10.84932">
				 <ele>64.6</ele>
			 </trkpt>
			 <trkpt lat="45.88128" lon="10.8494">
				 <ele>64.5</ele>
			 </trkpt>
			 <trkpt lat="45.88122" lon="10.84952">
				 <ele>64.4</ele>
			 </trkpt>
			 <trkpt lat="45.88118" lon="10.84962">
				 <ele>64.2</ele>
			 </trkpt>
			 <trkpt lat="45.88111" lon="10.84971">
				 <ele>64</ele>
			 </trkpt>
			 <trkpt lat="45.88097" lon="10.84982">
				 <ele>63.8</ele>
			 </trkpt>
			 <trkpt lat="45.88092" lon="10.84977">
				 <ele>63.6</ele>
			 </trkpt>
			 <trkpt lat="45.88084" lon="10.84972">
				 <ele>63.5</ele>
			 </trkpt>
			 <trkpt lat="45.88078" lon="10.84971">
				 <ele>63.3</ele>
			 </trkpt>
			 <trkpt lat="45.88071" lon="10.84974">
				 <ele>63.1</ele>
			 </trkpt>
			 <trkpt lat="45.88066" lon="10.84979">
				 <ele>62.9</ele>
			 </trkpt>
			 <trkpt lat="45.88035" lon="10.85024">
				 <ele>62.7</ele>
			 </trkpt>
			 <trkpt lat="45.88023" lon="10.85047">
				 <ele>62.5</ele>
			 </trkpt>
			 <trkpt lat="45.88016" lon="10.85068">
				 <ele>62.5</ele>
			 </trkpt>
			 <trkpt lat="45.88008" lon="10.85111">
				 <ele>62.5</ele>
			 </trkpt>
			 <trkpt lat="45.88006" lon="10.8513">
				 <ele>62.5</ele>
			 </trkpt>
			 <trkpt lat="45.88006" lon="10.85147">
				 <ele>62.5</ele>
			 </trkpt>
			 <trkpt lat="45.87981" lon="10.85208">
				 <ele>62.5</ele>
			 </trkpt>
			 <trkpt lat="45.87966" lon="10.85245">
				 <ele>62.5</ele>
			 </trkpt>
			 <trkpt lat="45.87957" lon="10.8526">
				 <ele>62.6</ele>
			 </trkpt>
			 <trkpt lat="45.87939" lon="10.85294">
				 <ele>62.7</ele>
			 </trkpt>
			 <trkpt lat="45.87934" lon="10.85304">
				 <ele>62.8</ele>
			 </trkpt>
			 <trkpt lat="45.87935" lon="10.85323">
				 <ele>63</ele>
			 </trkpt>
			 <trkpt lat="45.8793" lon="10.85354">
				 <ele>63.2</ele>
			 </trkpt>
			 <trkpt lat="45.87924" lon="10.85369">
				 <ele>63.3</ele>
			 </trkpt>
			 <trkpt lat="45.87913" lon="10.85394">
				 <ele>63.4</ele>
			 </trkpt>
			 <trkpt lat="45.87909" lon="10.8541">
				 <ele>63.5</ele>
			 </trkpt>
			 <trkpt lat="45.87903" lon="10.85435">
				 <ele>63.5</ele>
			 </trkpt>
			 <trkpt lat="45.87894" lon="10.85461">
				 <ele>63.6</ele>
			 </trkpt>
			 <trkpt lat="45.87892" lon="10.8547">
				 <ele>63.7</ele>
			 </trkpt>
			 <trkpt lat="45.87894" lon="10.8549">
				 <ele>63.8</ele>
			 </trkpt>
			 <trkpt lat="45.87894" lon="10.85497">
				 <ele>63.9</ele>
			 </trkpt>
			 <trkpt lat="45.87883" lon="10.85524">
				 <ele>64.1</ele>
			 </trkpt>
			 <trkpt lat="45.87868" lon="10.8556">
				 <ele>64.2</ele>
			 </trkpt>
			 <trkpt lat="45.87868" lon="10.85567">
				 <ele>64.3</ele>
			 </trkpt>
			 <trkpt lat="45.87872" lon="10.85577">
				 <ele>64.4</ele>
			 </trkpt>
			 <trkpt lat="45.87881" lon="10.85614">
				 <ele>64.5</ele>
			 </trkpt>
			 <trkpt lat="45.87883" lon="10.85644">
				 <ele>64.7</ele>
			 </trkpt>
			 <trkpt lat="45.87882" lon="10.85648">
				 <ele>65</ele>
			 </trkpt>
			 <trkpt lat="45.87873" lon="10.85655">
				 <ele>65.3</ele>
			 </trkpt>
			 <trkpt lat="45.87868" lon="10.85656">
				 <ele>65.6</ele>
			 </trkpt>
			 <trkpt lat="45.87863" lon="10.85661">
				 <ele>66</ele>
			 </trkpt>
			 <trkpt lat="45.87854" lon="10.85666">
				 <ele>66.4</ele>
			 </trkpt>
			 <trkpt lat="45.87842" lon="10.85675">
				 <ele>66.7</ele>
			 </trkpt>
			 <trkpt lat="45.87777" lon="10.85724">
				 <ele>67.1</ele>
			 </trkpt>
			 <trkpt lat="45.877416" lon="10.857263">
				 <ele>67.5</ele>
			 </trkpt>
			 <trkpt lat="45.877274" lon="10.857156">
				 <ele>68</ele>
			 </trkpt>
			 <trkpt lat="45.877203" lon="10.857215">
				 <ele>68.4</ele>
			 </trkpt>
			 <trkpt lat="45.877102" lon="10.857226">
				 <ele>68.8</ele>
			 </trkpt>
			 <trkpt lat="45.877027" lon="10.85728">
				 <ele>69.2</ele>
			 </trkpt>
			 <trkpt lat="45.876953" lon="10.857355">
				 <ele>69.6</ele>
			 </trkpt>
			 <trkpt lat="45.87687" lon="10.85746">
				 <ele>70</ele>
			 </trkpt>
			 <trkpt lat="45.87681" lon="10.85749">
				 <ele>70.5</ele>
			 </trkpt>
			 <trkpt lat="45.87676" lon="10.8576">
				 <ele>71</ele>
			 </trkpt>
			 <trkpt lat="45.87671" lon="10.85771">
				 <ele>71.5</ele>
			 </trkpt>
			 <trkpt lat="45.87666" lon="10.85788">
				 <ele>72</ele>
			 </trkpt>
			 <trkpt lat="45.8766" lon="10.85807">
				 <ele>72.5</ele>
			 </trkpt>
			 <trkpt lat="45.87652" lon="10.85831">
				 <ele>73.2</ele>
			 </trkpt>
			 <trkpt lat="45.8764" lon="10.85861">
				 <ele>73.8</ele>
			 </trkpt>
			 <trkpt lat="45.87635" lon="10.85877">
				 <ele>74.5</ele>
			 </trkpt>
			 <trkpt lat="45.87632" lon="10.85903">
				 <ele>75.1</ele>
			 </trkpt>
			 <trkpt lat="45.87632" lon="10.85925">
				 <ele>75.6</ele>
			 </trkpt>
			 <trkpt lat="45.87644" lon="10.85987">
				 <ele>76.2</ele>
			 </trkpt>
			 <trkpt lat="45.87655" lon="10.8604">
				 <ele>76.6</ele>
			 </trkpt>
			 <trkpt lat="45.87661" lon="10.86095">
				 <ele>77</ele>
			 </trkpt>
			 <trkpt lat="45.87661" lon="10.86123">
				 <ele>77.3</ele>
			 </trkpt>
			 <trkpt lat="45.87665" lon="10.86161">
				 <ele>77.5</ele>
			 </trkpt>
			 <trkpt lat="45.87668" lon="10.86173">
				 <ele>77.5</ele>
			 </trkpt>
			 <trkpt lat="45.87675" lon="10.86267">
				 <ele>77.4</ele>
			 </trkpt>
			 <trkpt lat="45.87681" lon="10.86308">
				 <ele>77.2</ele>
			 </trkpt>
			 <trkpt lat="45.87694" lon="10.86358">
				 <ele>76.9</ele>
			 </trkpt>
			 <trkpt lat="45.87706" lon="10.86404">
				 <ele>76.5</ele>
			 </trkpt>
			 <trkpt lat="45.87711" lon="10.8643">
				 <ele>76.2</ele>
			 </trkpt>
			 <trkpt lat="45.87724" lon="10.86505">
				 <ele>75.7</ele>
			 </trkpt>
			 <trkpt lat="45.87736" lon="10.86581">
				 <ele>75.3</ele>
			 </trkpt>
			 <trkpt lat="45.87746" lon="10.86642">
				 <ele>74.7</ele>
			 </trkpt>
			 <trkpt lat="45.87745" lon="10.86656">
				 <ele>74.3</ele>
			 </trkpt>
			 <trkpt lat="45.87748" lon="10.86676">
				 <ele>73.7</ele>
			 </trkpt>
			 <trkpt lat="45.8775" lon="10.86689">
				 <ele>73.3</ele>
			 </trkpt>
			 <trkpt lat="45.87749" lon="10.86729">
				 <ele>72.7</ele>
			 </trkpt>
			 <trkpt lat="45.87743" lon="10.86762">
				 <ele>72.3</ele>
			 </trkpt>
			 <trkpt lat="45.87725" lon="10.86814">
				 <ele>71.8</ele>
			 </trkpt>
			 <trkpt lat="45.87722" lon="10.86828">
				 <ele>71.4</ele>
			 </trkpt>
			 <trkpt lat="45.87723" lon="10.86836">
				 <ele>70.9</ele>
			 </trkpt>
			 <trkpt lat="45.87728" lon="10.86841">
				 <ele>70.5</ele>
			 </trkpt>
			 <trkpt lat="45.87722" lon="10.86857">
				 <ele>70.2</ele>
			 </trkpt>
			 <trkpt lat="45.87697" lon="10.86935">
				 <ele>69.9</ele>
			 </trkpt>
			 <trkpt lat="45.87684" lon="10.86973">
				 <ele>69.6</ele>
			 </trkpt>
			 <trkpt lat="45.87675" lon="10.86995">
				 <ele>69.5</ele>
			 </trkpt>
			 <trkpt lat="45.87669" lon="10.87007">
				 <ele>69.3</ele>
			 </trkpt>
			 <trkpt lat="45.87663" lon="10.87027">
				 <ele>69.2</ele>
			 </trkpt>
			 <trkpt lat="45.87658" lon="10.87046">
				 <ele>69.1</ele>
			 </trkpt>
			 <trkpt lat="45.87656" lon="10.87058">
				 <ele>69.1</ele>
			 </trkpt>
			 <trkpt lat="45.87654" lon="10.87071">
				 <ele>69.2</ele>
			 </trkpt>
			 <trkpt lat="45.87654" lon="10.87077">
				 <ele>69.3</ele>
			 </trkpt>
			 <trkpt lat="45.87663" lon="10.87128">
				 <ele>69.5</ele>
			 </trkpt>
			 <trkpt lat="45.87671" lon="10.87149">
				 <ele>69.6</ele>
			 </trkpt>
			 <trkpt lat="45.87686" lon="10.87189">
				 <ele>69.9</ele>
			 </trkpt>
			 <trkpt lat="45.87727" lon="10.8729">
				 <ele>70.2</ele>
			 </trkpt>
			 <trkpt lat="45.8775" lon="10.87331">
				 <ele>70.5</ele>
			 </trkpt>
			 <trkpt lat="45.8777" lon="10.87357">
				 <ele>70.8</ele>
			 </trkpt>
			 <trkpt lat="45.87777" lon="10.87363">
				 <ele>71.2</ele>
			 </trkpt>
			 <trkpt lat="45.87785" lon="10.87367">
				 <ele>71.6</ele>
			 </trkpt>
			 <trkpt lat="45.87803" lon="10.87372">
				 <ele>72</ele>
			 </trkpt>
			 <trkpt lat="45.87945" lon="10.87401">
				 <ele>72.4</ele>
			 </trkpt>
			 <trkpt lat="45.87978" lon="10.87408">
				 <ele>72.8</ele>
			 </trkpt>
			 <trkpt lat="45.87998" lon="10.87414">
				 <ele>73.2</ele>
			 </trkpt>
			 <trkpt lat="45.8801" lon="10.87421">
				 <ele>73.5</ele>
			 </trkpt>
			 <trkpt lat="45.88026" lon="10.87437">
				 <ele>73.8</ele>
			 </trkpt>
			 <trkpt lat="45.88047" lon="10.87462">
				 <ele>74.2</ele>
			 </trkpt>
			 <trkpt lat="45.88067" lon="10.87491">
				 <ele>74.5</ele>
			 </trkpt>
			 <trkpt lat="45.88104" lon="10.87551">
				 <ele>74.8</ele>
			 </trkpt>
			 <trkpt lat="45.88123" lon="10.87577">
				 <ele>75.1</ele>
			 </trkpt>
			 <trkpt lat="45.88172" lon="10.87632">
				 <ele>75.3</ele>
			 </trkpt>
			 <trkpt lat="45.88195" lon="10.87656">
				 <ele>75.5</ele>
			 </trkpt>
			 <trkpt lat="45.88219" lon="10.87674">
				 <ele>75.6</ele>
			 </trkpt>
			 <trkpt lat="45.88265" lon="10.87697">
				 <ele>75.7</ele>
			 </trkpt>
			 <trkpt lat="45.88363" lon="10.8774">
				 <ele>75.9</ele>
			 </trkpt>
			 <trkpt lat="45.88387" lon="10.87752">
				 <ele>76.1</ele>
			 </trkpt>
			 <trkpt lat="45.88402" lon="10.87761">
				 <ele>76.4</ele>
			 </trkpt>
			 <trkpt lat="45.88459" lon="10.87798">
				 <ele>76.6</ele>
			 </trkpt>
			 <trkpt lat="45.88538" lon="10.87844">
				 <ele>76.9</ele>
			 </trkpt>
			 <trkpt lat="45.88557" lon="10.87852">
				 <ele>77.3</ele>
			 </trkpt>
			 <trkpt lat="45.88623" lon="10.87864">
				 <ele>77.7</ele>
			 </trkpt>
			 <trkpt lat="45.8871" lon="10.87878">
				 <ele>78.2</ele>
			 </trkpt>
			 <trkpt lat="45.88775" lon="10.87889">
				 <ele>78.7</ele>
			 </trkpt>
			 <trkpt lat="45.88895" lon="10.87909">
				 <ele>79.3</ele>
			 </trkpt>
			 <trkpt lat="45.88943" lon="10.87918">
				 <ele>79.9</ele>
			 </trkpt>
			 <trkpt lat="45.89143" lon="10.87933">
				 <ele>80.5</ele>
			 </trkpt>
			 <trkpt lat="45.8931" lon="10.87941">
				 <ele>80.9</ele>
			 </trkpt>
			 <trkpt lat="45.89417" lon="10.87951">
				 <ele>81.3</ele>
			 </trkpt>
			 <trkpt lat="45.89447" lon="10.87955">
				 <ele>81.5</ele>
			 </trkpt>
			 <trkpt lat="45.8946" lon="10.8796">
				 <ele>81.7</ele>
			 </trkpt>
			 <trkpt lat="45.89479" lon="10.87972">
				 <ele>81.8</ele>
			 </trkpt>
			 <trkpt lat="45.89522" lon="10.8801">
				 <ele>81.7</ele>
			 </trkpt>
			 <trkpt lat="45.89586" lon="10.88065">
				 <ele>81.6</ele>
			 </trkpt>
			 <trkpt lat="45.89607" lon="10.88082">
				 <ele>81.4</ele>
			 </trkpt>
			 <trkpt lat="45.89622" lon="10.88091">
				 <ele>81.1</ele>
			 </trkpt>
			 <trkpt lat="45.89635" lon="10.88094">
				 <ele>80.7</ele>
			 </trkpt>
			 <trkpt lat="45.89648" lon="10.88093">
				 <ele>80.4</ele>
			 </trkpt>
			 <trkpt lat="45.89736" lon="10.88054">
				 <ele>80.1</ele>
			 </trkpt>
			 <trkpt lat="45.89783" lon="10.88034">
				 <ele>79.8</ele>
			 </trkpt>
			 <trkpt lat="45.89898" lon="10.88008">
				 <ele>79.5</ele>
			 </trkpt>
			 <trkpt lat="45.89934" lon="10.88004">
				 <ele>79.4</ele>
			 </trkpt>
			 <trkpt lat="45.89968" lon="10.88006">
				 <ele>79.2</ele>
			 </trkpt>
			 <trkpt lat="45.90003" lon="10.88019">
				 <ele>79.1</ele>
			 </trkpt>
			 <trkpt lat="45.90026" lon="10.88028">
				 <ele>79</ele>
			 </trkpt>
			 <trkpt lat="45.9006" lon="10.88039">
				 <ele>79</ele>
			 </trkpt>
			 <trkpt lat="45.90088" lon="10.88044">
				 <ele>79</ele>
			 </trkpt>
			 <trkpt lat="45.90111" lon="10.8804">
				 <ele>78.9</ele>
			 </trkpt>
			 <trkpt lat="45.90085" lon="10.880455">
				 <ele>78.8</ele>
			 </trkpt>
			 <trkpt lat="45.90043" lon="10.88035">
				 <ele>78.7</ele>
			 </trkpt>
			 <trkpt lat="45.89999" lon="10.88017">
				 <ele>78.6</ele>
			 </trkpt>
			 <trkpt lat="45.89968" lon="10.88006">
				 <ele>78.5</ele>
			 </trkpt>
			 <trkpt lat="45.89961" lon="10.88005">
				 <ele>78.5</ele>
			 </trkpt>
			 <trkpt lat="45.89932" lon="10.88004">
				 <ele>78.4</ele>
			 </trkpt>
			 <trkpt lat="45.89896" lon="10.88008">
				 <ele>78.3</ele>
			 </trkpt>
			 <trkpt lat="45.89848" lon="10.88019">
				 <ele>78.2</ele>
			 </trkpt>
			 <trkpt lat="45.89774" lon="10.88038">
				 <ele>78.1</ele>
			 </trkpt>
			 <trkpt lat="45.8972" lon="10.88061">
				 <ele>78</ele>
			 </trkpt>
			 <trkpt lat="45.897" lon="10.8807">
				 <ele>78</ele>
			 </trkpt>
			 <trkpt lat="45.89694" lon="10.88062">
				 <ele>77.9</ele>
			 </trkpt>
			 <trkpt lat="45.89691" lon="10.88043">
				 <ele>77.8</ele>
			 </trkpt>
			 <trkpt lat="45.89709" lon="10.88019">
				 <ele>77.7</ele>
			 </trkpt>
			 <trkpt lat="45.89735" lon="10.87979">
				 <ele>77.6</ele>
			 </trkpt>
			 <trkpt lat="45.89751" lon="10.87949">
				 <ele>77.5</ele>
			 </trkpt>
			 <trkpt lat="45.89767" lon="10.87915">
				 <ele>77.5</ele>
			 </trkpt>
			 <trkpt lat="45.89794" lon="10.87833">
				 <ele>77.4</ele>
			 </trkpt>
			 <trkpt lat="45.89803" lon="10.87801">
				 <ele>77.3</ele>
			 </trkpt>
			 <trkpt lat="45.89819" lon="10.87699">
				 <ele>77.2</ele>
			 </trkpt>
			 <trkpt lat="45.89813" lon="10.87694">
				 <ele>77.1</ele>
			 </trkpt>
			 <trkpt lat="45.89804" lon="10.87694">
				 <ele>77</ele>
			 </trkpt>
			 <trkpt lat="45.89786" lon="10.87702">
				 <ele>77</ele>
			 </trkpt>
			 <trkpt lat="45.89773" lon="10.87685">
				 <ele>77.1</ele>
			 </trkpt>
			 <trkpt lat="45.89758" lon="10.87652">
				 <ele>77.2</ele>
			 </trkpt>
			 <trkpt lat="45.89754" lon="10.87632">
				 <ele>77.3</ele>
			 </trkpt>
			 <trkpt lat="45.89755" lon="10.87587">
				 <ele>77.4</ele>
			 </trkpt>
			 <trkpt lat="45.89753" lon="10.8756">
				 <ele>77.5</ele>
			 </trkpt>
			 <trkpt lat="45.89749" lon="10.8752">
				 <ele>77.5</ele>
			 </trkpt>
			 <trkpt lat="45.89739" lon="10.87445">
				 <ele>77.7</ele>
			 </trkpt>
			 <trkpt lat="45.89729" lon="10.87385">
				 <ele>77.9</ele>
			 </trkpt>
			 <trkpt lat="45.89716" lon="10.87301">
				 <ele>78.1</ele>
			 </trkpt>
			 <trkpt lat="45.89703" lon="10.87237">
				 <ele>78.3</ele>
			 </trkpt>
			 <trkpt lat="45.89693" lon="10.87195">
				 <ele>78.5</ele>
			 </trkpt>
			 <trkpt lat="45.89695" lon="10.87174">
				 <ele>78.5</ele>
			 </trkpt>
			 <trkpt lat="45.897" lon="10.87157">
				 <ele>78.6</ele>
			 </trkpt>
			 <trkpt lat="45.89695" lon="10.8714">
				 <ele>78.7</ele>
			 </trkpt>
			 <trkpt lat="45.89689" lon="10.87093">
				 <ele>78.8</ele>
			 </trkpt>
			 <trkpt lat="45.89678" lon="10.87029">
				 <ele>78.8</ele>
			 </trkpt>
			 <trkpt lat="45.8967" lon="10.87012">
				 <ele>78.8</ele>
			 </trkpt>
			 <trkpt lat="45.89664" lon="10.87006">
				 <ele>78.7</ele>
			 </trkpt>
			 <trkpt lat="45.89629" lon="10.86983">
				 <ele>78.5</ele>
			 </trkpt>
			 <trkpt lat="45.89604" lon="10.86967">
				 <ele>78.4</ele>
			 </trkpt>
			 <trkpt lat="45.89617" lon="10.86944">
				 <ele>78.2</ele>
			 </trkpt>
			 <trkpt lat="45.89664" lon="10.86858">
				 <ele>78</ele>
			 </trkpt>
			 <trkpt lat="45.89722" lon="10.86749">
				 <ele>77.8</ele>
			 </trkpt>
			 <trkpt lat="45.89755" lon="10.86683">
				 <ele>77.6</ele>
			 </trkpt>
			 <trkpt lat="45.89781" lon="10.86639">
				 <ele>77.5</ele>
			 </trkpt>
			 <trkpt lat="45.89806" lon="10.86672">
				 <ele>77.3</ele>
			 </trkpt>
			 <trkpt lat="45.89825" lon="10.86697">
				 <ele>77.2</ele>
			 </trkpt>
			 <trkpt lat="45.89891" lon="10.86797">
				 <ele>77.2</ele>
			 </trkpt>
			 <trkpt lat="45.89959" lon="10.86887">
				 <ele>77.2</ele>
			 </trkpt>
			 <trkpt lat="45.90032" lon="10.86988">
				 <ele>77.3</ele>
			 </trkpt>
			 <trkpt lat="45.90078" lon="10.87057">
				 <ele>77.5</ele>
			 </trkpt>
			 <trkpt lat="45.90099" lon="10.87088">
				 <ele>77.6</ele>
			 </trkpt>
			 <trkpt lat="45.90129" lon="10.87019">
				 <ele>77.8</ele>
			 </trkpt>
			 <trkpt lat="45.90158" lon="10.86958">
				 <ele>78.1</ele>
			 </trkpt>
			 <trkpt lat="45.9018" lon="10.86913">
				 <ele>78.4</ele>
			 </trkpt>
			 <trkpt lat="45.90194" lon="10.86885">
				 <ele>78.7</ele>
			 </trkpt>
			 <trkpt lat="45.90213" lon="10.86857">
				 <ele>79.1</ele>
			 </trkpt>
			 <trkpt lat="45.90237" lon="10.86821">
				 <ele>79.5</ele>
			 </trkpt>
			 <trkpt lat="45.90239" lon="10.86816">
				 <ele>79.8</ele>
			 </trkpt>
			 <trkpt lat="45.90247" lon="10.8682">
				 <ele>80.2</ele>
			 </trkpt>
			 <trkpt lat="45.90262" lon="10.86828">
				 <ele>80.6</ele>
			 </trkpt>
			 <trkpt lat="45.90304" lon="10.86854">
				 <ele>81</ele>
			 </trkpt>
			 <trkpt lat="45.90405" lon="10.86925">
				 <ele>81.4</ele>
			 </trkpt>
			 <trkpt lat="45.90466" lon="10.86962">
				 <ele>81.8</ele>
			 </trkpt>
			 <trkpt lat="45.90532" lon="10.8701">
				 <ele>82.2</ele>
			 </trkpt>
			 <trkpt lat="45.9054" lon="10.87016">
				 <ele>82.5</ele>
			 </trkpt>
			 <trkpt lat="45.905856" lon="10.870617">
				 <ele>82.9</ele>
			 </trkpt>
			 <trkpt lat="45.9066" lon="10.87136">
				 <ele>83.3</ele>
			 </trkpt>
			 <trkpt lat="45.90746" lon="10.87211">
				 <ele>83.6</ele>
			 </trkpt>
			 <trkpt lat="45.90763" lon="10.87229">
				 <ele>83.9</ele>
			 </trkpt>
			 <trkpt lat="45.90774" lon="10.87237">
				 <ele>84.3</ele>
			 </trkpt>
			 <trkpt lat="45.90836" lon="10.87288">
				 <ele>84.5</ele>
			 </trkpt>
			 <trkpt lat="45.90936" lon="10.87362">
				 <ele>84.8</ele>
			 </trkpt>
			 <trkpt lat="45.90972" lon="10.87387">
				 <ele>85.1</ele>
			 </trkpt>
			 <trkpt lat="45.90971" lon="10.87394">
				 <ele>85.3</ele>
			 </trkpt>
			 <trkpt lat="45.90942" lon="10.876">
				 <ele>85.5</ele>
			 </trkpt>
			 <trkpt lat="45.90925" lon="10.87714">
				 <ele>85.7</ele>
			 </trkpt>
			 <trkpt lat="45.90922" lon="10.87739">
				 <ele>85.9</ele>
			 </trkpt>
			 <trkpt lat="45.90942" lon="10.87764">
				 <ele>86.1</ele>
			 </trkpt>
			 <trkpt lat="45.90984" lon="10.87809">
				 <ele>86.3</ele>
			 </trkpt>
			 <trkpt lat="45.91021" lon="10.87847">
				 <ele>86.5</ele>
			 </trkpt>
			 <trkpt lat="45.91034" lon="10.87847">
				 <ele>86.7</ele>
			 </trkpt>
			 <trkpt lat="45.91051" lon="10.87853">
				 <ele>86.9</ele>
			 </trkpt>
			 <trkpt lat="45.9109" lon="10.87878">
				 <ele>87.2</ele>
			 </trkpt>
			 <trkpt lat="45.91119" lon="10.87902">
				 <ele>87.5</ele>
			 </trkpt>
			 <trkpt lat="45.91138" lon="10.8792">
				 <ele>87.7</ele>
			 </trkpt>
			 <trkpt lat="45.9116" lon="10.87944">
				 <ele>88.1</ele>
			 </trkpt>
			 <trkpt lat="45.91187" lon="10.87977">
				 <ele>88.4</ele>
			 </trkpt>
			 <trkpt lat="45.91218" lon="10.88008">
				 <ele>88.6</ele>
			 </trkpt>
			 <trkpt lat="45.91248" lon="10.88031">
				 <ele>89</ele>
			 </trkpt>
			 <trkpt lat="45.91338" lon="10.88105">
				 <ele>89.4</ele>
			 </trkpt>
			 <trkpt lat="45.914" lon="10.88154">
				 <ele>89.7</ele>
			 </trkpt>
			 <trkpt lat="45.91414" lon="10.88162">
				 <ele>90.1</ele>
			 </trkpt>
			 <trkpt lat="45.91447" lon="10.8817">
				 <ele>90.5</ele>
			 </trkpt>
			 <trkpt lat="45.91457" lon="10.88163">
				 <ele>90.8</ele>
			 </trkpt>
			 <trkpt lat="45.91469" lon="10.88147">
				 <ele>91.2</ele>
			 </trkpt>
			 <trkpt lat="45.91484" lon="10.88127">
				 <ele>91.5</ele>
			 </trkpt>
			 <trkpt lat="45.915" lon="10.88113">
				 <ele>91.9</ele>
			 </trkpt>
			 <trkpt lat="45.91565" lon="10.88068">
				 <ele>92.3</ele>
			 </trkpt>
			 <trkpt lat="45.91588" lon="10.88045">
				 <ele>92.6</ele>
			 </trkpt>
			 <trkpt lat="45.91613" lon="10.88013">
				 <ele>92.9</ele>
			 </trkpt>
			 <trkpt lat="45.91631" lon="10.87985">
				 <ele>93.3</ele>
			 </trkpt>
			 <trkpt lat="45.91673" lon="10.88049">
				 <ele>93.5</ele>
			 </trkpt>
			 <trkpt lat="45.91693" lon="10.88081">
				 <ele>93.8</ele>
			 </trkpt>
			 <trkpt lat="45.9173" lon="10.88137">
				 <ele>94.1</ele>
			 </trkpt>
			 <trkpt lat="45.9175" lon="10.88168">
				 <ele>94.3</ele>
			 </trkpt>
			 <trkpt lat="45.91755" lon="10.88186">
				 <ele>94.5</ele>
			 </trkpt>
			 <trkpt lat="45.91785" lon="10.88199">
				 <ele>94.5</ele>
			 </trkpt>
			 <trkpt lat="45.91819" lon="10.88227">
				 <ele>94.5</ele>
			 </trkpt>
			 <trkpt lat="45.91893" lon="10.8826">
				 <ele>94.5</ele>
			 </trkpt>
			 <trkpt lat="45.91887" lon="10.88311">
				 <ele>94.5</ele>
			 </trkpt>
			 <trkpt lat="45.91863" lon="10.88531">
				 <ele>94.4</ele>
			 </trkpt>
			 <trkpt lat="45.91848" lon="10.88575">
				 <ele>94.2</ele>
			 </trkpt>
			 <trkpt lat="45.91837" lon="10.88598">
				 <ele>93.9</ele>
			 </trkpt>
			 <trkpt lat="45.91837" lon="10.88617">
				 <ele>93.6</ele>
			 </trkpt>
			 <trkpt lat="45.91828" lon="10.88616">
				 <ele>93.3</ele>
			 </trkpt>
			 <trkpt lat="45.91822" lon="10.88617">
				 <ele>92.9</ele>
			 </trkpt>
			 <trkpt lat="45.91807" lon="10.88617">
				 <ele>92.5</ele>
			 </trkpt>
			 <trkpt lat="45.91803" lon="10.88639">
				 <ele>92.1</ele>
			 </trkpt>
			 <trkpt lat="45.91766" lon="10.8872">
				 <ele>91.6</ele>
			 </trkpt>
			 <trkpt lat="45.91754" lon="10.88728">
				 <ele>91.2</ele>
			 </trkpt>
			 <trkpt lat="45.9175" lon="10.88734">
				 <ele>90.8</ele>
			 </trkpt>
			 <trkpt lat="45.91747" lon="10.88745">
				 <ele>90.5</ele>
			 </trkpt>
			 <trkpt lat="45.91724" lon="10.88798">
				 <ele>90</ele>
			 </trkpt>
			 <trkpt lat="45.91721" lon="10.88811">
				 <ele>89.6</ele>
			 </trkpt>
			 <trkpt lat="45.91717" lon="10.8885">
				 <ele>89.3</ele>
			 </trkpt>
			 <trkpt lat="45.91715" lon="10.88865">
				 <ele>89</ele>
			 </trkpt>
			 <trkpt lat="45.91713" lon="10.88873">
				 <ele>88.7</ele>
			 </trkpt>
			 <trkpt lat="45.91686" lon="10.88885">
				 <ele>88.5</ele>
			 </trkpt>
			 <trkpt lat="45.91679" lon="10.88888">
				 <ele>88.4</ele>
			 </trkpt>
			 <trkpt lat="45.91675" lon="10.88897">
				 <ele>88.3</ele>
			 </trkpt>
			 <trkpt lat="45.91671" lon="10.88918">
				 <ele>88.2</ele>
			 </trkpt>
			 <trkpt lat="45.91663" lon="10.88919">
				 <ele>88.1</ele>
			 </trkpt>
			 <trkpt lat="45.91621" lon="10.88911">
				 <ele>88</ele>
			 </trkpt>
			 <trkpt lat="45.91597" lon="10.88907">
				 <ele>88</ele>
			 </trkpt>
			 <trkpt lat="45.91586" lon="10.88905">
				 <ele>87.9</ele>
			 </trkpt>
			 <trkpt lat="45.9157" lon="10.88897">
				 <ele>87.8</ele>
			 </trkpt>
			 <trkpt lat="45.91564" lon="10.88896">
				 <ele>87.7</ele>
			 </trkpt>
			 <trkpt lat="45.9153" lon="10.88897">
				 <ele>87.6</ele>
			 </trkpt>
			 <trkpt lat="45.91494" lon="10.88893">
				 <ele>87.5</ele>
			 </trkpt>
			 <trkpt lat="45.91481" lon="10.88888">
				 <ele>87.5</ele>
			 </trkpt>
			 <trkpt lat="45.91454" lon="10.88874">
				 <ele>87.4</ele>
			 </trkpt>
			 <trkpt lat="45.9143" lon="10.88857">
				 <ele>87.3</ele>
			 </trkpt>
			 <trkpt lat="45.91384" lon="10.8881">
				 <ele>87.2</ele>
			 </trkpt>
			 <trkpt lat="45.91379" lon="10.88799">
				 <ele>87.1</ele>
			 </trkpt>
			 <trkpt lat="45.91372" lon="10.88784">
				 <ele>87</ele>
			 </trkpt>
			 <trkpt lat="45.91377" lon="10.88782">
				 <ele>87</ele>
			 </trkpt>
			 <trkpt lat="45.91387" lon="10.88772">
				 <ele>86.9</ele>
			 </trkpt>
			 <trkpt lat="45.91398" lon="10.88761">
				 <ele>86.8</ele>
			 </trkpt>
			 <trkpt lat="45.91406" lon="10.88753">
				 <ele>86.7</ele>
			 </trkpt>
			 <trkpt lat="45.91408" lon="10.88749">
				 <ele>86.6</ele>
			 </trkpt>
			 <trkpt lat="45.91385" lon="10.887">
				 <ele>86.5</ele>
			 </trkpt>
			 <trkpt lat="45.91374" lon="10.88678">
				 <ele>86.4</ele>
			 </trkpt>
			 <trkpt lat="45.91339" lon="10.88604">
				 <ele>86.2</ele>
			 </trkpt>
			 <trkpt lat="45.91311" lon="10.8855">
				 <ele>86</ele>
			 </trkpt>
			 <trkpt lat="45.91298" lon="10.88528">
				 <ele>85.8</ele>
			 </trkpt>
			 <trkpt lat="45.91274" lon="10.88494">
				 <ele>85.6</ele>
			 </trkpt>
			 <trkpt lat="45.91251" lon="10.88466">
				 <ele>85.5</ele>
			 </trkpt>
			 <trkpt lat="45.91211" lon="10.88427">
				 <ele>85.3</ele>
			 </trkpt>
			 <trkpt lat="45.91189" lon="10.88412">
				 <ele>85.1</ele>
			 </trkpt>
			 <trkpt lat="45.91148" lon="10.88387">
				 <ele>84.9</ele>
			 </trkpt>
			 <trkpt lat="45.91078" lon="10.88346">
				 <ele>84.7</ele>
			 </trkpt>
			 <trkpt lat="45.91042" lon="10.88317">
				 <ele>84.5</ele>
			 </trkpt>
			 <trkpt lat="45.91032" lon="10.88306">
				 <ele>84.5</ele>
			 </trkpt>
			 <trkpt lat="45.90975" lon="10.88242">
				 <ele>84.4</ele>
			 </trkpt>
			 <trkpt lat="45.90945" lon="10.88206">
				 <ele>84.3</ele>
			 </trkpt>
			 <trkpt lat="45.9092" lon="10.88176">
				 <ele>84.1</ele>
			 </trkpt>
			 <trkpt lat="45.90895" lon="10.88138">
				 <ele>83.9</ele>
			 </trkpt>
			 <trkpt lat="45.90881" lon="10.88122">
				 <ele>83.7</ele>
			 </trkpt>
			 <trkpt lat="45.90868" lon="10.88113">
				 <ele>83.6</ele>
			 </trkpt>
			 <trkpt lat="45.90835" lon="10.88083">
				 <ele>83.5</ele>
			 </trkpt>
			 <trkpt lat="45.90803" lon="10.88058">
				 <ele>83.5</ele>
			 </trkpt>
			 <trkpt lat="45.90733" lon="10.88001">
				 <ele>83.3</ele>
			 </trkpt>
			 <trkpt lat="45.90716" lon="10.87991">
				 <ele>83.1</ele>
			 </trkpt>
			 <trkpt lat="45.90695" lon="10.87981">
				 <ele>82.9</ele>
			 </trkpt>
			 <trkpt lat="45.90655" lon="10.87974">
				 <ele>82.7</ele>
			 </trkpt>
			 <trkpt lat="45.90642" lon="10.87974">
				 <ele>82.5</ele>
			 </trkpt>
			 <trkpt lat="45.90619" lon="10.87978">
				 <ele>82.5</ele>
			 </trkpt>
			 <trkpt lat="45.90599" lon="10.87985">
				 <ele>82.4</ele>
			 </trkpt>
			 <trkpt lat="45.90569" lon="10.88006">
				 <ele>82.2</ele>
			 </trkpt>
			 <trkpt lat="45.90544" lon="10.88028">
				 <ele>82</ele>
			 </trkpt>
			 <trkpt lat="45.90512" lon="10.88069">
				 <ele>81.8</ele>
			 </trkpt>
			 <trkpt lat="45.90486" lon="10.88107">
				 <ele>81.6</ele>
			 </trkpt>
			 <trkpt lat="45.90436" lon="10.88179">
				 <ele>81.5</ele>
			 </trkpt>
			 <trkpt lat="45.90414" lon="10.88208">
				 <ele>81.5</ele>
			 </trkpt>
			 <trkpt lat="45.90383" lon="10.88248">
				 <ele>81.4</ele>
			 </trkpt>
			 <trkpt lat="45.90364" lon="10.88269">
				 <ele>81.2</ele>
			 </trkpt>
			 <trkpt lat="45.90355" lon="10.88275">
				 <ele>81</ele>
			 </trkpt>
			 <trkpt lat="45.90341" lon="10.88279">
				 <ele>80.8</ele>
			 </trkpt>
			 <trkpt lat="45.90322" lon="10.88282">
				 <ele>80.6</ele>
			 </trkpt>
			 <trkpt lat="45.9031" lon="10.88281">
				 <ele>80.5</ele>
			 </trkpt>
			 <trkpt lat="45.90283" lon="10.88272">
				 <ele>80.4</ele>
			 </trkpt>
			 <trkpt lat="45.9027" lon="10.88262">
				 <ele>80.2</ele>
			 </trkpt>
			 <trkpt lat="45.90252" lon="10.88245">
				 <ele>80</ele>
			 </trkpt>
			 <trkpt lat="45.90209" lon="10.88196">
				 <ele>79.8</ele>
			 </trkpt>
			 <trkpt lat="45.9014" lon="10.88121">
				 <ele>79.6</ele>
			 </trkpt>
			 <trkpt lat="45.90108" lon="10.88091">
				 <ele>79.5</ele>
			 </trkpt>
			 <trkpt lat="45.90075" lon="10.88067">
				 <ele>79.3</ele>
			 </trkpt>
			 <trkpt lat="45.90053" lon="10.88051">
				 <ele>79.1</ele>
			 </trkpt>
			 <trkpt lat="45.90026" lon="10.88037">
				 <ele>78.9</ele>
			 </trkpt>
			 <trkpt lat="45.8999" lon="10.88024">
				 <ele>78.7</ele>
			 </trkpt>
			 <trkpt lat="45.89964" lon="10.88017">
				 <ele>78.5</ele>
			 </trkpt>
			 <trkpt lat="45.89948" lon="10.88015">
				 <ele>78.5</ele>
			 </trkpt>
			 <trkpt lat="45.89912" lon="10.88015">
				 <ele>78.4</ele>
			 </trkpt>
			 <trkpt lat="45.89893" lon="10.88017">
				 <ele>78.3</ele>
			 </trkpt>
			 <trkpt lat="45.89848" lon="10.8803">
				 <ele>78.2</ele>
			 </trkpt>
			 <trkpt lat="45.89838" lon="10.88034">
				 <ele>78</ele>
			 </trkpt>
			 <trkpt lat="45.89692" lon="10.88086">
				 <ele>77.8</ele>
			 </trkpt>
			 <trkpt lat="45.89551" lon="10.88137">
				 <ele>77.7</ele>
			 </trkpt>
			 <trkpt lat="45.89519" lon="10.8815">
				 <ele>77.6</ele>
			 </trkpt>
			 <trkpt lat="45.89484" lon="10.88172">
				 <ele>77.5</ele>
			 </trkpt>
			 <trkpt lat="45.89443" lon="10.882">
				 <ele>77.3</ele>
			 </trkpt>
			 <trkpt lat="45.89381" lon="10.88242">
				 <ele>77.1</ele>
			 </trkpt>
			 <trkpt lat="45.89365" lon="10.88252">
				 <ele>76.8</ele>
			 </trkpt>
			 <trkpt lat="45.89336" lon="10.88265">
				 <ele>76.5</ele>
			 </trkpt>
			 <trkpt lat="45.89318" lon="10.88272">
				 <ele>76.3</ele>
			 </trkpt>
			 <trkpt lat="45.89254" lon="10.88286">
				 <ele>76</ele>
			 </trkpt>
			 <trkpt lat="45.89178" lon="10.88298">
				 <ele>75.7</ele>
			 </trkpt>
			 <trkpt lat="45.89027" lon="10.88324">
				 <ele>75.5</ele>
			 </trkpt>
			 <trkpt lat="45.8895" lon="10.88337">
				 <ele>75.2</ele>
			 </trkpt>
			 <trkpt lat="45.88874" lon="10.88348">
				 <ele>74.9</ele>
			 </trkpt>
			 <trkpt lat="45.88837" lon="10.8835">
				 <ele>74.7</ele>
			 </trkpt>
			 <trkpt lat="45.88764" lon="10.88347">
				 <ele>74.5</ele>
			 </trkpt>
			 <trkpt lat="45.88693" lon="10.88338">
				 <ele>74.3</ele>
			 </trkpt>
			 <trkpt lat="45.88668" lon="10.88332">
				 <ele>74.1</ele>
			 </trkpt>
			 <trkpt lat="45.88604" lon="10.88314">
				 <ele>73.9</ele>
			 </trkpt>
			 <trkpt lat="45.88598" lon="10.88312">
				 <ele>73.7</ele>
			 </trkpt>
			 <trkpt lat="45.88534" lon="10.88287">
				 <ele>73.5</ele>
			 </trkpt>
			 <trkpt lat="45.88494" lon="10.88267">
				 <ele>73.5</ele>
			 </trkpt>
			 <trkpt lat="45.88472" lon="10.88255">
				 <ele>73.3</ele>
			 </trkpt>
			 <trkpt lat="45.88454" lon="10.88243">
				 <ele>73.1</ele>
			 </trkpt>
			 <trkpt lat="45.8844" lon="10.88203">
				 <ele>72.9</ele>
			 </trkpt>
			 <trkpt lat="45.88422" lon="10.88142">
				 <ele>72.7</ele>
			 </trkpt>
			 <trkpt lat="45.8842" lon="10.88125">
				 <ele>72.5</ele>
			 </trkpt>
			 <trkpt lat="45.88416" lon="10.88118">
				 <ele>72.5</ele>
			 </trkpt>
			 <trkpt lat="45.88413" lon="10.88115">
				 <ele>72.4</ele>
			 </trkpt>
			 <trkpt lat="45.88405" lon="10.88112">
				 <ele>72.3</ele>
			 </trkpt>
			 <trkpt lat="45.88393" lon="10.88109">
				 <ele>72.2</ele>
			 </trkpt>
			 <trkpt lat="45.88377" lon="10.88107">
				 <ele>72.1</ele>
			 </trkpt>
			 <trkpt lat="45.88363" lon="10.88107">
				 <ele>72</ele>
			 </trkpt>
			 <trkpt lat="45.88346" lon="10.88104">
				 <ele>72</ele>
			 </trkpt>
			 <trkpt lat="45.88332" lon="10.88099">
				 <ele>71.9</ele>
			 </trkpt>
			 <trkpt lat="45.88306" lon="10.88097">
				 <ele>71.8</ele>
			 </trkpt>
			 <trkpt lat="45.88269" lon="10.8809">
				 <ele>71.7</ele>
			 </trkpt>
			 <trkpt lat="45.88259" lon="10.88088">
				 <ele>71.6</ele>
			 </trkpt>
			 <trkpt lat="45.88237" lon="10.88084">
				 <ele>71.5</ele>
			 </trkpt>
			 <trkpt lat="45.88208" lon="10.8807">
				 <ele>71.5</ele>
			 </trkpt>
			 <trkpt lat="45.88198" lon="10.88068">
				 <ele>71.4</ele>
			 </trkpt>
			 <trkpt lat="45.88189" lon="10.88071">
				 <ele>71.3</ele>
			 </trkpt>
			 <trkpt lat="45.8818" lon="10.88081">
				 <ele>71.2</ele>
			 </trkpt>
			 <trkpt lat="45.88177" lon="10.88099">
				 <ele>71.1</ele>
			 </trkpt>
			 <trkpt lat="45.88171" lon="10.88125">
				 <ele>71</ele>
			 </trkpt>
			 <trkpt lat="45.88166" lon="10.88142">
				 <ele>71</ele>
			 </trkpt>
			 <trkpt lat="45.88161" lon="10.88144">
				 <ele>71</ele>
			 </trkpt>
			 <trkpt lat="45.88129" lon="10.88133">
				 <ele>70.9</ele>
			 </trkpt>
			 <trkpt lat="45.88112" lon="10.88129">
				 <ele>70.8</ele>
			 </trkpt>
			 <trkpt lat="45.88089" lon="10.88122">
				 <ele>70.7</ele>
			 </trkpt>
			 <trkpt lat="45.88065" lon="10.88107">
				 <ele>70.6</ele>
			 </trkpt>
			 <trkpt lat="45.8805" lon="10.88095">
				 <ele>70.5</ele>
			 </trkpt>
			 <trkpt lat="45.8803" lon="10.88075">
				 <ele>70.3</ele>
			 </trkpt>
			 <trkpt lat="45.88011" lon="10.88051">
				 <ele>70.1</ele>
			 </trkpt>
			 <trkpt lat="45.87993" lon="10.88024">
				 <ele>69.9</ele>
			 </trkpt>
			 <trkpt lat="45.87952" lon="10.87951">
				 <ele>69.6</ele>
			 </trkpt>
			 <trkpt lat="45.87913" lon="10.87865">
				 <ele>69.4</ele>
			 </trkpt>
			 <trkpt lat="45.87899" lon="10.87843">
				 <ele>69.1</ele>
			 </trkpt>
			 <trkpt lat="45.87887" lon="10.87827">
				 <ele>68.9</ele>
			 </trkpt>
			 <trkpt lat="45.87822" lon="10.87745">
				 <ele>68.7</ele>
			 </trkpt>
			 <trkpt lat="45.87681" lon="10.87571">
				 <ele>68.5</ele>
			 </trkpt>
			 <trkpt lat="45.87668" lon="10.87555">
				 <ele>68.4</ele>
			 </trkpt>
			 <trkpt lat="45.87661" lon="10.87537">
				 <ele>68.3</ele>
			 </trkpt>
			 <trkpt lat="45.87655" lon="10.87507">
				 <ele>68.2</ele>
			 </trkpt>
			 <trkpt lat="45.87645" lon="10.87477">
				 <ele>68.1</ele>
			 </trkpt>
			 <trkpt lat="45.87638" lon="10.87465">
				 <ele>68</ele>
			 </trkpt>
			 <trkpt lat="45.8763" lon="10.87455">
				 <ele>68</ele>
			 </trkpt>
			 <trkpt lat="45.87626" lon="10.87453">
				 <ele>68</ele>
			 </trkpt>
			 <trkpt lat="45.87616" lon="10.87454">
				 <ele>67.9</ele>
			 </trkpt>
			 <trkpt lat="45.87613" lon="10.87456">
				 <ele>67.8</ele>
			 </trkpt>
			 <trkpt lat="45.87604" lon="10.8746">
				 <ele>67.7</ele>
			 </trkpt>
			 <trkpt lat="45.876" lon="10.8746">
				 <ele>67.6</ele>
			 </trkpt>
			 <trkpt lat="45.87573" lon="10.87423">
				 <ele>67.5</ele>
			 </trkpt>
			 <trkpt lat="45.87548" lon="10.87388">
				 <ele>67.3</ele>
			 </trkpt>
			 <trkpt lat="45.87535" lon="10.87369">
				 <ele>67.1</ele>
			 </trkpt>
			 <trkpt lat="45.87531" lon="10.87368">
				 <ele>66.9</ele>
			 </trkpt>
			 <trkpt lat="45.87525" lon="10.87361">
				 <ele>66.6</ele>
			 </trkpt>
			 <trkpt lat="45.87506" lon="10.87335">
				 <ele>66.4</ele>
			 </trkpt>
			 <trkpt lat="45.87485" lon="10.87302">
				 <ele>66</ele>
			 </trkpt>
			 <trkpt lat="45.87476" lon="10.87282">
				 <ele>65.7</ele>
			 </trkpt>
			 <trkpt lat="45.87457" lon="10.8723">
				 <ele>65.5</ele>
			 </trkpt>
			 <trkpt lat="45.87448" lon="10.872">
				 <ele>65.1</ele>
			 </trkpt>
			 <trkpt lat="45.87448" lon="10.87191">
				 <ele>64.7</ele>
			 </trkpt>
			 <trkpt lat="45.87417" lon="10.87074">
				 <ele>64.5</ele>
			 </trkpt>
			 <trkpt lat="45.87375" lon="10.86826">
				 <ele>64.1</ele>
			 </trkpt>
			 <trkpt lat="45.87373" lon="10.86812">
				 <ele>63.7</ele>
			 </trkpt>
			 <trkpt lat="45.87337" lon="10.86832">
				 <ele>63.4</ele>
			 </trkpt>
			 <trkpt lat="45.87309" lon="10.86848">
				 <ele>63.1</ele>
			 </trkpt>
			 <trkpt lat="45.87306" lon="10.86847">
				 <ele>62.8</ele>
			 </trkpt>
			 <trkpt lat="45.87304" lon="10.86843">
				 <ele>62.6</ele>
			 </trkpt>
			 <trkpt lat="45.87301" lon="10.86834">
				 <ele>62.5</ele>
			 </trkpt>
			 <trkpt lat="45.87277" lon="10.86776">
				 <ele>62.3</ele>
			 </trkpt>
			 <trkpt lat="45.8726" lon="10.86748">
				 <ele>62.2</ele>
			 </trkpt>
			 <trkpt lat="45.87255" lon="10.86748">
				 <ele>62.1</ele>
			 </trkpt>
			 <trkpt lat="45.87249" lon="10.8675">
				 <ele>62</ele>
			 </trkpt>
			 <trkpt lat="45.87249" lon="10.86766">
				 <ele>62</ele>
			 </trkpt>
			 <trkpt lat="45.87251" lon="10.86782">
				 <ele>62</ele>
			 </trkpt>
			 <trkpt lat="45.87252" lon="10.86811">
				 <ele>62</ele>
			 </trkpt>
			 <trkpt lat="45.87247" lon="10.86851">
				 <ele>62</ele>
			 </trkpt>
			 <trkpt lat="45.87236" lon="10.86904">
				 <ele>62</ele>
			 </trkpt>
			 <trkpt lat="45.87225" lon="10.86933">
				 <ele>62</ele>
			 </trkpt>
			 <trkpt lat="45.87202" lon="10.86983">
				 <ele>62.1</ele>
			 </trkpt>
			 <trkpt lat="45.8719" lon="10.87001">
				 <ele>62.2</ele>
			 </trkpt>
			 <trkpt lat="45.87174" lon="10.87013">
				 <ele>62.3</ele>
			 </trkpt>
			 <trkpt lat="45.87164" lon="10.87022">
				 <ele>62.4</ele>
			 </trkpt>
			 <trkpt lat="45.87161" lon="10.87026">
				 <ele>62.5</ele>
			 </trkpt>
			 <trkpt lat="45.87149" lon="10.87035">
				 <ele>62.6</ele>
			 </trkpt>
			 <trkpt lat="45.87138" lon="10.87049">
				 <ele>62.8</ele>
			 </trkpt>
			 <trkpt lat="45.87118" lon="10.87067">
				 <ele>63</ele>
			 </trkpt>
			 <trkpt lat="45.87104" lon="10.87077">
				 <ele>63.2</ele>
			 </trkpt>
			 <trkpt lat="45.871" lon="10.87084">
				 <ele>63.4</ele>
			 </trkpt>
			 <trkpt lat="45.87091" lon="10.87099">
				 <ele>63.6</ele>
			 </trkpt>
			 <trkpt lat="45.87087" lon="10.87124">
				 <ele>63.8</ele>
			 </trkpt>
			 <trkpt lat="45.87089" lon="10.87132">
				 <ele>64</ele>
			 </trkpt>
			 <trkpt lat="45.87094" lon="10.87137">
				 <ele>64.2</ele>
			 </trkpt>
			 <trkpt lat="45.87102" lon="10.87142">
				 <ele>64.4</ele>
			 </trkpt>
			 <trkpt lat="45.87107" lon="10.87148">
				 <ele>64.5</ele>
			 </trkpt>
			 <trkpt lat="45.87101" lon="10.87165">
				 <ele>64.6</ele>
			 </trkpt>
			 <trkpt lat="45.87094" lon="10.87175">
				 <ele>64.6</ele>
			 </trkpt>
			 <trkpt lat="45.87086" lon="10.87177">
				 <ele>64.6</ele>
			 </trkpt>
			 <trkpt lat="45.87075" lon="10.87177">
				 <ele>64.6</ele>
			 </trkpt>
			 <trkpt lat="45.87063" lon="10.87181">
				 <ele>64.6</ele>
			 </trkpt>
			 <trkpt lat="45.87053" lon="10.87195">
				 <ele>64.5</ele>
			 </trkpt>
			 <trkpt lat="45.87043" lon="10.87206">
				 <ele>64.5</ele>
			 </trkpt>
			 <trkpt lat="45.87035" lon="10.8722">
				 <ele>64.5</ele>
			 </trkpt>
			 <trkpt lat="45.87009" lon="10.87258">
				 <ele>64.5</ele>
			 </trkpt>
			 <trkpt lat="45.86984" lon="10.87304">
				 <ele>64.5</ele>
			 </trkpt>
			 <trkpt lat="45.86981" lon="10.87315">
				 <ele>64.5</ele>
			 </trkpt>
			 <trkpt lat="45.86969" lon="10.8734">
				 <ele>64.5</ele>
			 </trkpt>
			 <trkpt lat="45.86967" lon="10.87352">
				 <ele>64.6</ele>
			 </trkpt>
			 <trkpt lat="45.86966" lon="10.87358">
				 <ele>64.7</ele>
			 </trkpt>
			 <trkpt lat="45.86963" lon="10.87359">
				 <ele>64.8</ele>
			 </trkpt>
			 <trkpt lat="45.8696" lon="10.87361">
				 <ele>64.9</ele>
			 </trkpt>
			 <trkpt lat="45.86951" lon="10.8738">
				 <ele>65</ele>
			 </trkpt>
			 <trkpt lat="45.86932" lon="10.87422">
				 <ele>65</ele>
			 </trkpt>
			 <trkpt lat="45.86929" lon="10.87425">
				 <ele>65</ele>
			 </trkpt>
			 <trkpt lat="45.86925" lon="10.87427">
				 <ele>65</ele>
			 </trkpt>
			 <trkpt lat="45.86918" lon="10.87431">
				 <ele>65</ele>
			 </trkpt>
			 <trkpt lat="45.86912" lon="10.87439">
				 <ele>65.1</ele>
			 </trkpt>
			 <trkpt lat="45.869" lon="10.87467">
				 <ele>65.2</ele>
			 </trkpt>
			 <trkpt lat="45.86888" lon="10.87474">
				 <ele>65.3</ele>
			 </trkpt>
			 <trkpt lat="45.8688" lon="10.87495">
				 <ele>65.5</ele>
			 </trkpt>
			 <trkpt lat="45.86871" lon="10.8752">
				 <ele>65.6</ele>
			 </trkpt>
			 <trkpt lat="45.86868" lon="10.87534">
				 <ele>65.9</ele>
			 </trkpt>
			 <trkpt lat="45.86868" lon="10.8755">
				 <ele>66.3</ele>
			 </trkpt>
			 <trkpt lat="45.86871" lon="10.87559">
				 <ele>66.6</ele>
			 </trkpt>
			 <trkpt lat="45.86884" lon="10.87581">
				 <ele>67.1</ele>
			 </trkpt>
			 <trkpt lat="45.86898" lon="10.87592">
				 <ele>67.5</ele>
			 </trkpt>
			 <trkpt lat="45.86913" lon="10.87604">
				 <ele>68.1</ele>
			 </trkpt>
			 <trkpt lat="45.86927" lon="10.87613">
				 <ele>68.5</ele>
			 </trkpt>
			 <trkpt lat="45.86913" lon="10.87623">
				 <ele>69.1</ele>
			 </trkpt>
			 <trkpt lat="45.86891" lon="10.8764">
				 <ele>69.6</ele>
			 </trkpt>
			 <trkpt lat="45.86843" lon="10.87676">
				 <ele>70.1</ele>
			 </trkpt>
			 <trkpt lat="45.86809" lon="10.87699">
				 <ele>70.5</ele>
			 </trkpt>
			 <trkpt lat="45.86792" lon="10.87707">
				 <ele>70.9</ele>
			 </trkpt>
			 <trkpt lat="45.86773" lon="10.87711">
				 <ele>71.2</ele>
			 </trkpt>
			 <trkpt lat="45.86746" lon="10.8771">
				 <ele>71.5</ele>
			 </trkpt>
			 <trkpt lat="45.86727" lon="10.87706">
				 <ele>71.6</ele>
			 </trkpt>
			 <trkpt lat="45.8671" lon="10.877">
				 <ele>71.9</ele>
			 </trkpt>
			 <trkpt lat="45.86691" lon="10.87689">
				 <ele>72.1</ele>
			 </trkpt>
			 <trkpt lat="45.8665" lon="10.87657">
				 <ele>72.3</ele>
			 </trkpt>
			 <trkpt lat="45.86588" lon="10.87607">
				 <ele>72.5</ele>
			 </trkpt>
			 <trkpt lat="45.86531" lon="10.87561">
				 <ele>72.5</ele>
			 </trkpt>
			 <trkpt lat="45.86517" lon="10.87552">
				 <ele>72.7</ele>
			 </trkpt>
			 <trkpt lat="45.86509" lon="10.87547">
				 <ele>72.9</ele>
			 </trkpt>
			 <trkpt lat="45.86463" lon="10.87527">
				 <ele>73.1</ele>
			 </trkpt>
			 <trkpt lat="45.86445" lon="10.87524">
				 <ele>73.4</ele>
			 </trkpt>
			 <trkpt lat="45.86415" lon="10.87532">
				 <ele>73.7</ele>
			 </trkpt>
			 <trkpt lat="45.86393" lon="10.8755">
				 <ele>74.1</ele>
			 </trkpt>
			 <trkpt lat="45.86368" lon="10.87584">
				 <ele>74.3</ele>
			 </trkpt>
			 <trkpt lat="45.86352" lon="10.87607">
				 <ele>74.5</ele>
			 </trkpt>
			 <trkpt lat="45.86335" lon="10.87627">
				 <ele>74.5</ele>
			 </trkpt>
			 <trkpt lat="45.86321" lon="10.87638">
				 <ele>74.5</ele>
			 </trkpt>
			 <trkpt lat="45.86305" lon="10.87648">
				 <ele>74.6</ele>
			 </trkpt>
			 <trkpt lat="45.86279" lon="10.8766">
				 <ele>74.6</ele>
			 </trkpt>
			 <trkpt lat="45.86256" lon="10.87665">
				 <ele>74.5</ele>
			 </trkpt>
			 <trkpt lat="45.86247" lon="10.87665">
				 <ele>74.5</ele>
			 </trkpt>
			 <trkpt lat="45.86211" lon="10.87661">
				 <ele>74.2</ele>
			 </trkpt>
			 <trkpt lat="45.86181" lon="10.87648">
				 <ele>73.7</ele>
			 </trkpt>
			 <trkpt lat="45.86151" lon="10.87624">
				 <ele>73.3</ele>
			 </trkpt>
			 <trkpt lat="45.86126" lon="10.87598">
				 <ele>72.9</ele>
			 </trkpt>
			 <trkpt lat="45.86116" lon="10.87585">
				 <ele>72.5</ele>
			 </trkpt>
			 <trkpt lat="45.86092" lon="10.87546">
				 <ele>72.4</ele>
			 </trkpt>
			 <trkpt lat="45.86076" lon="10.87518">
				 <ele>72.2</ele>
			 </trkpt>
			 <trkpt lat="45.8605" lon="10.87482">
				 <ele>72</ele>
			 </trkpt>
			 <trkpt lat="45.86016" lon="10.87445">
				 <ele>71.8</ele>
			 </trkpt>
			 <trkpt lat="45.85982" lon="10.87406">
				 <ele>71.7</ele>
			 </trkpt>
			 <trkpt lat="45.85946" lon="10.87353">
				 <ele>71.6</ele>
			 </trkpt>
			 <trkpt lat="45.85913" lon="10.87297">
				 <ele>71.6</ele>
			 </trkpt>
			 <trkpt lat="45.8589" lon="10.87264">
				 <ele>71.8</ele>
			 </trkpt>
			 <trkpt lat="45.8587" lon="10.87239">
				 <ele>72</ele>
			 </trkpt>
			 <trkpt lat="45.85845" lon="10.87204">
				 <ele>72.2</ele>
			 </trkpt>
			 <trkpt lat="45.85809" lon="10.87161">
				 <ele>72.3</ele>
			 </trkpt>
			 <trkpt lat="45.85774" lon="10.87133">
				 <ele>72.2</ele>
			 </trkpt>
			 <trkpt lat="45.8574" lon="10.87105">
				 <ele>72</ele>
			 </trkpt>
			 <trkpt lat="45.8571" lon="10.87084">
				 <ele>71.8</ele>
			 </trkpt>
			 <trkpt lat="45.85673" lon="10.87057">
				 <ele>71.6</ele>
			 </trkpt>
			 <trkpt lat="45.85648" lon="10.87031">
				 <ele>71.4</ele>
			 </trkpt>
			 <trkpt lat="45.85602" lon="10.86979">
				 <ele>71</ele>
			 </trkpt>
			 <trkpt lat="45.85562" lon="10.86936">
				 <ele>70.5</ele>
			 </trkpt>
			 <trkpt lat="45.85527" lon="10.869">
				 <ele>70</ele>
			 </trkpt>
			 <trkpt lat="45.85338" lon="10.86712">
				 <ele>69.4</ele>
			 </trkpt>
			 <trkpt lat="45.85322" lon="10.86692">
				 <ele>68.7</ele>
			 </trkpt>
			 <trkpt lat="45.85303" lon="10.86664">
				 <ele>68.2</ele>
			 </trkpt>
			 <trkpt lat="45.85271" lon="10.86604">
				 <ele>67.7</ele>
			 </trkpt>
			 <trkpt lat="45.85257" lon="10.86578">
				 <ele>67.5</ele>
			 </trkpt>
			 <trkpt lat="45.8523" lon="10.8653">
				 <ele>67.3</ele>
			 </trkpt>
			 <trkpt lat="45.85222" lon="10.86518">
				 <ele>67.1</ele>
			 </trkpt>
			 <trkpt lat="45.85181" lon="10.86463">
				 <ele>67</ele>
			 </trkpt>
			 <trkpt lat="45.85116" lon="10.86396">
				 <ele>67.1</ele>
			 </trkpt>
			 <trkpt lat="45.85061" lon="10.86346">
				 <ele>67.4</ele>
			 </trkpt>
			 <trkpt lat="45.85046" lon="10.86333">
				 <ele>67.7</ele>
			 </trkpt>
			 <trkpt lat="45.85032" lon="10.86324">
				 <ele>68.2</ele>
			 </trkpt>
			 <trkpt lat="45.85015" lon="10.86315">
				 <ele>68.7</ele>
			 </trkpt>
			 <trkpt lat="45.84994" lon="10.86309">
				 <ele>69.3</ele>
			 </trkpt>
			 <trkpt lat="45.8498" lon="10.86308">
				 <ele>69.7</ele>
			 </trkpt>
			 <trkpt lat="45.84937" lon="10.86316">
				 <ele>70.1</ele>
			 </trkpt>
			 <trkpt lat="45.8483" lon="10.86374">
				 <ele>70.4</ele>
			 </trkpt>
			 <trkpt lat="45.84826" lon="10.86375">
				 <ele>70.6</ele>
			 </trkpt>
			 <trkpt lat="45.84803" lon="10.8638">
				 <ele>70.9</ele>
			 </trkpt>
			 <trkpt lat="45.84792" lon="10.86378">
				 <ele>71</ele>
			 </trkpt>
			 <trkpt lat="45.84783" lon="10.86377">
				 <ele>71.1</ele>
			 </trkpt>
			 <trkpt lat="45.84757" lon="10.86367">
				 <ele>71</ele>
			 </trkpt>
			 <trkpt lat="45.84642" lon="10.86318">
				 <ele>70.9</ele>
			 </trkpt>
			 <trkpt lat="45.84608" lon="10.86319">
				 <ele>70.7</ele>
			 </trkpt>
			 <trkpt lat="45.84589" lon="10.86322">
				 <ele>70.5</ele>
			 </trkpt>
			 <trkpt lat="45.84502" lon="10.86355">
				 <ele>70.5</ele>
			 </trkpt>
			 <trkpt lat="45.84466" lon="10.86365">
				 <ele>70.5</ele>
			 </trkpt>
			 <trkpt lat="45.84447" lon="10.86364">
				 <ele>70.5</ele>
			 </trkpt>
			 <trkpt lat="45.84431" lon="10.86358">
				 <ele>70.4</ele>
			 </trkpt>
			 <trkpt lat="45.84406" lon="10.86343">
				 <ele>70.3</ele>
			 </trkpt>
			 <trkpt lat="45.84345" lon="10.86303">
				 <ele>70.4</ele>
			 </trkpt>
			 <trkpt lat="45.8424" lon="10.86246">
				 <ele>70.3</ele>
			 </trkpt>
			 <trkpt lat="45.84135" lon="10.86166">
				 <ele>70.3</ele>
			 </trkpt>
			 <trkpt lat="45.84074" lon="10.86121">
				 <ele>70.4</ele>
			 </trkpt>
			 <trkpt lat="45.84041" lon="10.86098">
				 <ele>70.6</ele>
			 </trkpt>
			 <trkpt lat="45.84032" lon="10.86095">
				 <ele>71</ele>
			 </trkpt>
			 <trkpt lat="45.84018" lon="10.86094">
				 <ele>71.4</ele>
			 </trkpt>
			 <trkpt lat="45.83987" lon="10.86089">
				 <ele>71.8</ele>
			 </trkpt>
			 <trkpt lat="45.83899" lon="10.86075">
				 <ele>72.5</ele>
			 </trkpt>
			 <trkpt lat="45.83851" lon="10.86066">
				 <ele>73.4</ele>
			 </trkpt>
			 <trkpt lat="45.83829" lon="10.86055">
				 <ele>74.3</ele>
			 </trkpt>
			 <trkpt lat="45.838" lon="10.86033">
				 <ele>75.3</ele>
			 </trkpt>
			 <trkpt lat="45.83769" lon="10.86016">
				 <ele>76.5</ele>
			 </trkpt>
			 <trkpt lat="45.83732" lon="10.85994">
				 <ele>77.8</ele>
			 </trkpt>
			 <trkpt lat="45.83645" lon="10.85943">
				 <ele>79.1</ele>
			 </trkpt>
			 <trkpt lat="45.83624" lon="10.85936">
				 <ele>80.2</ele>
			 </trkpt>
			 <trkpt lat="45.83599" lon="10.85934">
				 <ele>81.2</ele>
			 </trkpt>
			 <trkpt lat="45.83578" lon="10.85938">
				 <ele>82.1</ele>
			 </trkpt>
			 <trkpt lat="45.83528" lon="10.85966">
				 <ele>82.9</ele>
			 </trkpt>
			 <trkpt lat="45.83473" lon="10.85999">
				 <ele>83.5</ele>
			 </trkpt>
			 <trkpt lat="45.83426" lon="10.86021">
				 <ele>84.1</ele>
			 </trkpt>
			 <trkpt lat="45.83401" lon="10.86025">
				 <ele>84.5</ele>
			 </trkpt>
			 <trkpt lat="45.83366" lon="10.86022">
				 <ele>84.9</ele>
			 </trkpt>
			 <trkpt lat="45.83342" lon="10.86011">
				 <ele>85.2</ele>
			 </trkpt>
			 <trkpt lat="45.83314" lon="10.85998">
				 <ele>85.3</ele>
			 </trkpt>
			 <trkpt lat="45.83288" lon="10.85987">
				 <ele>85.4</ele>
			 </trkpt>
			 <trkpt lat="45.83234" lon="10.8597">
				 <ele>85.5</ele>
			 </trkpt>
			 <trkpt lat="45.83211" lon="10.85963">
				 <ele>85.5</ele>
			 </trkpt>
			 <trkpt lat="45.83185" lon="10.85951">
				 <ele>85.7</ele>
			 </trkpt>
			 <trkpt lat="45.83158" lon="10.85934">
				 <ele>85.9</ele>
			 </trkpt>
			 <trkpt lat="45.83135" lon="10.85911">
				 <ele>86.1</ele>
			 </trkpt>
			 <trkpt lat="45.83115" lon="10.85889">
				 <ele>86.4</ele>
			 </trkpt>
			 <trkpt lat="45.83079" lon="10.85865">
				 <ele>86.6</ele>
			 </trkpt>
			 <trkpt lat="45.83039" lon="10.85838">
				 <ele>86.8</ele>
			 </trkpt>
			 <trkpt lat="45.82984" lon="10.85805">
				 <ele>87.1</ele>
			 </trkpt>
			 <trkpt lat="45.8289" lon="10.85753">
				 <ele>87.4</ele>
			 </trkpt>
			 <trkpt lat="45.82861" lon="10.85738">
				 <ele>87.7</ele>
			 </trkpt>
			 <trkpt lat="45.82839" lon="10.85728">
				 <ele>88.1</ele>
			 </trkpt>
			 <trkpt lat="45.82824" lon="10.85723">
				 <ele>88.5</ele>
			 </trkpt>
			 <trkpt lat="45.82802" lon="10.8572">
				 <ele>88.7</ele>
			 </trkpt>
			 <trkpt lat="45.82784" lon="10.8572">
				 <ele>89</ele>
			 </trkpt>
			 <trkpt lat="45.82773" lon="10.85724">
				 <ele>89.3</ele>
			 </trkpt>
			 <trkpt lat="45.82738" lon="10.85736">
				 <ele>89.4</ele>
			 </trkpt>
			 <trkpt lat="45.82694" lon="10.85757">
				 <ele>89.5</ele>
			 </trkpt>
			 <trkpt lat="45.82639" lon="10.85775">
				 <ele>89.5</ele>
			 </trkpt>
			 <trkpt lat="45.82542" lon="10.85776">
				 <ele>89.5</ele>
			 </trkpt>
			 <trkpt lat="45.82474" lon="10.85774">
				 <ele>89.5</ele>
			 </trkpt>
			 <trkpt lat="45.82418" lon="10.85768">
				 <ele>89.5</ele>
			 </trkpt>
			 <trkpt lat="45.82396" lon="10.85765">
				 <ele>89.4</ele>
			 </trkpt>
			 <trkpt lat="45.82349" lon="10.85753">
				 <ele>89.3</ele>
			 </trkpt>
			 <trkpt lat="45.82261" lon="10.85727">
				 <ele>89.3</ele>
			 </trkpt>
			 <trkpt lat="45.82198" lon="10.85707">
				 <ele>89.4</ele>
			 </trkpt>
			 <trkpt lat="45.82078" lon="10.85664">
				 <ele>89.5</ele>
			 </trkpt>
			 <trkpt lat="45.81958" lon="10.8561">
				 <ele>89.8</ele>
			 </trkpt>
			 <trkpt lat="45.81904" lon="10.85589">
				 <ele>90.2</ele>
			 </trkpt>
			 <trkpt lat="45.81879" lon="10.85582">
				 <ele>90.5</ele>
			 </trkpt>
			 <trkpt lat="45.81781" lon="10.85551">
				 <ele>90.9</ele>
			 </trkpt>
			 <trkpt lat="45.81734" lon="10.85535">
				 <ele>91.4</ele>
			 </trkpt>
			 <trkpt lat="45.81707" lon="10.85524">
				 <ele>91.7</ele>
			 </trkpt>
			 <trkpt lat="45.81672" lon="10.85503">
				 <ele>92.1</ele>
			 </trkpt>
			 <trkpt lat="45.81601" lon="10.85449">
				 <ele>92.4</ele>
			 </trkpt>
			 <trkpt lat="45.81529" lon="10.85398">
				 <ele>92.5</ele>
			 </trkpt>
			 <trkpt lat="45.81478" lon="10.8537">
				 <ele>92.3</ele>
			 </trkpt>
			 <trkpt lat="45.81418" lon="10.85343">
				 <ele>91.9</ele>
			 </trkpt>
			 <trkpt lat="45.81354" lon="10.85315">
				 <ele>91.5</ele>
			 </trkpt>
			 <trkpt lat="45.81268" lon="10.85283">
				 <ele>90.8</ele>
			 </trkpt>
			 <trkpt lat="45.81202" lon="10.85264">
				 <ele>90.1</ele>
			 </trkpt>
			 <trkpt lat="45.81158" lon="10.85251">
				 <ele>89.3</ele>
			 </trkpt>
			 <trkpt lat="45.81062" lon="10.85213">
				 <ele>88.3</ele>
			 </trkpt>
			 <trkpt lat="45.81029" lon="10.85199">
				 <ele>87.3</ele>
			 </trkpt>
			 <trkpt lat="45.81006" lon="10.85185">
				 <ele>86.2</ele>
			 </trkpt>
			 <trkpt lat="45.8098" lon="10.85163">
				 <ele>85.2</ele>
			 </trkpt>
			 <trkpt lat="45.80965" lon="10.85148">
				 <ele>84.2</ele>
			 </trkpt>
			 <trkpt lat="45.80938" lon="10.85107">
				 <ele>83.4</ele>
			 </trkpt>
			 <trkpt lat="45.80919" lon="10.85063">
				 <ele>82.6</ele>
			 </trkpt>
			 <trkpt lat="45.80871" lon="10.84914">
				 <ele>82</ele>
			 </trkpt>
			 <trkpt lat="45.80856" lon="10.84879">
				 <ele>81.5</ele>
			 </trkpt>
			 <trkpt lat="45.80836" lon="10.84849">
				 <ele>80.9</ele>
			 </trkpt>
			 <trkpt lat="45.80812" lon="10.84826">
				 <ele>80.5</ele>
			 </trkpt>
			 <trkpt lat="45.8074" lon="10.84767">
				 <ele>80</ele>
			 </trkpt>
			 <trkpt lat="45.80682" lon="10.8472">
				 <ele>79.6</ele>
			 </trkpt>
			 <trkpt lat="45.806632" lon="10.847016">
				 <ele>79.3</ele>
			 </trkpt>
			 <trkpt lat="45.806867" lon="10.847">
				 <ele>78.9</ele>
			 </trkpt>
			 <trkpt lat="45.806978" lon="10.847045">
				 <ele>78.5</ele>
			 </trkpt>
			 <trkpt lat="45.806986" lon="10.847008">
				 <ele>78.2</ele>
			 </trkpt>
			 <trkpt lat="45.806945" lon="10.84697">
				 <ele>77.7</ele>
			 </trkpt>
			 <trkpt lat="45.806805" lon="10.846829">
				 <ele>77.3</ele>
			 </trkpt>
			 <trkpt lat="45.80635" lon="10.84646">
				 <ele>76.7</ele>
			 </trkpt>
			 <trkpt lat="45.80622" lon="10.84635">
				 <ele>76.3</ele>
			 </trkpt>
			 <trkpt lat="45.80588" lon="10.84596">
				 <ele>75.8</ele>
			 </trkpt>
			 <trkpt lat="45.80549" lon="10.84538">
				 <ele>75.4</ele>
			 </trkpt>
			 <trkpt lat="45.80519" lon="10.84477">
				 <ele>74.9</ele>
			 </trkpt>
			 <trkpt lat="45.80497" lon="10.8442">
				 <ele>74.5</ele>
			 </trkpt>
			 <trkpt lat="45.80476" lon="10.84379">
				 <ele>74.2</ele>
			 </trkpt>
			 <trkpt lat="45.80472" lon="10.84364">
				 <ele>73.9</ele>
			 </trkpt>
			 <trkpt lat="45.80426" lon="10.84271">
				 <ele>73.6</ele>
			 </trkpt>
			 <trkpt lat="45.80394" lon="10.84229">
				 <ele>73.5</ele>
			 </trkpt>
			 <trkpt lat="45.8036" lon="10.84188">
				 <ele>73.5</ele>
			 </trkpt>
			 <trkpt lat="45.80328" lon="10.84144">
				 <ele>73.4</ele>
			 </trkpt>
			 <trkpt lat="45.80281" lon="10.84082">
				 <ele>73.3</ele>
			 </trkpt>
			 <trkpt lat="45.80233" lon="10.84026">
				 <ele>73.2</ele>
			 </trkpt>
			 <trkpt lat="45.80198" lon="10.83985">
				 <ele>73.1</ele>
			 </trkpt>
			 <trkpt lat="45.80185" lon="10.83967">
				 <ele>73</ele>
			 </trkpt>
			 <trkpt lat="45.80164" lon="10.83934">
				 <ele>72.8</ele>
			 </trkpt>
			 <trkpt lat="45.80153" lon="10.83915">
				 <ele>72.6</ele>
			 </trkpt>
			 <trkpt lat="45.80145" lon="10.83892">
				 <ele>72.5</ele>
			 </trkpt>
			 <trkpt lat="45.80118" lon="10.83843">
				 <ele>72.3</ele>
			 </trkpt>
			 <trkpt lat="45.80093" lon="10.83799">
				 <ele>72</ele>
			 </trkpt>
			 <trkpt lat="45.80082" lon="10.83784">
				 <ele>71.7</ele>
			 </trkpt>
			 <trkpt lat="45.80062" lon="10.83764">
				 <ele>71.6</ele>
			 </trkpt>
			 <trkpt lat="45.80042" lon="10.83749">
				 <ele>71.6</ele>
			 </trkpt>
			 <trkpt lat="45.80021" lon="10.83739">
				 <ele>71.7</ele>
			 </trkpt>
			 <trkpt lat="45.80002" lon="10.83731">
				 <ele>72.1</ele>
			 </trkpt>
			 <trkpt lat="45.79977" lon="10.83715">
				 <ele>72.5</ele>
			 </trkpt>
			 <trkpt lat="45.79936" lon="10.83717">
				 <ele>73.3</ele>
			 </trkpt>
			 <trkpt lat="45.79926" lon="10.8372">
				 <ele>74.2</ele>
			 </trkpt>
			 <trkpt lat="45.79926" lon="10.83734">
				 <ele>75.2</ele>
			 </trkpt>
			 <trkpt lat="45.79912" lon="10.83737">
				 <ele>76.4</ele>
			 </trkpt>
			 <trkpt lat="45.79859" lon="10.83749">
				 <ele>77.6</ele>
			 </trkpt>
			 <trkpt lat="45.79823" lon="10.83755">
				 <ele>79</ele>
			 </trkpt>
			 <trkpt lat="45.79804" lon="10.83754">
				 <ele>80.4</ele>
			 </trkpt>
			 <trkpt lat="45.79777" lon="10.83747">
				 <ele>81.7</ele>
			 </trkpt>
			 <trkpt lat="45.79753" lon="10.83737">
				 <ele>83</ele>
			 </trkpt>
			 <trkpt lat="45.79736" lon="10.83728">
				 <ele>84.2</ele>
			 </trkpt>
			 <trkpt lat="45.79714" lon="10.8371">
				 <ele>85.3</ele>
			 </trkpt>
			 <trkpt lat="45.7969" lon="10.83686">
				 <ele>86.2</ele>
			 </trkpt>
			 <trkpt lat="45.79568" lon="10.83556">
				 <ele>86.9</ele>
			 </trkpt>
			 <trkpt lat="45.79489" lon="10.83472">
				 <ele>87.5</ele>
			 </trkpt>
			 <trkpt lat="45.79389" lon="10.83367">
				 <ele>87.8</ele>
			 </trkpt>
			 <trkpt lat="45.79358" lon="10.83328">
				 <ele>88</ele>
			 </trkpt>
			 <trkpt lat="45.79324" lon="10.83288">
				 <ele>88</ele>
			 </trkpt>
			 <trkpt lat="45.79286" lon="10.83238">
				 <ele>87.8</ele>
			 </trkpt>
			 <trkpt lat="45.79266" lon="10.83213">
				 <ele>87.5</ele>
			 </trkpt>
			 <trkpt lat="45.79248" lon="10.83182">
				 <ele>87</ele>
			 </trkpt>
			 <trkpt lat="45.79237" lon="10.83162">
				 <ele>86.3</ele>
			 </trkpt>
			 <trkpt lat="45.79234" lon="10.83153">
				 <ele>85.5</ele>
			 </trkpt>
			 <trkpt lat="45.79234" lon="10.8313">
				 <ele>84.5</ele>
			 </trkpt>
			 <trkpt lat="45.79232" lon="10.83123">
				 <ele>83.5</ele>
			 </trkpt>
			 <trkpt lat="45.79221" lon="10.83106">
				 <ele>82.4</ele>
			 </trkpt>
			 <trkpt lat="45.79195" lon="10.83068">
				 <ele>81.1</ele>
			 </trkpt>
			 <trkpt lat="45.79174" lon="10.83027">
				 <ele>79.8</ele>
			 </trkpt>
			 <trkpt lat="45.79167" lon="10.83013">
				 <ele>78.5</ele>
			 </trkpt>
			 <trkpt lat="45.79159" lon="10.82971">
				 <ele>77.3</ele>
			 </trkpt>
			 <trkpt lat="45.79141" lon="10.82881">
				 <ele>76</ele>
			 </trkpt>
			 <trkpt lat="45.79137" lon="10.82867">
				 <ele>74.8</ele>
			 </trkpt>
			 <trkpt lat="45.79135" lon="10.82855">
				 <ele>73.7</ele>
			 </trkpt>
			 <trkpt lat="45.79125" lon="10.82835">
				 <ele>72.6</ele>
			 </trkpt>
			 <trkpt lat="45.79095" lon="10.8278">
				 <ele>71.6</ele>
			 </trkpt>
			 <trkpt lat="45.79088" lon="10.82766">
				 <ele>70.8</ele>
			 </trkpt>
			 <trkpt lat="45.79063" lon="10.82709">
				 <ele>70</ele>
			 </trkpt>
			 <trkpt lat="45.79034" lon="10.82645">
				 <ele>69.4</ele>
			 </trkpt>
			 <trkpt lat="45.78933" lon="10.82462">
				 <ele>68.8</ele>
			 </trkpt>
			 <trkpt lat="45.78905" lon="10.82415">
				 <ele>68.4</ele>
			 </trkpt>
			 <trkpt lat="45.7889" lon="10.82389">
				 <ele>68</ele>
			 </trkpt>
			 <trkpt lat="45.78844" lon="10.823">
				 <ele>67.6</ele>
			 </trkpt>
			 <trkpt lat="45.78828" lon="10.82276">
				 <ele>67.3</ele>
			 </trkpt>
			 <trkpt lat="45.78809" lon="10.82254">
				 <ele>67</ele>
			 </trkpt>
			 <trkpt lat="45.78806" lon="10.8225">
				 <ele>66.8</ele>
			 </trkpt>
			 <trkpt lat="45.78804" lon="10.82242">
				 <ele>66.6</ele>
			 </trkpt>
			 <trkpt lat="45.78797" lon="10.82215">
				 <ele>66.5</ele>
			 </trkpt>
			 <trkpt lat="45.78795" lon="10.82208">
				 <ele>66.5</ele>
			 </trkpt>
			 <trkpt lat="45.7879" lon="10.82195">
				 <ele>66.5</ele>
			 </trkpt>
			 <trkpt lat="45.78764" lon="10.822">
				 <ele>66.5</ele>
			 </trkpt>
			 <trkpt lat="45.78753" lon="10.82197">
				 <ele>66.6</ele>
			 </trkpt>
			 <trkpt lat="45.78737" lon="10.82189">
				 <ele>66.7</ele>
			 </trkpt>
			 <trkpt lat="45.78725" lon="10.82179">
				 <ele>66.9</ele>
			 </trkpt>
			 <trkpt lat="45.78695" lon="10.82151">
				 <ele>67.2</ele>
			 </trkpt>
			 <trkpt lat="45.7869" lon="10.82142">
				 <ele>67.5</ele>
			 </trkpt>
			 <trkpt lat="45.78683" lon="10.82136">
				 <ele>67.7</ele>
			 </trkpt>
			 <trkpt lat="45.78665" lon="10.82123">
				 <ele>68.1</ele>
			 </trkpt>
			 <trkpt lat="45.78648" lon="10.82112">
				 <ele>68.4</ele>
			 </trkpt>
			 <trkpt lat="45.78633" lon="10.82099">
				 <ele>68.6</ele>
			 </trkpt>
			 <trkpt lat="45.78619" lon="10.82083">
				 <ele>68.9</ele>
			 </trkpt>
			 <trkpt lat="45.78563" lon="10.82015">
				 <ele>69.3</ele>
			 </trkpt>
			 <trkpt lat="45.78509" lon="10.81948">
				 <ele>69.5</ele>
			 </trkpt>
			 <trkpt lat="45.78486" lon="10.81923">
				 <ele>69.8</ele>
			 </trkpt>
			 <trkpt lat="45.78465" lon="10.81907">
				 <ele>70.1</ele>
			 </trkpt>
			 <trkpt lat="45.78455" lon="10.81901">
				 <ele>70.3</ele>
			 </trkpt>
			 <trkpt lat="45.78414" lon="10.81882">
				 <ele>70.5</ele>
			 </trkpt>
			 <trkpt lat="45.78373" lon="10.81866">
				 <ele>70.8</ele>
			 </trkpt>
			 <trkpt lat="45.78337" lon="10.81857">
				 <ele>71</ele>
			 </trkpt>
			 <trkpt lat="45.78292" lon="10.81837">
				 <ele>71.2</ele>
			 </trkpt>
			 <trkpt lat="45.78149" lon="10.81768">
				 <ele>71.4</ele>
			 </trkpt>
			 <trkpt lat="45.78108" lon="10.8175">
				 <ele>71.5</ele>
			 </trkpt>
			 <trkpt lat="45.78102" lon="10.81749">
				 <ele>71.6</ele>
			 </trkpt>
			 <trkpt lat="45.78034" lon="10.81717">
				 <ele>71.7</ele>
			 </trkpt>
			 <trkpt lat="45.77962" lon="10.81684">
				 <ele>71.7</ele>
			 </trkpt>
			 <trkpt lat="45.77899" lon="10.81651">
				 <ele>71.7</ele>
			 </trkpt>
			 <trkpt lat="45.77847" lon="10.81628">
				 <ele>71.7</ele>
			 </trkpt>
			 <trkpt lat="45.77834" lon="10.81623">
				 <ele>71.6</ele>
			 </trkpt>
			 <trkpt lat="45.77808" lon="10.81607">
				 <ele>71.5</ele>
			 </trkpt>
			 <trkpt lat="45.77782" lon="10.81591">
				 <ele>71.5</ele>
			 </trkpt>
			 <trkpt lat="45.77714" lon="10.8155">
				 <ele>71.4</ele>
			 </trkpt>
			 <trkpt lat="45.77676" lon="10.81532">
				 <ele>71.3</ele>
			 </trkpt>
			 <trkpt lat="45.77666" lon="10.81523">
				 <ele>71.3</ele>
			 </trkpt>
			 <trkpt lat="45.77625" lon="10.81504">
				 <ele>71.3</ele>
			 </trkpt>
			 <trkpt lat="45.7761" lon="10.815">
				 <ele>71.3</ele>
			 </trkpt>
			 <trkpt lat="45.77593" lon="10.81492">
				 <ele>71.4</ele>
			 </trkpt>
			 <trkpt lat="45.77544" lon="10.81459">
				 <ele>71.5</ele>
			 </trkpt>
			 <trkpt lat="45.77512" lon="10.81436">
				 <ele>71.7</ele>
			 </trkpt>
			 <trkpt lat="45.77464" lon="10.81401">
				 <ele>72</ele>
			 </trkpt>
			 <trkpt lat="45.77457" lon="10.81393">
				 <ele>72.3</ele>
			 </trkpt>
			 <trkpt lat="45.77453" lon="10.81382">
				 <ele>72.6</ele>
			 </trkpt>
			 <trkpt lat="45.77444" lon="10.81384">
				 <ele>73.1</ele>
			 </trkpt>
			 <trkpt lat="45.77434" lon="10.81389">
				 <ele>73.5</ele>
			 </trkpt>
			 <trkpt lat="45.77412" lon="10.81375">
				 <ele>74</ele>
			 </trkpt>
			 <trkpt lat="45.77364" lon="10.81349">
				 <ele>74.5</ele>
			 </trkpt>
			 <trkpt lat="45.77314" lon="10.81327">
				 <ele>75</ele>
			 </trkpt>
			 <trkpt lat="45.77222" lon="10.81282">
				 <ele>75.5</ele>
			 </trkpt>
			 <trkpt lat="45.77152" lon="10.81247">
				 <ele>76.1</ele>
			 </trkpt>
			 <trkpt lat="45.77128" lon="10.81235">
				 <ele>76.6</ele>
			 </trkpt>
			 <trkpt lat="45.77098" lon="10.81221">
				 <ele>77.1</ele>
			 </trkpt>
			 <trkpt lat="45.7705" lon="10.81202">
				 <ele>77.6</ele>
			 </trkpt>
			 <trkpt lat="45.77031" lon="10.81197">
				 <ele>78.1</ele>
			 </trkpt>
			 <trkpt lat="45.77017" lon="10.81197">
				 <ele>78.5</ele>
			 </trkpt>
			 <trkpt lat="45.76967" lon="10.81202">
				 <ele>78.8</ele>
			 </trkpt>
			 <trkpt lat="45.76942" lon="10.81205">
				 <ele>79.1</ele>
			 </trkpt>
			 <trkpt lat="45.76918" lon="10.81205">
				 <ele>79.4</ele>
			 </trkpt>
			 <trkpt lat="45.76887" lon="10.81198">
				 <ele>79.5</ele>
			 </trkpt>
			 <trkpt lat="45.768" lon="10.81172">
				 <ele>79.7</ele>
			 </trkpt>
			 <trkpt lat="45.76651" lon="10.81126">
				 <ele>79.8</ele>
			 </trkpt>
			 <trkpt lat="45.76581" lon="10.81104">
				 <ele>79.9</ele>
			 </trkpt>
			 <trkpt lat="45.76571" lon="10.81099">
				 <ele>80</ele>
			 </trkpt>
			 <trkpt lat="45.76571" lon="10.81095">
				 <ele>80</ele>
			 </trkpt>
			 <trkpt lat="45.76568" lon="10.81093">
				 <ele>80</ele>
			 </trkpt>
			 <trkpt lat="45.76568" lon="10.81077">
				 <ele>80</ele>
			 </trkpt>
			 <trkpt lat="45.76568" lon="10.81048">
				 <ele>79.9</ele>
			 </trkpt>
			 <trkpt lat="45.76564" lon="10.81046">
				 <ele>79.8</ele>
			 </trkpt>
			 <trkpt lat="45.76559" lon="10.81043">
				 <ele>79.7</ele>
			 </trkpt>
			 <trkpt lat="45.76551" lon="10.81035">
				 <ele>79.6</ele>
			 </trkpt>
			 <trkpt lat="45.7653" lon="10.81018">
				 <ele>79.5</ele>
			 </trkpt>
			 <trkpt lat="45.76488" lon="10.80985">
				 <ele>79.5</ele>
			 </trkpt>
			 <trkpt lat="45.76473" lon="10.80973">
				 <ele>79.4</ele>
			 </trkpt>
			 <trkpt lat="45.76466" lon="10.80954">
				 <ele>79.3</ele>
			 </trkpt>
			 <trkpt lat="45.76449" lon="10.80931">
				 <ele>79.3</ele>
			 </trkpt>
			 <trkpt lat="45.76442" lon="10.80919">
				 <ele>79.1</ele>
			 </trkpt>
			 <trkpt lat="45.76437" lon="10.80911">
				 <ele>79</ele>
			 </trkpt>
		 </trkseg>
	 </trk>
</gpx>