<?xml version="1.0" encoding="UTF-8"?>
 <gpx creator="Garmin Connect" version="1.1"
	 xsi:schemaLocation="http://www.topografix.com/GPX/1/1 http://www.topografix.com/GPX/11.xsd"
	 xmlns:ns3="http://www.garmin.com/xmlschemas/TrackPointExtension/v1"
	 xmlns="http://www.topografix.com/GPX/1/1"
	 xmlns:xsi="http://www.w3.org/2001/XMLSchema-instance" xmlns:ns2="http://www.garmin.com/xmlschemas/GpxExtensions/v3">
	 <metadata>
		<name>Marathon Lima 42K 2026 - 42.195 km</name>
		 <link href="https://www.goandrace.com">
		 <text>Garmin Connect</text>
		 </link>
	 <time>2026-08-09T16:06:48</time>
	 </metadata>
	 <trk>
		 <name>Marathon Lima 42K 2026 - 42.195 km</name>
		 <trkseg>
			 <trkpt lat="-12.122828" lon="-77.029162">
				 <ele>90.3</ele>
			 </trkpt>
			 <trkpt lat="-12.122365" lon="-77.029094">
				 <ele>90.7</ele>
			 </trkpt>
			 <trkpt lat="-12.121663" lon="-77.02903">
				 <ele>91.1</ele>
			 </trkpt>
			 <trkpt lat="-12.121092" lon="-77.028998">
				 <ele>91.4</ele>
			 </trkpt>
			 <trkpt lat="-12.120047" lon="-77.028974">
				 <ele>91.7</ele>
			 </trkpt>
			 <trkpt lat="-12.119444" lon="-77.028956">
				 <ele>91.9</ele>
			 </trkpt>
			 <trkpt lat="-12.11937" lon="-77.028906">
				 <ele>92.4</ele>
			 </trkpt>
			 <trkpt lat="-12.119298" lon="-77.028882">
				 <ele>92.8</ele>
			 </trkpt>
			 <trkpt lat="-12.119256" lon="-77.028848">
				 <ele>93.2</ele>
			 </trkpt>
			 <trkpt lat="-12.119191" lon="-77.028774">
				 <ele>93.3</ele>
			 </trkpt>
			 <trkpt lat="-12.119175" lon="-77.028746">
				 <ele>93.3</ele>
			 </trkpt>
			 <trkpt lat="-12.119162" lon="-77.02869">
				 <ele>93.2</ele>
			 </trkpt>
			 <trkpt lat="-12.119168" lon="-77.0282">
				 <ele>93.4</ele>
			 </trkpt>
			 <trkpt lat="-12.119043" lon="-77.028193">
				 <ele>93.5</ele>
			 </trkpt>
			 <trkpt lat="-12.117535" lon="-77.028171">
				 <ele>93.5</ele>
			 </trkpt>
			 <trkpt lat="-12.117214" lon="-77.028166">
				 <ele>93.8</ele>
			 </trkpt>
			 <trkpt lat="-12.116951" lon="-77.028186">
				 <ele>94.5</ele>
			 </trkpt>
			 <trkpt lat="-12.114476" lon="-77.028592">
				 <ele>95.2</ele>
			 </trkpt>
			 <trkpt lat="-12.113735" lon="-77.028725">
				 <ele>96.3</ele>
			 </trkpt>
			 <trkpt lat="-12.113219" lon="-77.028805">
				 <ele>97.4</ele>
			 </trkpt>
			 <trkpt lat="-12.11258" lon="-77.028904">
				 <ele>98.8</ele>
			 </trkpt>
			 <trkpt lat="-12.108623" lon="-77.029593">
				 <ele>100.4</ele>
			 </trkpt>
			 <trkpt lat="-12.107565" lon="-77.029761">
				 <ele>102</ele>
			 </trkpt>
			 <trkpt lat="-12.105765" lon="-77.030067">
				 <ele>103.5</ele>
			 </trkpt>
			 <trkpt lat="-12.104347" lon="-77.030296">
				 <ele>104.9</ele>
			 </trkpt>
			 <trkpt lat="-12.101597" lon="-77.030761">
				 <ele>106.5</ele>
			 </trkpt>
			 <trkpt lat="-12.101129" lon="-77.030853">
				 <ele>107.8</ele>
			 </trkpt>
			 <trkpt lat="-12.100638" lon="-77.030939">
				 <ele>108.9</ele>
			 </trkpt>
			 <trkpt lat="-12.099382" lon="-77.031148">
				 <ele>109.8</ele>
			 </trkpt>
			 <trkpt lat="-12.098692" lon="-77.031254">
				 <ele>110.6</ele>
			 </trkpt>
			 <trkpt lat="-12.097907" lon="-77.031385">
				 <ele>111.5</ele>
			 </trkpt>
			 <trkpt lat="-12.096919" lon="-77.031527">
				 <ele>112.3</ele>
			 </trkpt>
			 <trkpt lat="-12.094722" lon="-77.031821">
				 <ele>112.9</ele>
			 </trkpt>
			 <trkpt lat="-12.094287" lon="-77.031895">
				 <ele>113.7</ele>
			 </trkpt>
			 <trkpt lat="-12.093027" lon="-77.032091">
				 <ele>114.6</ele>
			 </trkpt>
			 <trkpt lat="-12.090484" lon="-77.032485">
				 <ele>115.6</ele>
			 </trkpt>
			 <trkpt lat="-12.089076" lon="-77.032688">
				 <ele>117.1</ele>
			 </trkpt>
			 <trkpt lat="-12.086769" lon="-77.033001">
				 <ele>118.6</ele>
			 </trkpt>
			 <trkpt lat="-12.084474" lon="-77.033333">
				 <ele>120.3</ele>
			 </trkpt>
			 <trkpt lat="-12.083342" lon="-77.033481">
				 <ele>122</ele>
			 </trkpt>
			 <trkpt lat="-12.081708" lon="-77.033725">
				 <ele>123.6</ele>
			 </trkpt>
			 <trkpt lat="-12.074378" lon="-77.034828">
				 <ele>125.5</ele>
			 </trkpt>
			 <trkpt lat="-12.073356" lon="-77.034971">
				 <ele>127.5</ele>
			 </trkpt>
			 <trkpt lat="-12.072276" lon="-77.035179">
				 <ele>129.4</ele>
			 </trkpt>
			 <trkpt lat="-12.071931" lon="-77.035214">
				 <ele>130.9</ele>
			 </trkpt>
			 <trkpt lat="-12.070987" lon="-77.03529">
				 <ele>132.2</ele>
			 </trkpt>
			 <trkpt lat="-12.06973" lon="-77.035425">
				 <ele>133.4</ele>
			 </trkpt>
			 <trkpt lat="-12.068146" lon="-77.035756">
				 <ele>134.1</ele>
			 </trkpt>
			 <trkpt lat="-12.06738" lon="-77.035884">
				 <ele>134.7</ele>
			 </trkpt>
			 <trkpt lat="-12.06684" lon="-77.035974">
				 <ele>135.2</ele>
			 </trkpt>
			 <trkpt lat="-12.065579" lon="-77.036144">
				 <ele>135.6</ele>
			 </trkpt>
			 <trkpt lat="-12.065426" lon="-77.036172">
				 <ele>136</ele>
			 </trkpt>
			 <trkpt lat="-12.064557" lon="-77.036297">
				 <ele>136.1</ele>
			 </trkpt>
			 <trkpt lat="-12.064312" lon="-77.036324">
				 <ele>136</ele>
			 </trkpt>
			 <trkpt lat="-12.06423" lon="-77.036308">
				 <ele>136.2</ele>
			 </trkpt>
			 <trkpt lat="-12.064178" lon="-77.036277">
				 <ele>136.5</ele>
			 </trkpt>
			 <trkpt lat="-12.064133" lon="-77.036215">
				 <ele>136.7</ele>
			 </trkpt>
			 <trkpt lat="-12.064106" lon="-77.036127">
				 <ele>137.1</ele>
			 </trkpt>
			 <trkpt lat="-12.064057" lon="-77.035769">
				 <ele>137.6</ele>
			 </trkpt>
			 <trkpt lat="-12.063844" lon="-77.034207">
				 <ele>138.2</ele>
			 </trkpt>
			 <trkpt lat="-12.063784" lon="-77.033701">
				 <ele>138.5</ele>
			 </trkpt>
			 <trkpt lat="-12.062939" lon="-77.034002">
				 <ele>138.8</ele>
			 </trkpt>
			 <trkpt lat="-12.06241" lon="-77.034201">
				 <ele>139.1</ele>
			 </trkpt>
			 <trkpt lat="-12.061116" lon="-77.034715">
				 <ele>139.5</ele>
			 </trkpt>
			 <trkpt lat="-12.060828" lon="-77.035013">
				 <ele>139.8</ele>
			 </trkpt>
			 <trkpt lat="-12.060548" lon="-77.035235">
				 <ele>140.1</ele>
			 </trkpt>
			 <trkpt lat="-12.060361" lon="-77.035345">
				 <ele>140.4</ele>
			 </trkpt>
			 <trkpt lat="-12.060236" lon="-77.035386">
				 <ele>140.7</ele>
			 </trkpt>
			 <trkpt lat="-12.06016" lon="-77.035403">
				 <ele>141</ele>
			 </trkpt>
			 <trkpt lat="-12.059477" lon="-77.035463">
				 <ele>141.1</ele>
			 </trkpt>
			 <trkpt lat="-12.059128" lon="-77.035461">
				 <ele>141.5</ele>
			 </trkpt>
			 <trkpt lat="-12.056275" lon="-77.035728">
				 <ele>142.3</ele>
			 </trkpt>
			 <trkpt lat="-12.056089" lon="-77.035791">
				 <ele>142.8</ele>
			 </trkpt>
			 <trkpt lat="-12.055965" lon="-77.035844">
				 <ele>143.3</ele>
			 </trkpt>
			 <trkpt lat="-12.055904" lon="-77.035882">
				 <ele>143.9</ele>
			 </trkpt>
			 <trkpt lat="-12.055852" lon="-77.035939">
				 <ele>144.5</ele>
			 </trkpt>
			 <trkpt lat="-12.055794" lon="-77.036197">
				 <ele>144.9</ele>
			 </trkpt>
			 <trkpt lat="-12.055743" lon="-77.036593">
				 <ele>145</ele>
			 </trkpt>
			 <trkpt lat="-12.055753" lon="-77.03687">
				 <ele>145.3</ele>
			 </trkpt>
			 <trkpt lat="-12.0558" lon="-77.037327">
				 <ele>145.9</ele>
			 </trkpt>
			 <trkpt lat="-12.055805" lon="-77.037377">
				 <ele>146.1</ele>
			 </trkpt>
			 <trkpt lat="-12.055847" lon="-77.037835">
				 <ele>145.5</ele>
			 </trkpt>
			 <trkpt lat="-12.055888" lon="-77.038291">
				 <ele>144.8</ele>
			 </trkpt>
			 <trkpt lat="-12.056336" lon="-77.038255">
				 <ele>144.5</ele>
			 </trkpt>
			 <trkpt lat="-12.056785" lon="-77.038218">
				 <ele>144.7</ele>
			 </trkpt>
			 <trkpt lat="-12.057233" lon="-77.038181">
				 <ele>144.7</ele>
			 </trkpt>
			 <trkpt lat="-12.057681" lon="-77.038145">
				 <ele>144.1</ele>
			 </trkpt>
			 <trkpt lat="-12.058129" lon="-77.038108">
				 <ele>143.5</ele>
			 </trkpt>
			 <trkpt lat="-12.058578" lon="-77.038071">
				 <ele>143.2</ele>
			 </trkpt>
			 <trkpt lat="-12.059026" lon="-77.038035">
				 <ele>142.6</ele>
			 </trkpt>
			 <trkpt lat="-12.059474" lon="-77.037998">
				 <ele>141.5</ele>
			 </trkpt>
			 <trkpt lat="-12.059922" lon="-77.037961">
				 <ele>140.7</ele>
			 </trkpt>
			 <trkpt lat="-12.06037" lon="-77.037925">
				 <ele>140.3</ele>
			 </trkpt>
			 <trkpt lat="-12.060785" lon="-77.037891">
				 <ele>140.1</ele>
			 </trkpt>
			 <trkpt lat="-12.061232" lon="-77.037846">
				 <ele>139.6</ele>
			 </trkpt>
			 <trkpt lat="-12.06168" lon="-77.037801">
				 <ele>138.6</ele>
			 </trkpt>
			 <trkpt lat="-12.062127" lon="-77.037756">
				 <ele>137.5</ele>
			 </trkpt>
			 <trkpt lat="-12.062575" lon="-77.037711">
				 <ele>136.9</ele>
			 </trkpt>
			 <trkpt lat="-12.063022" lon="-77.037667">
				 <ele>136.2</ele>
			 </trkpt>
			 <trkpt lat="-12.06347" lon="-77.037622">
				 <ele>135.6</ele>
			 </trkpt>
			 <trkpt lat="-12.063917" lon="-77.037577">
				 <ele>135.1</ele>
			 </trkpt>
			 <trkpt lat="-12.06399" lon="-77.03757">
				 <ele>134.5</ele>
			 </trkpt>
			 <trkpt lat="-12.064435" lon="-77.037501">
				 <ele>134</ele>
			 </trkpt>
			 <trkpt lat="-12.064879" lon="-77.037433">
				 <ele>134</ele>
			 </trkpt>
			 <trkpt lat="-12.065324" lon="-77.037365">
				 <ele>133.8</ele>
			 </trkpt>
			 <trkpt lat="-12.065769" lon="-77.037296">
				 <ele>133.5</ele>
			 </trkpt>
			 <trkpt lat="-12.066214" lon="-77.037228">
				 <ele>133.5</ele>
			 </trkpt>
			 <trkpt lat="-12.066344" lon="-77.037208">
				 <ele>132.9</ele>
			 </trkpt>
			 <trkpt lat="-12.066747" lon="-77.037205">
				 <ele>131.8</ele>
			 </trkpt>
			 <trkpt lat="-12.067081" lon="-77.037161">
				 <ele>130.4</ele>
			 </trkpt>
			 <trkpt lat="-12.068251" lon="-77.036999">
				 <ele>128.8</ele>
			 </trkpt>
			 <trkpt lat="-12.069636" lon="-77.036785">
				 <ele>127.3</ele>
			 </trkpt>
			 <trkpt lat="-12.073196" lon="-77.036245">
				 <ele>126</ele>
			 </trkpt>
			 <trkpt lat="-12.078393" lon="-77.035463">
				 <ele>124.6</ele>
			 </trkpt>
			 <trkpt lat="-12.084723" lon="-77.034526">
				 <ele>122.9</ele>
			 </trkpt>
			 <trkpt lat="-12.088271" lon="-77.03402">
				 <ele>120.7</ele>
			 </trkpt>
			 <trkpt lat="-12.088384" lon="-77.034072">
				 <ele>118.5</ele>
			 </trkpt>
			 <trkpt lat="-12.088445" lon="-77.034119">
				 <ele>116.1</ele>
			 </trkpt>
			 <trkpt lat="-12.088473" lon="-77.034157">
				 <ele>114.4</ele>
			 </trkpt>
			 <trkpt lat="-12.088516" lon="-77.034274">
				 <ele>113.2</ele>
			 </trkpt>
			 <trkpt lat="-12.088797" lon="-77.036266">
				 <ele>112.3</ele>
			 </trkpt>
			 <trkpt lat="-12.089087" lon="-77.038304">
				 <ele>111.5</ele>
			 </trkpt>
			 <trkpt lat="-12.089105" lon="-77.038583">
				 <ele>110.5</ele>
			 </trkpt>
			 <trkpt lat="-12.08911" lon="-77.038831">
				 <ele>109.6</ele>
			 </trkpt>
			 <trkpt lat="-12.089096" lon="-77.03911">
				 <ele>108.6</ele>
			 </trkpt>
			 <trkpt lat="-12.089066" lon="-77.039421">
				 <ele>107.5</ele>
			 </trkpt>
			 <trkpt lat="-12.088957" lon="-77.039868">
				 <ele>106.7</ele>
			 </trkpt>
			 <trkpt lat="-12.088708" lon="-77.040571">
				 <ele>106.2</ele>
			 </trkpt>
			 <trkpt lat="-12.088149" lon="-77.042082">
				 <ele>105.5</ele>
			 </trkpt>
			 <trkpt lat="-12.08794" lon="-77.042599">
				 <ele>104.8</ele>
			 </trkpt>
			 <trkpt lat="-12.087761" lon="-77.043175">
				 <ele>104.1</ele>
			 </trkpt>
			 <trkpt lat="-12.087694" lon="-77.043416">
				 <ele>103.2</ele>
			 </trkpt>
			 <trkpt lat="-12.08766" lon="-77.043632">
				 <ele>102.2</ele>
			 </trkpt>
			 <trkpt lat="-12.087635" lon="-77.043965">
				 <ele>101.2</ele>
			 </trkpt>
			 <trkpt lat="-12.087635" lon="-77.044274">
				 <ele>100.2</ele>
			 </trkpt>
			 <trkpt lat="-12.087644" lon="-77.044498">
				 <ele>99.4</ele>
			 </trkpt>
			 <trkpt lat="-12.087997" lon="-77.047049">
				 <ele>98.9</ele>
			 </trkpt>
			 <trkpt lat="-12.088098" lon="-77.0477">
				 <ele>98.5</ele>
			 </trkpt>
			 <trkpt lat="-12.088173" lon="-77.048165">
				 <ele>98.3</ele>
			 </trkpt>
			 <trkpt lat="-12.088309" lon="-77.048152">
				 <ele>98.2</ele>
			 </trkpt>
			 <trkpt lat="-12.088299" lon="-77.048078">
				 <ele>98.3</ele>
			 </trkpt>
			 <trkpt lat="-12.088013" lon="-77.046058">
				 <ele>98.5</ele>
			 </trkpt>
			 <trkpt lat="-12.087899" lon="-77.045301">
				 <ele>99</ele>
			 </trkpt>
			 <trkpt lat="-12.08779" lon="-77.044492">
				 <ele>99.7</ele>
			 </trkpt>
			 <trkpt lat="-12.087767" lon="-77.044237">
				 <ele>100.6</ele>
			 </trkpt>
			 <trkpt lat="-12.087765" lon="-77.044023">
				 <ele>101.5</ele>
			 </trkpt>
			 <trkpt lat="-12.087772" lon="-77.043842">
				 <ele>102.5</ele>
			 </trkpt>
			 <trkpt lat="-12.087799" lon="-77.043631">
				 <ele>103.1</ele>
			 </trkpt>
			 <trkpt lat="-12.087867" lon="-77.043247">
				 <ele>103.6</ele>
			 </trkpt>
			 <trkpt lat="-12.087916" lon="-77.043064">
				 <ele>104.2</ele>
			 </trkpt>
			 <trkpt lat="-12.087981" lon="-77.042874">
				 <ele>104.7</ele>
			 </trkpt>
			 <trkpt lat="-12.088061" lon="-77.042641">
				 <ele>105.2</ele>
			 </trkpt>
			 <trkpt lat="-12.088238" lon="-77.042201">
				 <ele>105.6</ele>
			 </trkpt>
			 <trkpt lat="-12.088803" lon="-77.040698">
				 <ele>106.1</ele>
			 </trkpt>
			 <trkpt lat="-12.089134" lon="-77.039771">
				 <ele>106.5</ele>
			 </trkpt>
			 <trkpt lat="-12.089183" lon="-77.039553">
				 <ele>107.1</ele>
			 </trkpt>
			 <trkpt lat="-12.08921" lon="-77.039359">
				 <ele>107.8</ele>
			 </trkpt>
			 <trkpt lat="-12.089224" lon="-77.039179">
				 <ele>108.6</ele>
			 </trkpt>
			 <trkpt lat="-12.089232" lon="-77.038927">
				 <ele>109.6</ele>
			 </trkpt>
			 <trkpt lat="-12.089203" lon="-77.038291">
				 <ele>110.6</ele>
			 </trkpt>
			 <trkpt lat="-12.088983" lon="-77.036802">
				 <ele>111.6</ele>
			 </trkpt>
			 <trkpt lat="-12.088848" lon="-77.035837">
				 <ele>112.5</ele>
			 </trkpt>
			 <trkpt lat="-12.088744" lon="-77.035006">
				 <ele>113.5</ele>
			 </trkpt>
			 <trkpt lat="-12.088625" lon="-77.034272">
				 <ele>114.4</ele>
			 </trkpt>
			 <trkpt lat="-12.088627" lon="-77.034202">
				 <ele>115.1</ele>
			 </trkpt>
			 <trkpt lat="-12.088646" lon="-77.034138">
				 <ele>115.6</ele>
			 </trkpt>
			 <trkpt lat="-12.088687" lon="-77.034066">
				 <ele>116</ele>
			 </trkpt>
			 <trkpt lat="-12.088726" lon="-77.034015">
				 <ele>116.4</ele>
			 </trkpt>
			 <trkpt lat="-12.088826" lon="-77.033935">
				 <ele>116.3</ele>
			 </trkpt>
			 <trkpt lat="-12.090401" lon="-77.033689">
				 <ele>115.8</ele>
			 </trkpt>
			 <trkpt lat="-12.090838" lon="-77.033618">
				 <ele>115.5</ele>
			 </trkpt>
			 <trkpt lat="-12.090989" lon="-77.033578">
				 <ele>115.2</ele>
			 </trkpt>
			 <trkpt lat="-12.092125" lon="-77.0334">
				 <ele>114.9</ele>
			 </trkpt>
			 <trkpt lat="-12.093404" lon="-77.033215">
				 <ele>114.3</ele>
			 </trkpt>
			 <trkpt lat="-12.093689" lon="-77.033197">
				 <ele>113.5</ele>
			 </trkpt>
			 <trkpt lat="-12.094547" lon="-77.033088">
				 <ele>112.7</ele>
			 </trkpt>
			 <trkpt lat="-12.095541" lon="-77.032948">
				 <ele>112</ele>
			 </trkpt>
			 <trkpt lat="-12.097096" lon="-77.032711">
				 <ele>111.3</ele>
			 </trkpt>
			 <trkpt lat="-12.09816" lon="-77.032564">
				 <ele>109.9</ele>
			 </trkpt>
			 <trkpt lat="-12.09918" lon="-77.032405">
				 <ele>108.6</ele>
			 </trkpt>
			 <trkpt lat="-12.101413" lon="-77.032024">
				 <ele>107.3</ele>
			 </trkpt>
			 <trkpt lat="-12.102833" lon="-77.031776">
				 <ele>105.9</ele>
			 </trkpt>
			 <trkpt lat="-12.103591" lon="-77.031653">
				 <ele>104.1</ele>
			 </trkpt>
			 <trkpt lat="-12.105597" lon="-77.031319">
				 <ele>102.2</ele>
			 </trkpt>
			 <trkpt lat="-12.109542" lon="-77.030637">
				 <ele>100.5</ele>
			 </trkpt>
			 <trkpt lat="-12.110592" lon="-77.030467">
				 <ele>99</ele>
			 </trkpt>
			 <trkpt lat="-12.112409" lon="-77.030155">
				 <ele>97.6</ele>
			 </trkpt>
			 <trkpt lat="-12.114855" lon="-77.029755">
				 <ele>96.4</ele>
			 </trkpt>
			 <trkpt lat="-12.115923" lon="-77.029573">
				 <ele>95.1</ele>
			 </trkpt>
			 <trkpt lat="-12.117996" lon="-77.029206">
				 <ele>94.2</ele>
			 </trkpt>
			 <trkpt lat="-12.118367" lon="-77.029149">
				 <ele>92.5</ele>
			 </trkpt>
			 <trkpt lat="-12.118808" lon="-77.029133">
				 <ele>90.6</ele>
			 </trkpt>
			 <trkpt lat="-12.119005" lon="-77.02916">
				 <ele>88.7</ele>
			 </trkpt>
			 <trkpt lat="-12.119032" lon="-77.029182">
				 <ele>87.2</ele>
			 </trkpt>
			 <trkpt lat="-12.119022" lon="-77.030587">
				 <ele>85.7</ele>
			 </trkpt>
			 <trkpt lat="-12.118977" lon="-77.036895">
				 <ele>84.5</ele>
			 </trkpt>
			 <trkpt lat="-12.118947" lon="-77.039783">
				 <ele>83.1</ele>
			 </trkpt>
			 <trkpt lat="-12.11889" lon="-77.039801">
				 <ele>81.6</ele>
			 </trkpt>
			 <trkpt lat="-12.118814" lon="-77.039848">
				 <ele>80.2</ele>
			 </trkpt>
			 <trkpt lat="-12.118764" lon="-77.0399">
				 <ele>78.7</ele>
			 </trkpt>
			 <trkpt lat="-12.118727" lon="-77.039962">
				 <ele>77.4</ele>
			 </trkpt>
			 <trkpt lat="-12.118699" lon="-77.040078">
				 <ele>76.8</ele>
			 </trkpt>
			 <trkpt lat="-12.118701" lon="-77.040139">
				 <ele>76.8</ele>
			 </trkpt>
			 <trkpt lat="-12.118726" lon="-77.040227">
				 <ele>76.6</ele>
			 </trkpt>
			 <trkpt lat="-12.118755" lon="-77.04028">
				 <ele>76.3</ele>
			 </trkpt>
			 <trkpt lat="-12.118794" lon="-77.040326">
				 <ele>75.8</ele>
			 </trkpt>
			 <trkpt lat="-12.118865" lon="-77.040378">
				 <ele>75.4</ele>
			 </trkpt>
			 <trkpt lat="-12.118947" lon="-77.040409">
				 <ele>74.9</ele>
			 </trkpt>
			 <trkpt lat="-12.118944" lon="-77.040656">
				 <ele>74.4</ele>
			 </trkpt>
			 <trkpt lat="-12.11892" lon="-77.042505">
				 <ele>73.8</ele>
			 </trkpt>
			 <trkpt lat="-12.118846" lon="-77.042529">
				 <ele>73.3</ele>
			 </trkpt>
			 <trkpt lat="-12.118801" lon="-77.042556">
				 <ele>72.7</ele>
			 </trkpt>
			 <trkpt lat="-12.118744" lon="-77.042612">
				 <ele>72.3</ele>
			 </trkpt>
			 <trkpt lat="-12.11871" lon="-77.042669">
				 <ele>71.8</ele>
			 </trkpt>
			 <trkpt lat="-12.118685" lon="-77.042756">
				 <ele>71.5</ele>
			 </trkpt>
			 <trkpt lat="-12.118683" lon="-77.042818">
				 <ele>71.5</ele>
			 </trkpt>
			 <trkpt lat="-12.118694" lon="-77.042878">
				 <ele>70.5</ele>
			 </trkpt>
			 <trkpt lat="-12.118746" lon="-77.042979">
				 <ele>69.9</ele>
			 </trkpt>
			 <trkpt lat="-12.118804" lon="-77.043034">
				 <ele>69.3</ele>
			 </trkpt>
			 <trkpt lat="-12.118851" lon="-77.043062">
				 <ele>68.7</ele>
			 </trkpt>
			 <trkpt lat="-12.118929" lon="-77.043085">
				 <ele>68.2</ele>
			 </trkpt>
			 <trkpt lat="-12.118901" lon="-77.043994">
				 <ele>67.5</ele>
			 </trkpt>
			 <trkpt lat="-12.119297" lon="-77.043852">
				 <ele>66.5</ele>
			 </trkpt>
			 <trkpt lat="-12.119363" lon="-77.043828">
				 <ele>63.1</ele>
			 </trkpt>
			 <trkpt lat="-12.119419" lon="-77.043818">
				 <ele>59.6</ele>
			 </trkpt>
			 <trkpt lat="-12.11946" lon="-77.043825">
				 <ele>55.9</ele>
			 </trkpt>
			 <trkpt lat="-12.119526" lon="-77.043866">
				 <ele>52.1</ele>
			 </trkpt>
			 <trkpt lat="-12.119563" lon="-77.043917">
				 <ele>49.2</ele>
			 </trkpt>
			 <trkpt lat="-12.119781" lon="-77.04447">
				 <ele>46.4</ele>
			 </trkpt>
			 <trkpt lat="-12.119806" lon="-77.044507">
				 <ele>43.6</ele>
			 </trkpt>
			 <trkpt lat="-12.119835" lon="-77.044532">
				 <ele>41</ele>
			 </trkpt>
			 <trkpt lat="-12.119869" lon="-77.044541">
				 <ele>38.7</ele>
			 </trkpt>
			 <trkpt lat="-12.11992" lon="-77.044517">
				 <ele>37.5</ele>
			 </trkpt>
			 <trkpt lat="-12.120123" lon="-77.044295">
				 <ele>36.6</ele>
			 </trkpt>
			 <trkpt lat="-12.120145" lon="-77.044252">
				 <ele>38.4</ele>
			 </trkpt>
			 <trkpt lat="-12.120146" lon="-77.044218">
				 <ele>40.7</ele>
			 </trkpt>
			 <trkpt lat="-12.120116" lon="-77.044126">
				 <ele>43.3</ele>
			 </trkpt>
			 <trkpt lat="-12.120052" lon="-77.04393">
				 <ele>45.9</ele>
			 </trkpt>
			 <trkpt lat="-12.120041" lon="-77.043876">
				 <ele>48</ele>
			 </trkpt>
			 <trkpt lat="-12.120048" lon="-77.043813">
				 <ele>49.4</ele>
			 </trkpt>
			 <trkpt lat="-12.120148" lon="-77.043478">
				 <ele>50.5</ele>
			 </trkpt>
			 <trkpt lat="-12.120179" lon="-77.043436">
				 <ele>51.7</ele>
			 </trkpt>
			 <trkpt lat="-12.120239" lon="-77.043391">
				 <ele>52.5</ele>
			 </trkpt>
			 <trkpt lat="-12.120635" lon="-77.043233">
				 <ele>52.7</ele>
			 </trkpt>
			 <trkpt lat="-12.121104" lon="-77.043035">
				 <ele>52.3</ele>
			 </trkpt>
			 <trkpt lat="-12.121143" lon="-77.043006">
				 <ele>51.2</ele>
			 </trkpt>
			 <trkpt lat="-12.121175" lon="-77.042956">
				 <ele>49.6</ele>
			 </trkpt>
			 <trkpt lat="-12.121209" lon="-77.042883">
				 <ele>48.1</ele>
			 </trkpt>
			 <trkpt lat="-12.12135" lon="-77.042578">
				 <ele>46.7</ele>
			 </trkpt>
			 <trkpt lat="-12.121727" lon="-77.042144">
				 <ele>46.1</ele>
			 </trkpt>
			 <trkpt lat="-12.122067" lon="-77.041781">
				 <ele>46</ele>
			 </trkpt>
			 <trkpt lat="-12.122081" lon="-77.041743">
				 <ele>46.2</ele>
			 </trkpt>
			 <trkpt lat="-12.122081" lon="-77.041704">
				 <ele>46.8</ele>
			 </trkpt>
			 <trkpt lat="-12.122071" lon="-77.041658">
				 <ele>47.5</ele>
			 </trkpt>
			 <trkpt lat="-12.122038" lon="-77.041586">
				 <ele>48.3</ele>
			 </trkpt>
			 <trkpt lat="-12.121988" lon="-77.041524">
				 <ele>49.5</ele>
			 </trkpt>
			 <trkpt lat="-12.121954" lon="-77.041509">
				 <ele>51.4</ele>
			 </trkpt>
			 <trkpt lat="-12.121741" lon="-77.041454">
				 <ele>53.2</ele>
			 </trkpt>
			 <trkpt lat="-12.121688" lon="-77.041427">
				 <ele>55.1</ele>
			 </trkpt>
			 <trkpt lat="-12.121642" lon="-77.041387">
				 <ele>56.9</ele>
			 </trkpt>
			 <trkpt lat="-12.121615" lon="-77.041337">
				 <ele>58.5</ele>
			 </trkpt>
			 <trkpt lat="-12.121601" lon="-77.041276">
				 <ele>59.9</ele>
			 </trkpt>
			 <trkpt lat="-12.121595" lon="-77.041198">
				 <ele>61.1</ele>
			 </trkpt>
			 <trkpt lat="-12.121606" lon="-77.041104">
				 <ele>61.2</ele>
			 </trkpt>
			 <trkpt lat="-12.121629" lon="-77.041028">
				 <ele>60.9</ele>
			 </trkpt>
			 <trkpt lat="-12.121668" lon="-77.040954">
				 <ele>60.4</ele>
			 </trkpt>
			 <trkpt lat="-12.121724" lon="-77.040895">
				 <ele>59.6</ele>
			 </trkpt>
			 <trkpt lat="-12.121848" lon="-77.040798">
				 <ele>58.8</ele>
			 </trkpt>
			 <trkpt lat="-12.122667" lon="-77.040244">
				 <ele>57.9</ele>
			 </trkpt>
			 <trkpt lat="-12.122977" lon="-77.039982">
				 <ele>57.4</ele>
			 </trkpt>
			 <trkpt lat="-12.123074" lon="-77.039853">
				 <ele>56.9</ele>
			 </trkpt>
			 <trkpt lat="-12.123157" lon="-77.039705">
				 <ele>56.7</ele>
			 </trkpt>
			 <trkpt lat="-12.123248" lon="-77.039502">
				 <ele>56.6</ele>
			 </trkpt>
			 <trkpt lat="-12.123323" lon="-77.039332">
				 <ele>56.5</ele>
			 </trkpt>
			 <trkpt lat="-12.123545" lon="-77.038761">
				 <ele>56.9</ele>
			 </trkpt>
			 <trkpt lat="-12.123709" lon="-77.038442">
				 <ele>57.5</ele>
			 </trkpt>
			 <trkpt lat="-12.124" lon="-77.037937">
				 <ele>57.3</ele>
			 </trkpt>
			 <trkpt lat="-12.12427" lon="-77.037536">
				 <ele>56.4</ele>
			 </trkpt>
			 <trkpt lat="-12.12437" lon="-77.03743">
				 <ele>55.4</ele>
			 </trkpt>
			 <trkpt lat="-12.124417" lon="-77.037395">
				 <ele>54.2</ele>
			 </trkpt>
			 <trkpt lat="-12.124503" lon="-77.037347">
				 <ele>52.5</ele>
			 </trkpt>
			 <trkpt lat="-12.125552" lon="-77.036952">
				 <ele>51</ele>
			 </trkpt>
			 <trkpt lat="-12.12601" lon="-77.036706">
				 <ele>48.7</ele>
			 </trkpt>
			 <trkpt lat="-12.126096" lon="-77.036655">
				 <ele>46.3</ele>
			 </trkpt>
			 <trkpt lat="-12.126921" lon="-77.036053">
				 <ele>43.4</ele>
			 </trkpt>
			 <trkpt lat="-12.127038" lon="-77.035976">
				 <ele>40.3</ele>
			 </trkpt>
			 <trkpt lat="-12.127907" lon="-77.035432">
				 <ele>37.1</ele>
			 </trkpt>
			 <trkpt lat="-12.128917" lon="-77.034824">
				 <ele>34.9</ele>
			 </trkpt>
			 <trkpt lat="-12.129154" lon="-77.034666">
				 <ele>33.5</ele>
			 </trkpt>
			 <trkpt lat="-12.129457" lon="-77.034478">
				 <ele>32.2</ele>
			 </trkpt>
			 <trkpt lat="-12.129768" lon="-77.034276">
				 <ele>31.2</ele>
			 </trkpt>
			 <trkpt lat="-12.129866" lon="-77.034191">
				 <ele>30.5</ele>
			 </trkpt>
			 <trkpt lat="-12.129942" lon="-77.034106">
				 <ele>29.7</ele>
			 </trkpt>
			 <trkpt lat="-12.13001" lon="-77.034">
				 <ele>30.3</ele>
			 </trkpt>
			 <trkpt lat="-12.130066" lon="-77.033863">
				 <ele>31.2</ele>
			 </trkpt>
			 <trkpt lat="-12.130121" lon="-77.033652">
				 <ele>32.6</ele>
			 </trkpt>
			 <trkpt lat="-12.130144" lon="-77.033499">
				 <ele>34.4</ele>
			 </trkpt>
			 <trkpt lat="-12.13014" lon="-77.033386">
				 <ele>36</ele>
			 </trkpt>
			 <trkpt lat="-12.130091" lon="-77.033126">
				 <ele>37</ele>
			 </trkpt>
			 <trkpt lat="-12.130095" lon="-77.033043">
				 <ele>37.9</ele>
			 </trkpt>
			 <trkpt lat="-12.13013" lon="-77.032946">
				 <ele>38.6</ele>
			 </trkpt>
			 <trkpt lat="-12.130178" lon="-77.032896">
				 <ele>39.3</ele>
			 </trkpt>
			 <trkpt lat="-12.130237" lon="-77.032864">
				 <ele>39.8</ele>
			 </trkpt>
			 <trkpt lat="-12.130461" lon="-77.032784">
				 <ele>40</ele>
			 </trkpt>
			 <trkpt lat="-12.130516" lon="-77.032746">
				 <ele>38.5</ele>
			 </trkpt>
			 <trkpt lat="-12.130559" lon="-77.032693">
				 <ele>36.8</ele>
			 </trkpt>
			 <trkpt lat="-12.130591" lon="-77.032619">
				 <ele>34.9</ele>
			 </trkpt>
			 <trkpt lat="-12.130628" lon="-77.032484">
				 <ele>32.9</ele>
			 </trkpt>
			 <trkpt lat="-12.130663" lon="-77.032428">
				 <ele>31.4</ele>
			 </trkpt>
			 <trkpt lat="-12.130919" lon="-77.032239">
				 <ele>30.7</ele>
			 </trkpt>
			 <trkpt lat="-12.130956" lon="-77.032205">
				 <ele>30.5</ele>
			 </trkpt>
			 <trkpt lat="-12.130986" lon="-77.032162">
				 <ele>31.3</ele>
			 </trkpt>
			 <trkpt lat="-12.131032" lon="-77.03203">
				 <ele>32.7</ele>
			 </trkpt>
			 <trkpt lat="-12.131058" lon="-77.031876">
				 <ele>34.5</ele>
			 </trkpt>
			 <trkpt lat="-12.131047" lon="-77.03177">
				 <ele>36.5</ele>
			 </trkpt>
			 <trkpt lat="-12.131015" lon="-77.03166">
				 <ele>39.5</ele>
			 </trkpt>
			 <trkpt lat="-12.130915" lon="-77.031483">
				 <ele>42.5</ele>
			 </trkpt>
			 <trkpt lat="-12.130848" lon="-77.031279">
				 <ele>45.8</ele>
			 </trkpt>
			 <trkpt lat="-12.130839" lon="-77.031028">
				 <ele>49.2</ele>
			 </trkpt>
			 <trkpt lat="-12.13085" lon="-77.030963">
				 <ele>52.9</ele>
			 </trkpt>
			 <trkpt lat="-12.130878" lon="-77.030869">
				 <ele>56.4</ele>
			 </trkpt>
			 <trkpt lat="-12.130931" lon="-77.030749">
				 <ele>59.9</ele>
			 </trkpt>
			 <trkpt lat="-12.130995" lon="-77.030639">
				 <ele>62.9</ele>
			 </trkpt>
			 <trkpt lat="-12.131467" lon="-77.030051">
				 <ele>65.3</ele>
			 </trkpt>
			 <trkpt lat="-12.131994" lon="-77.029379">
				 <ele>67.1</ele>
			 </trkpt>
			 <trkpt lat="-12.132185" lon="-77.029125">
				 <ele>69.1</ele>
			 </trkpt>
			 <trkpt lat="-12.132669" lon="-77.028445">
				 <ele>70</ele>
			 </trkpt>
			 <trkpt lat="-12.132941" lon="-77.028083">
				 <ele>70.7</ele>
			 </trkpt>
			 <trkpt lat="-12.133232" lon="-77.027697">
				 <ele>71.4</ele>
			 </trkpt>
			 <trkpt lat="-12.134025" lon="-77.026767">
				 <ele>71.9</ele>
			 </trkpt>
			 <trkpt lat="-12.134533" lon="-77.026125">
				 <ele>71.8</ele>
			 </trkpt>
			 <trkpt lat="-12.13524" lon="-77.025258">
				 <ele>71.7</ele>
			 </trkpt>
			 <trkpt lat="-12.135261" lon="-77.025208">
				 <ele>71.2</ele>
			 </trkpt>
			 <trkpt lat="-12.135268" lon="-77.02517">
				 <ele>70.5</ele>
			 </trkpt>
			 <trkpt lat="-12.13526" lon="-77.025111">
				 <ele>69.7</ele>
			 </trkpt>
			 <trkpt lat="-12.13523" lon="-77.025027">
				 <ele>69.1</ele>
			 </trkpt>
			 <trkpt lat="-12.135213" lon="-77.024971">
				 <ele>68.6</ele>
			 </trkpt>
			 <trkpt lat="-12.135183" lon="-77.024914">
				 <ele>69.5</ele>
			 </trkpt>
			 <trkpt lat="-12.135122" lon="-77.024911">
				 <ele>70.5</ele>
			 </trkpt>
			 <trkpt lat="-12.135063" lon="-77.024942">
				 <ele>71.8</ele>
			 </trkpt>
			 <trkpt lat="-12.134951" lon="-77.024976">
				 <ele>73</ele>
			 </trkpt>
			 <trkpt lat="-12.134525" lon="-77.025107">
				 <ele>74.2</ele>
			 </trkpt>
			 <trkpt lat="-12.133866" lon="-77.025308">
				 <ele>75.9</ele>
			 </trkpt>
			 <trkpt lat="-12.132633" lon="-77.025647">
				 <ele>78.3</ele>
			 </trkpt>
			 <trkpt lat="-12.130245" lon="-77.026326">
				 <ele>80.6</ele>
			 </trkpt>
			 <trkpt lat="-12.128088" lon="-77.026928">
				 <ele>83.4</ele>
			 </trkpt>
			 <trkpt lat="-12.127882" lon="-77.026985">
				 <ele>85.5</ele>
			 </trkpt>
			 <trkpt lat="-12.126103" lon="-77.026937">
				 <ele>86.8</ele>
			 </trkpt>
			 <trkpt lat="-12.124938" lon="-77.026905">
				 <ele>88.1</ele>
			 </trkpt>
			 <trkpt lat="-12.124823" lon="-77.026896">
				 <ele>89.3</ele>
			 </trkpt>
			 <trkpt lat="-12.123961" lon="-77.026869">
				 <ele>90.3</ele>
			 </trkpt>
			 <trkpt lat="-12.122244" lon="-77.026799">
				 <ele>91.3</ele>
			 </trkpt>
			 <trkpt lat="-12.120674" lon="-77.026763">
				 <ele>92.2</ele>
			 </trkpt>
			 <trkpt lat="-12.119448" lon="-77.026725">
				 <ele>92.5</ele>
			 </trkpt>
			 <trkpt lat="-12.119062" lon="-77.026713">
				 <ele>92.1</ele>
			 </trkpt>
			 <trkpt lat="-12.119058" lon="-77.027071">
				 <ele>91.9</ele>
			 </trkpt>
			 <trkpt lat="-12.119051" lon="-77.027531">
				 <ele>91.3</ele>
			 </trkpt>
			 <trkpt lat="-12.119045" lon="-77.027991">
				 <ele>91.4</ele>
			 </trkpt>
			 <trkpt lat="-12.119042" lon="-77.028184">
				 <ele>91.8</ele>
			 </trkpt>
			 <trkpt lat="-12.118709" lon="-77.028189">
				 <ele>92.1</ele>
			 </trkpt>
			 <trkpt lat="-12.117214" lon="-77.028166">
				 <ele>92.5</ele>
			 </trkpt>
			 <trkpt lat="-12.116951" lon="-77.028186">
				 <ele>93.2</ele>
			 </trkpt>
			 <trkpt lat="-12.116287" lon="-77.028295">
				 <ele>94.2</ele>
			 </trkpt>
			 <trkpt lat="-12.114257" lon="-77.028631">
				 <ele>95.4</ele>
			 </trkpt>
			 <trkpt lat="-12.113735" lon="-77.028725">
				 <ele>96.8</ele>
			 </trkpt>
			 <trkpt lat="-12.11258" lon="-77.028904">
				 <ele>98.4</ele>
			 </trkpt>
			 <trkpt lat="-12.108809" lon="-77.02956">
				 <ele>99.8</ele>
			 </trkpt>
			 <trkpt lat="-12.107565" lon="-77.029761">
				 <ele>101.4</ele>
			 </trkpt>
			 <trkpt lat="-12.106996" lon="-77.029862">
				 <ele>102.8</ele>
			 </trkpt>
			 <trkpt lat="-12.104347" lon="-77.030296">
				 <ele>104.3</ele>
			 </trkpt>
			 <trkpt lat="-12.1035" lon="-77.030443">
				 <ele>105.7</ele>
			 </trkpt>
			 <trkpt lat="-12.101597" lon="-77.030761">
				 <ele>107.1</ele>
			 </trkpt>
			 <trkpt lat="-12.101129" lon="-77.030853">
				 <ele>108.2</ele>
			 </trkpt>
			 <trkpt lat="-12.100638" lon="-77.030939">
				 <ele>109.2</ele>
			 </trkpt>
			 <trkpt lat="-12.099509" lon="-77.031128">
				 <ele>110.1</ele>
			 </trkpt>
			 <trkpt lat="-12.098692" lon="-77.031254">
				 <ele>110.9</ele>
			 </trkpt>
			 <trkpt lat="-12.097907" lon="-77.031385">
				 <ele>111.6</ele>
			 </trkpt>
			 <trkpt lat="-12.09659" lon="-77.031572">
				 <ele>112.2</ele>
			 </trkpt>
			 <trkpt lat="-12.094722" lon="-77.031821">
				 <ele>112.7</ele>
			 </trkpt>
			 <trkpt lat="-12.093398" lon="-77.032034">
				 <ele>113.2</ele>
			 </trkpt>
			 <trkpt lat="-12.093417" lon="-77.032167">
				 <ele>113.5</ele>
			 </trkpt>
			 <trkpt lat="-12.093485" lon="-77.032647">
				 <ele>113.9</ele>
			 </trkpt>
			 <trkpt lat="-12.093452" lon="-77.032783">
				 <ele>114.4</ele>
			 </trkpt>
			 <trkpt lat="-12.093405" lon="-77.032925">
				 <ele>114.6</ele>
			 </trkpt>
			 <trkpt lat="-12.093409" lon="-77.032971">
				 <ele>114.7</ele>
			 </trkpt>
			 <trkpt lat="-12.093424" lon="-77.033098">
				 <ele>114.9</ele>
			 </trkpt>
			 <trkpt lat="-12.093293" lon="-77.033156">
				 <ele>115</ele>
			 </trkpt>
			 <trkpt lat="-12.092773" lon="-77.033232">
				 <ele>115.2</ele>
			 </trkpt>
			 <trkpt lat="-12.091668" lon="-77.033389">
				 <ele>115.3</ele>
			 </trkpt>
			 <trkpt lat="-12.091191" lon="-77.033459">
				 <ele>115.3</ele>
			 </trkpt>
			 <trkpt lat="-12.090977" lon="-77.033462">
				 <ele>115.5</ele>
			 </trkpt>
			 <trkpt lat="-12.090834" lon="-77.033485">
				 <ele>116.2</ele>
			 </trkpt>
			 <trkpt lat="-12.088318" lon="-77.033836">
				 <ele>116.7</ele>
			 </trkpt>
			 <trkpt lat="-12.086932" lon="-77.034046">
				 <ele>117.5</ele>
			 </trkpt>
			 <trkpt lat="-12.085682" lon="-77.034217">
				 <ele>118.6</ele>
			 </trkpt>
			 <trkpt lat="-12.084822" lon="-77.034344">
				 <ele>120.3</ele>
			 </trkpt>
			 <trkpt lat="-12.081355" lon="-77.034845">
				 <ele>122.1</ele>
			 </trkpt>
			 <trkpt lat="-12.077916" lon="-77.035362">
				 <ele>123.9</ele>
			 </trkpt>
			 <trkpt lat="-12.074405" lon="-77.03589">
				 <ele>125.6</ele>
			 </trkpt>
			 <trkpt lat="-12.073118" lon="-77.036096">
				 <ele>127.1</ele>
			 </trkpt>
			 <trkpt lat="-12.070605" lon="-77.036467">
				 <ele>127.5</ele>
			 </trkpt>
			 <trkpt lat="-12.069613" lon="-77.036617">
				 <ele>127.5</ele>
			 </trkpt>
			 <trkpt lat="-12.069619" lon="-77.036679">
				 <ele>127</ele>
			 </trkpt>
			 <trkpt lat="-12.069636" lon="-77.036785">
				 <ele>126.5</ele>
			 </trkpt>
			 <trkpt lat="-12.070463" lon="-77.036658">
				 <ele>125.5</ele>
			 </trkpt>
			 <trkpt lat="-12.079393" lon="-77.035315">
				 <ele>124.3</ele>
			 </trkpt>
			 <trkpt lat="-12.084723" lon="-77.034526">
				 <ele>122.9</ele>
			 </trkpt>
			 <trkpt lat="-12.088271" lon="-77.03402">
				 <ele>121</ele>
			 </trkpt>
			 <trkpt lat="-12.088546" lon="-77.033978">
				 <ele>118.9</ele>
			 </trkpt>
			 <trkpt lat="-12.090838" lon="-77.033618">
				 <ele>116.9</ele>
			 </trkpt>
			 <trkpt lat="-12.090989" lon="-77.033578">
				 <ele>115.4</ele>
			 </trkpt>
			 <trkpt lat="-12.092125" lon="-77.0334">
				 <ele>114.8</ele>
			 </trkpt>
			 <trkpt lat="-12.093404" lon="-77.033215">
				 <ele>114.3</ele>
			 </trkpt>
			 <trkpt lat="-12.093689" lon="-77.033197">
				 <ele>113.5</ele>
			 </trkpt>
			 <trkpt lat="-12.094547" lon="-77.033088">
				 <ele>112.7</ele>
			 </trkpt>
			 <trkpt lat="-12.095541" lon="-77.032948">
				 <ele>112</ele>
			 </trkpt>
			 <trkpt lat="-12.096897" lon="-77.032741">
				 <ele>110.8</ele>
			 </trkpt>
			 <trkpt lat="-12.098001" lon="-77.032587">
				 <ele>109.5</ele>
			 </trkpt>
			 <trkpt lat="-12.09918" lon="-77.032405">
				 <ele>107.9</ele>
			 </trkpt>
			 <trkpt lat="-12.102833" lon="-77.031776">
				 <ele>106.6</ele>
			 </trkpt>
			 <trkpt lat="-12.103591" lon="-77.031653">
				 <ele>104.9</ele>
			 </trkpt>
			 <trkpt lat="-12.105597" lon="-77.031319">
				 <ele>103</ele>
			 </trkpt>
			 <trkpt lat="-12.109035" lon="-77.030724">
				 <ele>100.9</ele>
			 </trkpt>
			 <trkpt lat="-12.110592" lon="-77.030467">
				 <ele>99.2</ele>
			 </trkpt>
			 <trkpt lat="-12.112644" lon="-77.030116">
				 <ele>97.8</ele>
			 </trkpt>
			 <trkpt lat="-12.114855" lon="-77.029755">
				 <ele>96.5</ele>
			 </trkpt>
			 <trkpt lat="-12.115923" lon="-77.029573">
				 <ele>95.3</ele>
			 </trkpt>
			 <trkpt lat="-12.117996" lon="-77.029206">
				 <ele>94.5</ele>
			 </trkpt>
			 <trkpt lat="-12.118367" lon="-77.029149">
				 <ele>92.6</ele>
			 </trkpt>
			 <trkpt lat="-12.118808" lon="-77.029133">
				 <ele>90.7</ele>
			 </trkpt>
			 <trkpt lat="-12.119005" lon="-77.02916">
				 <ele>88.8</ele>
			 </trkpt>
			 <trkpt lat="-12.119032" lon="-77.029182">
				 <ele>87.3</ele>
			 </trkpt>
			 <trkpt lat="-12.119029" lon="-77.029568">
				 <ele>85.8</ele>
			 </trkpt>
			 <trkpt lat="-12.118977" lon="-77.036895">
				 <ele>84.5</ele>
			 </trkpt>
			 <trkpt lat="-12.118947" lon="-77.039783">
				 <ele>83.2</ele>
			 </trkpt>
			 <trkpt lat="-12.11889" lon="-77.039801">
				 <ele>81.7</ele>
			 </trkpt>
			 <trkpt lat="-12.118814" lon="-77.039848">
				 <ele>80.3</ele>
			 </trkpt>
			 <trkpt lat="-12.118764" lon="-77.0399">
				 <ele>78.8</ele>
			 </trkpt>
			 <trkpt lat="-12.118727" lon="-77.039962">
				 <ele>77.4</ele>
			 </trkpt>
			 <trkpt lat="-12.118699" lon="-77.040078">
				 <ele>76.8</ele>
			 </trkpt>
			 <trkpt lat="-12.118701" lon="-77.040139">
				 <ele>76.8</ele>
			 </trkpt>
			 <trkpt lat="-12.118726" lon="-77.040227">
				 <ele>76.5</ele>
			 </trkpt>
			 <trkpt lat="-12.118755" lon="-77.04028">
				 <ele>76.1</ele>
			 </trkpt>
			 <trkpt lat="-12.118794" lon="-77.040326">
				 <ele>75.6</ele>
			 </trkpt>
			 <trkpt lat="-12.118865" lon="-77.040378">
				 <ele>75.2</ele>
			 </trkpt>
			 <trkpt lat="-12.118947" lon="-77.040409">
				 <ele>74.7</ele>
			 </trkpt>
			 <trkpt lat="-12.118933" lon="-77.041507">
				 <ele>74.2</ele>
			 </trkpt>
			 <trkpt lat="-12.11892" lon="-77.042505">
				 <ele>73.6</ele>
			 </trkpt>
			 <trkpt lat="-12.118846" lon="-77.042529">
				 <ele>73.1</ele>
			 </trkpt>
			 <trkpt lat="-12.118801" lon="-77.042556">
				 <ele>72.5</ele>
			 </trkpt>
			 <trkpt lat="-12.118744" lon="-77.042612">
				 <ele>72.1</ele>
			 </trkpt>
			 <trkpt lat="-12.11871" lon="-77.042669">
				 <ele>71.6</ele>
			 </trkpt>
			 <trkpt lat="-12.118685" lon="-77.042756">
				 <ele>71.5</ele>
			 </trkpt>
			 <trkpt lat="-12.118683" lon="-77.042818">
				 <ele>71.5</ele>
			 </trkpt>
			 <trkpt lat="-12.118694" lon="-77.042878">
				 <ele>70.6</ele>
			 </trkpt>
			 <trkpt lat="-12.118746" lon="-77.042979">
				 <ele>69.6</ele>
			 </trkpt>
			 <trkpt lat="-12.118804" lon="-77.043034">
				 <ele>68.7</ele>
			 </trkpt>
			 <trkpt lat="-12.118851" lon="-77.043062">
				 <ele>68.2</ele>
			 </trkpt>
			 <trkpt lat="-12.118929" lon="-77.043085">
				 <ele>67.6</ele>
			 </trkpt>
			 <trkpt lat="-12.118903" lon="-77.043935">
				 <ele>67.1</ele>
			 </trkpt>
			 <trkpt lat="-12.118901" lon="-77.044006">
				 <ele>66.4</ele>
			 </trkpt>
			 <trkpt lat="-12.11901" lon="-77.043959">
				 <ele>65.4</ele>
			 </trkpt>
			 <trkpt lat="-12.119363" lon="-77.043828">
				 <ele>62</ele>
			 </trkpt>
			 <trkpt lat="-12.119419" lon="-77.043818">
				 <ele>58.5</ele>
			 </trkpt>
			 <trkpt lat="-12.11946" lon="-77.043825">
				 <ele>54.7</ele>
			 </trkpt>
			 <trkpt lat="-12.119526" lon="-77.043866">
				 <ele>51.7</ele>
			 </trkpt>
			 <trkpt lat="-12.119563" lon="-77.043917">
				 <ele>48.9</ele>
			 </trkpt>
			 <trkpt lat="-12.119781" lon="-77.04447">
				 <ele>46.4</ele>
			 </trkpt>
			 <trkpt lat="-12.119806" lon="-77.044507">
				 <ele>43.6</ele>
			 </trkpt>
			 <trkpt lat="-12.119835" lon="-77.044532">
				 <ele>41</ele>
			 </trkpt>
			 <trkpt lat="-12.119869" lon="-77.044541">
				 <ele>38.6</ele>
			 </trkpt>
			 <trkpt lat="-12.11992" lon="-77.044517">
				 <ele>37.4</ele>
			 </trkpt>
			 <trkpt lat="-12.120123" lon="-77.044295">
				 <ele>36.5</ele>
			 </trkpt>
			 <trkpt lat="-12.120145" lon="-77.044252">
				 <ele>38.3</ele>
			 </trkpt>
			 <trkpt lat="-12.120146" lon="-77.044218">
				 <ele>40.6</ele>
			 </trkpt>
			 <trkpt lat="-12.120129" lon="-77.044165">
				 <ele>43.2</ele>
			 </trkpt>
			 <trkpt lat="-12.120052" lon="-77.04393">
				 <ele>45.8</ele>
			 </trkpt>
			 <trkpt lat="-12.120041" lon="-77.043876">
				 <ele>47.9</ele>
			 </trkpt>
			 <trkpt lat="-12.120048" lon="-77.043813">
				 <ele>49.3</ele>
			 </trkpt>
			 <trkpt lat="-12.120148" lon="-77.043478">
				 <ele>50.5</ele>
			 </trkpt>
			 <trkpt lat="-12.120179" lon="-77.043436">
				 <ele>51.6</ele>
			 </trkpt>
			 <trkpt lat="-12.120239" lon="-77.043391">
				 <ele>52.7</ele>
			 </trkpt>
			 <trkpt lat="-12.120635" lon="-77.043233">
				 <ele>52.5</ele>
			 </trkpt>
			 <trkpt lat="-12.121104" lon="-77.043035">
				 <ele>51.5</ele>
			 </trkpt>
			 <trkpt lat="-12.121143" lon="-77.043006">
				 <ele>50.5</ele>
			 </trkpt>
			 <trkpt lat="-12.121175" lon="-77.042956">
				 <ele>49</ele>
			 </trkpt>
			 <trkpt lat="-12.12135" lon="-77.042578">
				 <ele>47.6</ele>
			 </trkpt>
			 <trkpt lat="-12.121727" lon="-77.042144">
				 <ele>46.5</ele>
			 </trkpt>
			 <trkpt lat="-12.122067" lon="-77.041781">
				 <ele>46</ele>
			 </trkpt>
			 <trkpt lat="-12.122081" lon="-77.041743">
				 <ele>46.1</ele>
			 </trkpt>
			 <trkpt lat="-12.122081" lon="-77.041704">
				 <ele>46.8</ele>
			 </trkpt>
			 <trkpt lat="-12.122071" lon="-77.041658">
				 <ele>47.5</ele>
			 </trkpt>
			 <trkpt lat="-12.122038" lon="-77.041586">
				 <ele>48.3</ele>
			 </trkpt>
			 <trkpt lat="-12.121988" lon="-77.041524">
				 <ele>49.5</ele>
			 </trkpt>
			 <trkpt lat="-12.121954" lon="-77.041509">
				 <ele>51.4</ele>
			 </trkpt>
			 <trkpt lat="-12.121741" lon="-77.041454">
				 <ele>53.2</ele>
			 </trkpt>
			 <trkpt lat="-12.121688" lon="-77.041427">
				 <ele>55.1</ele>
			 </trkpt>
			 <trkpt lat="-12.121642" lon="-77.041387">
				 <ele>56.9</ele>
			 </trkpt>
			 <trkpt lat="-12.121615" lon="-77.041337">
				 <ele>58.5</ele>
			 </trkpt>
			 <trkpt lat="-12.121601" lon="-77.041276">
				 <ele>59.9</ele>
			 </trkpt>
			 <trkpt lat="-12.121595" lon="-77.041198">
				 <ele>61.1</ele>
			 </trkpt>
			 <trkpt lat="-12.121606" lon="-77.041104">
				 <ele>61.2</ele>
			 </trkpt>
			 <trkpt lat="-12.121629" lon="-77.041028">
				 <ele>60.9</ele>
			 </trkpt>
			 <trkpt lat="-12.121668" lon="-77.040954">
				 <ele>60.4</ele>
			 </trkpt>
			 <trkpt lat="-12.121698" lon="-77.040922">
				 <ele>59.6</ele>
			 </trkpt>
			 <trkpt lat="-12.121848" lon="-77.040798">
				 <ele>58.8</ele>
			 </trkpt>
			 <trkpt lat="-12.122701" lon="-77.040216">
				 <ele>58.4</ele>
			 </trkpt>
			 <trkpt lat="-12.122977" lon="-77.039982">
				 <ele>58</ele>
			 </trkpt>
			 <trkpt lat="-12.123074" lon="-77.039853">
				 <ele>57.8</ele>
			 </trkpt>
			 <trkpt lat="-12.123157" lon="-77.039705">
				 <ele>57.6</ele>
			 </trkpt>
			 <trkpt lat="-12.123323" lon="-77.039332">
				 <ele>57.5</ele>
			 </trkpt>
			 <trkpt lat="-12.123545" lon="-77.038761">
				 <ele>57.4</ele>
			 </trkpt>
			 <trkpt lat="-12.123709" lon="-77.038442">
				 <ele>57.7</ele>
			 </trkpt>
			 <trkpt lat="-12.124" lon="-77.037937">
				 <ele>57.4</ele>
			 </trkpt>
			 <trkpt lat="-12.12427" lon="-77.037536">
				 <ele>56.3</ele>
			 </trkpt>
			 <trkpt lat="-12.12437" lon="-77.03743">
				 <ele>55.1</ele>
			 </trkpt>
			 <trkpt lat="-12.124417" lon="-77.037395">
				 <ele>53.8</ele>
			 </trkpt>
			 <trkpt lat="-12.124503" lon="-77.037347">
				 <ele>52.5</ele>
			 </trkpt>
			 <trkpt lat="-12.125552" lon="-77.036952">
				 <ele>50.5</ele>
			 </trkpt>
			 <trkpt lat="-12.126096" lon="-77.036655">
				 <ele>47.4</ele>
			 </trkpt>
			 <trkpt lat="-12.126921" lon="-77.036053">
				 <ele>44.1</ele>
			 </trkpt>
			 <trkpt lat="-12.127038" lon="-77.035976">
				 <ele>40.8</ele>
			 </trkpt>
			 <trkpt lat="-12.127907" lon="-77.035432">
				 <ele>37.6</ele>
			 </trkpt>
			 <trkpt lat="-12.128917" lon="-77.034824">
				 <ele>34.5</ele>
			 </trkpt>
			 <trkpt lat="-12.129768" lon="-77.034276">
				 <ele>32.4</ele>
			 </trkpt>
			 <trkpt lat="-12.129866" lon="-77.034191">
				 <ele>31.2</ele>
			 </trkpt>
			 <trkpt lat="-12.129942" lon="-77.034106">
				 <ele>30.5</ele>
			 </trkpt>
			 <trkpt lat="-12.13001" lon="-77.034">
				 <ele>30.1</ele>
			 </trkpt>
			 <trkpt lat="-12.130049" lon="-77.033905">
				 <ele>30.1</ele>
			 </trkpt>
			 <trkpt lat="-12.130066" lon="-77.033863">
				 <ele>30.8</ele>
			 </trkpt>
			 <trkpt lat="-12.130121" lon="-77.033652">
				 <ele>32.5</ele>
			 </trkpt>
			 <trkpt lat="-12.130144" lon="-77.033499">
				 <ele>34.4</ele>
			 </trkpt>
			 <trkpt lat="-12.13014" lon="-77.033386">
				 <ele>36</ele>
			 </trkpt>
			 <trkpt lat="-12.130091" lon="-77.033126">
				 <ele>37</ele>
			 </trkpt>
			 <trkpt lat="-12.130095" lon="-77.033043">
				 <ele>37.9</ele>
			 </trkpt>
			 <trkpt lat="-12.13013" lon="-77.032946">
				 <ele>38.6</ele>
			 </trkpt>
			 <trkpt lat="-12.130178" lon="-77.032896">
				 <ele>39.3</ele>
			 </trkpt>
			 <trkpt lat="-12.130237" lon="-77.032864">
				 <ele>39.8</ele>
			 </trkpt>
			 <trkpt lat="-12.130461" lon="-77.032784">
				 <ele>40</ele>
			 </trkpt>
			 <trkpt lat="-12.130516" lon="-77.032746">
				 <ele>38.5</ele>
			 </trkpt>
			 <trkpt lat="-12.130559" lon="-77.032693">
				 <ele>36.8</ele>
			 </trkpt>
			 <trkpt lat="-12.130591" lon="-77.032619">
				 <ele>34.9</ele>
			 </trkpt>
			 <trkpt lat="-12.130628" lon="-77.032484">
				 <ele>32.9</ele>
			 </trkpt>
			 <trkpt lat="-12.130663" lon="-77.032428">
				 <ele>31.4</ele>
			 </trkpt>
			 <trkpt lat="-12.130919" lon="-77.032239">
				 <ele>30.7</ele>
			 </trkpt>
			 <trkpt lat="-12.130956" lon="-77.032205">
				 <ele>30.5</ele>
			 </trkpt>
			 <trkpt lat="-12.130986" lon="-77.032162">
				 <ele>31.3</ele>
			 </trkpt>
			 <trkpt lat="-12.131032" lon="-77.03203">
				 <ele>32.7</ele>
			 </trkpt>
			 <trkpt lat="-12.131058" lon="-77.031876">
				 <ele>34.5</ele>
			 </trkpt>
			 <trkpt lat="-12.131047" lon="-77.03177">
				 <ele>36.5</ele>
			 </trkpt>
			 <trkpt lat="-12.131015" lon="-77.03166">
				 <ele>39.5</ele>
			 </trkpt>
			 <trkpt lat="-12.130915" lon="-77.031483">
				 <ele>42.5</ele>
			 </trkpt>
			 <trkpt lat="-12.130848" lon="-77.031279">
				 <ele>45.8</ele>
			 </trkpt>
			 <trkpt lat="-12.130839" lon="-77.031028">
				 <ele>49.2</ele>
			 </trkpt>
			 <trkpt lat="-12.13085" lon="-77.030963">
				 <ele>52.9</ele>
			 </trkpt>
			 <trkpt lat="-12.130878" lon="-77.030869">
				 <ele>56.4</ele>
			 </trkpt>
			 <trkpt lat="-12.130931" lon="-77.030749">
				 <ele>59.9</ele>
			 </trkpt>
			 <trkpt lat="-12.130995" lon="-77.030639">
				 <ele>63</ele>
			 </trkpt>
			 <trkpt lat="-12.131467" lon="-77.030051">
				 <ele>65.4</ele>
			 </trkpt>
			 <trkpt lat="-12.131994" lon="-77.029379">
				 <ele>67.3</ele>
			 </trkpt>
			 <trkpt lat="-12.132185" lon="-77.029125">
				 <ele>69.3</ele>
			 </trkpt>
			 <trkpt lat="-12.132669" lon="-77.028445">
				 <ele>70.2</ele>
			 </trkpt>
			 <trkpt lat="-12.133181" lon="-77.027763">
				 <ele>70.9</ele>
			 </trkpt>
			 <trkpt lat="-12.134025" lon="-77.026767">
				 <ele>71.5</ele>
			 </trkpt>
			 <trkpt lat="-12.13416" lon="-77.026596">
				 <ele>72.1</ele>
			 </trkpt>
			 <trkpt lat="-12.134533" lon="-77.026125">
				 <ele>72</ele>
			 </trkpt>
			 <trkpt lat="-12.13524" lon="-77.025258">
				 <ele>71.9</ele>
			 </trkpt>
			 <trkpt lat="-12.135261" lon="-77.025208">
				 <ele>71.4</ele>
			 </trkpt>
			 <trkpt lat="-12.135268" lon="-77.02517">
				 <ele>70.5</ele>
			 </trkpt>
			 <trkpt lat="-12.13526" lon="-77.025111">
				 <ele>69.8</ele>
			 </trkpt>
			 <trkpt lat="-12.13523" lon="-77.025027">
				 <ele>69.1</ele>
			 </trkpt>
			 <trkpt lat="-12.135213" lon="-77.024971">
				 <ele>68.9</ele>
			 </trkpt>
			 <trkpt lat="-12.135183" lon="-77.024914">
				 <ele>69.9</ele>
			 </trkpt>
			 <trkpt lat="-12.135122" lon="-77.024911">
				 <ele>71.1</ele>
			 </trkpt>
			 <trkpt lat="-12.135063" lon="-77.024942">
				 <ele>72.4</ele>
			 </trkpt>
			 <trkpt lat="-12.134951" lon="-77.024976">
				 <ele>73.5</ele>
			 </trkpt>
			 <trkpt lat="-12.133866" lon="-77.025308">
				 <ele>75.9</ele>
			 </trkpt>
			 <trkpt lat="-12.13247" lon="-77.025693">
				 <ele>78.4</ele>
			 </trkpt>
			 <trkpt lat="-12.130722" lon="-77.026193">
				 <ele>80.5</ele>
			 </trkpt>
			 <trkpt lat="-12.129095" lon="-77.026644">
				 <ele>82.6</ele>
			 </trkpt>
			 <trkpt lat="-12.127882" lon="-77.026985">
				 <ele>84.6</ele>
			 </trkpt>
			 <trkpt lat="-12.124938" lon="-77.026905">
				 <ele>86.5</ele>
			 </trkpt>
			 <trkpt lat="-12.124823" lon="-77.026896">
				 <ele>87.4</ele>
			 </trkpt>
			 <trkpt lat="-12.124763" lon="-77.027327">
				 <ele>88.1</ele>
			 </trkpt>
			 <trkpt lat="-12.12448" lon="-77.029386">
				 <ele>88.9</ele>
			 </trkpt>
			 <trkpt lat="-12.124435" lon="-77.02938">
				 <ele>89.8</ele>
			 </trkpt>
			 <trkpt lat="-12.12349" lon="-77.029256">
				 <ele>91.1</ele>
			 </trkpt>
			 <trkpt lat="-12.122359" lon="-77.029093">
				 <ele>90.8</ele>
			 </trkpt>
		 </trkseg>
	 </trk>
</gpx>