<?xml version="1.0" encoding="UTF-8"?>
 <gpx creator="Garmin Connect" version="1.1"
	 xsi:schemaLocation="http://www.topografix.com/GPX/1/1 http://www.topografix.com/GPX/11.xsd"
	 xmlns:ns3="http://www.garmin.com/xmlschemas/TrackPointExtension/v1"
	 xmlns="http://www.topografix.com/GPX/1/1"
	 xmlns:xsi="http://www.w3.org/2001/XMLSchema-instance" xmlns:ns2="http://www.garmin.com/xmlschemas/GpxExtensions/v3">
	 <metadata>
		<name>LCW Maastricht Marathon 2026 - 42.195 km</name>
		 <link href="https://www.goandrace.com">
		 <text>Garmin Connect</text>
		 </link>
	 <time>2026-08-09T21:58:19</time>
	 </metadata>
	 <trk>
		 <name>LCW Maastricht Marathon 2026 - 42.195 km</name>
		 <trkseg>
			 <trkpt lat="50.85725" lon="5.68269">
				 <ele>50.2</ele>
			 </trkpt>
			 <trkpt lat="50.85749" lon="5.68269">
				 <ele>50.1</ele>
			 </trkpt>
			 <trkpt lat="50.85758" lon="5.68265">
				 <ele>50.4</ele>
			 </trkpt>
			 <trkpt lat="50.85767" lon="5.68256">
				 <ele>50.3</ele>
			 </trkpt>
			 <trkpt lat="50.85771" lon="5.68264">
				 <ele>50.1</ele>
			 </trkpt>
			 <trkpt lat="50.858197" lon="5.682033">
				 <ele>49.8</ele>
			 </trkpt>
			 <trkpt lat="50.858683" lon="5.681427">
				 <ele>49.5</ele>
			 </trkpt>
			 <trkpt lat="50.85917" lon="5.68082">
				 <ele>49.2</ele>
			 </trkpt>
			 <trkpt lat="50.85939" lon="5.68062">
				 <ele>49.5</ele>
			 </trkpt>
			 <trkpt lat="50.85964" lon="5.68048">
				 <ele>49.7</ele>
			 </trkpt>
			 <trkpt lat="50.85975" lon="5.68044">
				 <ele>49.3</ele>
			 </trkpt>
			 <trkpt lat="50.860493" lon="5.680285">
				 <ele>48.6</ele>
			 </trkpt>
			 <trkpt lat="50.861235" lon="5.68013">
				 <ele>48.4</ele>
			 </trkpt>
			 <trkpt lat="50.861978" lon="5.679975">
				 <ele>47.9</ele>
			 </trkpt>
			 <trkpt lat="50.86272" lon="5.67982">
				 <ele>47.6</ele>
			 </trkpt>
			 <trkpt lat="50.86307" lon="5.67976">
				 <ele>47.6</ele>
			 </trkpt>
			 <trkpt lat="50.86333" lon="5.67975">
				 <ele>48.2</ele>
			 </trkpt>
			 <trkpt lat="50.8642" lon="5.679575">
				 <ele>50</ele>
			 </trkpt>
			 <trkpt lat="50.86507" lon="5.6794">
				 <ele>51.8</ele>
			 </trkpt>
			 <trkpt lat="50.86529" lon="5.67932">
				 <ele>52.4</ele>
			 </trkpt>
			 <trkpt lat="50.86546" lon="5.6792">
				 <ele>52.3</ele>
			 </trkpt>
			 <trkpt lat="50.86567" lon="5.67898">
				 <ele>53</ele>
			 </trkpt>
			 <trkpt lat="50.86594" lon="5.67858">
				 <ele>53.9</ele>
			 </trkpt>
			 <trkpt lat="50.86636" lon="5.678015">
				 <ele>54.4</ele>
			 </trkpt>
			 <trkpt lat="50.86678" lon="5.67745">
				 <ele>55</ele>
			 </trkpt>
			 <trkpt lat="50.86712" lon="5.67709">
				 <ele>55.8</ele>
			 </trkpt>
			 <trkpt lat="50.86786" lon="5.67651">
				 <ele>57.2</ele>
			 </trkpt>
			 <trkpt lat="50.86817" lon="5.67615">
				 <ele>57.9</ele>
			 </trkpt>
			 <trkpt lat="50.86835" lon="5.67606">
				 <ele>57.4</ele>
			 </trkpt>
			 <trkpt lat="50.86876" lon="5.67527">
				 <ele>56.7</ele>
			 </trkpt>
			 <trkpt lat="50.869065" lon="5.67448">
				 <ele>56.7</ele>
			 </trkpt>
			 <trkpt lat="50.86937" lon="5.67369">
				 <ele>57.5</ele>
			 </trkpt>
			 <trkpt lat="50.86977" lon="5.67287">
				 <ele>58.1</ele>
			 </trkpt>
			 <trkpt lat="50.86984" lon="5.67288">
				 <ele>58.6</ele>
			 </trkpt>
			 <trkpt lat="50.86993" lon="5.67286">
				 <ele>59.2</ele>
			 </trkpt>
			 <trkpt lat="50.87012" lon="5.6727">
				 <ele>59.2</ele>
			 </trkpt>
			 <trkpt lat="50.87032" lon="5.67259">
				 <ele>58.8</ele>
			 </trkpt>
			 <trkpt lat="50.870405" lon="5.672586">
				 <ele>57.9</ele>
			 </trkpt>
			 <trkpt lat="50.870527" lon="5.672587">
				 <ele>57.4</ele>
			 </trkpt>
			 <trkpt lat="50.870972" lon="5.672615">
				 <ele>56.9</ele>
			 </trkpt>
			 <trkpt lat="50.875711" lon="5.672911">
				 <ele>56.6</ele>
			 </trkpt>
			 <trkpt lat="50.876314" lon="5.672958">
				 <ele>56.5</ele>
			 </trkpt>
			 <trkpt lat="50.876595" lon="5.673096">
				 <ele>55.8</ele>
			 </trkpt>
			 <trkpt lat="50.876721" lon="5.673128">
				 <ele>55.3</ele>
			 </trkpt>
			 <trkpt lat="50.876834" lon="5.673135">
				 <ele>54.7</ele>
			 </trkpt>
			 <trkpt lat="50.876946" lon="5.673138">
				 <ele>54.2</ele>
			 </trkpt>
			 <trkpt lat="50.877198" lon="5.673016">
				 <ele>54</ele>
			 </trkpt>
			 <trkpt lat="50.879449" lon="5.673163">
				 <ele>54</ele>
			 </trkpt>
			 <trkpt lat="50.87951" lon="5.67329">
				 <ele>53.9</ele>
			 </trkpt>
			 <trkpt lat="50.879771" lon="5.673291">
				 <ele>53.6</ele>
			 </trkpt>
			 <trkpt lat="50.879831" lon="5.673274">
				 <ele>53.3</ele>
			 </trkpt>
			 <trkpt lat="50.879865" lon="5.673187">
				 <ele>53.2</ele>
			 </trkpt>
			 <trkpt lat="50.880477" lon="5.673222">
				 <ele>52</ele>
			 </trkpt>
			 <trkpt lat="50.880566" lon="5.673336">
				 <ele>51.3</ele>
			 </trkpt>
			 <trkpt lat="50.880601" lon="5.673355">
				 <ele>50.6</ele>
			 </trkpt>
			 <trkpt lat="50.881032" lon="5.673588">
				 <ele>49.9</ele>
			 </trkpt>
			 <trkpt lat="50.882152" lon="5.674158">
				 <ele>49.2</ele>
			 </trkpt>
			 <trkpt lat="50.88187" lon="5.67526">
				 <ele>48.5</ele>
			 </trkpt>
			 <trkpt lat="50.88159" lon="5.67637">
				 <ele>47.7</ele>
			 </trkpt>
			 <trkpt lat="50.88171" lon="5.67643">
				 <ele>47.2</ele>
			 </trkpt>
			 <trkpt lat="50.88194" lon="5.67621">
				 <ele>46.8</ele>
			 </trkpt>
			 <trkpt lat="50.88202" lon="5.67619">
				 <ele>46.5</ele>
			 </trkpt>
			 <trkpt lat="50.88213" lon="5.67621">
				 <ele>45.7</ele>
			 </trkpt>
			 <trkpt lat="50.88225" lon="5.67626">
				 <ele>46.1</ele>
			 </trkpt>
			 <trkpt lat="50.88269" lon="5.67653">
				 <ele>46.5</ele>
			 </trkpt>
			 <trkpt lat="50.88317" lon="5.67686">
				 <ele>46.8</ele>
			 </trkpt>
			 <trkpt lat="50.88383" lon="5.67721">
				 <ele>47.3</ele>
			 </trkpt>
			 <trkpt lat="50.88449" lon="5.67756">
				 <ele>48</ele>
			 </trkpt>
			 <trkpt lat="50.8846" lon="5.67773">
				 <ele>48.5</ele>
			 </trkpt>
			 <trkpt lat="50.88496" lon="5.67796">
				 <ele>49.3</ele>
			 </trkpt>
			 <trkpt lat="50.8851" lon="5.67796">
				 <ele>49.5</ele>
			 </trkpt>
			 <trkpt lat="50.885885" lon="5.678525">
				 <ele>49.5</ele>
			 </trkpt>
			 <trkpt lat="50.88667" lon="5.67909">
				 <ele>49.8</ele>
			 </trkpt>
			 <trkpt lat="50.88734" lon="5.67966">
				 <ele>50.3</ele>
			 </trkpt>
			 <trkpt lat="50.88801" lon="5.68023">
				 <ele>50.7</ele>
			 </trkpt>
			 <trkpt lat="50.88865" lon="5.68085">
				 <ele>51</ele>
			 </trkpt>
			 <trkpt lat="50.889105" lon="5.681315">
				 <ele>51.1</ele>
			 </trkpt>
			 <trkpt lat="50.88956" lon="5.68178">
				 <ele>51</ele>
			 </trkpt>
			 <trkpt lat="50.88968" lon="5.68194">
				 <ele>50.9</ele>
			 </trkpt>
			 <trkpt lat="50.8897" lon="5.68202">
				 <ele>50.7</ele>
			 </trkpt>
			 <trkpt lat="50.88983" lon="5.68207">
				 <ele>49.9</ele>
			 </trkpt>
			 <trkpt lat="50.890497" lon="5.68272">
				 <ele>49.2</ele>
			 </trkpt>
			 <trkpt lat="50.891163" lon="5.68337">
				 <ele>48.9</ele>
			 </trkpt>
			 <trkpt lat="50.89183" lon="5.68402">
				 <ele>48.4</ele>
			 </trkpt>
			 <trkpt lat="50.892295" lon="5.68451">
				 <ele>47.6</ele>
			 </trkpt>
			 <trkpt lat="50.89276" lon="5.685">
				 <ele>46.9</ele>
			 </trkpt>
			 <trkpt lat="50.89348" lon="5.68584">
				 <ele>46.1</ele>
			 </trkpt>
			 <trkpt lat="50.894062" lon="5.686588">
				 <ele>45.7</ele>
			 </trkpt>
			 <trkpt lat="50.894644" lon="5.687336">
				 <ele>45.4</ele>
			 </trkpt>
			 <trkpt lat="50.895226" lon="5.688084">
				 <ele>45.5</ele>
			 </trkpt>
			 <trkpt lat="50.895808" lon="5.688832">
				 <ele>45.7</ele>
			 </trkpt>
			 <trkpt lat="50.89639" lon="5.68958">
				 <ele>46.3</ele>
			 </trkpt>
			 <trkpt lat="50.89687" lon="5.69013">
				 <ele>47</ele>
			 </trkpt>
			 <trkpt lat="50.89746" lon="5.6906">
				 <ele>47.2</ele>
			 </trkpt>
			 <trkpt lat="50.89811" lon="5.69096">
				 <ele>47.5</ele>
			 </trkpt>
			 <trkpt lat="50.89887" lon="5.69119">
				 <ele>47.8</ele>
			 </trkpt>
			 <trkpt lat="50.89913" lon="5.69123">
				 <ele>47.9</ele>
			 </trkpt>
			 <trkpt lat="50.89943" lon="5.69125">
				 <ele>48.2</ele>
			 </trkpt>
			 <trkpt lat="50.90019" lon="5.69124">
				 <ele>48.4</ele>
			 </trkpt>
			 <trkpt lat="50.90097" lon="5.691254">
				 <ele>48.5</ele>
			 </trkpt>
			 <trkpt lat="50.90175" lon="5.691269">
				 <ele>47.8</ele>
			 </trkpt>
			 <trkpt lat="50.90253" lon="5.691283">
				 <ele>47.4</ele>
			 </trkpt>
			 <trkpt lat="50.90331" lon="5.691297">
				 <ele>47</ele>
			 </trkpt>
			 <trkpt lat="50.90409" lon="5.691311">
				 <ele>46.6</ele>
			 </trkpt>
			 <trkpt lat="50.90487" lon="5.691326">
				 <ele>46.4</ele>
			 </trkpt>
			 <trkpt lat="50.90565" lon="5.69134">
				 <ele>46.1</ele>
			 </trkpt>
			 <trkpt lat="50.9063" lon="5.691395">
				 <ele>46</ele>
			 </trkpt>
			 <trkpt lat="50.90695" lon="5.69145">
				 <ele>46.1</ele>
			 </trkpt>
			 <trkpt lat="50.90744" lon="5.69152">
				 <ele>46.4</ele>
			 </trkpt>
			 <trkpt lat="50.90771" lon="5.69162">
				 <ele>46.5</ele>
			 </trkpt>
			 <trkpt lat="50.90814" lon="5.69191">
				 <ele>46.8</ele>
			 </trkpt>
			 <trkpt lat="50.90848" lon="5.69235">
				 <ele>47.1</ele>
			 </trkpt>
			 <trkpt lat="50.9086" lon="5.69247">
				 <ele>47.5</ele>
			 </trkpt>
			 <trkpt lat="50.90915" lon="5.69292">
				 <ele>47.8</ele>
			 </trkpt>
			 <trkpt lat="50.9093" lon="5.69311">
				 <ele>48.2</ele>
			 </trkpt>
			 <trkpt lat="50.90941" lon="5.69328">
				 <ele>48.3</ele>
			 </trkpt>
			 <trkpt lat="50.9097" lon="5.69399">
				 <ele>48.1</ele>
			 </trkpt>
			 <trkpt lat="50.90963" lon="5.6942">
				 <ele>47.6</ele>
			 </trkpt>
			 <trkpt lat="50.90951" lon="5.69492">
				 <ele>47.1</ele>
			 </trkpt>
			 <trkpt lat="50.90948" lon="5.69535">
				 <ele>46.4</ele>
			 </trkpt>
			 <trkpt lat="50.90949" lon="5.69568">
				 <ele>45.5</ele>
			 </trkpt>
			 <trkpt lat="50.90955" lon="5.6961">
				 <ele>44.7</ele>
			 </trkpt>
			 <trkpt lat="50.90965" lon="5.69654">
				 <ele>44.1</ele>
			 </trkpt>
			 <trkpt lat="50.90976" lon="5.69687">
				 <ele>43.4</ele>
			 </trkpt>
			 <trkpt lat="50.90984" lon="5.69705">
				 <ele>42.6</ele>
			 </trkpt>
			 <trkpt lat="50.91019" lon="5.697595">
				 <ele>42.1</ele>
			 </trkpt>
			 <trkpt lat="50.91054" lon="5.69814">
				 <ele>41.7</ele>
			 </trkpt>
			 <trkpt lat="50.91073" lon="5.6985">
				 <ele>41.5</ele>
			 </trkpt>
			 <trkpt lat="50.91105" lon="5.69931">
				 <ele>41.3</ele>
			 </trkpt>
			 <trkpt lat="50.91121" lon="5.69982">
				 <ele>41.2</ele>
			 </trkpt>
			 <trkpt lat="50.91142" lon="5.7006">
				 <ele>41.1</ele>
			 </trkpt>
			 <trkpt lat="50.9116" lon="5.70138">
				 <ele>41.2</ele>
			 </trkpt>
			 <trkpt lat="50.91178" lon="5.70225">
				 <ele>41.2</ele>
			 </trkpt>
			 <trkpt lat="50.91196" lon="5.70312">
				 <ele>41.2</ele>
			 </trkpt>
			 <trkpt lat="50.91219" lon="5.70436">
				 <ele>41.2</ele>
			 </trkpt>
			 <trkpt lat="50.9123" lon="5.70549">
				 <ele>41.2</ele>
			 </trkpt>
			 <trkpt lat="50.91234" lon="5.70605">
				 <ele>41.1</ele>
			 </trkpt>
			 <trkpt lat="50.912225" lon="5.70712">
				 <ele>41.1</ele>
			 </trkpt>
			 <trkpt lat="50.91211" lon="5.70819">
				 <ele>41</ele>
			 </trkpt>
			 <trkpt lat="50.91206" lon="5.70864">
				 <ele>40.9</ele>
			 </trkpt>
			 <trkpt lat="50.91197" lon="5.70911">
				 <ele>40.9</ele>
			 </trkpt>
			 <trkpt lat="50.91172" lon="5.71002">
				 <ele>40.9</ele>
			 </trkpt>
			 <trkpt lat="50.911355" lon="5.710825">
				 <ele>40.8</ele>
			 </trkpt>
			 <trkpt lat="50.91099" lon="5.71163">
				 <ele>40.8</ele>
			 </trkpt>
			 <trkpt lat="50.9106" lon="5.712543">
				 <ele>41</ele>
			 </trkpt>
			 <trkpt lat="50.91021" lon="5.713457">
				 <ele>41.2</ele>
			 </trkpt>
			 <trkpt lat="50.90982" lon="5.71437">
				 <ele>41.4</ele>
			 </trkpt>
			 <trkpt lat="50.90979" lon="5.71451">
				 <ele>41.5</ele>
			 </trkpt>
			 <trkpt lat="50.90981" lon="5.71467">
				 <ele>41.5</ele>
			 </trkpt>
			 <trkpt lat="50.91002" lon="5.71514">
				 <ele>41.7</ele>
			 </trkpt>
			 <trkpt lat="50.91037" lon="5.71582">
				 <ele>41.9</ele>
			 </trkpt>
			 <trkpt lat="50.91074" lon="5.71662">
				 <ele>42</ele>
			 </trkpt>
			 <trkpt lat="50.91103" lon="5.7173">
				 <ele>42.1</ele>
			 </trkpt>
			 <trkpt lat="50.91148" lon="5.71801">
				 <ele>42.1</ele>
			 </trkpt>
			 <trkpt lat="50.91196" lon="5.71681">
				 <ele>42.1</ele>
			 </trkpt>
			 <trkpt lat="50.91203" lon="5.71673">
				 <ele>41.9</ele>
			 </trkpt>
			 <trkpt lat="50.91213" lon="5.71665">
				 <ele>41.7</ele>
			 </trkpt>
			 <trkpt lat="50.91225" lon="5.71647">
				 <ele>41.5</ele>
			 </trkpt>
			 <trkpt lat="50.912535" lon="5.71585">
				 <ele>41.5</ele>
			 </trkpt>
			 <trkpt lat="50.91282" lon="5.71523">
				 <ele>41.4</ele>
			 </trkpt>
			 <trkpt lat="50.91323" lon="5.71448">
				 <ele>41.3</ele>
			 </trkpt>
			 <trkpt lat="50.91333" lon="5.71433">
				 <ele>41.4</ele>
			 </trkpt>
			 <trkpt lat="50.91379" lon="5.71394">
				 <ele>41.5</ele>
			 </trkpt>
			 <trkpt lat="50.9143" lon="5.71362">
				 <ele>41.7</ele>
			 </trkpt>
			 <trkpt lat="50.91503" lon="5.71302">
				 <ele>41.9</ele>
			 </trkpt>
			 <trkpt lat="50.91576" lon="5.71242">
				 <ele>42.3</ele>
			 </trkpt>
			 <trkpt lat="50.91657" lon="5.71183">
				 <ele>42.5</ele>
			 </trkpt>
			 <trkpt lat="50.91668" lon="5.71178">
				 <ele>42.7</ele>
			 </trkpt>
			 <trkpt lat="50.91677" lon="5.71179">
				 <ele>43.1</ele>
			 </trkpt>
			 <trkpt lat="50.917155" lon="5.71232">
				 <ele>43.5</ele>
			 </trkpt>
			 <trkpt lat="50.91754" lon="5.71285">
				 <ele>43.6</ele>
			 </trkpt>
			 <trkpt lat="50.91773" lon="5.71325">
				 <ele>43.7</ele>
			 </trkpt>
			 <trkpt lat="50.91799" lon="5.71363">
				 <ele>43.6</ele>
			 </trkpt>
			 <trkpt lat="50.91827" lon="5.71375">
				 <ele>43.4</ele>
			 </trkpt>
			 <trkpt lat="50.91833" lon="5.7138">
				 <ele>43.2</ele>
			 </trkpt>
			 <trkpt lat="50.91868" lon="5.7143">
				 <ele>43.1</ele>
			 </trkpt>
			 <trkpt lat="50.91916" lon="5.71525">
				 <ele>42.8</ele>
			 </trkpt>
			 <trkpt lat="50.91964" lon="5.7162">
				 <ele>42.6</ele>
			 </trkpt>
			 <trkpt lat="50.92018" lon="5.71709">
				 <ele>42.5</ele>
			 </trkpt>
			 <trkpt lat="50.92047" lon="5.7175">
				 <ele>42.1</ele>
			 </trkpt>
			 <trkpt lat="50.92067" lon="5.71771">
				 <ele>41.8</ele>
			 </trkpt>
			 <trkpt lat="50.92075" lon="5.71784">
				 <ele>41.7</ele>
			 </trkpt>
			 <trkpt lat="50.921193" lon="5.718702">
				 <ele>41.8</ele>
			 </trkpt>
			 <trkpt lat="50.921635" lon="5.719565">
				 <ele>41.9</ele>
			 </trkpt>
			 <trkpt lat="50.922078" lon="5.720427">
				 <ele>42.1</ele>
			 </trkpt>
			 <trkpt lat="50.92252" lon="5.72129">
				 <ele>42.1</ele>
			 </trkpt>
			 <trkpt lat="50.92277" lon="5.72174">
				 <ele>42.1</ele>
			 </trkpt>
			 <trkpt lat="50.92281" lon="5.72194">
				 <ele>42.1</ele>
			 </trkpt>
			 <trkpt lat="50.92275" lon="5.72211">
				 <ele>42.2</ele>
			 </trkpt>
			 <trkpt lat="50.9223" lon="5.72282">
				 <ele>42.3</ele>
			 </trkpt>
			 <trkpt lat="50.92167" lon="5.72364">
				 <ele>42.3</ele>
			 </trkpt>
			 <trkpt lat="50.92163" lon="5.72372">
				 <ele>42.2</ele>
			 </trkpt>
			 <trkpt lat="50.92162" lon="5.72412">
				 <ele>42.1</ele>
			 </trkpt>
			 <trkpt lat="50.92167" lon="5.7245">
				 <ele>41.9</ele>
			 </trkpt>
			 <trkpt lat="50.92184" lon="5.7253">
				 <ele>41.7</ele>
			 </trkpt>
			 <trkpt lat="50.92197" lon="5.72545">
				 <ele>41.6</ele>
			 </trkpt>
			 <trkpt lat="50.92207" lon="5.72552">
				 <ele>41.5</ele>
			 </trkpt>
			 <trkpt lat="50.92251" lon="5.72571">
				 <ele>41.5</ele>
			 </trkpt>
			 <trkpt lat="50.92295" lon="5.7259">
				 <ele>41.4</ele>
			 </trkpt>
			 <trkpt lat="50.92324" lon="5.72605">
				 <ele>41.1</ele>
			 </trkpt>
			 <trkpt lat="50.92335" lon="5.72606">
				 <ele>40.9</ele>
			 </trkpt>
			 <trkpt lat="50.92409" lon="5.72659">
				 <ele>40.8</ele>
			 </trkpt>
			 <trkpt lat="50.92426" lon="5.72669">
				 <ele>40.8</ele>
			 </trkpt>
			 <trkpt lat="50.92446" lon="5.72674">
				 <ele>40.7</ele>
			 </trkpt>
			 <trkpt lat="50.9245" lon="5.7268">
				 <ele>40.6</ele>
			 </trkpt>
			 <trkpt lat="50.92519" lon="5.72732">
				 <ele>40.5</ele>
			 </trkpt>
			 <trkpt lat="50.92555" lon="5.72764">
				 <ele>40.3</ele>
			 </trkpt>
			 <trkpt lat="50.926203" lon="5.728263">
				 <ele>40.2</ele>
			 </trkpt>
			 <trkpt lat="50.926857" lon="5.728887">
				 <ele>40.1</ele>
			 </trkpt>
			 <trkpt lat="50.92751" lon="5.72951">
				 <ele>40.1</ele>
			 </trkpt>
			 <trkpt lat="50.9283" lon="5.730175">
				 <ele>40.2</ele>
			 </trkpt>
			 <trkpt lat="50.92909" lon="5.73084">
				 <ele>40.4</ele>
			 </trkpt>
			 <trkpt lat="50.92954" lon="5.73119">
				 <ele>40.5</ele>
			 </trkpt>
			 <trkpt lat="50.930147" lon="5.731737">
				 <ele>40.6</ele>
			 </trkpt>
			 <trkpt lat="50.930753" lon="5.732283">
				 <ele>40.8</ele>
			 </trkpt>
			 <trkpt lat="50.93136" lon="5.73283">
				 <ele>40.9</ele>
			 </trkpt>
			 <trkpt lat="50.93148" lon="5.73276">
				 <ele>41.1</ele>
			 </trkpt>
			 <trkpt lat="50.93177" lon="5.7326">
				 <ele>41.2</ele>
			 </trkpt>
			 <trkpt lat="50.93189" lon="5.73251">
				 <ele>41.4</ele>
			 </trkpt>
			 <trkpt lat="50.93218" lon="5.73212">
				 <ele>41.5</ele>
			 </trkpt>
			 <trkpt lat="50.93219" lon="5.73195">
				 <ele>41.5</ele>
			 </trkpt>
			 <trkpt lat="50.93229" lon="5.7319">
				 <ele>41.5</ele>
			 </trkpt>
			 <trkpt lat="50.93236" lon="5.73182">
				 <ele>41.4</ele>
			 </trkpt>
			 <trkpt lat="50.93255" lon="5.73231">
				 <ele>41.3</ele>
			 </trkpt>
			 <trkpt lat="50.9326" lon="5.73237">
				 <ele>41.2</ele>
			 </trkpt>
			 <trkpt lat="50.93265" lon="5.7324">
				 <ele>41.1</ele>
			 </trkpt>
			 <trkpt lat="50.93272" lon="5.73241">
				 <ele>41</ele>
			 </trkpt>
			 <trkpt lat="50.933415" lon="5.73208">
				 <ele>40.9</ele>
			 </trkpt>
			 <trkpt lat="50.93411" lon="5.73175">
				 <ele>40.8</ele>
			 </trkpt>
			 <trkpt lat="50.93437" lon="5.73168">
				 <ele>40.6</ele>
			 </trkpt>
			 <trkpt lat="50.9346" lon="5.73166">
				 <ele>40.6</ele>
			 </trkpt>
			 <trkpt lat="50.93469" lon="5.73162">
				 <ele>40.6</ele>
			 </trkpt>
			 <trkpt lat="50.93474" lon="5.73152">
				 <ele>40.7</ele>
			 </trkpt>
			 <trkpt lat="50.93477" lon="5.73135">
				 <ele>40.8</ele>
			 </trkpt>
			 <trkpt lat="50.93484" lon="5.73142">
				 <ele>40.9</ele>
			 </trkpt>
			 <trkpt lat="50.93513" lon="5.73186">
				 <ele>41</ele>
			 </trkpt>
			 <trkpt lat="50.93526" lon="5.7319">
				 <ele>41.1</ele>
			 </trkpt>
			 <trkpt lat="50.93544" lon="5.73199">
				 <ele>41.3</ele>
			 </trkpt>
			 <trkpt lat="50.93548" lon="5.73205">
				 <ele>41.4</ele>
			 </trkpt>
			 <trkpt lat="50.93574" lon="5.73287">
				 <ele>41.5</ele>
			 </trkpt>
			 <trkpt lat="50.93589" lon="5.73328">
				 <ele>41.5</ele>
			 </trkpt>
			 <trkpt lat="50.93601" lon="5.73353">
				 <ele>41.3</ele>
			 </trkpt>
			 <trkpt lat="50.93617" lon="5.734215">
				 <ele>41.1</ele>
			 </trkpt>
			 <trkpt lat="50.93633" lon="5.7349">
				 <ele>40.7</ele>
			 </trkpt>
			 <trkpt lat="50.93662" lon="5.73567">
				 <ele>40.4</ele>
			 </trkpt>
			 <trkpt lat="50.93675" lon="5.73624">
				 <ele>40.2</ele>
			 </trkpt>
			 <trkpt lat="50.93682" lon="5.73634">
				 <ele>40</ele>
			 </trkpt>
			 <trkpt lat="50.93689" lon="5.7364">
				 <ele>39.8</ele>
			 </trkpt>
			 <trkpt lat="50.93722" lon="5.73649">
				 <ele>39.6</ele>
			 </trkpt>
			 <trkpt lat="50.93729" lon="5.73655">
				 <ele>39.5</ele>
			 </trkpt>
			 <trkpt lat="50.93774" lon="5.7372">
				 <ele>39.5</ele>
			 </trkpt>
			 <trkpt lat="50.93814" lon="5.73771">
				 <ele>39.5</ele>
			 </trkpt>
			 <trkpt lat="50.93866" lon="5.738263">
				 <ele>39.5</ele>
			 </trkpt>
			 <trkpt lat="50.93918" lon="5.738817">
				 <ele>39.6</ele>
			 </trkpt>
			 <trkpt lat="50.9397" lon="5.73937">
				 <ele>39.8</ele>
			 </trkpt>
			 <trkpt lat="50.940155" lon="5.7398">
				 <ele>40</ele>
			 </trkpt>
			 <trkpt lat="50.94061" lon="5.74023">
				 <ele>40</ele>
			 </trkpt>
			 <trkpt lat="50.94072" lon="5.7403">
				 <ele>40</ele>
			 </trkpt>
			 <trkpt lat="50.94104" lon="5.74013">
				 <ele>40</ele>
			 </trkpt>
			 <trkpt lat="50.94124" lon="5.74016">
				 <ele>40</ele>
			 </trkpt>
			 <trkpt lat="50.94129" lon="5.74021">
				 <ele>40</ele>
			 </trkpt>
			 <trkpt lat="50.94133" lon="5.74029">
				 <ele>40</ele>
			 </trkpt>
			 <trkpt lat="50.94158" lon="5.74098">
				 <ele>40</ele>
			 </trkpt>
			 <trkpt lat="50.94176" lon="5.74114">
				 <ele>39.9</ele>
			 </trkpt>
			 <trkpt lat="50.94192" lon="5.74123">
				 <ele>39.8</ele>
			 </trkpt>
			 <trkpt lat="50.94253" lon="5.74119">
				 <ele>39.7</ele>
			 </trkpt>
			 <trkpt lat="50.94279" lon="5.74126">
				 <ele>39.6</ele>
			 </trkpt>
			 <trkpt lat="50.94302" lon="5.74139">
				 <ele>39.5</ele>
			 </trkpt>
			 <trkpt lat="50.9432" lon="5.74155">
				 <ele>39.5</ele>
			 </trkpt>
			 <trkpt lat="50.94332" lon="5.74169">
				 <ele>39.4</ele>
			 </trkpt>
			 <trkpt lat="50.9435" lon="5.74196">
				 <ele>39.3</ele>
			 </trkpt>
			 <trkpt lat="50.94355" lon="5.742">
				 <ele>39.3</ele>
			 </trkpt>
			 <trkpt lat="50.9437" lon="5.74203">
				 <ele>39.3</ele>
			 </trkpt>
			 <trkpt lat="50.9438" lon="5.74207">
				 <ele>39.3</ele>
			 </trkpt>
			 <trkpt lat="50.94387" lon="5.74214">
				 <ele>39.4</ele>
			 </trkpt>
			 <trkpt lat="50.94422" lon="5.74268">
				 <ele>39.5</ele>
			 </trkpt>
			 <trkpt lat="50.94466" lon="5.74281">
				 <ele>39.5</ele>
			 </trkpt>
			 <trkpt lat="50.94477" lon="5.74287">
				 <ele>39.6</ele>
			 </trkpt>
			 <trkpt lat="50.94495" lon="5.74304">
				 <ele>39.7</ele>
			 </trkpt>
			 <trkpt lat="50.94506" lon="5.74344">
				 <ele>39.8</ele>
			 </trkpt>
			 <trkpt lat="50.94519" lon="5.74355">
				 <ele>39.8</ele>
			 </trkpt>
			 <trkpt lat="50.94528" lon="5.74357">
				 <ele>39.9</ele>
			 </trkpt>
			 <trkpt lat="50.94564" lon="5.74404">
				 <ele>39.9</ele>
			 </trkpt>
			 <trkpt lat="50.94584" lon="5.74449">
				 <ele>39.9</ele>
			 </trkpt>
			 <trkpt lat="50.94597" lon="5.74489">
				 <ele>39.9</ele>
			 </trkpt>
			 <trkpt lat="50.94621" lon="5.74508">
				 <ele>39.9</ele>
			 </trkpt>
			 <trkpt lat="50.94684" lon="5.74533">
				 <ele>39.9</ele>
			 </trkpt>
			 <trkpt lat="50.947215" lon="5.74577">
				 <ele>39.9</ele>
			 </trkpt>
			 <trkpt lat="50.94759" lon="5.74621">
				 <ele>39.9</ele>
			 </trkpt>
			 <trkpt lat="50.94806" lon="5.74682">
				 <ele>39.9</ele>
			 </trkpt>
			 <trkpt lat="50.94818" lon="5.74671">
				 <ele>39.9</ele>
			 </trkpt>
			 <trkpt lat="50.94831" lon="5.74682">
				 <ele>40</ele>
			 </trkpt>
			 <trkpt lat="50.9484" lon="5.74676">
				 <ele>39.9</ele>
			 </trkpt>
			 <trkpt lat="50.94854" lon="5.7466">
				 <ele>39.8</ele>
			 </trkpt>
			 <trkpt lat="50.94857" lon="5.74662">
				 <ele>39.7</ele>
			 </trkpt>
			 <trkpt lat="50.9486" lon="5.74661">
				 <ele>39.6</ele>
			 </trkpt>
			 <trkpt lat="50.948915" lon="5.74786">
				 <ele>39.5</ele>
			 </trkpt>
			 <trkpt lat="50.94923" lon="5.74911">
				 <ele>39.5</ele>
			 </trkpt>
			 <trkpt lat="50.949545" lon="5.75036">
				 <ele>39.3</ele>
			 </trkpt>
			 <trkpt lat="50.94986" lon="5.75161">
				 <ele>38.9</ele>
			 </trkpt>
			 <trkpt lat="50.950065" lon="5.75245">
				 <ele>38.5</ele>
			 </trkpt>
			 <trkpt lat="50.95027" lon="5.75329">
				 <ele>38.1</ele>
			 </trkpt>
			 <trkpt lat="50.95037" lon="5.75397">
				 <ele>37.7</ele>
			 </trkpt>
			 <trkpt lat="50.95044" lon="5.75494">
				 <ele>37.5</ele>
			 </trkpt>
			 <trkpt lat="50.950465" lon="5.755665">
				 <ele>37.2</ele>
			 </trkpt>
			 <trkpt lat="50.95049" lon="5.75639">
				 <ele>36.9</ele>
			 </trkpt>
			 <trkpt lat="50.95059" lon="5.75659">
				 <ele>36.7</ele>
			 </trkpt>
			 <trkpt lat="50.9511" lon="5.75713">
				 <ele>36.5</ele>
			 </trkpt>
			 <trkpt lat="50.95142" lon="5.7574">
				 <ele>36.4</ele>
			 </trkpt>
			 <trkpt lat="50.95163" lon="5.75754">
				 <ele>36.4</ele>
			 </trkpt>
			 <trkpt lat="50.95201" lon="5.75772">
				 <ele>36.5</ele>
			 </trkpt>
			 <trkpt lat="50.95242" lon="5.75781">
				 <ele>36.8</ele>
			 </trkpt>
			 <trkpt lat="50.95258" lon="5.75782">
				 <ele>37</ele>
			 </trkpt>
			 <trkpt lat="50.95288" lon="5.75778">
				 <ele>37.1</ele>
			 </trkpt>
			 <trkpt lat="50.953345" lon="5.757655">
				 <ele>37.2</ele>
			 </trkpt>
			 <trkpt lat="50.95381" lon="5.75753">
				 <ele>37.3</ele>
			 </trkpt>
			 <trkpt lat="50.95422" lon="5.75736">
				 <ele>37.4</ele>
			 </trkpt>
			 <trkpt lat="50.95478" lon="5.75705">
				 <ele>37.4</ele>
			 </trkpt>
			 <trkpt lat="50.95517" lon="5.7568">
				 <ele>37.4</ele>
			 </trkpt>
			 <trkpt lat="50.95544" lon="5.7566">
				 <ele>37.4</ele>
			 </trkpt>
			 <trkpt lat="50.95572" lon="5.75635">
				 <ele>37.9</ele>
			 </trkpt>
			 <trkpt lat="50.956" lon="5.75608">
				 <ele>37.9</ele>
			 </trkpt>
			 <trkpt lat="50.95648" lon="5.75556">
				 <ele>37.8</ele>
			 </trkpt>
			 <trkpt lat="50.95696" lon="5.75504">
				 <ele>37.7</ele>
			 </trkpt>
			 <trkpt lat="50.957485" lon="5.75443">
				 <ele>37.7</ele>
			 </trkpt>
			 <trkpt lat="50.95801" lon="5.75382">
				 <ele>37.7</ele>
			 </trkpt>
			 <trkpt lat="50.95839" lon="5.75328">
				 <ele>37.7</ele>
			 </trkpt>
			 <trkpt lat="50.95858" lon="5.75289">
				 <ele>37.7</ele>
			 </trkpt>
			 <trkpt lat="50.95897" lon="5.752">
				 <ele>37.7</ele>
			 </trkpt>
			 <trkpt lat="50.95927" lon="5.75125">
				 <ele>37.7</ele>
			 </trkpt>
			 <trkpt lat="50.959515" lon="5.75053">
				 <ele>37.7</ele>
			 </trkpt>
			 <trkpt lat="50.95976" lon="5.74981">
				 <ele>37.1</ele>
			 </trkpt>
			 <trkpt lat="50.96004" lon="5.74893">
				 <ele>37</ele>
			 </trkpt>
			 <trkpt lat="50.96032" lon="5.74774">
				 <ele>37</ele>
			 </trkpt>
			 <trkpt lat="50.96042" lon="5.74721">
				 <ele>36.9</ele>
			 </trkpt>
			 <trkpt lat="50.96052" lon="5.74651">
				 <ele>36.9</ele>
			 </trkpt>
			 <trkpt lat="50.96053" lon="5.74559">
				 <ele>36.9</ele>
			 </trkpt>
			 <trkpt lat="50.96047" lon="5.74504">
				 <ele>36.9</ele>
			 </trkpt>
			 <trkpt lat="50.9603" lon="5.74409">
				 <ele>36.8</ele>
			 </trkpt>
			 <trkpt lat="50.96008" lon="5.7434">
				 <ele>36.7</ele>
			 </trkpt>
			 <trkpt lat="50.95984" lon="5.74282">
				 <ele>36.5</ele>
			 </trkpt>
			 <trkpt lat="50.95963" lon="5.74242">
				 <ele>36.5</ele>
			 </trkpt>
			 <trkpt lat="50.95939" lon="5.74204">
				 <ele>36.4</ele>
			 </trkpt>
			 <trkpt lat="50.958715" lon="5.741192">
				 <ele>36.4</ele>
			 </trkpt>
			 <trkpt lat="50.95804" lon="5.740345">
				 <ele>36.4</ele>
			 </trkpt>
			 <trkpt lat="50.957365" lon="5.739497">
				 <ele>36.4</ele>
			 </trkpt>
			 <trkpt lat="50.95669" lon="5.73865">
				 <ele>36.3</ele>
			 </trkpt>
			 <trkpt lat="50.95648" lon="5.73836">
				 <ele>36.1</ele>
			 </trkpt>
			 <trkpt lat="50.95614" lon="5.73778">
				 <ele>36.1</ele>
			 </trkpt>
			 <trkpt lat="50.956" lon="5.73748">
				 <ele>36.2</ele>
			 </trkpt>
			 <trkpt lat="50.95586" lon="5.73712">
				 <ele>36.3</ele>
			 </trkpt>
			 <trkpt lat="50.95558" lon="5.73617">
				 <ele>36.5</ele>
			 </trkpt>
			 <trkpt lat="50.95534" lon="5.73548">
				 <ele>36.4</ele>
			 </trkpt>
			 <trkpt lat="50.95525" lon="5.73535">
				 <ele>36.4</ele>
			 </trkpt>
			 <trkpt lat="50.95515" lon="5.73534">
				 <ele>36.4</ele>
			 </trkpt>
			 <trkpt lat="50.9551" lon="5.73536">
				 <ele>36.7</ele>
			 </trkpt>
			 <trkpt lat="50.95505" lon="5.73545">
				 <ele>37</ele>
			 </trkpt>
			 <trkpt lat="50.95494" lon="5.73597">
				 <ele>37.3</ele>
			 </trkpt>
			 <trkpt lat="50.95489" lon="5.73605">
				 <ele>37.6</ele>
			 </trkpt>
			 <trkpt lat="50.95489" lon="5.73549">
				 <ele>37.8</ele>
			 </trkpt>
			 <trkpt lat="50.95481" lon="5.73485">
				 <ele>38</ele>
			 </trkpt>
			 <trkpt lat="50.95455" lon="5.73394">
				 <ele>38</ele>
			 </trkpt>
			 <trkpt lat="50.9544" lon="5.73315">
				 <ele>38</ele>
			 </trkpt>
			 <trkpt lat="50.95436" lon="5.73259">
				 <ele>38.2</ele>
			 </trkpt>
			 <trkpt lat="50.95438" lon="5.73194">
				 <ele>38.3</ele>
			 </trkpt>
			 <trkpt lat="50.95444" lon="5.731065">
				 <ele>38.2</ele>
			 </trkpt>
			 <trkpt lat="50.9545" lon="5.73019">
				 <ele>37.7</ele>
			 </trkpt>
			 <trkpt lat="50.95454" lon="5.73007">
				 <ele>37.5</ele>
			 </trkpt>
			 <trkpt lat="50.95464" lon="5.7287">
				 <ele>37.2</ele>
			 </trkpt>
			 <trkpt lat="50.95476" lon="5.72779">
				 <ele>37.1</ele>
			 </trkpt>
			 <trkpt lat="50.95487" lon="5.7272">
				 <ele>36.9</ele>
			 </trkpt>
			 <trkpt lat="50.95511" lon="5.72617">
				 <ele>36.6</ele>
			 </trkpt>
			 <trkpt lat="50.955417" lon="5.725063">
				 <ele>36.5</ele>
			 </trkpt>
			 <trkpt lat="50.955723" lon="5.723957">
				 <ele>36.3</ele>
			 </trkpt>
			 <trkpt lat="50.95603" lon="5.72285">
				 <ele>36.2</ele>
			 </trkpt>
			 <trkpt lat="50.95626" lon="5.72248">
				 <ele>36</ele>
			 </trkpt>
			 <trkpt lat="50.9564" lon="5.72242">
				 <ele>36</ele>
			 </trkpt>
			 <trkpt lat="50.95683" lon="5.721875">
				 <ele>36</ele>
			 </trkpt>
			 <trkpt lat="50.95726" lon="5.72133">
				 <ele>36.1</ele>
			 </trkpt>
			 <trkpt lat="50.95775" lon="5.72079">
				 <ele>36.1</ele>
			 </trkpt>
			 <trkpt lat="50.95824" lon="5.720425">
				 <ele>35.8</ele>
			 </trkpt>
			 <trkpt lat="50.95873" lon="5.72006">
				 <ele>35.5</ele>
			 </trkpt>
			 <trkpt lat="50.95931" lon="5.71966">
				 <ele>35.4</ele>
			 </trkpt>
			 <trkpt lat="50.95962" lon="5.71948">
				 <ele>35.3</ele>
			 </trkpt>
			 <trkpt lat="50.96016" lon="5.71931">
				 <ele>35.2</ele>
			 </trkpt>
			 <trkpt lat="50.96034" lon="5.71928">
				 <ele>35</ele>
			 </trkpt>
			 <trkpt lat="50.96109" lon="5.71931">
				 <ele>34.9</ele>
			 </trkpt>
			 <trkpt lat="50.96153" lon="5.7194">
				 <ele>34.7</ele>
			 </trkpt>
			 <trkpt lat="50.96191" lon="5.71953">
				 <ele>34.6</ele>
			 </trkpt>
			 <trkpt lat="50.96243" lon="5.71981">
				 <ele>34.5</ele>
			 </trkpt>
			 <trkpt lat="50.96191" lon="5.71953">
				 <ele>34.6</ele>
			 </trkpt>
			 <trkpt lat="50.96153" lon="5.7194">
				 <ele>34.7</ele>
			 </trkpt>
			 <trkpt lat="50.96109" lon="5.71931">
				 <ele>34.9</ele>
			 </trkpt>
			 <trkpt lat="50.96034" lon="5.71928">
				 <ele>35</ele>
			 </trkpt>
			 <trkpt lat="50.96016" lon="5.71931">
				 <ele>35.2</ele>
			 </trkpt>
			 <trkpt lat="50.95962" lon="5.71948">
				 <ele>35.3</ele>
			 </trkpt>
			 <trkpt lat="50.95931" lon="5.71966">
				 <ele>35.4</ele>
			 </trkpt>
			 <trkpt lat="50.95873" lon="5.72006">
				 <ele>35.5</ele>
			 </trkpt>
			 <trkpt lat="50.95824" lon="5.720425">
				 <ele>35.8</ele>
			 </trkpt>
			 <trkpt lat="50.95775" lon="5.72079">
				 <ele>36</ele>
			 </trkpt>
			 <trkpt lat="50.95726" lon="5.72133">
				 <ele>36</ele>
			 </trkpt>
			 <trkpt lat="50.95683" lon="5.721875">
				 <ele>36</ele>
			 </trkpt>
			 <trkpt lat="50.9564" lon="5.72242">
				 <ele>36.1</ele>
			 </trkpt>
			 <trkpt lat="50.95626" lon="5.72248">
				 <ele>36.3</ele>
			 </trkpt>
			 <trkpt lat="50.95656" lon="5.72204">
				 <ele>36.5</ele>
			 </trkpt>
			 <trkpt lat="50.957095" lon="5.72139">
				 <ele>36.7</ele>
			 </trkpt>
			 <trkpt lat="50.95763" lon="5.72074">
				 <ele>37</ele>
			 </trkpt>
			 <trkpt lat="50.95784" lon="5.72046">
				 <ele>37.3</ele>
			 </trkpt>
			 <trkpt lat="50.95827" lon="5.719755">
				 <ele>37.5</ele>
			 </trkpt>
			 <trkpt lat="50.9587" lon="5.71905">
				 <ele>37.5</ele>
			 </trkpt>
			 <trkpt lat="50.95882" lon="5.71888">
				 <ele>37.6</ele>
			 </trkpt>
			 <trkpt lat="50.95895" lon="5.71879">
				 <ele>37.8</ele>
			 </trkpt>
			 <trkpt lat="50.95978" lon="5.71873">
				 <ele>37.9</ele>
			 </trkpt>
			 <trkpt lat="50.96001" lon="5.71867">
				 <ele>38</ele>
			 </trkpt>
			 <trkpt lat="50.960495" lon="5.7184">
				 <ele>38.1</ele>
			 </trkpt>
			 <trkpt lat="50.96098" lon="5.71813">
				 <ele>38.1</ele>
			 </trkpt>
			 <trkpt lat="50.96112" lon="5.71803">
				 <ele>38</ele>
			 </trkpt>
			 <trkpt lat="50.96126" lon="5.71791">
				 <ele>37.9</ele>
			 </trkpt>
			 <trkpt lat="50.96147" lon="5.71719">
				 <ele>38</ele>
			 </trkpt>
			 <trkpt lat="50.96168" lon="5.71647">
				 <ele>38.1</ele>
			 </trkpt>
			 <trkpt lat="50.961805" lon="5.715765">
				 <ele>38.2</ele>
			 </trkpt>
			 <trkpt lat="50.96193" lon="5.71506">
				 <ele>38.3</ele>
			 </trkpt>
			 <trkpt lat="50.96193" lon="5.71494">
				 <ele>38.4</ele>
			 </trkpt>
			 <trkpt lat="50.96177" lon="5.71401">
				 <ele>38.5</ele>
			 </trkpt>
			 <trkpt lat="50.96173" lon="5.71396">
				 <ele>38.6</ele>
			 </trkpt>
			 <trkpt lat="50.96165" lon="5.71394">
				 <ele>38.7</ele>
			 </trkpt>
			 <trkpt lat="50.9612" lon="5.71417">
				 <ele>38.9</ele>
			 </trkpt>
			 <trkpt lat="50.96112" lon="5.71418">
				 <ele>39.1</ele>
			 </trkpt>
			 <trkpt lat="50.96104" lon="5.71409">
				 <ele>39.2</ele>
			 </trkpt>
			 <trkpt lat="50.96065" lon="5.71329">
				 <ele>39.2</ele>
			 </trkpt>
			 <trkpt lat="50.96061" lon="5.71325">
				 <ele>39.2</ele>
			 </trkpt>
			 <trkpt lat="50.96052" lon="5.71324">
				 <ele>39.2</ele>
			 </trkpt>
			 <trkpt lat="50.9604" lon="5.7134">
				 <ele>39.2</ele>
			 </trkpt>
			 <trkpt lat="50.96032" lon="5.71344">
				 <ele>39.2</ele>
			 </trkpt>
			 <trkpt lat="50.96027" lon="5.7134">
				 <ele>39.3</ele>
			 </trkpt>
			 <trkpt lat="50.96005" lon="5.71311">
				 <ele>39.5</ele>
			 </trkpt>
			 <trkpt lat="50.96003" lon="5.71305">
				 <ele>39.6</ele>
			 </trkpt>
			 <trkpt lat="50.96002" lon="5.71292">
				 <ele>39.8</ele>
			 </trkpt>
			 <trkpt lat="50.96004" lon="5.71284">
				 <ele>40</ele>
			 </trkpt>
			 <trkpt lat="50.960545" lon="5.7118">
				 <ele>40.2</ele>
			 </trkpt>
			 <trkpt lat="50.96105" lon="5.71076">
				 <ele>40.2</ele>
			 </trkpt>
			 <trkpt lat="50.96111" lon="5.71061">
				 <ele>40.2</ele>
			 </trkpt>
			 <trkpt lat="50.96113" lon="5.71048">
				 <ele>40.2</ele>
			 </trkpt>
			 <trkpt lat="50.96111" lon="5.7104">
				 <ele>40.5</ele>
			 </trkpt>
			 <trkpt lat="50.96106" lon="5.71032">
				 <ele>41</ele>
			 </trkpt>
			 <trkpt lat="50.9605" lon="5.70981">
				 <ele>41.5</ele>
			 </trkpt>
			 <trkpt lat="50.96044" lon="5.70973">
				 <ele>41.7</ele>
			 </trkpt>
			 <trkpt lat="50.96035" lon="5.70951">
				 <ele>41.6</ele>
			 </trkpt>
			 <trkpt lat="50.959685" lon="5.709795">
				 <ele>41.8</ele>
			 </trkpt>
			 <trkpt lat="50.95902" lon="5.71008">
				 <ele>41.8</ele>
			 </trkpt>
			 <trkpt lat="50.95892" lon="5.7101">
				 <ele>42</ele>
			 </trkpt>
			 <trkpt lat="50.9588" lon="5.71011">
				 <ele>42.3</ele>
			 </trkpt>
			 <trkpt lat="50.959113" lon="5.708937">
				 <ele>42.5</ele>
			 </trkpt>
			 <trkpt lat="50.959427" lon="5.707763">
				 <ele>42.8</ele>
			 </trkpt>
			 <trkpt lat="50.95974" lon="5.70659">
				 <ele>42.8</ele>
			 </trkpt>
			 <trkpt lat="50.95994" lon="5.70592">
				 <ele>42.5</ele>
			 </trkpt>
			 <trkpt lat="50.96014" lon="5.70525">
				 <ele>42.2</ele>
			 </trkpt>
			 <trkpt lat="50.96045" lon="5.70405">
				 <ele>41.9</ele>
			 </trkpt>
			 <trkpt lat="50.96085" lon="5.70278">
				 <ele>42</ele>
			 </trkpt>
			 <trkpt lat="50.96113" lon="5.702015">
				 <ele>41.7</ele>
			 </trkpt>
			 <trkpt lat="50.96141" lon="5.70125">
				 <ele>41.7</ele>
			 </trkpt>
			 <trkpt lat="50.96164" lon="5.70069">
				 <ele>41.5</ele>
			 </trkpt>
			 <trkpt lat="50.96209" lon="5.69974">
				 <ele>41.4</ele>
			 </trkpt>
			 <trkpt lat="50.96229" lon="5.69933">
				 <ele>41.1</ele>
			 </trkpt>
			 <trkpt lat="50.96235" lon="5.69932">
				 <ele>40.8</ele>
			 </trkpt>
			 <trkpt lat="50.96244" lon="5.69914">
				 <ele>40.5</ele>
			 </trkpt>
			 <trkpt lat="50.96295" lon="5.69973">
				 <ele>40.3</ele>
			 </trkpt>
			 <trkpt lat="50.96347" lon="5.70026">
				 <ele>40.1</ele>
			 </trkpt>
			 <trkpt lat="50.96346" lon="5.70036">
				 <ele>39.8</ele>
			 </trkpt>
			 <trkpt lat="50.96348" lon="5.70043">
				 <ele>39.6</ele>
			 </trkpt>
			 <trkpt lat="50.96353" lon="5.70047">
				 <ele>39.5</ele>
			 </trkpt>
			 <trkpt lat="50.96358" lon="5.70046">
				 <ele>39.6</ele>
			 </trkpt>
			 <trkpt lat="50.96361" lon="5.70041">
				 <ele>40</ele>
			 </trkpt>
			 <trkpt lat="50.96419" lon="5.70104">
				 <ele>40.2</ele>
			 </trkpt>
			 <trkpt lat="50.96479" lon="5.70158">
				 <ele>40.4</ele>
			 </trkpt>
			 <trkpt lat="50.96503" lon="5.70185">
				 <ele>40.5</ele>
			 </trkpt>
			 <trkpt lat="50.96489" lon="5.7022">
				 <ele>40.6</ele>
			 </trkpt>
			 <trkpt lat="50.96477" lon="5.70268">
				 <ele>40.7</ele>
			 </trkpt>
			 <trkpt lat="50.96463" lon="5.70305">
				 <ele>40.8</ele>
			 </trkpt>
			 <trkpt lat="50.96427" lon="5.703615">
				 <ele>40.9</ele>
			 </trkpt>
			 <trkpt lat="50.96391" lon="5.70418">
				 <ele>40.9</ele>
			 </trkpt>
			 <trkpt lat="50.96347" lon="5.705038">
				 <ele>40.9</ele>
			 </trkpt>
			 <trkpt lat="50.96303" lon="5.705895">
				 <ele>40.7</ele>
			 </trkpt>
			 <trkpt lat="50.96259" lon="5.706753">
				 <ele>40.5</ele>
			 </trkpt>
			 <trkpt lat="50.96215" lon="5.70761">
				 <ele>40.3</ele>
			 </trkpt>
			 <trkpt lat="50.9621" lon="5.70768">
				 <ele>40.2</ele>
			 </trkpt>
			 <trkpt lat="50.96205" lon="5.70772">
				 <ele>40.2</ele>
			 </trkpt>
			 <trkpt lat="50.96202" lon="5.70772">
				 <ele>40.3</ele>
			 </trkpt>
			 <trkpt lat="50.96202" lon="5.70798">
				 <ele>40.4</ele>
			 </trkpt>
			 <trkpt lat="50.96232" lon="5.70795">
				 <ele>40.5</ele>
			 </trkpt>
			 <trkpt lat="50.96232" lon="5.708">
				 <ele>40.5</ele>
			 </trkpt>
			 <trkpt lat="50.96201" lon="5.70803">
				 <ele>40.5</ele>
			 </trkpt>
			 <trkpt lat="50.96202" lon="5.70838">
				 <ele>40.4</ele>
			 </trkpt>
			 <trkpt lat="50.9619" lon="5.70839">
				 <ele>40.4</ele>
			 </trkpt>
			 <trkpt lat="50.96191" lon="5.70843">
				 <ele>40.3</ele>
			 </trkpt>
			 <trkpt lat="50.96218" lon="5.70841">
				 <ele>40.3</ele>
			 </trkpt>
			 <trkpt lat="50.96226" lon="5.70848">
				 <ele>40.3</ele>
			 </trkpt>
			 <trkpt lat="50.96306" lon="5.70839">
				 <ele>40</ele>
			 </trkpt>
			 <trkpt lat="50.96325" lon="5.708347">
				 <ele>39.8</ele>
			 </trkpt>
			 <trkpt lat="50.963473" lon="5.708343">
				 <ele>39.6</ele>
			 </trkpt>
			 <trkpt lat="50.963673" lon="5.708325">
				 <ele>39.5</ele>
			 </trkpt>
			 <trkpt lat="50.96674" lon="5.707961">
				 <ele>39.5</ele>
			 </trkpt>
			 <trkpt lat="50.967529" lon="5.70786">
				 <ele>39.4</ele>
			 </trkpt>
			 <trkpt lat="50.968317" lon="5.70777">
				 <ele>39.5</ele>
			 </trkpt>
			 <trkpt lat="50.969106" lon="5.70768">
				 <ele>39.5</ele>
			 </trkpt>
			 <trkpt lat="50.969894" lon="5.70759">
				 <ele>39.5</ele>
			 </trkpt>
			 <trkpt lat="50.970683" lon="5.7075">
				 <ele>39.6</ele>
			 </trkpt>
			 <trkpt lat="50.971471" lon="5.70741">
				 <ele>39.7</ele>
			 </trkpt>
			 <trkpt lat="50.97226" lon="5.70732">
				 <ele>39.9</ele>
			 </trkpt>
			 <trkpt lat="50.97232" lon="5.70727">
				 <ele>39.9</ele>
			 </trkpt>
			 <trkpt lat="50.9726" lon="5.70724">
				 <ele>39.9</ele>
			 </trkpt>
			 <trkpt lat="50.97263" lon="5.7072">
				 <ele>39.9</ele>
			 </trkpt>
			 <trkpt lat="50.97236" lon="5.70723">
				 <ele>39.8</ele>
			 </trkpt>
			 <trkpt lat="50.97248" lon="5.70726">
				 <ele>39.8</ele>
			 </trkpt>
			 <trkpt lat="50.97251" lon="5.70799">
				 <ele>39.6</ele>
			 </trkpt>
			 <trkpt lat="50.97262" lon="5.70798">
				 <ele>39.5</ele>
			 </trkpt>
			 <trkpt lat="50.9724" lon="5.70803">
				 <ele>39.3</ele>
			 </trkpt>
			 <trkpt lat="50.97266" lon="5.70797">
				 <ele>39.2</ele>
			 </trkpt>
			 <trkpt lat="50.9727" lon="5.70791">
				 <ele>39.2</ele>
			 </trkpt>
			 <trkpt lat="50.971887" lon="5.708">
				 <ele>39</ele>
			 </trkpt>
			 <trkpt lat="50.971073" lon="5.70809">
				 <ele>38.9</ele>
			 </trkpt>
			 <trkpt lat="50.97026" lon="5.70818">
				 <ele>38.7</ele>
			 </trkpt>
			 <trkpt lat="50.96986" lon="5.70824">
				 <ele>38.6</ele>
			 </trkpt>
			 <trkpt lat="50.969143" lon="5.708327">
				 <ele>38.5</ele>
			 </trkpt>
			 <trkpt lat="50.968427" lon="5.708413">
				 <ele>38.5</ele>
			 </trkpt>
			 <trkpt lat="50.96771" lon="5.7085">
				 <ele>38.5</ele>
			 </trkpt>
			 <trkpt lat="50.966862" lon="5.708593">
				 <ele>38.7</ele>
			 </trkpt>
			 <trkpt lat="50.966013" lon="5.708687">
				 <ele>38.8</ele>
			 </trkpt>
			 <trkpt lat="50.965165" lon="5.70878">
				 <ele>38.8</ele>
			 </trkpt>
			 <trkpt lat="50.964317" lon="5.708873">
				 <ele>38.7</ele>
			 </trkpt>
			 <trkpt lat="50.963468" lon="5.708967">
				 <ele>39</ele>
			 </trkpt>
			 <trkpt lat="50.96262" lon="5.70906">
				 <ele>39.2</ele>
			 </trkpt>
			 <trkpt lat="50.96253" lon="5.70909">
				 <ele>39.4</ele>
			 </trkpt>
			 <trkpt lat="50.96237" lon="5.70922">
				 <ele>39.4</ele>
			 </trkpt>
			 <trkpt lat="50.96209" lon="5.70927">
				 <ele>39.5</ele>
			 </trkpt>
			 <trkpt lat="50.96186" lon="5.70927">
				 <ele>39.8</ele>
			 </trkpt>
			 <trkpt lat="50.96171" lon="5.70918">
				 <ele>40.1</ele>
			 </trkpt>
			 <trkpt lat="50.96149" lon="5.70917">
				 <ele>40.2</ele>
			 </trkpt>
			 <trkpt lat="50.96081" lon="5.70926">
				 <ele>40.1</ele>
			 </trkpt>
			 <trkpt lat="50.96013" lon="5.70935">
				 <ele>40</ele>
			 </trkpt>
			 <trkpt lat="50.959473" lon="5.709423">
				 <ele>40.1</ele>
			 </trkpt>
			 <trkpt lat="50.958817" lon="5.709497">
				 <ele>40.2</ele>
			 </trkpt>
			 <trkpt lat="50.95816" lon="5.70957">
				 <ele>40.4</ele>
			 </trkpt>
			 <trkpt lat="50.95786" lon="5.709606">
				 <ele>40.6</ele>
			 </trkpt>
			 <trkpt lat="50.942964" lon="5.711317">
				 <ele>41</ele>
			 </trkpt>
			 <trkpt lat="50.941373" lon="5.711494">
				 <ele>41.2</ele>
			 </trkpt>
			 <trkpt lat="50.940954" lon="5.71155">
				 <ele>41.1</ele>
			 </trkpt>
			 <trkpt lat="50.940959" lon="5.711638">
				 <ele>41</ele>
			 </trkpt>
			 <trkpt lat="50.940674" lon="5.711668">
				 <ele>41</ele>
			 </trkpt>
			 <trkpt lat="50.940221" lon="5.711743">
				 <ele>41.1</ele>
			 </trkpt>
			 <trkpt lat="50.939005" lon="5.711879">
				 <ele>41.1</ele>
			 </trkpt>
			 <trkpt lat="50.938968" lon="5.7119">
				 <ele>41</ele>
			 </trkpt>
			 <trkpt lat="50.93869" lon="5.711903">
				 <ele>40.8</ele>
			 </trkpt>
			 <trkpt lat="50.937651" lon="5.712012">
				 <ele>40.7</ele>
			 </trkpt>
			 <trkpt lat="50.93725" lon="5.712068">
				 <ele>40.5</ele>
			 </trkpt>
			 <trkpt lat="50.936403" lon="5.712145">
				 <ele>40.4</ele>
			 </trkpt>
			 <trkpt lat="50.935404" lon="5.712283">
				 <ele>40.5</ele>
			 </trkpt>
			 <trkpt lat="50.931905" lon="5.712714">
				 <ele>40.6</ele>
			 </trkpt>
			 <trkpt lat="50.931519" lon="5.712744">
				 <ele>40.7</ele>
			 </trkpt>
			 <trkpt lat="50.929446" lon="5.712997">
				 <ele>40.8</ele>
			 </trkpt>
			 <trkpt lat="50.928957" lon="5.713028">
				 <ele>40.9</ele>
			 </trkpt>
			 <trkpt lat="50.92869" lon="5.712998">
				 <ele>41.1</ele>
			 </trkpt>
			 <trkpt lat="50.92839" lon="5.7129">
				 <ele>41.2</ele>
			 </trkpt>
			 <trkpt lat="50.92821" lon="5.7128">
				 <ele>41.4</ele>
			 </trkpt>
			 <trkpt lat="50.92812" lon="5.71272">
				 <ele>41.3</ele>
			 </trkpt>
			 <trkpt lat="50.92802" lon="5.7126">
				 <ele>41.4</ele>
			 </trkpt>
			 <trkpt lat="50.92753" lon="5.71213">
				 <ele>41.4</ele>
			 </trkpt>
			 <trkpt lat="50.92708" lon="5.71177">
				 <ele>41.4</ele>
			 </trkpt>
			 <trkpt lat="50.926418" lon="5.711062">
				 <ele>41.3</ele>
			 </trkpt>
			 <trkpt lat="50.925755" lon="5.710355">
				 <ele>41.3</ele>
			 </trkpt>
			 <trkpt lat="50.925093" lon="5.709647">
				 <ele>41.3</ele>
			 </trkpt>
			 <trkpt lat="50.92443" lon="5.70894">
				 <ele>41.3</ele>
			 </trkpt>
			 <trkpt lat="50.924055" lon="5.70853">
				 <ele>41.3</ele>
			 </trkpt>
			 <trkpt lat="50.92368" lon="5.70812">
				 <ele>41.2</ele>
			 </trkpt>
			 <trkpt lat="50.92364" lon="5.70804">
				 <ele>41.1</ele>
			 </trkpt>
			 <trkpt lat="50.92335" lon="5.7078">
				 <ele>41.3</ele>
			 </trkpt>
			 <trkpt lat="50.92309" lon="5.70746">
				 <ele>41.5</ele>
			 </trkpt>
			 <trkpt lat="50.92293" lon="5.70722">
				 <ele>41.7</ele>
			 </trkpt>
			 <trkpt lat="50.92245" lon="5.70671">
				 <ele>41.8</ele>
			 </trkpt>
			 <trkpt lat="50.92197" lon="5.7062">
				 <ele>41.9</ele>
			 </trkpt>
			 <trkpt lat="50.92151" lon="5.70579">
				 <ele>42</ele>
			 </trkpt>
			 <trkpt lat="50.92134" lon="5.70567">
				 <ele>42.3</ele>
			 </trkpt>
			 <trkpt lat="50.92125" lon="5.70563">
				 <ele>42.5</ele>
			 </trkpt>
			 <trkpt lat="50.92118" lon="5.70563">
				 <ele>42.8</ele>
			 </trkpt>
			 <trkpt lat="50.92112" lon="5.70568">
				 <ele>43.2</ele>
			 </trkpt>
			 <trkpt lat="50.92107" lon="5.70588">
				 <ele>43.4</ele>
			 </trkpt>
			 <trkpt lat="50.92108" lon="5.70679">
				 <ele>43.5</ele>
			 </trkpt>
			 <trkpt lat="50.92111" lon="5.70685">
				 <ele>43.5</ele>
			 </trkpt>
			 <trkpt lat="50.92095" lon="5.70703">
				 <ele>43.6</ele>
			 </trkpt>
			 <trkpt lat="50.920505" lon="5.70735">
				 <ele>43.7</ele>
			 </trkpt>
			 <trkpt lat="50.92006" lon="5.70767">
				 <ele>43.9</ele>
			 </trkpt>
			 <trkpt lat="50.91987" lon="5.70776">
				 <ele>44.1</ele>
			 </trkpt>
			 <trkpt lat="50.91967" lon="5.7078">
				 <ele>44.1</ele>
			 </trkpt>
			 <trkpt lat="50.91956" lon="5.70778">
				 <ele>44.2</ele>
			 </trkpt>
			 <trkpt lat="50.91945" lon="5.70772">
				 <ele>44.3</ele>
			 </trkpt>
			 <trkpt lat="50.91902" lon="5.70731">
				 <ele>44.3</ele>
			 </trkpt>
			 <trkpt lat="50.918447" lon="5.706693">
				 <ele>44.4</ele>
			 </trkpt>
			 <trkpt lat="50.917873" lon="5.706077">
				 <ele>44.5</ele>
			 </trkpt>
			 <trkpt lat="50.9173" lon="5.70546">
				 <ele>44.5</ele>
			 </trkpt>
			 <trkpt lat="50.916633" lon="5.704723">
				 <ele>44.5</ele>
			 </trkpt>
			 <trkpt lat="50.915967" lon="5.703987">
				 <ele>44.5</ele>
			 </trkpt>
			 <trkpt lat="50.9153" lon="5.70325">
				 <ele>44.5</ele>
			 </trkpt>
			 <trkpt lat="50.91505" lon="5.70292">
				 <ele>44.5</ele>
			 </trkpt>
			 <trkpt lat="50.91494" lon="5.7027">
				 <ele>44.6</ele>
			 </trkpt>
			 <trkpt lat="50.91464" lon="5.701465">
				 <ele>44.6</ele>
			 </trkpt>
			 <trkpt lat="50.91434" lon="5.70023">
				 <ele>44.7</ele>
			 </trkpt>
			 <trkpt lat="50.91404" lon="5.698995">
				 <ele>44.9</ele>
			 </trkpt>
			 <trkpt lat="50.91374" lon="5.69776">
				 <ele>45</ele>
			 </trkpt>
			 <trkpt lat="50.91361" lon="5.69752">
				 <ele>45</ele>
			 </trkpt>
			 <trkpt lat="50.91301" lon="5.696884">
				 <ele>45.2</ele>
			 </trkpt>
			 <trkpt lat="50.91241" lon="5.696248">
				 <ele>45.5</ele>
			 </trkpt>
			 <trkpt lat="50.91181" lon="5.695612">
				 <ele>45.3</ele>
			 </trkpt>
			 <trkpt lat="50.91121" lon="5.694976">
				 <ele>45.4</ele>
			 </trkpt>
			 <trkpt lat="50.91061" lon="5.69434">
				 <ele>45.5</ele>
			 </trkpt>
			 <trkpt lat="50.91026" lon="5.69417">
				 <ele>45.7</ele>
			 </trkpt>
			 <trkpt lat="50.9097" lon="5.69399">
				 <ele>45.9</ele>
			 </trkpt>
			 <trkpt lat="50.910015" lon="5.69325">
				 <ele>46</ele>
			 </trkpt>
			 <trkpt lat="50.91033" lon="5.69251">
				 <ele>46.4</ele>
			 </trkpt>
			 <trkpt lat="50.91049" lon="5.69207">
				 <ele>46.4</ele>
			 </trkpt>
			 <trkpt lat="50.91067" lon="5.69127">
				 <ele>46.5</ele>
			 </trkpt>
			 <trkpt lat="50.91072" lon="5.69091">
				 <ele>46.4</ele>
			 </trkpt>
			 <trkpt lat="50.910763" lon="5.689907">
				 <ele>46.1</ele>
			 </trkpt>
			 <trkpt lat="50.910807" lon="5.688903">
				 <ele>46.4</ele>
			 </trkpt>
			 <trkpt lat="50.91085" lon="5.6879">
				 <ele>46.4</ele>
			 </trkpt>
			 <trkpt lat="50.91082" lon="5.68774">
				 <ele>46.3</ele>
			 </trkpt>
			 <trkpt lat="50.91086" lon="5.68761">
				 <ele>46</ele>
			 </trkpt>
			 <trkpt lat="50.91089" lon="5.68662">
				 <ele>46</ele>
			 </trkpt>
			 <trkpt lat="50.91083" lon="5.685895">
				 <ele>46</ele>
			 </trkpt>
			 <trkpt lat="50.91077" lon="5.68517">
				 <ele>45.7</ele>
			 </trkpt>
			 <trkpt lat="50.910105" lon="5.68512">
				 <ele>45.8</ele>
			 </trkpt>
			 <trkpt lat="50.90944" lon="5.68508">
				 <ele>46</ele>
			 </trkpt>
			 <trkpt lat="50.90897" lon="5.68497">
				 <ele>46.1</ele>
			 </trkpt>
			 <trkpt lat="50.9085" lon="5.68486">
				 <ele>46.2</ele>
			 </trkpt>
			 <trkpt lat="50.90842" lon="5.68553">
				 <ele>46.3</ele>
			 </trkpt>
			 <trkpt lat="50.908335" lon="5.68637">
				 <ele>46.5</ele>
			 </trkpt>
			 <trkpt lat="50.90825" lon="5.68721">
				 <ele>46.5</ele>
			 </trkpt>
			 <trkpt lat="50.9087" lon="5.68744">
				 <ele>46.5</ele>
			 </trkpt>
			 <trkpt lat="50.90886" lon="5.68759">
				 <ele>46.5</ele>
			 </trkpt>
			 <trkpt lat="50.90901" lon="5.68776">
				 <ele>46.3</ele>
			 </trkpt>
			 <trkpt lat="50.90922" lon="5.68859">
				 <ele>46.5</ele>
			 </trkpt>
			 <trkpt lat="50.90925" lon="5.68885">
				 <ele>46.7</ele>
			 </trkpt>
			 <trkpt lat="50.90924" lon="5.68912">
				 <ele>46.7</ele>
			 </trkpt>
			 <trkpt lat="50.90918" lon="5.68948">
				 <ele>46.8</ele>
			 </trkpt>
			 <trkpt lat="50.90893" lon="5.69041">
				 <ele>47.1</ele>
			 </trkpt>
			 <trkpt lat="50.90867" lon="5.69063">
				 <ele>46.9</ele>
			 </trkpt>
			 <trkpt lat="50.9084" lon="5.69076">
				 <ele>46.8</ele>
			 </trkpt>
			 <trkpt lat="50.90826" lon="5.69079">
				 <ele>46.6</ele>
			 </trkpt>
			 <trkpt lat="50.907638" lon="5.69009">
				 <ele>46.6</ele>
			 </trkpt>
			 <trkpt lat="50.907015" lon="5.68939">
				 <ele>46.5</ele>
			 </trkpt>
			 <trkpt lat="50.906393" lon="5.68869">
				 <ele>46.7</ele>
			 </trkpt>
			 <trkpt lat="50.90577" lon="5.68799">
				 <ele>46.4</ele>
			 </trkpt>
			 <trkpt lat="50.90534" lon="5.68744">
				 <ele>46.2</ele>
			 </trkpt>
			 <trkpt lat="50.90535" lon="5.68738">
				 <ele>46.4</ele>
			 </trkpt>
			 <trkpt lat="50.90533" lon="5.68732">
				 <ele>46.6</ele>
			 </trkpt>
			 <trkpt lat="50.90473" lon="5.68644">
				 <ele>46.7</ele>
			 </trkpt>
			 <trkpt lat="50.90437" lon="5.68559">
				 <ele>47.2</ele>
			 </trkpt>
			 <trkpt lat="50.9037" lon="5.68471">
				 <ele>47.4</ele>
			 </trkpt>
			 <trkpt lat="50.9034" lon="5.68439">
				 <ele>47.6</ele>
			 </trkpt>
			 <trkpt lat="50.903" lon="5.6837">
				 <ele>47.8</ele>
			 </trkpt>
			 <trkpt lat="50.90294" lon="5.68352">
				 <ele>47.9</ele>
			 </trkpt>
			 <trkpt lat="50.90275" lon="5.68349">
				 <ele>47.9</ele>
			 </trkpt>
			 <trkpt lat="50.9026" lon="5.68343">
				 <ele>48.2</ele>
			 </trkpt>
			 <trkpt lat="50.90251" lon="5.68336">
				 <ele>48.3</ele>
			 </trkpt>
			 <trkpt lat="50.90223" lon="5.68307">
				 <ele>48.1</ele>
			 </trkpt>
			 <trkpt lat="50.90218" lon="5.68307">
				 <ele>47.7</ele>
			 </trkpt>
			 <trkpt lat="50.90215" lon="5.6831">
				 <ele>47.1</ele>
			 </trkpt>
			 <trkpt lat="50.90185" lon="5.68363">
				 <ele>46.5</ele>
			 </trkpt>
			 <trkpt lat="50.9019" lon="5.68376">
				 <ele>46</ele>
			 </trkpt>
			 <trkpt lat="50.90212" lon="5.68417">
				 <ele>45.5</ele>
			 </trkpt>
			 <trkpt lat="50.90237" lon="5.68453">
				 <ele>44.9</ele>
			 </trkpt>
			 <trkpt lat="50.90303" lon="5.6854">
				 <ele>44.5</ele>
			 </trkpt>
			 <trkpt lat="50.903595" lon="5.686195">
				 <ele>44</ele>
			 </trkpt>
			 <trkpt lat="50.90416" lon="5.68699">
				 <ele>43.4</ele>
			 </trkpt>
			 <trkpt lat="50.904825" lon="5.68784">
				 <ele>42.7</ele>
			 </trkpt>
			 <trkpt lat="50.90549" lon="5.68869">
				 <ele>42.2</ele>
			 </trkpt>
			 <trkpt lat="50.90558" lon="5.68894">
				 <ele>41.7</ele>
			 </trkpt>
			 <trkpt lat="50.90564" lon="5.68918">
				 <ele>41.5</ele>
			 </trkpt>
			 <trkpt lat="50.90565" lon="5.68946">
				 <ele>41.3</ele>
			 </trkpt>
			 <trkpt lat="50.9056" lon="5.68974">
				 <ele>41.1</ele>
			 </trkpt>
			 <trkpt lat="50.9055" lon="5.69">
				 <ele>41</ele>
			 </trkpt>
			 <trkpt lat="50.90538" lon="5.6902">
				 <ele>40.9</ele>
			 </trkpt>
			 <trkpt lat="50.90525" lon="5.69032">
				 <ele>40.8</ele>
			 </trkpt>
			 <trkpt lat="50.90511" lon="5.6904">
				 <ele>40.8</ele>
			 </trkpt>
			 <trkpt lat="50.90492" lon="5.69041">
				 <ele>40.8</ele>
			 </trkpt>
			 <trkpt lat="50.904068" lon="5.690393">
				 <ele>40.8</ele>
			 </trkpt>
			 <trkpt lat="50.903217" lon="5.690377">
				 <ele>40.9</ele>
			 </trkpt>
			 <trkpt lat="50.902365" lon="5.69036">
				 <ele>41</ele>
			 </trkpt>
			 <trkpt lat="50.901513" lon="5.690343">
				 <ele>41.2</ele>
			 </trkpt>
			 <trkpt lat="50.900662" lon="5.690327">
				 <ele>41.5</ele>
			 </trkpt>
			 <trkpt lat="50.89981" lon="5.69031">
				 <ele>41.7</ele>
			 </trkpt>
			 <trkpt lat="50.89893" lon="5.69035">
				 <ele>41.8</ele>
			 </trkpt>
			 <trkpt lat="50.89867" lon="5.69027">
				 <ele>42.1</ele>
			 </trkpt>
			 <trkpt lat="50.89839" lon="5.69015">
				 <ele>42.4</ele>
			 </trkpt>
			 <trkpt lat="50.89794" lon="5.68981">
				 <ele>42.6</ele>
			 </trkpt>
			 <trkpt lat="50.89722" lon="5.68918">
				 <ele>43.1</ele>
			 </trkpt>
			 <trkpt lat="50.896625" lon="5.688645">
				 <ele>43.5</ele>
			 </trkpt>
			 <trkpt lat="50.89603" lon="5.68811">
				 <ele>43.8</ele>
			 </trkpt>
			 <trkpt lat="50.89594" lon="5.688">
				 <ele>43.8</ele>
			 </trkpt>
			 <trkpt lat="50.89591" lon="5.68789">
				 <ele>43.7</ele>
			 </trkpt>
			 <trkpt lat="50.89598" lon="5.68761">
				 <ele>43.6</ele>
			 </trkpt>
			 <trkpt lat="50.89597" lon="5.68751">
				 <ele>43.5</ele>
			 </trkpt>
			 <trkpt lat="50.89591" lon="5.68742">
				 <ele>43.4</ele>
			 </trkpt>
			 <trkpt lat="50.89564" lon="5.68715">
				 <ele>43.3</ele>
			 </trkpt>
			 <trkpt lat="50.89557" lon="5.68693">
				 <ele>43.3</ele>
			 </trkpt>
			 <trkpt lat="50.894825" lon="5.68616">
				 <ele>43.3</ele>
			 </trkpt>
			 <trkpt lat="50.89408" lon="5.68539">
				 <ele>43.3</ele>
			 </trkpt>
			 <trkpt lat="50.893335" lon="5.68462">
				 <ele>43.4</ele>
			 </trkpt>
			 <trkpt lat="50.89259" lon="5.68385">
				 <ele>43.5</ele>
			 </trkpt>
			 <trkpt lat="50.891863" lon="5.683073">
				 <ele>44</ele>
			 </trkpt>
			 <trkpt lat="50.891137" lon="5.682297">
				 <ele>44.6</ele>
			 </trkpt>
			 <trkpt lat="50.89041" lon="5.68152">
				 <ele>45.3</ele>
			 </trkpt>
			 <trkpt lat="50.88993" lon="5.68107">
				 <ele>46.2</ele>
			 </trkpt>
			 <trkpt lat="50.889337" lon="5.680447">
				 <ele>47</ele>
			 </trkpt>
			 <trkpt lat="50.888743" lon="5.679823">
				 <ele>47.7</ele>
			 </trkpt>
			 <trkpt lat="50.88815" lon="5.6792">
				 <ele>48.4</ele>
			 </trkpt>
			 <trkpt lat="50.88776" lon="5.678825">
				 <ele>49</ele>
			 </trkpt>
			 <trkpt lat="50.88737" lon="5.67845">
				 <ele>49.4</ele>
			 </trkpt>
			 <trkpt lat="50.88661" lon="5.67782">
				 <ele>49.4</ele>
			 </trkpt>
			 <trkpt lat="50.88601" lon="5.67737">
				 <ele>49.5</ele>
			 </trkpt>
			 <trkpt lat="50.88567" lon="5.67714">
				 <ele>49.6</ele>
			 </trkpt>
			 <trkpt lat="50.88518" lon="5.676845">
				 <ele>49.6</ele>
			 </trkpt>
			 <trkpt lat="50.88469" lon="5.67655">
				 <ele>49.5</ele>
			 </trkpt>
			 <trkpt lat="50.884065" lon="5.67625">
				 <ele>49.1</ele>
			 </trkpt>
			 <trkpt lat="50.88344" lon="5.67595">
				 <ele>48.5</ele>
			 </trkpt>
			 <trkpt lat="50.88291" lon="5.67575">
				 <ele>47.7</ele>
			 </trkpt>
			 <trkpt lat="50.88282" lon="5.67566">
				 <ele>48.2</ele>
			 </trkpt>
			 <trkpt lat="50.88274" lon="5.67568">
				 <ele>48.5</ele>
			 </trkpt>
			 <trkpt lat="50.88228" lon="5.67556">
				 <ele>48.6</ele>
			 </trkpt>
			 <trkpt lat="50.88202" lon="5.67548">
				 <ele>49.1</ele>
			 </trkpt>
			 <trkpt lat="50.88185" lon="5.67536">
				 <ele>49.4</ele>
			 </trkpt>
			 <trkpt lat="50.88215" lon="5.67415">
				 <ele>49.8</ele>
			 </trkpt>
			 <trkpt lat="50.88159" lon="5.673865">
				 <ele>50.2</ele>
			 </trkpt>
			 <trkpt lat="50.88103" lon="5.67358">
				 <ele>50.7</ele>
			 </trkpt>
			 <trkpt lat="50.88056" lon="5.67333">
				 <ele>51.8</ele>
			 </trkpt>
			 <trkpt lat="50.88048" lon="5.67325">
				 <ele>53.1</ele>
			 </trkpt>
			 <trkpt lat="50.879653" lon="5.673167">
				 <ele>54.3</ele>
			 </trkpt>
			 <trkpt lat="50.878835" lon="5.673115">
				 <ele>54.2</ele>
			 </trkpt>
			 <trkpt lat="50.878018" lon="5.673062">
				 <ele>54.1</ele>
			 </trkpt>
			 <trkpt lat="50.8772" lon="5.67301">
				 <ele>54.1</ele>
			 </trkpt>
			 <trkpt lat="50.876955" lon="5.673133">
				 <ele>54.1</ele>
			 </trkpt>
			 <trkpt lat="50.876834" lon="5.673135">
				 <ele>54.3</ele>
			 </trkpt>
			 <trkpt lat="50.876721" lon="5.673128">
				 <ele>54.7</ele>
			 </trkpt>
			 <trkpt lat="50.876595" lon="5.673096">
				 <ele>55.3</ele>
			 </trkpt>
			 <trkpt lat="50.876332" lon="5.67296">
				 <ele>55.8</ele>
			 </trkpt>
			 <trkpt lat="50.876301" lon="5.672957">
				 <ele>56</ele>
			 </trkpt>
			 <trkpt lat="50.875711" lon="5.672911">
				 <ele>56.3</ele>
			 </trkpt>
			 <trkpt lat="50.870972" lon="5.672615">
				 <ele>56.7</ele>
			 </trkpt>
			 <trkpt lat="50.87052" lon="5.672587">
				 <ele>57.3</ele>
			 </trkpt>
			 <trkpt lat="50.87032" lon="5.67259">
				 <ele>58.2</ele>
			 </trkpt>
			 <trkpt lat="50.87012" lon="5.6727">
				 <ele>58.5</ele>
			 </trkpt>
			 <trkpt lat="50.86993" lon="5.67286">
				 <ele>58.7</ele>
			 </trkpt>
			 <trkpt lat="50.86984" lon="5.67288">
				 <ele>58.5</ele>
			 </trkpt>
			 <trkpt lat="50.86977" lon="5.67287">
				 <ele>58.2</ele>
			 </trkpt>
			 <trkpt lat="50.86937" lon="5.67369">
				 <ele>57.6</ele>
			 </trkpt>
			 <trkpt lat="50.869065" lon="5.67448">
				 <ele>56.8</ele>
			 </trkpt>
			 <trkpt lat="50.86876" lon="5.67527">
				 <ele>56.8</ele>
			 </trkpt>
			 <trkpt lat="50.86835" lon="5.67606">
				 <ele>57.5</ele>
			 </trkpt>
			 <trkpt lat="50.86809" lon="5.67625">
				 <ele>58</ele>
			 </trkpt>
			 <trkpt lat="50.86786" lon="5.67651">
				 <ele>57.3</ele>
			 </trkpt>
			 <trkpt lat="50.86712" lon="5.67709">
				 <ele>55.9</ele>
			 </trkpt>
			 <trkpt lat="50.86678" lon="5.67745">
				 <ele>55.1</ele>
			 </trkpt>
			 <trkpt lat="50.86636" lon="5.678015">
				 <ele>54.5</ele>
			 </trkpt>
			 <trkpt lat="50.86594" lon="5.67858">
				 <ele>54</ele>
			 </trkpt>
			 <trkpt lat="50.86567" lon="5.67898">
				 <ele>53</ele>
			 </trkpt>
			 <trkpt lat="50.86546" lon="5.6792">
				 <ele>52.3</ele>
			 </trkpt>
			 <trkpt lat="50.86529" lon="5.67932">
				 <ele>52.4</ele>
			 </trkpt>
			 <trkpt lat="50.86507" lon="5.6794">
				 <ele>51.8</ele>
			 </trkpt>
			 <trkpt lat="50.8642" lon="5.679575">
				 <ele>50</ele>
			 </trkpt>
			 <trkpt lat="50.86333" lon="5.67975">
				 <ele>48.2</ele>
			 </trkpt>
			 <trkpt lat="50.86307" lon="5.67976">
				 <ele>47.6</ele>
			 </trkpt>
			 <trkpt lat="50.86272" lon="5.67982">
				 <ele>47.6</ele>
			 </trkpt>
			 <trkpt lat="50.861978" lon="5.679975">
				 <ele>47.9</ele>
			 </trkpt>
			 <trkpt lat="50.861235" lon="5.68013">
				 <ele>48.4</ele>
			 </trkpt>
			 <trkpt lat="50.860493" lon="5.680285">
				 <ele>48.6</ele>
			 </trkpt>
			 <trkpt lat="50.85975" lon="5.68044">
				 <ele>49.3</ele>
			 </trkpt>
			 <trkpt lat="50.85964" lon="5.68048">
				 <ele>49.7</ele>
			 </trkpt>
			 <trkpt lat="50.85939" lon="5.68062">
				 <ele>49.5</ele>
			 </trkpt>
			 <trkpt lat="50.85917" lon="5.68082">
				 <ele>49.2</ele>
			 </trkpt>
			 <trkpt lat="50.858683" lon="5.681427">
				 <ele>49.5</ele>
			 </trkpt>
			 <trkpt lat="50.858197" lon="5.682033">
				 <ele>49.8</ele>
			 </trkpt>
			 <trkpt lat="50.85771" lon="5.68264">
				 <ele>50.1</ele>
			 </trkpt>
			 <trkpt lat="50.85767" lon="5.68256">
				 <ele>50.3</ele>
			 </trkpt>
			 <trkpt lat="50.85758" lon="5.68265">
				 <ele>50.4</ele>
			 </trkpt>
			 <trkpt lat="50.85749" lon="5.68269">
				 <ele>50.1</ele>
			 </trkpt>
			 <trkpt lat="50.85724" lon="5.68269">
				 <ele>50.2</ele>
			 </trkpt>
		 </trkseg>
	 </trk>
</gpx>