<?xml version="1.0" encoding="UTF-8"?>
 <gpx creator="Garmin Connect" version="1.1"
	 xsi:schemaLocation="http://www.topografix.com/GPX/1/1 http://www.topografix.com/GPX/11.xsd"
	 xmlns:ns3="http://www.garmin.com/xmlschemas/TrackPointExtension/v1"
	 xmlns="http://www.topografix.com/GPX/1/1"
	 xmlns:xsi="http://www.w3.org/2001/XMLSchema-instance" xmlns:ns2="http://www.garmin.com/xmlschemas/GpxExtensions/v3">
	 <metadata>
		<name>Generali Maraton Malaga 2025 - 42.195 km</name>
		 <link href="https://www.goandrace.com">
		 <text>Garmin Connect</text>
		 </link>
	 <time>2026-08-09T15:40:44</time>
	 </metadata>
	 <trk>
		 <name>Generali Maraton Malaga 2025 - 42.195 km</name>
		 <trkseg>
			 <trkpt lat="36.719528" lon="-4.415966">
				 <ele>10.8</ele>
			 </trkpt>
			 <trkpt lat="36.718084" lon="-4.421051">
				 <ele>11.1</ele>
			 </trkpt>
			 <trkpt lat="36.716996" lon="-4.425197">
				 <ele>11.4</ele>
			 </trkpt>
			 <trkpt lat="36.716864" lon="-4.426645">
				 <ele>11.7</ele>
			 </trkpt>
			 <trkpt lat="36.716863" lon="-4.428164">
				 <ele>12</ele>
			 </trkpt>
			 <trkpt lat="36.716911" lon="-4.428865">
				 <ele>12.4</ele>
			 </trkpt>
			 <trkpt lat="36.716982" lon="-4.429019">
				 <ele>12.8</ele>
			 </trkpt>
			 <trkpt lat="36.717041" lon="-4.429133">
				 <ele>13</ele>
			 </trkpt>
			 <trkpt lat="36.717127" lon="-4.429231">
				 <ele>12.7</ele>
			 </trkpt>
			 <trkpt lat="36.717194" lon="-4.429289">
				 <ele>13.3</ele>
			 </trkpt>
			 <trkpt lat="36.717266" lon="-4.429313">
				 <ele>13.5</ele>
			 </trkpt>
			 <trkpt lat="36.717765" lon="-4.429308">
				 <ele>13.9</ele>
			 </trkpt>
			 <trkpt lat="36.718201" lon="-4.429347">
				 <ele>14</ele>
			 </trkpt>
			 <trkpt lat="36.718324" lon="-4.429342">
				 <ele>13.9</ele>
			 </trkpt>
			 <trkpt lat="36.718851" lon="-4.429291">
				 <ele>13.7</ele>
			 </trkpt>
			 <trkpt lat="36.721515" lon="-4.428979">
				 <ele>13.5</ele>
			 </trkpt>
			 <trkpt lat="36.721542" lon="-4.42895">
				 <ele>12.9</ele>
			 </trkpt>
			 <trkpt lat="36.721562" lon="-4.428903">
				 <ele>12.2</ele>
			 </trkpt>
			 <trkpt lat="36.721746" lon="-4.425337">
				 <ele>12</ele>
			 </trkpt>
			 <trkpt lat="36.721714" lon="-4.425287">
				 <ele>11.8</ele>
			 </trkpt>
			 <trkpt lat="36.7215" lon="-4.425251">
				 <ele>11.7</ele>
			 </trkpt>
			 <trkpt lat="36.721019" lon="-4.425212">
				 <ele>11.1</ele>
			 </trkpt>
			 <trkpt lat="36.72061" lon="-4.425163">
				 <ele>10.6</ele>
			 </trkpt>
			 <trkpt lat="36.72041" lon="-4.425152">
				 <ele>10.3</ele>
			 </trkpt>
			 <trkpt lat="36.720203" lon="-4.425158">
				 <ele>10.1</ele>
			 </trkpt>
			 <trkpt lat="36.719668" lon="-4.425217">
				 <ele>9.8</ele>
			 </trkpt>
			 <trkpt lat="36.718249" lon="-4.425472">
				 <ele>10.1</ele>
			 </trkpt>
			 <trkpt lat="36.715851" lon="-4.425709">
				 <ele>10.5</ele>
			 </trkpt>
			 <trkpt lat="36.715814" lon="-4.425717">
				 <ele>10.9</ele>
			 </trkpt>
			 <trkpt lat="36.715784" lon="-4.425731">
				 <ele>11.2</ele>
			 </trkpt>
			 <trkpt lat="36.715778" lon="-4.425788">
				 <ele>11.5</ele>
			 </trkpt>
			 <trkpt lat="36.715781" lon="-4.426698">
				 <ele>11.8</ele>
			 </trkpt>
			 <trkpt lat="36.715911" lon="-4.428319">
				 <ele>12.8</ele>
			 </trkpt>
			 <trkpt lat="36.716003" lon="-4.429345">
				 <ele>13.4</ele>
			 </trkpt>
			 <trkpt lat="36.716042" lon="-4.429653">
				 <ele>13.8</ele>
			 </trkpt>
			 <trkpt lat="36.716058" lon="-4.429983">
				 <ele>14.1</ele>
			 </trkpt>
			 <trkpt lat="36.716151" lon="-4.431127">
				 <ele>14.4</ele>
			 </trkpt>
			 <trkpt lat="36.716245" lon="-4.432445">
				 <ele>13.9</ele>
			 </trkpt>
			 <trkpt lat="36.716258" lon="-4.433122">
				 <ele>14.3</ele>
			 </trkpt>
			 <trkpt lat="36.716245" lon="-4.433535">
				 <ele>14.5</ele>
			 </trkpt>
			 <trkpt lat="36.716217" lon="-4.433959">
				 <ele>15</ele>
			 </trkpt>
			 <trkpt lat="36.716167" lon="-4.434397">
				 <ele>15.5</ele>
			 </trkpt>
			 <trkpt lat="36.71611" lon="-4.434813">
				 <ele>15.7</ele>
			 </trkpt>
			 <trkpt lat="36.715944" lon="-4.435858">
				 <ele>15.7</ele>
			 </trkpt>
			 <trkpt lat="36.715874" lon="-4.436188">
				 <ele>16</ele>
			 </trkpt>
			 <trkpt lat="36.715837" lon="-4.436229">
				 <ele>16.5</ele>
			 </trkpt>
			 <trkpt lat="36.715752" lon="-4.436294">
				 <ele>17.3</ele>
			 </trkpt>
			 <trkpt lat="36.71565" lon="-4.436308">
				 <ele>18.4</ele>
			 </trkpt>
			 <trkpt lat="36.715551" lon="-4.436284">
				 <ele>20.2</ele>
			 </trkpt>
			 <trkpt lat="36.71548" lon="-4.436235">
				 <ele>19.2</ele>
			 </trkpt>
			 <trkpt lat="36.715419" lon="-4.43617">
				 <ele>18.3</ele>
			 </trkpt>
			 <trkpt lat="36.715384" lon="-4.436098">
				 <ele>17.3</ele>
			 </trkpt>
			 <trkpt lat="36.715361" lon="-4.436029">
				 <ele>16.3</ele>
			 </trkpt>
			 <trkpt lat="36.715196" lon="-4.435324">
				 <ele>15.1</ele>
			 </trkpt>
			 <trkpt lat="36.714245" lon="-4.432493">
				 <ele>13.9</ele>
			 </trkpt>
			 <trkpt lat="36.714243" lon="-4.432125">
				 <ele>12.7</ele>
			 </trkpt>
			 <trkpt lat="36.714126" lon="-4.431777">
				 <ele>11.5</ele>
			 </trkpt>
			 <trkpt lat="36.71412" lon="-4.431723">
				 <ele>10.3</ele>
			 </trkpt>
			 <trkpt lat="36.714119" lon="-4.431669">
				 <ele>8.9</ele>
			 </trkpt>
			 <trkpt lat="36.714138" lon="-4.431589">
				 <ele>6.9</ele>
			 </trkpt>
			 <trkpt lat="36.714162" lon="-4.431514">
				 <ele>6.7</ele>
			 </trkpt>
			 <trkpt lat="36.714217" lon="-4.43136">
				 <ele>6.6</ele>
			 </trkpt>
			 <trkpt lat="36.714285" lon="-4.43118">
				 <ele>6.7</ele>
			 </trkpt>
			 <trkpt lat="36.714473" lon="-4.430897">
				 <ele>7.1</ele>
			 </trkpt>
			 <trkpt lat="36.714799" lon="-4.430541">
				 <ele>7.8</ele>
			 </trkpt>
			 <trkpt lat="36.715354" lon="-4.429916">
				 <ele>8.6</ele>
			 </trkpt>
			 <trkpt lat="36.715424" lon="-4.429875">
				 <ele>9.6</ele>
			 </trkpt>
			 <trkpt lat="36.715686" lon="-4.429767">
				 <ele>10.3</ele>
			 </trkpt>
			 <trkpt lat="36.715813" lon="-4.429352">
				 <ele>10.7</ele>
			 </trkpt>
			 <trkpt lat="36.71581" lon="-4.428702">
				 <ele>11.1</ele>
			 </trkpt>
			 <trkpt lat="36.715797" lon="-4.428345">
				 <ele>11.5</ele>
			 </trkpt>
			 <trkpt lat="36.715776" lon="-4.427985">
				 <ele>12</ele>
			 </trkpt>
			 <trkpt lat="36.715691" lon="-4.426653">
				 <ele>12.3</ele>
			 </trkpt>
			 <trkpt lat="36.715652" lon="-4.42653">
				 <ele>12.1</ele>
			 </trkpt>
			 <trkpt lat="36.715615" lon="-4.426486">
				 <ele>11.2</ele>
			 </trkpt>
			 <trkpt lat="36.715577" lon="-4.426468">
				 <ele>10.1</ele>
			 </trkpt>
			 <trkpt lat="36.715435" lon="-4.426414">
				 <ele>9</ele>
			 </trkpt>
			 <trkpt lat="36.714395" lon="-4.426408">
				 <ele>8.5</ele>
			 </trkpt>
			 <trkpt lat="36.711926" lon="-4.426342">
				 <ele>7.7</ele>
			 </trkpt>
			 <trkpt lat="36.711928" lon="-4.425708">
				 <ele>7.1</ele>
			 </trkpt>
			 <trkpt lat="36.711967" lon="-4.425478">
				 <ele>6.5</ele>
			 </trkpt>
			 <trkpt lat="36.71211" lon="-4.425199">
				 <ele>6.2</ele>
			 </trkpt>
			 <trkpt lat="36.713921" lon="-4.423406">
				 <ele>5.8</ele>
			 </trkpt>
			 <trkpt lat="36.717327" lon="-4.420062">
				 <ele>5.8</ele>
			 </trkpt>
			 <trkpt lat="36.717591" lon="-4.419587">
				 <ele>6.2</ele>
			 </trkpt>
			 <trkpt lat="36.717676" lon="-4.419319">
				 <ele>7.1</ele>
			 </trkpt>
			 <trkpt lat="36.718567" lon="-4.416117">
				 <ele>8</ele>
			 </trkpt>
			 <trkpt lat="36.719536" lon="-4.412573">
				 <ele>8.8</ele>
			 </trkpt>
			 <trkpt lat="36.719545" lon="-4.412458">
				 <ele>9</ele>
			 </trkpt>
			 <trkpt lat="36.719534" lon="-4.412369">
				 <ele>9.5</ele>
			 </trkpt>
			 <trkpt lat="36.719506" lon="-4.412288">
				 <ele>9.9</ele>
			 </trkpt>
			 <trkpt lat="36.71945" lon="-4.412232">
				 <ele>10.2</ele>
			 </trkpt>
			 <trkpt lat="36.719374" lon="-4.412204">
				 <ele>10.4</ele>
			 </trkpt>
			 <trkpt lat="36.719128" lon="-4.412223">
				 <ele>10.5</ele>
			 </trkpt>
			 <trkpt lat="36.717804" lon="-4.412401">
				 <ele>10.1</ele>
			 </trkpt>
			 <trkpt lat="36.717677" lon="-4.412435">
				 <ele>9.7</ele>
			 </trkpt>
			 <trkpt lat="36.71761" lon="-4.412462">
				 <ele>9.2</ele>
			 </trkpt>
			 <trkpt lat="36.717504" lon="-4.412512">
				 <ele>8.4</ele>
			 </trkpt>
			 <trkpt lat="36.717397" lon="-4.412577">
				 <ele>7.4</ele>
			 </trkpt>
			 <trkpt lat="36.714396" lon="-4.414454">
				 <ele>6.1</ele>
			 </trkpt>
			 <trkpt lat="36.714268" lon="-4.41463">
				 <ele>5.1</ele>
			 </trkpt>
			 <trkpt lat="36.714189" lon="-4.414674">
				 <ele>4.2</ele>
			 </trkpt>
			 <trkpt lat="36.713681" lon="-4.414638">
				 <ele>3.3</ele>
			 </trkpt>
			 <trkpt lat="36.713454" lon="-4.414564">
				 <ele>2.4</ele>
			 </trkpt>
			 <trkpt lat="36.710347" lon="-4.413284">
				 <ele>1.5</ele>
			 </trkpt>
			 <trkpt lat="36.710221" lon="-4.413246">
				 <ele>1.1</ele>
			 </trkpt>
			 <trkpt lat="36.71011" lon="-4.413223">
				 <ele>0.6</ele>
			 </trkpt>
			 <trkpt lat="36.70995" lon="-4.413189">
				 <ele>0.3</ele>
			 </trkpt>
			 <trkpt lat="36.709846" lon="-4.413178">
				 <ele>0.1</ele>
			 </trkpt>
			 <trkpt lat="36.709682" lon="-4.413174">
				 <ele>0</ele>
			 </trkpt>
			 <trkpt lat="36.709522" lon="-4.413172">
				 <ele>0</ele>
			 </trkpt>
			 <trkpt lat="36.70938" lon="-4.413187">
				 <ele>0</ele>
			 </trkpt>
			 <trkpt lat="36.709224" lon="-4.413214">
				 <ele>0</ele>
			 </trkpt>
			 <trkpt lat="36.709102" lon="-4.41325">
				 <ele>0</ele>
			 </trkpt>
			 <trkpt lat="36.708945" lon="-4.413322">
				 <ele>0</ele>
			 </trkpt>
			 <trkpt lat="36.708748" lon="-4.413432">
				 <ele>0</ele>
			 </trkpt>
			 <trkpt lat="36.708237" lon="-4.413812">
				 <ele>0</ele>
			 </trkpt>
			 <trkpt lat="36.707414" lon="-4.414485">
				 <ele>0</ele>
			 </trkpt>
			 <trkpt lat="36.70734" lon="-4.414528">
				 <ele>0</ele>
			 </trkpt>
			 <trkpt lat="36.707271" lon="-4.41456">
				 <ele>0</ele>
			 </trkpt>
			 <trkpt lat="36.707207" lon="-4.414576">
				 <ele>0</ele>
			 </trkpt>
			 <trkpt lat="36.707113" lon="-4.414586">
				 <ele>0</ele>
			 </trkpt>
			 <trkpt lat="36.707015" lon="-4.414583">
				 <ele>0</ele>
			 </trkpt>
			 <trkpt lat="36.706905" lon="-4.414554">
				 <ele>0</ele>
			 </trkpt>
			 <trkpt lat="36.706778" lon="-4.414491">
				 <ele>0</ele>
			 </trkpt>
			 <trkpt lat="36.706669" lon="-4.414429">
				 <ele>0</ele>
			 </trkpt>
			 <trkpt lat="36.705694" lon="-4.413897">
				 <ele>0</ele>
			 </trkpt>
			 <trkpt lat="36.705544" lon="-4.413861">
				 <ele>0</ele>
			 </trkpt>
			 <trkpt lat="36.705481" lon="-4.413846">
				 <ele>0</ele>
			 </trkpt>
			 <trkpt lat="36.705435" lon="-4.413817">
				 <ele>0</ele>
			 </trkpt>
			 <trkpt lat="36.705407" lon="-4.413746">
				 <ele>0</ele>
			 </trkpt>
			 <trkpt lat="36.705404" lon="-4.413683">
				 <ele>0</ele>
			 </trkpt>
			 <trkpt lat="36.705418" lon="-4.413633">
				 <ele>0</ele>
			 </trkpt>
			 <trkpt lat="36.705451" lon="-4.413584">
				 <ele>0</ele>
			 </trkpt>
			 <trkpt lat="36.705489" lon="-4.413562">
				 <ele>0</ele>
			 </trkpt>
			 <trkpt lat="36.705537" lon="-4.413558">
				 <ele>0</ele>
			 </trkpt>
			 <trkpt lat="36.705589" lon="-4.413569">
				 <ele>0</ele>
			 </trkpt>
			 <trkpt lat="36.705625" lon="-4.413611">
				 <ele>0</ele>
			 </trkpt>
			 <trkpt lat="36.705748" lon="-4.413754">
				 <ele>0</ele>
			 </trkpt>
			 <trkpt lat="36.70648" lon="-4.414201">
				 <ele>0</ele>
			 </trkpt>
			 <trkpt lat="36.706883" lon="-4.414426">
				 <ele>0</ele>
			 </trkpt>
			 <trkpt lat="36.706965" lon="-4.414444">
				 <ele>0</ele>
			 </trkpt>
			 <trkpt lat="36.707031" lon="-4.414453">
				 <ele>0</ele>
			 </trkpt>
			 <trkpt lat="36.707121" lon="-4.414442">
				 <ele>0</ele>
			 </trkpt>
			 <trkpt lat="36.707219" lon="-4.414429">
				 <ele>0</ele>
			 </trkpt>
			 <trkpt lat="36.707311" lon="-4.414407">
				 <ele>0</ele>
			 </trkpt>
			 <trkpt lat="36.707427" lon="-4.414348">
				 <ele>0</ele>
			 </trkpt>
			 <trkpt lat="36.707508" lon="-4.414282">
				 <ele>0</ele>
			 </trkpt>
			 <trkpt lat="36.70757" lon="-4.414196">
				 <ele>0</ele>
			 </trkpt>
			 <trkpt lat="36.707697" lon="-4.413903">
				 <ele>0</ele>
			 </trkpt>
			 <trkpt lat="36.707733" lon="-4.413838">
				 <ele>0</ele>
			 </trkpt>
			 <trkpt lat="36.707789" lon="-4.413821">
				 <ele>0</ele>
			 </trkpt>
			 <trkpt lat="36.707968" lon="-4.413778">
				 <ele>0</ele>
			 </trkpt>
			 <trkpt lat="36.708728" lon="-4.413345">
				 <ele>0</ele>
			 </trkpt>
			 <trkpt lat="36.708985" lon="-4.413204">
				 <ele>0</ele>
			 </trkpt>
			 <trkpt lat="36.709154" lon="-4.413141">
				 <ele>0</ele>
			 </trkpt>
			 <trkpt lat="36.709394" lon="-4.413097">
				 <ele>0</ele>
			 </trkpt>
			 <trkpt lat="36.709601" lon="-4.413082">
				 <ele>0.1</ele>
			 </trkpt>
			 <trkpt lat="36.709812" lon="-4.413087">
				 <ele>0.3</ele>
			 </trkpt>
			 <trkpt lat="36.709981" lon="-4.413102">
				 <ele>0.5</ele>
			 </trkpt>
			 <trkpt lat="36.710249" lon="-4.413163">
				 <ele>0.9</ele>
			 </trkpt>
			 <trkpt lat="36.710663" lon="-4.413299">
				 <ele>1.4</ele>
			 </trkpt>
			 <trkpt lat="36.713486" lon="-4.414504">
				 <ele>1.8</ele>
			 </trkpt>
			 <trkpt lat="36.713677" lon="-4.414551">
				 <ele>2.3</ele>
			 </trkpt>
			 <trkpt lat="36.713758" lon="-4.414555">
				 <ele>2.7</ele>
			 </trkpt>
			 <trkpt lat="36.713831" lon="-4.414544">
				 <ele>3.2</ele>
			 </trkpt>
			 <trkpt lat="36.713958" lon="-4.41449">
				 <ele>3.7</ele>
			 </trkpt>
			 <trkpt lat="36.714117" lon="-4.414424">
				 <ele>4.3</ele>
			 </trkpt>
			 <trkpt lat="36.714168" lon="-4.414399">
				 <ele>4.8</ele>
			 </trkpt>
			 <trkpt lat="36.71431" lon="-4.414365">
				 <ele>5.4</ele>
			 </trkpt>
			 <trkpt lat="36.714395" lon="-4.414333">
				 <ele>5.9</ele>
			 </trkpt>
			 <trkpt lat="36.715116" lon="-4.413873">
				 <ele>6.2</ele>
			 </trkpt>
			 <trkpt lat="36.715152" lon="-4.413838">
				 <ele>6.3</ele>
			 </trkpt>
			 <trkpt lat="36.715181" lon="-4.413749">
				 <ele>7.5</ele>
			 </trkpt>
			 <trkpt lat="36.715289" lon="-4.413431">
				 <ele>8.5</ele>
			 </trkpt>
			 <trkpt lat="36.715378" lon="-4.413187">
				 <ele>9</ele>
			 </trkpt>
			 <trkpt lat="36.715522" lon="-4.412901">
				 <ele>9.6</ele>
			 </trkpt>
			 <trkpt lat="36.715779" lon="-4.412529">
				 <ele>10.3</ele>
			 </trkpt>
			 <trkpt lat="36.716588" lon="-4.411573">
				 <ele>10.9</ele>
			 </trkpt>
			 <trkpt lat="36.717101" lon="-4.410989">
				 <ele>11.5</ele>
			 </trkpt>
			 <trkpt lat="36.718033" lon="-4.409879">
				 <ele>12</ele>
			 </trkpt>
			 <trkpt lat="36.718087" lon="-4.409793">
				 <ele>12.3</ele>
			 </trkpt>
			 <trkpt lat="36.71812" lon="-4.409725">
				 <ele>12.7</ele>
			 </trkpt>
			 <trkpt lat="36.71815" lon="-4.409648">
				 <ele>13.6</ele>
			 </trkpt>
			 <trkpt lat="36.718176" lon="-4.409566">
				 <ele>12.5</ele>
			 </trkpt>
			 <trkpt lat="36.718208" lon="-4.40938">
				 <ele>11.6</ele>
			 </trkpt>
			 <trkpt lat="36.718232" lon="-4.409233">
				 <ele>11.2</ele>
			 </trkpt>
			 <trkpt lat="36.718338" lon="-4.4089">
				 <ele>10.5</ele>
			 </trkpt>
			 <trkpt lat="36.718463" lon="-4.408639">
				 <ele>10.2</ele>
			 </trkpt>
			 <trkpt lat="36.719268" lon="-4.407344">
				 <ele>10</ele>
			 </trkpt>
			 <trkpt lat="36.719429" lon="-4.407026">
				 <ele>9.5</ele>
			 </trkpt>
			 <trkpt lat="36.719493" lon="-4.406896">
				 <ele>9.1</ele>
			 </trkpt>
			 <trkpt lat="36.7196" lon="-4.406644">
				 <ele>8.6</ele>
			 </trkpt>
			 <trkpt lat="36.719881" lon="-4.406005">
				 <ele>8.1</ele>
			 </trkpt>
			 <trkpt lat="36.720001" lon="-4.405729">
				 <ele>7.4</ele>
			 </trkpt>
			 <trkpt lat="36.720072" lon="-4.405525">
				 <ele>7.7</ele>
			 </trkpt>
			 <trkpt lat="36.720117" lon="-4.405387">
				 <ele>7.9</ele>
			 </trkpt>
			 <trkpt lat="36.720167" lon="-4.405236">
				 <ele>8</ele>
			 </trkpt>
			 <trkpt lat="36.720208" lon="-4.405085">
				 <ele>8.2</ele>
			 </trkpt>
			 <trkpt lat="36.720296" lon="-4.40472">
				 <ele>7.7</ele>
			 </trkpt>
			 <trkpt lat="36.720331" lon="-4.404492">
				 <ele>7.2</ele>
			 </trkpt>
			 <trkpt lat="36.720374" lon="-4.404216">
				 <ele>6.7</ele>
			 </trkpt>
			 <trkpt lat="36.720414" lon="-4.403707">
				 <ele>6.7</ele>
			 </trkpt>
			 <trkpt lat="36.720519" lon="-4.402993">
				 <ele>6.5</ele>
			 </trkpt>
			 <trkpt lat="36.720569" lon="-4.402778">
				 <ele>6.3</ele>
			 </trkpt>
			 <trkpt lat="36.721378" lon="-4.400277">
				 <ele>5.9</ele>
			 </trkpt>
			 <trkpt lat="36.72177" lon="-4.398871">
				 <ele>5.4</ele>
			 </trkpt>
			 <trkpt lat="36.722213" lon="-4.397255">
				 <ele>4.7</ele>
			 </trkpt>
			 <trkpt lat="36.722845" lon="-4.395426">
				 <ele>4.3</ele>
			 </trkpt>
			 <trkpt lat="36.722913" lon="-4.395187">
				 <ele>3.9</ele>
			 </trkpt>
			 <trkpt lat="36.72295" lon="-4.395034">
				 <ele>3.7</ele>
			 </trkpt>
			 <trkpt lat="36.722969" lon="-4.39493">
				 <ele>3.5</ele>
			 </trkpt>
			 <trkpt lat="36.723009" lon="-4.394658">
				 <ele>3.4</ele>
			 </trkpt>
			 <trkpt lat="36.723021" lon="-4.394489">
				 <ele>2.8</ele>
			 </trkpt>
			 <trkpt lat="36.723021" lon="-4.394243">
				 <ele>2.5</ele>
			 </trkpt>
			 <trkpt lat="36.723026" lon="-4.393986">
				 <ele>2.5</ele>
			 </trkpt>
			 <trkpt lat="36.723028" lon="-4.393754">
				 <ele>2.3</ele>
			 </trkpt>
			 <trkpt lat="36.723024" lon="-4.393351">
				 <ele>2.2</ele>
			 </trkpt>
			 <trkpt lat="36.722993" lon="-4.393115">
				 <ele>2.2</ele>
			 </trkpt>
			 <trkpt lat="36.72295" lon="-4.392887">
				 <ele>2.3</ele>
			 </trkpt>
			 <trkpt lat="36.722867" lon="-4.392637">
				 <ele>2.8</ele>
			 </trkpt>
			 <trkpt lat="36.722593" lon="-4.391839">
				 <ele>3.2</ele>
			 </trkpt>
			 <trkpt lat="36.722547" lon="-4.391657">
				 <ele>3.5</ele>
			 </trkpt>
			 <trkpt lat="36.722526" lon="-4.391536">
				 <ele>3.9</ele>
			 </trkpt>
			 <trkpt lat="36.722506" lon="-4.391247">
				 <ele>4.3</ele>
			 </trkpt>
			 <trkpt lat="36.722214" lon="-4.388195">
				 <ele>4.7</ele>
			 </trkpt>
			 <trkpt lat="36.722188" lon="-4.388008">
				 <ele>5.1</ele>
			 </trkpt>
			 <trkpt lat="36.722159" lon="-4.387823">
				 <ele>5.5</ele>
			 </trkpt>
			 <trkpt lat="36.722115" lon="-4.387683">
				 <ele>5.8</ele>
			 </trkpt>
			 <trkpt lat="36.72194" lon="-4.387272">
				 <ele>6.1</ele>
			 </trkpt>
			 <trkpt lat="36.72149" lon="-4.386177">
				 <ele>6.7</ele>
			 </trkpt>
			 <trkpt lat="36.721432" lon="-4.385958">
				 <ele>6.9</ele>
			 </trkpt>
			 <trkpt lat="36.721401" lon="-4.385736">
				 <ele>7.5</ele>
			 </trkpt>
			 <trkpt lat="36.721392" lon="-4.385547">
				 <ele>7.3</ele>
			 </trkpt>
			 <trkpt lat="36.7215" lon="-4.383438">
				 <ele>7.3</ele>
			 </trkpt>
			 <trkpt lat="36.72148" lon="-4.381655">
				 <ele>7.4</ele>
			 </trkpt>
			 <trkpt lat="36.721438" lon="-4.380437">
				 <ele>7.5</ele>
			 </trkpt>
			 <trkpt lat="36.721427" lon="-4.379882">
				 <ele>7.5</ele>
			 </trkpt>
			 <trkpt lat="36.72153" lon="-4.378419">
				 <ele>7.5</ele>
			 </trkpt>
			 <trkpt lat="36.721586" lon="-4.37743">
				 <ele>7.5</ele>
			 </trkpt>
			 <trkpt lat="36.721588" lon="-4.375846">
				 <ele>7.3</ele>
			 </trkpt>
			 <trkpt lat="36.72153" lon="-4.374806">
				 <ele>6.7</ele>
			 </trkpt>
			 <trkpt lat="36.721448" lon="-4.37352">
				 <ele>6.1</ele>
			 </trkpt>
			 <trkpt lat="36.721374" lon="-4.373012">
				 <ele>5.4</ele>
			 </trkpt>
			 <trkpt lat="36.721337" lon="-4.372833">
				 <ele>5.5</ele>
			 </trkpt>
			 <trkpt lat="36.720931" lon="-4.371239">
				 <ele>5.5</ele>
			 </trkpt>
			 <trkpt lat="36.720509" lon="-4.369925">
				 <ele>5.5</ele>
			 </trkpt>
			 <trkpt lat="36.720158" lon="-4.368766">
				 <ele>5.5</ele>
			 </trkpt>
			 <trkpt lat="36.720122" lon="-4.368607">
				 <ele>5.2</ele>
			 </trkpt>
			 <trkpt lat="36.720092" lon="-4.368407">
				 <ele>5.2</ele>
			 </trkpt>
			 <trkpt lat="36.719908" lon="-4.366028">
				 <ele>5.2</ele>
			 </trkpt>
			 <trkpt lat="36.719636" lon="-4.3624">
				 <ele>5.3</ele>
			 </trkpt>
			 <trkpt lat="36.719331" lon="-4.359212">
				 <ele>5.4</ele>
			 </trkpt>
			 <trkpt lat="36.719022" lon="-4.356971">
				 <ele>5.6</ele>
			 </trkpt>
			 <trkpt lat="36.718891" lon="-4.356338">
				 <ele>5.5</ele>
			 </trkpt>
			 <trkpt lat="36.71876" lon="-4.355819">
				 <ele>5.5</ele>
			 </trkpt>
			 <trkpt lat="36.718641" lon="-4.355408">
				 <ele>5.4</ele>
			 </trkpt>
			 <trkpt lat="36.718359" lon="-4.354383">
				 <ele>5.1</ele>
			 </trkpt>
			 <trkpt lat="36.71818" lon="-4.353692">
				 <ele>5.5</ele>
			 </trkpt>
			 <trkpt lat="36.718033" lon="-4.352941">
				 <ele>5.9</ele>
			 </trkpt>
			 <trkpt lat="36.717991" lon="-4.352535">
				 <ele>6.3</ele>
			 </trkpt>
			 <trkpt lat="36.718005" lon="-4.352485">
				 <ele>6.7</ele>
			 </trkpt>
			 <trkpt lat="36.718034" lon="-4.352453">
				 <ele>7.3</ele>
			 </trkpt>
			 <trkpt lat="36.718882" lon="-4.352059">
				 <ele>7.7</ele>
			 </trkpt>
			 <trkpt lat="36.719594" lon="-4.351628">
				 <ele>8.1</ele>
			 </trkpt>
			 <trkpt lat="36.719639" lon="-4.35162">
				 <ele>8.6</ele>
			 </trkpt>
			 <trkpt lat="36.71968" lon="-4.35165">
				 <ele>9</ele>
			 </trkpt>
			 <trkpt lat="36.719719" lon="-4.351721">
				 <ele>9.4</ele>
			 </trkpt>
			 <trkpt lat="36.719948" lon="-4.352211">
				 <ele>9.7</ele>
			 </trkpt>
			 <trkpt lat="36.720002" lon="-4.352336">
				 <ele>9.6</ele>
			 </trkpt>
			 <trkpt lat="36.72005" lon="-4.352462">
				 <ele>9.6</ele>
			 </trkpt>
			 <trkpt lat="36.720081" lon="-4.352566">
				 <ele>9.8</ele>
			 </trkpt>
			 <trkpt lat="36.720104" lon="-4.352661">
				 <ele>10.1</ele>
			 </trkpt>
			 <trkpt lat="36.720119" lon="-4.352753">
				 <ele>10.2</ele>
			 </trkpt>
			 <trkpt lat="36.720128" lon="-4.35283">
				 <ele>10.5</ele>
			 </trkpt>
			 <trkpt lat="36.720136" lon="-4.353037">
				 <ele>11.3</ele>
			 </trkpt>
			 <trkpt lat="36.720203" lon="-4.353647">
				 <ele>11.8</ele>
			 </trkpt>
			 <trkpt lat="36.720291" lon="-4.354256">
				 <ele>12.3</ele>
			 </trkpt>
			 <trkpt lat="36.720372" lon="-4.354782">
				 <ele>13</ele>
			 </trkpt>
			 <trkpt lat="36.720435" lon="-4.355325">
				 <ele>13.8</ele>
			 </trkpt>
			 <trkpt lat="36.720541" lon="-4.356021">
				 <ele>14.6</ele>
			 </trkpt>
			 <trkpt lat="36.720585" lon="-4.356317">
				 <ele>15</ele>
			 </trkpt>
			 <trkpt lat="36.720661" lon="-4.356683">
				 <ele>14.6</ele>
			 </trkpt>
			 <trkpt lat="36.720781" lon="-4.357249">
				 <ele>14.1</ele>
			 </trkpt>
			 <trkpt lat="36.720814" lon="-4.357414">
				 <ele>13.9</ele>
			 </trkpt>
			 <trkpt lat="36.720839" lon="-4.357654">
				 <ele>13.6</ele>
			 </trkpt>
			 <trkpt lat="36.72086" lon="-4.35801">
				 <ele>13.2</ele>
			 </trkpt>
			 <trkpt lat="36.720908" lon="-4.358466">
				 <ele>13.1</ele>
			 </trkpt>
			 <trkpt lat="36.720938" lon="-4.35876">
				 <ele>13.1</ele>
			 </trkpt>
			 <trkpt lat="36.720981" lon="-4.359084">
				 <ele>12.7</ele>
			 </trkpt>
			 <trkpt lat="36.721015" lon="-4.359347">
				 <ele>12.5</ele>
			 </trkpt>
			 <trkpt lat="36.721032" lon="-4.359531">
				 <ele>12.4</ele>
			 </trkpt>
			 <trkpt lat="36.72107" lon="-4.359971">
				 <ele>12.4</ele>
			 </trkpt>
			 <trkpt lat="36.721087" lon="-4.360365">
				 <ele>12.8</ele>
			 </trkpt>
			 <trkpt lat="36.721101" lon="-4.360728">
				 <ele>13.5</ele>
			 </trkpt>
			 <trkpt lat="36.721114" lon="-4.361296">
				 <ele>14.6</ele>
			 </trkpt>
			 <trkpt lat="36.721145" lon="-4.36162">
				 <ele>15.5</ele>
			 </trkpt>
			 <trkpt lat="36.721191" lon="-4.361951">
				 <ele>15.9</ele>
			 </trkpt>
			 <trkpt lat="36.721288" lon="-4.362397">
				 <ele>16</ele>
			 </trkpt>
			 <trkpt lat="36.721368" lon="-4.362682">
				 <ele>16.1</ele>
			 </trkpt>
			 <trkpt lat="36.721489" lon="-4.363039">
				 <ele>16.4</ele>
			 </trkpt>
			 <trkpt lat="36.721655" lon="-4.363512">
				 <ele>16.5</ele>
			 </trkpt>
			 <trkpt lat="36.721758" lon="-4.363824">
				 <ele>16.3</ele>
			 </trkpt>
			 <trkpt lat="36.721853" lon="-4.36421">
				 <ele>16.1</ele>
			 </trkpt>
			 <trkpt lat="36.721954" lon="-4.364578">
				 <ele>15.9</ele>
			 </trkpt>
			 <trkpt lat="36.72204" lon="-4.365026">
				 <ele>15.5</ele>
			 </trkpt>
			 <trkpt lat="36.722109" lon="-4.36542">
				 <ele>14.6</ele>
			 </trkpt>
			 <trkpt lat="36.722215" lon="-4.366018">
				 <ele>13.6</ele>
			 </trkpt>
			 <trkpt lat="36.722269" lon="-4.366415">
				 <ele>12.9</ele>
			 </trkpt>
			 <trkpt lat="36.722335" lon="-4.366942">
				 <ele>12</ele>
			 </trkpt>
			 <trkpt lat="36.722371" lon="-4.367271">
				 <ele>11.4</ele>
			 </trkpt>
			 <trkpt lat="36.722387" lon="-4.367656">
				 <ele>10.5</ele>
			 </trkpt>
			 <trkpt lat="36.722391" lon="-4.369018">
				 <ele>9.8</ele>
			 </trkpt>
			 <trkpt lat="36.722384" lon="-4.369767">
				 <ele>9.5</ele>
			 </trkpt>
			 <trkpt lat="36.722382" lon="-4.371579">
				 <ele>9.2</ele>
			 </trkpt>
			 <trkpt lat="36.722405" lon="-4.372423">
				 <ele>8.8</ele>
			 </trkpt>
			 <trkpt lat="36.722381" lon="-4.373726">
				 <ele>8.5</ele>
			 </trkpt>
			 <trkpt lat="36.722382" lon="-4.374426">
				 <ele>8.1</ele>
			 </trkpt>
			 <trkpt lat="36.722364" lon="-4.374784">
				 <ele>8</ele>
			 </trkpt>
			 <trkpt lat="36.72235" lon="-4.375248">
				 <ele>7.6</ele>
			 </trkpt>
			 <trkpt lat="36.722302" lon="-4.376379">
				 <ele>8</ele>
			 </trkpt>
			 <trkpt lat="36.72227" lon="-4.376991">
				 <ele>8.2</ele>
			 </trkpt>
			 <trkpt lat="36.722243" lon="-4.377413">
				 <ele>8.3</ele>
			 </trkpt>
			 <trkpt lat="36.722195" lon="-4.377799">
				 <ele>8.3</ele>
			 </trkpt>
			 <trkpt lat="36.722044" lon="-4.378894">
				 <ele>8.3</ele>
			 </trkpt>
			 <trkpt lat="36.721898" lon="-4.379958">
				 <ele>8.7</ele>
			 </trkpt>
			 <trkpt lat="36.721848" lon="-4.380343">
				 <ele>9</ele>
			 </trkpt>
			 <trkpt lat="36.721786" lon="-4.380788">
				 <ele>9.2</ele>
			 </trkpt>
			 <trkpt lat="36.721775" lon="-4.380993">
				 <ele>9.4</ele>
			 </trkpt>
			 <trkpt lat="36.721788" lon="-4.381302">
				 <ele>9.5</ele>
			 </trkpt>
			 <trkpt lat="36.721857" lon="-4.381954">
				 <ele>9.7</ele>
			 </trkpt>
			 <trkpt lat="36.721942" lon="-4.382628">
				 <ele>9.6</ele>
			 </trkpt>
			 <trkpt lat="36.721949" lon="-4.382845">
				 <ele>9.6</ele>
			 </trkpt>
			 <trkpt lat="36.721947" lon="-4.383034">
				 <ele>9.8</ele>
			 </trkpt>
			 <trkpt lat="36.721948" lon="-4.383185">
				 <ele>9.7</ele>
			 </trkpt>
			 <trkpt lat="36.721932" lon="-4.383315">
				 <ele>9.5</ele>
			 </trkpt>
			 <trkpt lat="36.72191" lon="-4.383503">
				 <ele>9</ele>
			 </trkpt>
			 <trkpt lat="36.721863" lon="-4.383775">
				 <ele>8.8</ele>
			 </trkpt>
			 <trkpt lat="36.721818" lon="-4.383994">
				 <ele>8.7</ele>
			 </trkpt>
			 <trkpt lat="36.721653" lon="-4.384511">
				 <ele>8.6</ele>
			 </trkpt>
			 <trkpt lat="36.72155" lon="-4.384876">
				 <ele>8.6</ele>
			 </trkpt>
			 <trkpt lat="36.721521" lon="-4.384984">
				 <ele>8.6</ele>
			 </trkpt>
			 <trkpt lat="36.721493" lon="-4.385449">
				 <ele>8.6</ele>
			 </trkpt>
			 <trkpt lat="36.721501" lon="-4.385698">
				 <ele>8.5</ele>
			 </trkpt>
			 <trkpt lat="36.721516" lon="-4.385813">
				 <ele>8.4</ele>
			 </trkpt>
			 <trkpt lat="36.721532" lon="-4.385922">
				 <ele>8.4</ele>
			 </trkpt>
			 <trkpt lat="36.721554" lon="-4.386013">
				 <ele>8.4</ele>
			 </trkpt>
			 <trkpt lat="36.721583" lon="-4.38612">
				 <ele>8.4</ele>
			 </trkpt>
			 <trkpt lat="36.721621" lon="-4.386262">
				 <ele>8.4</ele>
			 </trkpt>
			 <trkpt lat="36.722047" lon="-4.387271">
				 <ele>8.4</ele>
			 </trkpt>
			 <trkpt lat="36.722185" lon="-4.387637">
				 <ele>8.4</ele>
			 </trkpt>
			 <trkpt lat="36.722221" lon="-4.387728">
				 <ele>8.3</ele>
			 </trkpt>
			 <trkpt lat="36.722231" lon="-4.387773">
				 <ele>8.1</ele>
			 </trkpt>
			 <trkpt lat="36.722259" lon="-4.387861">
				 <ele>8</ele>
			 </trkpt>
			 <trkpt lat="36.72227" lon="-4.387933">
				 <ele>7.5</ele>
			 </trkpt>
			 <trkpt lat="36.722287" lon="-4.387994">
				 <ele>7</ele>
			 </trkpt>
			 <trkpt lat="36.722306" lon="-4.388118">
				 <ele>6.5</ele>
			 </trkpt>
			 <trkpt lat="36.722364" lon="-4.388717">
				 <ele>6.1</ele>
			 </trkpt>
			 <trkpt lat="36.722483" lon="-4.390264">
				 <ele>5.7</ele>
			 </trkpt>
			 <trkpt lat="36.722605" lon="-4.391491">
				 <ele>5.5</ele>
			 </trkpt>
			 <trkpt lat="36.722618" lon="-4.391582">
				 <ele>5.2</ele>
			 </trkpt>
			 <trkpt lat="36.722641" lon="-4.391687">
				 <ele>4.8</ele>
			 </trkpt>
			 <trkpt lat="36.722675" lon="-4.391804">
				 <ele>4.5</ele>
			 </trkpt>
			 <trkpt lat="36.722712" lon="-4.391914">
				 <ele>4.2</ele>
			 </trkpt>
			 <trkpt lat="36.722959" lon="-4.392588">
				 <ele>3.8</ele>
			 </trkpt>
			 <trkpt lat="36.722993" lon="-4.392682">
				 <ele>3.9</ele>
			 </trkpt>
			 <trkpt lat="36.723028" lon="-4.3928">
				 <ele>4</ele>
			 </trkpt>
			 <trkpt lat="36.723058" lon="-4.392902">
				 <ele>4</ele>
			 </trkpt>
			 <trkpt lat="36.723071" lon="-4.392977">
				 <ele>4.1</ele>
			 </trkpt>
			 <trkpt lat="36.723085" lon="-4.39306">
				 <ele>4.1</ele>
			 </trkpt>
			 <trkpt lat="36.723105" lon="-4.393237">
				 <ele>3.9</ele>
			 </trkpt>
			 <trkpt lat="36.723111" lon="-4.393431">
				 <ele>4</ele>
			 </trkpt>
			 <trkpt lat="36.723093" lon="-4.394582">
				 <ele>4.1</ele>
			 </trkpt>
			 <trkpt lat="36.723075" lon="-4.394783">
				 <ele>4.2</ele>
			 </trkpt>
			 <trkpt lat="36.72306" lon="-4.394892">
				 <ele>4.2</ele>
			 </trkpt>
			 <trkpt lat="36.723041" lon="-4.395002">
				 <ele>4.6</ele>
			 </trkpt>
			 <trkpt lat="36.723013" lon="-4.395133">
				 <ele>4.8</ele>
			 </trkpt>
			 <trkpt lat="36.722987" lon="-4.39524">
				 <ele>5.1</ele>
			 </trkpt>
			 <trkpt lat="36.722929" lon="-4.395426">
				 <ele>5.5</ele>
			 </trkpt>
			 <trkpt lat="36.722578" lon="-4.396391">
				 <ele>5.8</ele>
			 </trkpt>
			 <trkpt lat="36.722044" lon="-4.398151">
				 <ele>6.2</ele>
			 </trkpt>
			 <trkpt lat="36.721776" lon="-4.39929">
				 <ele>6.5</ele>
			 </trkpt>
			 <trkpt lat="36.721283" lon="-4.400834">
				 <ele>6.8</ele>
			 </trkpt>
			 <trkpt lat="36.720853" lon="-4.402079">
				 <ele>7.4</ele>
			 </trkpt>
			 <trkpt lat="36.720668" lon="-4.402733">
				 <ele>7.7</ele>
			 </trkpt>
			 <trkpt lat="36.720626" lon="-4.402867">
				 <ele>8</ele>
			 </trkpt>
			 <trkpt lat="36.720592" lon="-4.403003">
				 <ele>7.9</ele>
			 </trkpt>
			 <trkpt lat="36.720563" lon="-4.403211">
				 <ele>8.3</ele>
			 </trkpt>
			 <trkpt lat="36.720434" lon="-4.404416">
				 <ele>8.6</ele>
			 </trkpt>
			 <trkpt lat="36.720396" lon="-4.404687">
				 <ele>8.5</ele>
			 </trkpt>
			 <trkpt lat="36.720308" lon="-4.405108">
				 <ele>8.6</ele>
			 </trkpt>
			 <trkpt lat="36.720244" lon="-4.405324">
				 <ele>8.5</ele>
			 </trkpt>
			 <trkpt lat="36.720143" lon="-4.405622">
				 <ele>9.7</ele>
			 </trkpt>
			 <trkpt lat="36.719949" lon="-4.406047">
				 <ele>10.6</ele>
			 </trkpt>
			 <trkpt lat="36.719669" lon="-4.40668">
				 <ele>10.8</ele>
			 </trkpt>
			 <trkpt lat="36.719436" lon="-4.407196">
				 <ele>11.2</ele>
			 </trkpt>
			 <trkpt lat="36.719246" lon="-4.407525">
				 <ele>11.8</ele>
			 </trkpt>
			 <trkpt lat="36.71891" lon="-4.408049">
				 <ele>12.5</ele>
			 </trkpt>
			 <trkpt lat="36.71853" lon="-4.408626">
				 <ele>13.3</ele>
			 </trkpt>
			 <trkpt lat="36.718409" lon="-4.408965">
				 <ele>14</ele>
			 </trkpt>
			 <trkpt lat="36.718368" lon="-4.409133">
				 <ele>15.2</ele>
			 </trkpt>
			 <trkpt lat="36.718332" lon="-4.409402">
				 <ele>16.1</ele>
			 </trkpt>
			 <trkpt lat="36.71834" lon="-4.409607">
				 <ele>17.2</ele>
			 </trkpt>
			 <trkpt lat="36.718372" lon="-4.409774">
				 <ele>17</ele>
			 </trkpt>
			 <trkpt lat="36.718408" lon="-4.409902">
				 <ele>17.4</ele>
			 </trkpt>
			 <trkpt lat="36.718465" lon="-4.410044">
				 <ele>18.7</ele>
			 </trkpt>
			 <trkpt lat="36.718515" lon="-4.410141">
				 <ele>19.4</ele>
			 </trkpt>
			 <trkpt lat="36.718633" lon="-4.410317">
				 <ele>19.3</ele>
			 </trkpt>
			 <trkpt lat="36.718802" lon="-4.410515">
				 <ele>18.9</ele>
			 </trkpt>
			 <trkpt lat="36.719018" lon="-4.410768">
				 <ele>18.2</ele>
			 </trkpt>
			 <trkpt lat="36.719291" lon="-4.41108">
				 <ele>17.3</ele>
			 </trkpt>
			 <trkpt lat="36.719549" lon="-4.411437">
				 <ele>16.4</ele>
			 </trkpt>
			 <trkpt lat="36.719673" lon="-4.411668">
				 <ele>15.3</ele>
			 </trkpt>
			 <trkpt lat="36.719697" lon="-4.4118">
				 <ele>14.2</ele>
			 </trkpt>
			 <trkpt lat="36.719704" lon="-4.412019">
				 <ele>13.1</ele>
			 </trkpt>
			 <trkpt lat="36.71969" lon="-4.41225">
				 <ele>11.7</ele>
			 </trkpt>
			 <trkpt lat="36.71966" lon="-4.412467">
				 <ele>10.1</ele>
			 </trkpt>
			 <trkpt lat="36.7178" lon="-4.419525">
				 <ele>9.2</ele>
			 </trkpt>
			 <trkpt lat="36.717797" lon="-4.419573">
				 <ele>8.9</ele>
			 </trkpt>
			 <trkpt lat="36.717811" lon="-4.419614">
				 <ele>8.7</ele>
			 </trkpt>
			 <trkpt lat="36.717868" lon="-4.419672">
				 <ele>8.7</ele>
			 </trkpt>
			 <trkpt lat="36.718245" lon="-4.419852">
				 <ele>9.1</ele>
			 </trkpt>
			 <trkpt lat="36.71828" lon="-4.419905">
				 <ele>8.9</ele>
			 </trkpt>
			 <trkpt lat="36.718281" lon="-4.419952">
				 <ele>8.9</ele>
			 </trkpt>
			 <trkpt lat="36.718274" lon="-4.419992">
				 <ele>8.9</ele>
			 </trkpt>
			 <trkpt lat="36.718017" lon="-4.421176">
				 <ele>8.9</ele>
			 </trkpt>
			 <trkpt lat="36.717031" lon="-4.425127">
				 <ele>8.8</ele>
			 </trkpt>
			 <trkpt lat="36.716882" lon="-4.426592">
				 <ele>8.5</ele>
			 </trkpt>
			 <trkpt lat="36.716886" lon="-4.426681">
				 <ele>8.1</ele>
			 </trkpt>
			 <trkpt lat="36.716898" lon="-4.426762">
				 <ele>7.7</ele>
			 </trkpt>
			 <trkpt lat="36.716933" lon="-4.42688">
				 <ele>7.7</ele>
			 </trkpt>
			 <trkpt lat="36.717002" lon="-4.427038">
				 <ele>7.7</ele>
			 </trkpt>
			 <trkpt lat="36.717081" lon="-4.42712">
				 <ele>7.5</ele>
			 </trkpt>
			 <trkpt lat="36.717127" lon="-4.427149">
				 <ele>8.5</ele>
			 </trkpt>
			 <trkpt lat="36.717183" lon="-4.427164">
				 <ele>9.2</ele>
			 </trkpt>
			 <trkpt lat="36.717756" lon="-4.427155">
				 <ele>9.8</ele>
			 </trkpt>
			 <trkpt lat="36.717801" lon="-4.427172">
				 <ele>10.4</ele>
			 </trkpt>
			 <trkpt lat="36.717828" lon="-4.427215">
				 <ele>11</ele>
			 </trkpt>
			 <trkpt lat="36.717955" lon="-4.428513">
				 <ele>11.5</ele>
			 </trkpt>
			 <trkpt lat="36.71801" lon="-4.429099">
				 <ele>12</ele>
			 </trkpt>
			 <trkpt lat="36.718029" lon="-4.429195">
				 <ele>12.4</ele>
			 </trkpt>
			 <trkpt lat="36.718056" lon="-4.429251">
				 <ele>12.7</ele>
			 </trkpt>
			 <trkpt lat="36.718079" lon="-4.429284">
				 <ele>13.3</ele>
			 </trkpt>
			 <trkpt lat="36.718134" lon="-4.429331">
				 <ele>13.3</ele>
			 </trkpt>
			 <trkpt lat="36.718194" lon="-4.429351">
				 <ele>12.8</ele>
			 </trkpt>
			 <trkpt lat="36.718441" lon="-4.429341">
				 <ele>12.8</ele>
			 </trkpt>
			 <trkpt lat="36.71981" lon="-4.429196">
				 <ele>12.7</ele>
			 </trkpt>
			 <trkpt lat="36.721273" lon="-4.429035">
				 <ele>12.8</ele>
			 </trkpt>
			 <trkpt lat="36.72218" lon="-4.42901">
				 <ele>12.9</ele>
			 </trkpt>
			 <trkpt lat="36.722577" lon="-4.42899">
				 <ele>13.4</ele>
			 </trkpt>
			 <trkpt lat="36.723115" lon="-4.428929">
				 <ele>14</ele>
			 </trkpt>
			 <trkpt lat="36.723374" lon="-4.428905">
				 <ele>14.7</ele>
			 </trkpt>
			 <trkpt lat="36.723488" lon="-4.428907">
				 <ele>15.1</ele>
			 </trkpt>
			 <trkpt lat="36.723625" lon="-4.428899">
				 <ele>15.2</ele>
			 </trkpt>
			 <trkpt lat="36.724082" lon="-4.428885">
				 <ele>15.9</ele>
			 </trkpt>
			 <trkpt lat="36.724379" lon="-4.428863">
				 <ele>16.5</ele>
			 </trkpt>
			 <trkpt lat="36.724547" lon="-4.428852">
				 <ele>17.6</ele>
			 </trkpt>
			 <trkpt lat="36.724904" lon="-4.428833">
				 <ele>18.9</ele>
			 </trkpt>
			 <trkpt lat="36.725356" lon="-4.428807">
				 <ele>20</ele>
			 </trkpt>
			 <trkpt lat="36.725791" lon="-4.428767">
				 <ele>20.9</ele>
			 </trkpt>
			 <trkpt lat="36.72594" lon="-4.428755">
				 <ele>21.3</ele>
			 </trkpt>
			 <trkpt lat="36.726467" lon="-4.428719">
				 <ele>21.2</ele>
			 </trkpt>
			 <trkpt lat="36.726805" lon="-4.428695">
				 <ele>21</ele>
			 </trkpt>
			 <trkpt lat="36.726985" lon="-4.428667">
				 <ele>20.8</ele>
			 </trkpt>
			 <trkpt lat="36.727298" lon="-4.428638">
				 <ele>20.7</ele>
			 </trkpt>
			 <trkpt lat="36.727495" lon="-4.428634">
				 <ele>20.5</ele>
			 </trkpt>
			 <trkpt lat="36.727852" lon="-4.428593">
				 <ele>20.5</ele>
			 </trkpt>
			 <trkpt lat="36.728118" lon="-4.428565">
				 <ele>20.4</ele>
			 </trkpt>
			 <trkpt lat="36.728674" lon="-4.428529">
				 <ele>20.4</ele>
			 </trkpt>
			 <trkpt lat="36.729182" lon="-4.428482">
				 <ele>20.2</ele>
			 </trkpt>
			 <trkpt lat="36.729701" lon="-4.428427">
				 <ele>20.1</ele>
			 </trkpt>
			 <trkpt lat="36.730099" lon="-4.428396">
				 <ele>20.2</ele>
			 </trkpt>
			 <trkpt lat="36.730535" lon="-4.428359">
				 <ele>20.5</ele>
			 </trkpt>
			 <trkpt lat="36.731117" lon="-4.42832">
				 <ele>21</ele>
			 </trkpt>
			 <trkpt lat="36.731917" lon="-4.428283">
				 <ele>21.5</ele>
			 </trkpt>
			 <trkpt lat="36.732317" lon="-4.428264">
				 <ele>21.6</ele>
			 </trkpt>
			 <trkpt lat="36.732483" lon="-4.428175">
				 <ele>21.7</ele>
			 </trkpt>
			 <trkpt lat="36.732521" lon="-4.428137">
				 <ele>21.5</ele>
			 </trkpt>
			 <trkpt lat="36.732552" lon="-4.4281">
				 <ele>20.8</ele>
			 </trkpt>
			 <trkpt lat="36.732594" lon="-4.428035">
				 <ele>19.9</ele>
			 </trkpt>
			 <trkpt lat="36.732707" lon="-4.427484">
				 <ele>19.3</ele>
			 </trkpt>
			 <trkpt lat="36.732734" lon="-4.427399">
				 <ele>18.7</ele>
			 </trkpt>
			 <trkpt lat="36.732772" lon="-4.427325">
				 <ele>18.3</ele>
			 </trkpt>
			 <trkpt lat="36.732803" lon="-4.427289">
				 <ele>18</ele>
			 </trkpt>
			 <trkpt lat="36.732833" lon="-4.42726">
				 <ele>17.7</ele>
			 </trkpt>
			 <trkpt lat="36.73293" lon="-4.427235">
				 <ele>17.5</ele>
			 </trkpt>
			 <trkpt lat="36.732978" lon="-4.427233">
				 <ele>17.5</ele>
			 </trkpt>
			 <trkpt lat="36.733017" lon="-4.427242">
				 <ele>17.5</ele>
			 </trkpt>
			 <trkpt lat="36.733341" lon="-4.427395">
				 <ele>18.1</ele>
			 </trkpt>
			 <trkpt lat="36.733383" lon="-4.427408">
				 <ele>18.3</ele>
			 </trkpt>
			 <trkpt lat="36.73342" lon="-4.427415">
				 <ele>18.5</ele>
			 </trkpt>
			 <trkpt lat="36.73346" lon="-4.427419">
				 <ele>18.8</ele>
			 </trkpt>
			 <trkpt lat="36.733521" lon="-4.427417">
				 <ele>19.1</ele>
			 </trkpt>
			 <trkpt lat="36.735406" lon="-4.427268">
				 <ele>19.4</ele>
			 </trkpt>
			 <trkpt lat="36.736771" lon="-4.427134">
				 <ele>19.5</ele>
			 </trkpt>
			 <trkpt lat="36.737189" lon="-4.427087">
				 <ele>19.7</ele>
			 </trkpt>
			 <trkpt lat="36.737229" lon="-4.427071">
				 <ele>19.9</ele>
			 </trkpt>
			 <trkpt lat="36.737257" lon="-4.427028">
				 <ele>20</ele>
			 </trkpt>
			 <trkpt lat="36.737451" lon="-4.426697">
				 <ele>20</ele>
			 </trkpt>
			 <trkpt lat="36.737466" lon="-4.426659">
				 <ele>19.6</ele>
			 </trkpt>
			 <trkpt lat="36.737476" lon="-4.426624">
				 <ele>19.9</ele>
			 </trkpt>
			 <trkpt lat="36.737478" lon="-4.426585">
				 <ele>20.1</ele>
			 </trkpt>
			 <trkpt lat="36.737475" lon="-4.426544">
				 <ele>20.3</ele>
			 </trkpt>
			 <trkpt lat="36.737473" lon="-4.426453">
				 <ele>20.5</ele>
			 </trkpt>
			 <trkpt lat="36.737454" lon="-4.425824">
				 <ele>20.6</ele>
			 </trkpt>
			 <trkpt lat="36.73742" lon="-4.425031">
				 <ele>20.9</ele>
			 </trkpt>
			 <trkpt lat="36.737416" lon="-4.424975">
				 <ele>21.2</ele>
			 </trkpt>
			 <trkpt lat="36.737409" lon="-4.424926">
				 <ele>21</ele>
			 </trkpt>
			 <trkpt lat="36.737397" lon="-4.424888">
				 <ele>20.9</ele>
			 </trkpt>
			 <trkpt lat="36.737375" lon="-4.424854">
				 <ele>20.8</ele>
			 </trkpt>
			 <trkpt lat="36.737331" lon="-4.42482">
				 <ele>20.7</ele>
			 </trkpt>
			 <trkpt lat="36.737288" lon="-4.424812">
				 <ele>20.3</ele>
			 </trkpt>
			 <trkpt lat="36.734037" lon="-4.42507">
				 <ele>19.8</ele>
			 </trkpt>
			 <trkpt lat="36.733067" lon="-4.425199">
				 <ele>19.4</ele>
			 </trkpt>
			 <trkpt lat="36.733037" lon="-4.425212">
				 <ele>18.9</ele>
			 </trkpt>
			 <trkpt lat="36.733" lon="-4.425256">
				 <ele>18.5</ele>
			 </trkpt>
			 <trkpt lat="36.732979" lon="-4.426001">
				 <ele>17.9</ele>
			 </trkpt>
			 <trkpt lat="36.732971" lon="-4.426154">
				 <ele>17.4</ele>
			 </trkpt>
			 <trkpt lat="36.732961" lon="-4.426255">
				 <ele>17.3</ele>
			 </trkpt>
			 <trkpt lat="36.732944" lon="-4.426358">
				 <ele>17.3</ele>
			 </trkpt>
			 <trkpt lat="36.73292" lon="-4.426418">
				 <ele>17.3</ele>
			 </trkpt>
			 <trkpt lat="36.732898" lon="-4.426472">
				 <ele>17.3</ele>
			 </trkpt>
			 <trkpt lat="36.732876" lon="-4.426498">
				 <ele>17.4</ele>
			 </trkpt>
			 <trkpt lat="36.732754" lon="-4.426622">
				 <ele>17.5</ele>
			 </trkpt>
			 <trkpt lat="36.732704" lon="-4.42664">
				 <ele>17.7</ele>
			 </trkpt>
			 <trkpt lat="36.732647" lon="-4.426655">
				 <ele>17.9</ele>
			 </trkpt>
			 <trkpt lat="36.7326" lon="-4.426664">
				 <ele>17.8</ele>
			 </trkpt>
			 <trkpt lat="36.732537" lon="-4.426669">
				 <ele>17.5</ele>
			 </trkpt>
			 <trkpt lat="36.731861" lon="-4.426738">
				 <ele>17.1</ele>
			 </trkpt>
			 <trkpt lat="36.729995" lon="-4.42689">
				 <ele>16.9</ele>
			 </trkpt>
			 <trkpt lat="36.728473" lon="-4.427001">
				 <ele>16.4</ele>
			 </trkpt>
			 <trkpt lat="36.727999" lon="-4.426971">
				 <ele>15.9</ele>
			 </trkpt>
			 <trkpt lat="36.727357" lon="-4.426926">
				 <ele>15.7</ele>
			 </trkpt>
			 <trkpt lat="36.726993" lon="-4.426857">
				 <ele>15.2</ele>
			 </trkpt>
			 <trkpt lat="36.726247" lon="-4.426708">
				 <ele>14.5</ele>
			 </trkpt>
			 <trkpt lat="36.725561" lon="-4.426536">
				 <ele>13.6</ele>
			 </trkpt>
			 <trkpt lat="36.725073" lon="-4.426431">
				 <ele>13</ele>
			 </trkpt>
			 <trkpt lat="36.724635" lon="-4.426333">
				 <ele>12.6</ele>
			 </trkpt>
			 <trkpt lat="36.724056" lon="-4.426215">
				 <ele>12.5</ele>
			 </trkpt>
			 <trkpt lat="36.723572" lon="-4.42614">
				 <ele>12.2</ele>
			 </trkpt>
			 <trkpt lat="36.723028" lon="-4.42605">
				 <ele>11.6</ele>
			 </trkpt>
			 <trkpt lat="36.722371" lon="-4.425904">
				 <ele>11.4</ele>
			 </trkpt>
			 <trkpt lat="36.721846" lon="-4.425831">
				 <ele>10.8</ele>
			 </trkpt>
			 <trkpt lat="36.721655" lon="-4.425818">
				 <ele>9.8</ele>
			 </trkpt>
			 <trkpt lat="36.721451" lon="-4.425786">
				 <ele>9.3</ele>
			 </trkpt>
			 <trkpt lat="36.721112" lon="-4.425722">
				 <ele>9.1</ele>
			 </trkpt>
			 <trkpt lat="36.720874" lon="-4.425685">
				 <ele>8.7</ele>
			 </trkpt>
			 <trkpt lat="36.720503" lon="-4.425666">
				 <ele>8.3</ele>
			 </trkpt>
			 <trkpt lat="36.720098" lon="-4.425688">
				 <ele>7.8</ele>
			 </trkpt>
			 <trkpt lat="36.719702" lon="-4.425732">
				 <ele>7.4</ele>
			 </trkpt>
			 <trkpt lat="36.719283" lon="-4.425825">
				 <ele>7</ele>
			 </trkpt>
			 <trkpt lat="36.718741" lon="-4.426003">
				 <ele>7.5</ele>
			 </trkpt>
			 <trkpt lat="36.718452" lon="-4.426096">
				 <ele>7.9</ele>
			 </trkpt>
			 <trkpt lat="36.718166" lon="-4.426193">
				 <ele>8.4</ele>
			 </trkpt>
			 <trkpt lat="36.717707" lon="-4.426212">
				 <ele>8.6</ele>
			 </trkpt>
			 <trkpt lat="36.717052" lon="-4.426235">
				 <ele>8.5</ele>
			 </trkpt>
			 <trkpt lat="36.716376" lon="-4.426286">
				 <ele>8.3</ele>
			 </trkpt>
			 <trkpt lat="36.715858" lon="-4.426342">
				 <ele>7.9</ele>
			 </trkpt>
			 <trkpt lat="36.715202" lon="-4.426374">
				 <ele>7.6</ele>
			 </trkpt>
			 <trkpt lat="36.714309" lon="-4.426396">
				 <ele>7.1</ele>
			 </trkpt>
			 <trkpt lat="36.712156" lon="-4.426401">
				 <ele>7</ele>
			 </trkpt>
			 <trkpt lat="36.711035" lon="-4.426388">
				 <ele>7.4</ele>
			 </trkpt>
			 <trkpt lat="36.709628" lon="-4.427846">
				 <ele>7</ele>
			 </trkpt>
			 <trkpt lat="36.708143" lon="-4.429121">
				 <ele>6.4</ele>
			 </trkpt>
			 <trkpt lat="36.706287" lon="-4.430748">
				 <ele>5.7</ele>
			 </trkpt>
			 <trkpt lat="36.7038" lon="-4.432751">
				 <ele>5.6</ele>
			 </trkpt>
			 <trkpt lat="36.702881" lon="-4.433436">
				 <ele>5.6</ele>
			 </trkpt>
			 <trkpt lat="36.702116" lon="-4.433983">
				 <ele>5.3</ele>
			 </trkpt>
			 <trkpt lat="36.701887" lon="-4.434179">
				 <ele>5.3</ele>
			 </trkpt>
			 <trkpt lat="36.701685" lon="-4.43442">
				 <ele>5.2</ele>
			 </trkpt>
			 <trkpt lat="36.701248" lon="-4.435031">
				 <ele>5.5</ele>
			 </trkpt>
			 <trkpt lat="36.70062" lon="-4.435862">
				 <ele>5.4</ele>
			 </trkpt>
			 <trkpt lat="36.700178" lon="-4.43629">
				 <ele>5.3</ele>
			 </trkpt>
			 <trkpt lat="36.69792" lon="-4.437944">
				 <ele>5.3</ele>
			 </trkpt>
			 <trkpt lat="36.694418" lon="-4.44047">
				 <ele>5.1</ele>
			 </trkpt>
			 <trkpt lat="36.694238" lon="-4.440673">
				 <ele>4.9</ele>
			 </trkpt>
			 <trkpt lat="36.693962" lon="-4.440762">
				 <ele>4.7</ele>
			 </trkpt>
			 <trkpt lat="36.692563" lon="-4.441587">
				 <ele>4.6</ele>
			 </trkpt>
			 <trkpt lat="36.689823" lon="-4.443211">
				 <ele>5.2</ele>
			 </trkpt>
			 <trkpt lat="36.689603" lon="-4.443429">
				 <ele>5.7</ele>
			 </trkpt>
			 <trkpt lat="36.689312" lon="-4.443508">
				 <ele>5.6</ele>
			 </trkpt>
			 <trkpt lat="36.687804" lon="-4.444392">
				 <ele>5.5</ele>
			 </trkpt>
			 <trkpt lat="36.684497" lon="-4.446358">
				 <ele>5.5</ele>
			 </trkpt>
			 <trkpt lat="36.68428" lon="-4.446564">
				 <ele>5</ele>
			 </trkpt>
			 <trkpt lat="36.684015" lon="-4.446643">
				 <ele>4.4</ele>
			 </trkpt>
			 <trkpt lat="36.681344" lon="-4.448218">
				 <ele>3.9</ele>
			 </trkpt>
			 <trkpt lat="36.680689" lon="-4.448602">
				 <ele>3.6</ele>
			 </trkpt>
			 <trkpt lat="36.680587" lon="-4.448931">
				 <ele>3.2</ele>
			 </trkpt>
			 <trkpt lat="36.682236" lon="-4.45348">
				 <ele>2.8</ele>
			 </trkpt>
			 <trkpt lat="36.682065" lon="-4.453896">
				 <ele>2.4</ele>
			 </trkpt>
			 <trkpt lat="36.681441" lon="-4.454354">
				 <ele>2.1</ele>
			 </trkpt>
			 <trkpt lat="36.681413" lon="-4.454396">
				 <ele>2.1</ele>
			 </trkpt>
			 <trkpt lat="36.681409" lon="-4.454442">
				 <ele>1.9</ele>
			 </trkpt>
			 <trkpt lat="36.681419" lon="-4.45451">
				 <ele>1.5</ele>
			 </trkpt>
			 <trkpt lat="36.681512" lon="-4.454882">
				 <ele>1.3</ele>
			 </trkpt>
			 <trkpt lat="36.681735" lon="-4.455521">
				 <ele>1.4</ele>
			 </trkpt>
			 <trkpt lat="36.682368" lon="-4.457169">
				 <ele>1.7</ele>
			 </trkpt>
			 <trkpt lat="36.683093" lon="-4.458806">
				 <ele>2.5</ele>
			 </trkpt>
			 <trkpt lat="36.683115" lon="-4.458827">
				 <ele>3.3</ele>
			 </trkpt>
			 <trkpt lat="36.683161" lon="-4.45884">
				 <ele>4.1</ele>
			 </trkpt>
			 <trkpt lat="36.685054" lon="-4.457697">
				 <ele>4.8</ele>
			 </trkpt>
			 <trkpt lat="36.685231" lon="-4.457655">
				 <ele>5.2</ele>
			 </trkpt>
			 <trkpt lat="36.685996" lon="-4.457568">
				 <ele>5.9</ele>
			 </trkpt>
			 <trkpt lat="36.686027" lon="-4.457588">
				 <ele>6.1</ele>
			 </trkpt>
			 <trkpt lat="36.686045" lon="-4.457628">
				 <ele>6</ele>
			 </trkpt>
			 <trkpt lat="36.686142" lon="-4.457885">
				 <ele>5.6</ele>
			 </trkpt>
			 <trkpt lat="36.686147" lon="-4.457927">
				 <ele>5.1</ele>
			 </trkpt>
			 <trkpt lat="36.686122" lon="-4.457956">
				 <ele>4.7</ele>
			 </trkpt>
			 <trkpt lat="36.685191" lon="-4.45857">
				 <ele>4.1</ele>
			 </trkpt>
			 <trkpt lat="36.684217" lon="-4.459084">
				 <ele>3.5</ele>
			 </trkpt>
			 <trkpt lat="36.683558" lon="-4.459479">
				 <ele>2.9</ele>
			 </trkpt>
			 <trkpt lat="36.683464" lon="-4.459545">
				 <ele>2.3</ele>
			 </trkpt>
			 <trkpt lat="36.6834" lon="-4.459623">
				 <ele>1.8</ele>
			 </trkpt>
			 <trkpt lat="36.683369" lon="-4.459693">
				 <ele>1.5</ele>
			 </trkpt>
			 <trkpt lat="36.68334" lon="-4.459769">
				 <ele>1.8</ele>
			 </trkpt>
			 <trkpt lat="36.683324" lon="-4.459863">
				 <ele>2.7</ele>
			 </trkpt>
			 <trkpt lat="36.683325" lon="-4.459952">
				 <ele>3.9</ele>
			 </trkpt>
			 <trkpt lat="36.683385" lon="-4.46035">
				 <ele>4.8</ele>
			 </trkpt>
			 <trkpt lat="36.683396" lon="-4.460452">
				 <ele>5.5</ele>
			 </trkpt>
			 <trkpt lat="36.683398" lon="-4.460547">
				 <ele>6.2</ele>
			 </trkpt>
			 <trkpt lat="36.68339" lon="-4.460658">
				 <ele>6.7</ele>
			 </trkpt>
			 <trkpt lat="36.683383" lon="-4.460744">
				 <ele>7.1</ele>
			 </trkpt>
			 <trkpt lat="36.683358" lon="-4.460841">
				 <ele>7.4</ele>
			 </trkpt>
			 <trkpt lat="36.68333" lon="-4.460954">
				 <ele>7.5</ele>
			 </trkpt>
			 <trkpt lat="36.683307" lon="-4.461007">
				 <ele>7.5</ele>
			 </trkpt>
			 <trkpt lat="36.683282" lon="-4.461069">
				 <ele>7.5</ele>
			 </trkpt>
			 <trkpt lat="36.683224" lon="-4.461179">
				 <ele>7.4</ele>
			 </trkpt>
			 <trkpt lat="36.683156" lon="-4.461281">
				 <ele>7.2</ele>
			 </trkpt>
			 <trkpt lat="36.683101" lon="-4.461348">
				 <ele>7.1</ele>
			 </trkpt>
			 <trkpt lat="36.682972" lon="-4.461464">
				 <ele>7</ele>
			 </trkpt>
			 <trkpt lat="36.682892" lon="-4.46152">
				 <ele>6.9</ele>
			 </trkpt>
			 <trkpt lat="36.6828" lon="-4.461567">
				 <ele>6.7</ele>
			 </trkpt>
			 <trkpt lat="36.682721" lon="-4.461595">
				 <ele>6.5</ele>
			 </trkpt>
			 <trkpt lat="36.68265" lon="-4.461615">
				 <ele>6.3</ele>
			 </trkpt>
			 <trkpt lat="36.682553" lon="-4.461624">
				 <ele>6.1</ele>
			 </trkpt>
			 <trkpt lat="36.682412" lon="-4.461619">
				 <ele>5.9</ele>
			 </trkpt>
			 <trkpt lat="36.682327" lon="-4.461601">
				 <ele>5.6</ele>
			 </trkpt>
			 <trkpt lat="36.68223" lon="-4.461567">
				 <ele>5.3</ele>
			 </trkpt>
			 <trkpt lat="36.682145" lon="-4.461523">
				 <ele>5.1</ele>
			 </trkpt>
			 <trkpt lat="36.681996" lon="-4.46142">
				 <ele>4.9</ele>
			 </trkpt>
			 <trkpt lat="36.681896" lon="-4.461304">
				 <ele>4.9</ele>
			 </trkpt>
			 <trkpt lat="36.681792" lon="-4.461158">
				 <ele>4.7</ele>
			 </trkpt>
			 <trkpt lat="36.681736" lon="-4.461038">
				 <ele>4.5</ele>
			 </trkpt>
			 <trkpt lat="36.681351" lon="-4.460044">
				 <ele>4.5</ele>
			 </trkpt>
			 <trkpt lat="36.681364" lon="-4.459996">
				 <ele>4.4</ele>
			 </trkpt>
			 <trkpt lat="36.68207" lon="-4.459489">
				 <ele>4.3</ele>
			 </trkpt>
			 <trkpt lat="36.682128" lon="-4.459252">
				 <ele>4.1</ele>
			 </trkpt>
			 <trkpt lat="36.681803" lon="-4.458441">
				 <ele>4.1</ele>
			 </trkpt>
			 <trkpt lat="36.681869" lon="-4.458035">
				 <ele>4.2</ele>
			 </trkpt>
			 <trkpt lat="36.681879" lon="-4.457961">
				 <ele>4.1</ele>
			 </trkpt>
			 <trkpt lat="36.681882" lon="-4.457916">
				 <ele>4</ele>
			 </trkpt>
			 <trkpt lat="36.681881" lon="-4.457877">
				 <ele>3.8</ele>
			 </trkpt>
			 <trkpt lat="36.681874" lon="-4.457823">
				 <ele>3.8</ele>
			 </trkpt>
			 <trkpt lat="36.681861" lon="-4.45777">
				 <ele>3.9</ele>
			 </trkpt>
			 <trkpt lat="36.681844" lon="-4.457721">
				 <ele>4.2</ele>
			 </trkpt>
			 <trkpt lat="36.681823" lon="-4.457677">
				 <ele>4.5</ele>
			 </trkpt>
			 <trkpt lat="36.681792" lon="-4.457629">
				 <ele>4.7</ele>
			 </trkpt>
			 <trkpt lat="36.681757" lon="-4.457591">
				 <ele>5</ele>
			 </trkpt>
			 <trkpt lat="36.681731" lon="-4.457566">
				 <ele>5.2</ele>
			 </trkpt>
			 <trkpt lat="36.681705" lon="-4.457546">
				 <ele>5.1</ele>
			 </trkpt>
			 <trkpt lat="36.681673" lon="-4.457528">
				 <ele>4.7</ele>
			 </trkpt>
			 <trkpt lat="36.681643" lon="-4.457514">
				 <ele>4.4</ele>
			 </trkpt>
			 <trkpt lat="36.681604" lon="-4.457502">
				 <ele>3.9</ele>
			 </trkpt>
			 <trkpt lat="36.681556" lon="-4.457496">
				 <ele>3.5</ele>
			 </trkpt>
			 <trkpt lat="36.681196" lon="-4.457491">
				 <ele>3</ele>
			 </trkpt>
			 <trkpt lat="36.680775" lon="-4.457484">
				 <ele>2.5</ele>
			 </trkpt>
			 <trkpt lat="36.680744" lon="-4.457488">
				 <ele>2.1</ele>
			 </trkpt>
			 <trkpt lat="36.680715" lon="-4.457495">
				 <ele>1.6</ele>
			 </trkpt>
			 <trkpt lat="36.680686" lon="-4.457505">
				 <ele>1.3</ele>
			 </trkpt>
			 <trkpt lat="36.680658" lon="-4.457517">
				 <ele>0.9</ele>
			 </trkpt>
			 <trkpt lat="36.680626" lon="-4.457536">
				 <ele>0.8</ele>
			 </trkpt>
			 <trkpt lat="36.680596" lon="-4.45756">
				 <ele>1.1</ele>
			 </trkpt>
			 <trkpt lat="36.680569" lon="-4.457587">
				 <ele>1.4</ele>
			 </trkpt>
			 <trkpt lat="36.680547" lon="-4.457614">
				 <ele>1.7</ele>
			 </trkpt>
			 <trkpt lat="36.680526" lon="-4.457643">
				 <ele>2.1</ele>
			 </trkpt>
			 <trkpt lat="36.680508" lon="-4.457675">
				 <ele>2.4</ele>
			 </trkpt>
			 <trkpt lat="36.680493" lon="-4.457709">
				 <ele>2.3</ele>
			 </trkpt>
			 <trkpt lat="36.680479" lon="-4.457748">
				 <ele>2.5</ele>
			 </trkpt>
			 <trkpt lat="36.680461" lon="-4.457828">
				 <ele>2.6</ele>
			 </trkpt>
			 <trkpt lat="36.680455" lon="-4.457911">
				 <ele>2.7</ele>
			 </trkpt>
			 <trkpt lat="36.680501" lon="-4.458408">
				 <ele>2.5</ele>
			 </trkpt>
			 <trkpt lat="36.680364" lon="-4.458765">
				 <ele>2.6</ele>
			 </trkpt>
			 <trkpt lat="36.680019" lon="-4.45938">
				 <ele>2.4</ele>
			 </trkpt>
			 <trkpt lat="36.679971" lon="-4.45937">
				 <ele>2.1</ele>
			 </trkpt>
			 <trkpt lat="36.679958" lon="-4.459321">
				 <ele>1.5</ele>
			 </trkpt>
			 <trkpt lat="36.679859" lon="-4.458243">
				 <ele>1.2</ele>
			 </trkpt>
			 <trkpt lat="36.679775" lon="-4.457432">
				 <ele>1.1</ele>
			 </trkpt>
			 <trkpt lat="36.679669" lon="-4.456622">
				 <ele>1.4</ele>
			 </trkpt>
			 <trkpt lat="36.679511" lon="-4.455575">
				 <ele>1.4</ele>
			 </trkpt>
			 <trkpt lat="36.679249" lon="-4.454202">
				 <ele>1.4</ele>
			 </trkpt>
			 <trkpt lat="36.679092" lon="-4.453429">
				 <ele>1.4</ele>
			 </trkpt>
			 <trkpt lat="36.679037" lon="-4.453163">
				 <ele>1.5</ele>
			 </trkpt>
			 <trkpt lat="36.678996" lon="-4.452904">
				 <ele>1.5</ele>
			 </trkpt>
			 <trkpt lat="36.678968" lon="-4.4526">
				 <ele>2</ele>
			 </trkpt>
			 <trkpt lat="36.678951" lon="-4.452299">
				 <ele>2.4</ele>
			 </trkpt>
			 <trkpt lat="36.678952" lon="-4.4521">
				 <ele>2.9</ele>
			 </trkpt>
			 <trkpt lat="36.678975" lon="-4.451701">
				 <ele>3</ele>
			 </trkpt>
			 <trkpt lat="36.679034" lon="-4.451196">
				 <ele>3</ele>
			 </trkpt>
			 <trkpt lat="36.679143" lon="-4.450743">
				 <ele>3.1</ele>
			 </trkpt>
			 <trkpt lat="36.679252" lon="-4.4504">
				 <ele>3.2</ele>
			 </trkpt>
			 <trkpt lat="36.679357" lon="-4.450019">
				 <ele>3.3</ele>
			 </trkpt>
			 <trkpt lat="36.679606" lon="-4.449575">
				 <ele>3.3</ele>
			 </trkpt>
			 <trkpt lat="36.679769" lon="-4.449339">
				 <ele>3.5</ele>
			 </trkpt>
			 <trkpt lat="36.68" lon="-4.44904">
				 <ele>3.1</ele>
			 </trkpt>
			 <trkpt lat="36.680237" lon="-4.448831">
				 <ele>3</ele>
			 </trkpt>
			 <trkpt lat="36.680425" lon="-4.448687">
				 <ele>3.5</ele>
			 </trkpt>
			 <trkpt lat="36.680703" lon="-4.448491">
				 <ele>3.5</ele>
			 </trkpt>
			 <trkpt lat="36.680982" lon="-4.448322">
				 <ele>3.6</ele>
			 </trkpt>
			 <trkpt lat="36.681593" lon="-4.44797">
				 <ele>4.3</ele>
			 </trkpt>
			 <trkpt lat="36.682342" lon="-4.447522">
				 <ele>4.4</ele>
			 </trkpt>
			 <trkpt lat="36.683233" lon="-4.446995">
				 <ele>4.3</ele>
			 </trkpt>
			 <trkpt lat="36.684739" lon="-4.446083">
				 <ele>3.8</ele>
			 </trkpt>
			 <trkpt lat="36.687418" lon="-4.444495">
				 <ele>3.8</ele>
			 </trkpt>
			 <trkpt lat="36.689855" lon="-4.443055">
				 <ele>3.6</ele>
			 </trkpt>
			 <trkpt lat="36.692228" lon="-4.441654">
				 <ele>3.8</ele>
			 </trkpt>
			 <trkpt lat="36.694447" lon="-4.440311">
				 <ele>3.7</ele>
			 </trkpt>
			 <trkpt lat="36.696796" lon="-4.438617">
				 <ele>3.2</ele>
			 </trkpt>
			 <trkpt lat="36.699536" lon="-4.436614">
				 <ele>3.5</ele>
			 </trkpt>
			 <trkpt lat="36.699836" lon="-4.436361">
				 <ele>3.7</ele>
			 </trkpt>
			 <trkpt lat="36.70007" lon="-4.436154">
				 <ele>3.8</ele>
			 </trkpt>
			 <trkpt lat="36.700361" lon="-4.435844">
				 <ele>4.4</ele>
			 </trkpt>
			 <trkpt lat="36.700667" lon="-4.4355">
				 <ele>5</ele>
			 </trkpt>
			 <trkpt lat="36.701418" lon="-4.434604">
				 <ele>6</ele>
			 </trkpt>
			 <trkpt lat="36.701821" lon="-4.434156">
				 <ele>6.4</ele>
			 </trkpt>
			 <trkpt lat="36.702008" lon="-4.433954">
				 <ele>6.2</ele>
			 </trkpt>
			 <trkpt lat="36.702201" lon="-4.433789">
				 <ele>6.5</ele>
			 </trkpt>
			 <trkpt lat="36.702316" lon="-4.43369">
				 <ele>6.6</ele>
			 </trkpt>
			 <trkpt lat="36.703292" lon="-4.432978">
				 <ele>6.5</ele>
			 </trkpt>
			 <trkpt lat="36.705482" lon="-4.431263">
				 <ele>6.4</ele>
			 </trkpt>
			 <trkpt lat="36.706454" lon="-4.430439">
				 <ele>6.4</ele>
			 </trkpt>
			 <trkpt lat="36.707747" lon="-4.429247">
				 <ele>6.2</ele>
			 </trkpt>
			 <trkpt lat="36.707865" lon="-4.429107">
				 <ele>6</ele>
			 </trkpt>
			 <trkpt lat="36.710208" lon="-4.426889">
				 <ele>6</ele>
			 </trkpt>
			 <trkpt lat="36.712027" lon="-4.425128">
				 <ele>6.1</ele>
			 </trkpt>
			 <trkpt lat="36.712764" lon="-4.42455">
				 <ele>6.7</ele>
			 </trkpt>
			 <trkpt lat="36.712788" lon="-4.424526">
				 <ele>8.5</ele>
			 </trkpt>
			 <trkpt lat="36.712836" lon="-4.424523">
				 <ele>10</ele>
			 </trkpt>
			 <trkpt lat="36.712902" lon="-4.424529">
				 <ele>11.8</ele>
			 </trkpt>
			 <trkpt lat="36.712964" lon="-4.424554">
				 <ele>13.1</ele>
			 </trkpt>
			 <trkpt lat="36.713155" lon="-4.42465">
				 <ele>13.7</ele>
			 </trkpt>
			 <trkpt lat="36.713519" lon="-4.424843">
				 <ele>14</ele>
			 </trkpt>
			 <trkpt lat="36.713787" lon="-4.424978">
				 <ele>14.1</ele>
			 </trkpt>
			 <trkpt lat="36.714128" lon="-4.425159">
				 <ele>14.1</ele>
			 </trkpt>
			 <trkpt lat="36.714484" lon="-4.425328">
				 <ele>14</ele>
			 </trkpt>
			 <trkpt lat="36.714989" lon="-4.425576">
				 <ele>13.9</ele>
			 </trkpt>
			 <trkpt lat="36.715128" lon="-4.425623">
				 <ele>13.5</ele>
			 </trkpt>
			 <trkpt lat="36.715233" lon="-4.425647">
				 <ele>12.8</ele>
			 </trkpt>
			 <trkpt lat="36.715334" lon="-4.425667">
				 <ele>11.7</ele>
			 </trkpt>
			 <trkpt lat="36.715518" lon="-4.42568">
				 <ele>10.3</ele>
			 </trkpt>
			 <trkpt lat="36.715678" lon="-4.4257">
				 <ele>9.5</ele>
			 </trkpt>
			 <trkpt lat="36.71573" lon="-4.425703">
				 <ele>9.4</ele>
			 </trkpt>
			 <trkpt lat="36.716616" lon="-4.425635">
				 <ele>9.4</ele>
			 </trkpt>
			 <trkpt lat="36.717921" lon="-4.425484">
				 <ele>9.5</ele>
			 </trkpt>
			 <trkpt lat="36.718221" lon="-4.425461">
				 <ele>9.5</ele>
			 </trkpt>
			 <trkpt lat="36.718512" lon="-4.425409">
				 <ele>10.2</ele>
			 </trkpt>
			 <trkpt lat="36.72026" lon="-4.425056">
				 <ele>10.8</ele>
			 </trkpt>
			 <trkpt lat="36.720589" lon="-4.425047">
				 <ele>11.6</ele>
			 </trkpt>
			 <trkpt lat="36.720625" lon="-4.425005">
				 <ele>12.4</ele>
			 </trkpt>
			 <trkpt lat="36.720636" lon="-4.424949">
				 <ele>13.3</ele>
			 </trkpt>
			 <trkpt lat="36.72073" lon="-4.424263">
				 <ele>14.6</ele>
			 </trkpt>
			 <trkpt lat="36.720782" lon="-4.424016">
				 <ele>16</ele>
			 </trkpt>
			 <trkpt lat="36.720861" lon="-4.42372">
				 <ele>17</ele>
			 </trkpt>
			 <trkpt lat="36.720892" lon="-4.423625">
				 <ele>17.8</ele>
			 </trkpt>
			 <trkpt lat="36.720922" lon="-4.42335">
				 <ele>18.5</ele>
			 </trkpt>
			 <trkpt lat="36.720906" lon="-4.42281">
				 <ele>19.3</ele>
			 </trkpt>
			 <trkpt lat="36.720906" lon="-4.422362">
				 <ele>18.8</ele>
			 </trkpt>
			 <trkpt lat="36.720919" lon="-4.421823">
				 <ele>18.2</ele>
			 </trkpt>
			 <trkpt lat="36.720918" lon="-4.421782">
				 <ele>17.3</ele>
			 </trkpt>
			 <trkpt lat="36.720912" lon="-4.421747">
				 <ele>16.7</ele>
			 </trkpt>
			 <trkpt lat="36.720867" lon="-4.421712">
				 <ele>16.4</ele>
			 </trkpt>
			 <trkpt lat="36.718508" lon="-4.421461">
				 <ele>15.7</ele>
			 </trkpt>
			 <trkpt lat="36.718123" lon="-4.421106">
				 <ele>14.6</ele>
			 </trkpt>
			 <trkpt lat="36.718106" lon="-4.421044">
				 <ele>14</ele>
			 </trkpt>
			 <trkpt lat="36.719543" lon="-4.415972">
				 <ele>13.2</ele>
			 </trkpt>
		 </trkseg>
	 </trk>
</gpx>