<?xml version="1.0" encoding="UTF-8"?>
 <gpx creator="Garmin Connect" version="1.1"
	 xsi:schemaLocation="http://www.topografix.com/GPX/1/1 http://www.topografix.com/GPX/11.xsd"
	 xmlns:ns3="http://www.garmin.com/xmlschemas/TrackPointExtension/v1"
	 xmlns="http://www.topografix.com/GPX/1/1"
	 xmlns:xsi="http://www.w3.org/2001/XMLSchema-instance" xmlns:ns2="http://www.garmin.com/xmlschemas/GpxExtensions/v3">
	 <metadata>
		<name>Marathon des Grands Crus 2025 - 42.195 km</name>
		 <link href="https://www.goandrace.com">
		 <text>Garmin Connect</text>
		 </link>
	 <time>2026-08-10T03:11:05</time>
	 </metadata>
	 <trk>
		 <name>Marathon des Grands Crus 2025 - 42.195 km</name>
		 <trkseg>
			 <trkpt lat="47.31411" lon="5.04386">
				 <ele>235</ele>
			 </trkpt>
			 <trkpt lat="47.31048" lon="5.04537">
				 <ele>235</ele>
			 </trkpt>
			 <trkpt lat="47.3091" lon="5.04592">
				 <ele>235</ele>
			 </trkpt>
			 <trkpt lat="47.30885" lon="5.04566">
				 <ele>235</ele>
			 </trkpt>
			 <trkpt lat="47.30872" lon="5.04558">
				 <ele>234.8</ele>
			 </trkpt>
			 <trkpt lat="47.30858" lon="5.04557">
				 <ele>234.6</ele>
			 </trkpt>
			 <trkpt lat="47.30844" lon="5.04563">
				 <ele>234.1</ele>
			 </trkpt>
			 <trkpt lat="47.30836" lon="5.04572">
				 <ele>234</ele>
			 </trkpt>
			 <trkpt lat="47.30828" lon="5.04586">
				 <ele>233.9</ele>
			 </trkpt>
			 <trkpt lat="47.30815" lon="5.04629">
				 <ele>233.7</ele>
			 </trkpt>
			 <trkpt lat="47.30794" lon="5.04646">
				 <ele>233.8</ele>
			 </trkpt>
			 <trkpt lat="47.30629" lon="5.04716">
				 <ele>233.6</ele>
			 </trkpt>
			 <trkpt lat="47.3059" lon="5.0473">
				 <ele>233.6</ele>
			 </trkpt>
			 <trkpt lat="47.30591" lon="5.04708">
				 <ele>233.5</ele>
			 </trkpt>
			 <trkpt lat="47.30599" lon="5.04662">
				 <ele>233.5</ele>
			 </trkpt>
			 <trkpt lat="47.30621" lon="5.0459">
				 <ele>233.6</ele>
			 </trkpt>
			 <trkpt lat="47.30701" lon="5.04402">
				 <ele>233.8</ele>
			 </trkpt>
			 <trkpt lat="47.30758" lon="5.04238">
				 <ele>233.8</ele>
			 </trkpt>
			 <trkpt lat="47.3081" lon="5.04085">
				 <ele>233.8</ele>
			 </trkpt>
			 <trkpt lat="47.30847" lon="5.03956">
				 <ele>234</ele>
			 </trkpt>
			 <trkpt lat="47.30878" lon="5.03862">
				 <ele>234.3</ele>
			 </trkpt>
			 <trkpt lat="47.30898" lon="5.03776">
				 <ele>234.3</ele>
			 </trkpt>
			 <trkpt lat="47.30883" lon="5.03559">
				 <ele>234.5</ele>
			 </trkpt>
			 <trkpt lat="47.30873" lon="5.03305">
				 <ele>234.4</ele>
			 </trkpt>
			 <trkpt lat="47.30862" lon="5.03183">
				 <ele>234.4</ele>
			 </trkpt>
			 <trkpt lat="47.30862" lon="5.03064">
				 <ele>234.3</ele>
			 </trkpt>
			 <trkpt lat="47.30857" lon="5.03042">
				 <ele>234.3</ele>
			 </trkpt>
			 <trkpt lat="47.30851" lon="5.03032">
				 <ele>234.3</ele>
			 </trkpt>
			 <trkpt lat="47.30843" lon="5.03024">
				 <ele>234.5</ele>
			 </trkpt>
			 <trkpt lat="47.30829" lon="5.03019">
				 <ele>234.6</ele>
			 </trkpt>
			 <trkpt lat="47.30747" lon="5.03037">
				 <ele>234.5</ele>
			 </trkpt>
			 <trkpt lat="47.30722" lon="5.03035">
				 <ele>234.4</ele>
			 </trkpt>
			 <trkpt lat="47.30702" lon="5.0303">
				 <ele>234.3</ele>
			 </trkpt>
			 <trkpt lat="47.30674" lon="5.03012">
				 <ele>234.2</ele>
			 </trkpt>
			 <trkpt lat="47.30656" lon="5.02994">
				 <ele>234.3</ele>
			 </trkpt>
			 <trkpt lat="47.30636" lon="5.02964">
				 <ele>234.4</ele>
			 </trkpt>
			 <trkpt lat="47.30566" lon="5.02789">
				 <ele>234.5</ele>
			 </trkpt>
			 <trkpt lat="47.30536" lon="5.02719">
				 <ele>234.5</ele>
			 </trkpt>
			 <trkpt lat="47.30519" lon="5.02686">
				 <ele>234.5</ele>
			 </trkpt>
			 <trkpt lat="47.30404" lon="5.02555">
				 <ele>234.5</ele>
			 </trkpt>
			 <trkpt lat="47.30369" lon="5.02533">
				 <ele>234.5</ele>
			 </trkpt>
			 <trkpt lat="47.30365" lon="5.02521">
				 <ele>234.7</ele>
			 </trkpt>
			 <trkpt lat="47.30359" lon="5.02512">
				 <ele>235</ele>
			 </trkpt>
			 <trkpt lat="47.30309" lon="5.025">
				 <ele>235.2</ele>
			 </trkpt>
			 <trkpt lat="47.30236" lon="5.02498">
				 <ele>235.4</ele>
			 </trkpt>
			 <trkpt lat="47.30196" lon="5.02485">
				 <ele>235.5</ele>
			 </trkpt>
			 <trkpt lat="47.30184" lon="5.02468">
				 <ele>235.7</ele>
			 </trkpt>
			 <trkpt lat="47.30178" lon="5.02447">
				 <ele>236</ele>
			 </trkpt>
			 <trkpt lat="47.3017" lon="5.02442">
				 <ele>236.4</ele>
			 </trkpt>
			 <trkpt lat="47.30162" lon="5.02442">
				 <ele>237</ele>
			 </trkpt>
			 <trkpt lat="47.30154" lon="5.02449">
				 <ele>238.2</ele>
			 </trkpt>
			 <trkpt lat="47.30143" lon="5.02466">
				 <ele>239.4</ele>
			 </trkpt>
			 <trkpt lat="47.30132" lon="5.02469">
				 <ele>240.5</ele>
			 </trkpt>
			 <trkpt lat="47.30018" lon="5.02433">
				 <ele>241.7</ele>
			 </trkpt>
			 <trkpt lat="47.29675" lon="5.02289">
				 <ele>243.1</ele>
			 </trkpt>
			 <trkpt lat="47.28649" lon="5.01869">
				 <ele>244.4</ele>
			 </trkpt>
			 <trkpt lat="47.28639" lon="5.01844">
				 <ele>245.6</ele>
			 </trkpt>
			 <trkpt lat="47.28633" lon="5.01837">
				 <ele>246.9</ele>
			 </trkpt>
			 <trkpt lat="47.28623" lon="5.01831">
				 <ele>248.1</ele>
			 </trkpt>
			 <trkpt lat="47.28656" lon="5.01744">
				 <ele>249.3</ele>
			 </trkpt>
			 <trkpt lat="47.28708" lon="5.01571">
				 <ele>250.4</ele>
			 </trkpt>
			 <trkpt lat="47.28773" lon="5.01323">
				 <ele>251</ele>
			 </trkpt>
			 <trkpt lat="47.28776" lon="5.01294">
				 <ele>251.8</ele>
			 </trkpt>
			 <trkpt lat="47.28783" lon="5.01274">
				 <ele>252.6</ele>
			 </trkpt>
			 <trkpt lat="47.28784" lon="5.0126">
				 <ele>253.5</ele>
			 </trkpt>
			 <trkpt lat="47.28879" lon="5.00992">
				 <ele>254.1</ele>
			 </trkpt>
			 <trkpt lat="47.28941" lon="5.00896">
				 <ele>254.9</ele>
			 </trkpt>
			 <trkpt lat="47.29028" lon="5.0077">
				 <ele>256</ele>
			 </trkpt>
			 <trkpt lat="47.29033" lon="5.00756">
				 <ele>257.1</ele>
			 </trkpt>
			 <trkpt lat="47.2883" lon="5.00567">
				 <ele>258.2</ele>
			 </trkpt>
			 <trkpt lat="47.28775" lon="5.00507">
				 <ele>259.2</ele>
			 </trkpt>
			 <trkpt lat="47.28685" lon="5.00426">
				 <ele>260.1</ele>
			 </trkpt>
			 <trkpt lat="47.28578" lon="5.00336">
				 <ele>260.8</ele>
			 </trkpt>
			 <trkpt lat="47.28556" lon="5.00309">
				 <ele>261.4</ele>
			 </trkpt>
			 <trkpt lat="47.28551" lon="5.00292">
				 <ele>261.9</ele>
			 </trkpt>
			 <trkpt lat="47.28544" lon="5.00284">
				 <ele>262.5</ele>
			 </trkpt>
			 <trkpt lat="47.28538" lon="5.00283">
				 <ele>263.1</ele>
			 </trkpt>
			 <trkpt lat="47.28527" lon="5.00288">
				 <ele>263.7</ele>
			 </trkpt>
			 <trkpt lat="47.28495" lon="5.00268">
				 <ele>264.1</ele>
			 </trkpt>
			 <trkpt lat="47.28472" lon="5.00225">
				 <ele>264.5</ele>
			 </trkpt>
			 <trkpt lat="47.28465" lon="5.00163">
				 <ele>265</ele>
			 </trkpt>
			 <trkpt lat="47.2845" lon="5.00123">
				 <ele>265.5</ele>
			 </trkpt>
			 <trkpt lat="47.28372" lon="4.99972">
				 <ele>265.9</ele>
			 </trkpt>
			 <trkpt lat="47.28343" lon="4.99903">
				 <ele>266.5</ele>
			 </trkpt>
			 <trkpt lat="47.28308" lon="4.99841">
				 <ele>267</ele>
			 </trkpt>
			 <trkpt lat="47.28306" lon="4.99822">
				 <ele>267.7</ele>
			 </trkpt>
			 <trkpt lat="47.28301" lon="4.99811">
				 <ele>268.7</ele>
			 </trkpt>
			 <trkpt lat="47.28284" lon="4.9979">
				 <ele>269.7</ele>
			 </trkpt>
			 <trkpt lat="47.28253" lon="4.99743">
				 <ele>270.6</ele>
			 </trkpt>
			 <trkpt lat="47.28231" lon="4.99694">
				 <ele>271.6</ele>
			 </trkpt>
			 <trkpt lat="47.28161" lon="4.99595">
				 <ele>272.7</ele>
			 </trkpt>
			 <trkpt lat="47.28104" lon="4.99446">
				 <ele>273.8</ele>
			 </trkpt>
			 <trkpt lat="47.28083" lon="4.99361">
				 <ele>274.9</ele>
			 </trkpt>
			 <trkpt lat="47.28073" lon="4.99329">
				 <ele>276</ele>
			 </trkpt>
			 <trkpt lat="47.28044" lon="4.9926">
				 <ele>276.9</ele>
			 </trkpt>
			 <trkpt lat="47.2802" lon="4.99165">
				 <ele>277.7</ele>
			 </trkpt>
			 <trkpt lat="47.27974" lon="4.99054">
				 <ele>278.5</ele>
			 </trkpt>
			 <trkpt lat="47.27955" lon="4.98929">
				 <ele>279</ele>
			 </trkpt>
			 <trkpt lat="47.2794" lon="4.98886">
				 <ele>279.4</ele>
			 </trkpt>
			 <trkpt lat="47.27934" lon="4.98897">
				 <ele>279.7</ele>
			 </trkpt>
			 <trkpt lat="47.27929" lon="4.98917">
				 <ele>279.9</ele>
			 </trkpt>
			 <trkpt lat="47.27921" lon="4.98976">
				 <ele>280</ele>
			 </trkpt>
			 <trkpt lat="47.27922" lon="4.99">
				 <ele>280</ele>
			 </trkpt>
			 <trkpt lat="47.279" lon="4.98978">
				 <ele>280</ele>
			 </trkpt>
			 <trkpt lat="47.27884" lon="4.98969">
				 <ele>279.9</ele>
			 </trkpt>
			 <trkpt lat="47.27856" lon="4.9896">
				 <ele>279.9</ele>
			 </trkpt>
			 <trkpt lat="47.27827" lon="4.98947">
				 <ele>279.9</ele>
			 </trkpt>
			 <trkpt lat="47.27796" lon="4.98925">
				 <ele>279.9</ele>
			 </trkpt>
			 <trkpt lat="47.2773" lon="4.98867">
				 <ele>279.8</ele>
			 </trkpt>
			 <trkpt lat="47.2767" lon="4.98809">
				 <ele>279.8</ele>
			 </trkpt>
			 <trkpt lat="47.27536" lon="4.98699">
				 <ele>279.8</ele>
			 </trkpt>
			 <trkpt lat="47.27522" lon="4.98695">
				 <ele>279.8</ele>
			 </trkpt>
			 <trkpt lat="47.27498" lon="4.9866">
				 <ele>279.6</ele>
			 </trkpt>
			 <trkpt lat="47.27486" lon="4.98629">
				 <ele>279.5</ele>
			 </trkpt>
			 <trkpt lat="47.27474" lon="4.9861">
				 <ele>279.5</ele>
			 </trkpt>
			 <trkpt lat="47.27464" lon="4.98602">
				 <ele>279.5</ele>
			 </trkpt>
			 <trkpt lat="47.27419" lon="4.98588">
				 <ele>279.5</ele>
			 </trkpt>
			 <trkpt lat="47.27397" lon="4.98587">
				 <ele>279.5</ele>
			 </trkpt>
			 <trkpt lat="47.27339" lon="4.98563">
				 <ele>279.4</ele>
			 </trkpt>
			 <trkpt lat="47.27286" lon="4.98552">
				 <ele>279.3</ele>
			 </trkpt>
			 <trkpt lat="47.2726" lon="4.98551">
				 <ele>279.3</ele>
			 </trkpt>
			 <trkpt lat="47.27245" lon="4.98554">
				 <ele>279.4</ele>
			 </trkpt>
			 <trkpt lat="47.27188" lon="4.98585">
				 <ele>279.6</ele>
			 </trkpt>
			 <trkpt lat="47.27176" lon="4.98589">
				 <ele>280.1</ele>
			 </trkpt>
			 <trkpt lat="47.27108" lon="4.98577">
				 <ele>280.5</ele>
			 </trkpt>
			 <trkpt lat="47.27046" lon="4.98546">
				 <ele>281</ele>
			 </trkpt>
			 <trkpt lat="47.2701" lon="4.98518">
				 <ele>281.5</ele>
			 </trkpt>
			 <trkpt lat="47.26947" lon="4.98476">
				 <ele>281.9</ele>
			 </trkpt>
			 <trkpt lat="47.26916" lon="4.98465">
				 <ele>282.4</ele>
			 </trkpt>
			 <trkpt lat="47.26894" lon="4.98461">
				 <ele>282.8</ele>
			 </trkpt>
			 <trkpt lat="47.2688" lon="4.98462">
				 <ele>283.3</ele>
			 </trkpt>
			 <trkpt lat="47.26864" lon="4.98471">
				 <ele>283.5</ele>
			 </trkpt>
			 <trkpt lat="47.26838" lon="4.98472">
				 <ele>283.5</ele>
			 </trkpt>
			 <trkpt lat="47.26808" lon="4.98464">
				 <ele>283.3</ele>
			 </trkpt>
			 <trkpt lat="47.26807" lon="4.9847">
				 <ele>282.9</ele>
			 </trkpt>
			 <trkpt lat="47.26756" lon="4.9844">
				 <ele>282.5</ele>
			 </trkpt>
			 <trkpt lat="47.26673" lon="4.98384">
				 <ele>282.3</ele>
			 </trkpt>
			 <trkpt lat="47.26634" lon="4.98366">
				 <ele>282.1</ele>
			 </trkpt>
			 <trkpt lat="47.26609" lon="4.9835">
				 <ele>281.9</ele>
			 </trkpt>
			 <trkpt lat="47.26586" lon="4.98331">
				 <ele>281.9</ele>
			 </trkpt>
			 <trkpt lat="47.26574" lon="4.98314">
				 <ele>282.2</ele>
			 </trkpt>
			 <trkpt lat="47.26566" lon="4.98309">
				 <ele>282.5</ele>
			 </trkpt>
			 <trkpt lat="47.26445" lon="4.98249">
				 <ele>283.1</ele>
			 </trkpt>
			 <trkpt lat="47.26364" lon="4.98237">
				 <ele>283.6</ele>
			 </trkpt>
			 <trkpt lat="47.26284" lon="4.98198">
				 <ele>284.2</ele>
			 </trkpt>
			 <trkpt lat="47.26186" lon="4.98112">
				 <ele>284.8</ele>
			 </trkpt>
			 <trkpt lat="47.26171" lon="4.98103">
				 <ele>285.7</ele>
			 </trkpt>
			 <trkpt lat="47.26167" lon="4.98103">
				 <ele>286.5</ele>
			 </trkpt>
			 <trkpt lat="47.26152" lon="4.98116">
				 <ele>287.5</ele>
			 </trkpt>
			 <trkpt lat="47.26142" lon="4.9813">
				 <ele>288.4</ele>
			 </trkpt>
			 <trkpt lat="47.26137" lon="4.98117">
				 <ele>289.1</ele>
			 </trkpt>
			 <trkpt lat="47.26081" lon="4.98066">
				 <ele>289.5</ele>
			 </trkpt>
			 <trkpt lat="47.26056" lon="4.98034">
				 <ele>289.8</ele>
			 </trkpt>
			 <trkpt lat="47.26059" lon="4.97982">
				 <ele>289.9</ele>
			 </trkpt>
			 <trkpt lat="47.26036" lon="4.97946">
				 <ele>290.1</ele>
			 </trkpt>
			 <trkpt lat="47.26027" lon="4.97939">
				 <ele>290.2</ele>
			 </trkpt>
			 <trkpt lat="47.26013" lon="4.97934">
				 <ele>290.4</ele>
			 </trkpt>
			 <trkpt lat="47.25955" lon="4.97918">
				 <ele>290.4</ele>
			 </trkpt>
			 <trkpt lat="47.25906" lon="4.9792">
				 <ele>290.5</ele>
			 </trkpt>
			 <trkpt lat="47.25881" lon="4.97912">
				 <ele>290.7</ele>
			 </trkpt>
			 <trkpt lat="47.25859" lon="4.97893">
				 <ele>290.6</ele>
			 </trkpt>
			 <trkpt lat="47.25816" lon="4.97829">
				 <ele>290.7</ele>
			 </trkpt>
			 <trkpt lat="47.25793" lon="4.9781">
				 <ele>290.9</ele>
			 </trkpt>
			 <trkpt lat="47.25759" lon="4.97791">
				 <ele>291.3</ele>
			 </trkpt>
			 <trkpt lat="47.25579" lon="4.97717">
				 <ele>291.8</ele>
			 </trkpt>
			 <trkpt lat="47.25357" lon="4.97694">
				 <ele>292.2</ele>
			 </trkpt>
			 <trkpt lat="47.24994" lon="4.9754">
				 <ele>292.7</ele>
			 </trkpt>
			 <trkpt lat="47.24957" lon="4.9752">
				 <ele>293.3</ele>
			 </trkpt>
			 <trkpt lat="47.24896" lon="4.97493">
				 <ele>293.7</ele>
			 </trkpt>
			 <trkpt lat="47.24872" lon="4.97485">
				 <ele>294</ele>
			 </trkpt>
			 <trkpt lat="47.24736" lon="4.97418">
				 <ele>294</ele>
			 </trkpt>
			 <trkpt lat="47.24701" lon="4.97404">
				 <ele>294.3</ele>
			 </trkpt>
			 <trkpt lat="47.24665" lon="4.97399">
				 <ele>294.3</ele>
			 </trkpt>
			 <trkpt lat="47.24644" lon="4.97392">
				 <ele>294</ele>
			 </trkpt>
			 <trkpt lat="47.2461" lon="4.97374">
				 <ele>293.6</ele>
			 </trkpt>
			 <trkpt lat="47.24561" lon="4.97336">
				 <ele>293.3</ele>
			 </trkpt>
			 <trkpt lat="47.24538" lon="4.97323">
				 <ele>293.1</ele>
			 </trkpt>
			 <trkpt lat="47.24496" lon="4.9731">
				 <ele>293</ele>
			 </trkpt>
			 <trkpt lat="47.24448" lon="4.97287">
				 <ele>292.8</ele>
			 </trkpt>
			 <trkpt lat="47.24431" lon="4.97288">
				 <ele>292.6</ele>
			 </trkpt>
			 <trkpt lat="47.24415" lon="4.97285">
				 <ele>292.5</ele>
			 </trkpt>
			 <trkpt lat="47.24385" lon="4.97268">
				 <ele>292.3</ele>
			 </trkpt>
			 <trkpt lat="47.24341" lon="4.9723">
				 <ele>292.1</ele>
			 </trkpt>
			 <trkpt lat="47.24313" lon="4.97228">
				 <ele>291.8</ele>
			 </trkpt>
			 <trkpt lat="47.24291" lon="4.9722">
				 <ele>291.7</ele>
			 </trkpt>
			 <trkpt lat="47.2426" lon="4.97204">
				 <ele>291.7</ele>
			 </trkpt>
			 <trkpt lat="47.24238" lon="4.97197">
				 <ele>291.9</ele>
			 </trkpt>
			 <trkpt lat="47.24214" lon="4.97196">
				 <ele>292.4</ele>
			 </trkpt>
			 <trkpt lat="47.24176" lon="4.97208">
				 <ele>292.6</ele>
			 </trkpt>
			 <trkpt lat="47.24157" lon="4.97208">
				 <ele>292.8</ele>
			 </trkpt>
			 <trkpt lat="47.24091" lon="4.97181">
				 <ele>292.9</ele>
			 </trkpt>
			 <trkpt lat="47.24054" lon="4.97162">
				 <ele>292.9</ele>
			 </trkpt>
			 <trkpt lat="47.23948" lon="4.97098">
				 <ele>292.9</ele>
			 </trkpt>
			 <trkpt lat="47.23882" lon="4.97049">
				 <ele>292.9</ele>
			 </trkpt>
			 <trkpt lat="47.23837" lon="4.97021">
				 <ele>293.2</ele>
			 </trkpt>
			 <trkpt lat="47.23816" lon="4.97015">
				 <ele>293.5</ele>
			 </trkpt>
			 <trkpt lat="47.2376" lon="4.97016">
				 <ele>293.5</ele>
			 </trkpt>
			 <trkpt lat="47.23722" lon="4.97008">
				 <ele>292.7</ele>
			 </trkpt>
			 <trkpt lat="47.23417" lon="4.969">
				 <ele>291.7</ele>
			 </trkpt>
			 <trkpt lat="47.23376" lon="4.96882">
				 <ele>290.7</ele>
			 </trkpt>
			 <trkpt lat="47.23242" lon="4.96805">
				 <ele>289.7</ele>
			 </trkpt>
			 <trkpt lat="47.23052" lon="4.96753">
				 <ele>288.7</ele>
			 </trkpt>
			 <trkpt lat="47.22893" lon="4.96719">
				 <ele>287.6</ele>
			 </trkpt>
			 <trkpt lat="47.22816" lon="4.96685">
				 <ele>286.5</ele>
			 </trkpt>
			 <trkpt lat="47.22806" lon="4.96684">
				 <ele>285.3</ele>
			 </trkpt>
			 <trkpt lat="47.228" lon="4.96689">
				 <ele>284.1</ele>
			 </trkpt>
			 <trkpt lat="47.22792" lon="4.96703">
				 <ele>282.8</ele>
			 </trkpt>
			 <trkpt lat="47.22777" lon="4.96743">
				 <ele>281.8</ele>
			 </trkpt>
			 <trkpt lat="47.22711" lon="4.96885">
				 <ele>281.2</ele>
			 </trkpt>
			 <trkpt lat="47.2266" lon="4.9691">
				 <ele>280.5</ele>
			 </trkpt>
			 <trkpt lat="47.22607" lon="4.96915">
				 <ele>279.9</ele>
			 </trkpt>
			 <trkpt lat="47.226" lon="4.96921">
				 <ele>279.3</ele>
			 </trkpt>
			 <trkpt lat="47.22587" lon="4.97012">
				 <ele>278.7</ele>
			 </trkpt>
			 <trkpt lat="47.22555" lon="4.97024">
				 <ele>278.5</ele>
			 </trkpt>
			 <trkpt lat="47.22538" lon="4.97033">
				 <ele>278.4</ele>
			 </trkpt>
			 <trkpt lat="47.22492" lon="4.97068">
				 <ele>278.4</ele>
			 </trkpt>
			 <trkpt lat="47.22491" lon="4.97073">
				 <ele>278.3</ele>
			 </trkpt>
			 <trkpt lat="47.22464" lon="4.97068">
				 <ele>278.2</ele>
			 </trkpt>
			 <trkpt lat="47.22456" lon="4.97057">
				 <ele>278.2</ele>
			 </trkpt>
			 <trkpt lat="47.22452" lon="4.97046">
				 <ele>278.3</ele>
			 </trkpt>
			 <trkpt lat="47.22448" lon="4.97021">
				 <ele>278.3</ele>
			 </trkpt>
			 <trkpt lat="47.22427" lon="4.96993">
				 <ele>278.2</ele>
			 </trkpt>
			 <trkpt lat="47.22405" lon="4.96971">
				 <ele>278.2</ele>
			 </trkpt>
			 <trkpt lat="47.22397" lon="4.96966">
				 <ele>278</ele>
			 </trkpt>
			 <trkpt lat="47.22386" lon="4.96964">
				 <ele>277.6</ele>
			 </trkpt>
			 <trkpt lat="47.22365" lon="4.96966">
				 <ele>277.3</ele>
			 </trkpt>
			 <trkpt lat="47.22342" lon="4.96978">
				 <ele>276.8</ele>
			 </trkpt>
			 <trkpt lat="47.22321" lon="4.96984">
				 <ele>276.3</ele>
			 </trkpt>
			 <trkpt lat="47.22266" lon="4.96993">
				 <ele>275.7</ele>
			 </trkpt>
			 <trkpt lat="47.22253" lon="4.96995">
				 <ele>275.2</ele>
			 </trkpt>
			 <trkpt lat="47.22231" lon="4.96992">
				 <ele>274.5</ele>
			 </trkpt>
			 <trkpt lat="47.2221" lon="4.96983">
				 <ele>274</ele>
			 </trkpt>
			 <trkpt lat="47.22142" lon="4.96946">
				 <ele>273.5</ele>
			 </trkpt>
			 <trkpt lat="47.22072" lon="4.96928">
				 <ele>272.9</ele>
			 </trkpt>
			 <trkpt lat="47.21978" lon="4.96896">
				 <ele>272.7</ele>
			 </trkpt>
			 <trkpt lat="47.21901" lon="4.96859">
				 <ele>272.6</ele>
			 </trkpt>
			 <trkpt lat="47.21876" lon="4.9685">
				 <ele>272.5</ele>
			 </trkpt>
			 <trkpt lat="47.21846" lon="4.96843">
				 <ele>272.5</ele>
			 </trkpt>
			 <trkpt lat="47.21766" lon="4.96832">
				 <ele>272.4</ele>
			 </trkpt>
			 <trkpt lat="47.21581" lon="4.96763">
				 <ele>272.3</ele>
			 </trkpt>
			 <trkpt lat="47.21503" lon="4.96724">
				 <ele>272.3</ele>
			 </trkpt>
			 <trkpt lat="47.21473" lon="4.96713">
				 <ele>272.4</ele>
			 </trkpt>
			 <trkpt lat="47.21452" lon="4.96714">
				 <ele>272.5</ele>
			 </trkpt>
			 <trkpt lat="47.21411" lon="4.96726">
				 <ele>272.7</ele>
			 </trkpt>
			 <trkpt lat="47.21395" lon="4.96727">
				 <ele>273.4</ele>
			 </trkpt>
			 <trkpt lat="47.21372" lon="4.96723">
				 <ele>273.8</ele>
			 </trkpt>
			 <trkpt lat="47.21234" lon="4.96656">
				 <ele>274.4</ele>
			 </trkpt>
			 <trkpt lat="47.21215" lon="4.96649">
				 <ele>275</ele>
			 </trkpt>
			 <trkpt lat="47.21153" lon="4.96634">
				 <ele>275.6</ele>
			 </trkpt>
			 <trkpt lat="47.21017" lon="4.96582">
				 <ele>275.7</ele>
			 </trkpt>
			 <trkpt lat="47.20986" lon="4.96567">
				 <ele>275.6</ele>
			 </trkpt>
			 <trkpt lat="47.20946" lon="4.96537">
				 <ele>275.2</ele>
			 </trkpt>
			 <trkpt lat="47.20923" lon="4.96525">
				 <ele>274.7</ele>
			 </trkpt>
			 <trkpt lat="47.20902" lon="4.9652">
				 <ele>274.2</ele>
			 </trkpt>
			 <trkpt lat="47.20712" lon="4.96538">
				 <ele>273.5</ele>
			 </trkpt>
			 <trkpt lat="47.20677" lon="4.96546">
				 <ele>272.5</ele>
			 </trkpt>
			 <trkpt lat="47.20623" lon="4.96573">
				 <ele>271.5</ele>
			 </trkpt>
			 <trkpt lat="47.2061" lon="4.96576">
				 <ele>271</ele>
			 </trkpt>
			 <trkpt lat="47.20508" lon="4.96568">
				 <ele>270.4</ele>
			 </trkpt>
			 <trkpt lat="47.2046" lon="4.96562">
				 <ele>269.8</ele>
			 </trkpt>
			 <trkpt lat="47.20412" lon="4.96542">
				 <ele>269.9</ele>
			 </trkpt>
			 <trkpt lat="47.20254" lon="4.96504">
				 <ele>270.5</ele>
			 </trkpt>
			 <trkpt lat="47.20046" lon="4.96417">
				 <ele>271.6</ele>
			 </trkpt>
			 <trkpt lat="47.20015" lon="4.96403">
				 <ele>272.7</ele>
			 </trkpt>
			 <trkpt lat="47.19995" lon="4.96391">
				 <ele>273.9</ele>
			 </trkpt>
			 <trkpt lat="47.19975" lon="4.96375">
				 <ele>275.2</ele>
			 </trkpt>
			 <trkpt lat="47.19924" lon="4.96294">
				 <ele>276.4</ele>
			 </trkpt>
			 <trkpt lat="47.19911" lon="4.96252">
				 <ele>277.3</ele>
			 </trkpt>
			 <trkpt lat="47.199" lon="4.96234">
				 <ele>277.7</ele>
			 </trkpt>
			 <trkpt lat="47.1989" lon="4.96225">
				 <ele>277.9</ele>
			 </trkpt>
			 <trkpt lat="47.19877" lon="4.9622">
				 <ele>277.9</ele>
			 </trkpt>
			 <trkpt lat="47.19863" lon="4.96222">
				 <ele>277.5</ele>
			 </trkpt>
			 <trkpt lat="47.19837" lon="4.96247">
				 <ele>276.4</ele>
			 </trkpt>
			 <trkpt lat="47.19828" lon="4.96248">
				 <ele>275.1</ele>
			 </trkpt>
			 <trkpt lat="47.19762" lon="4.96224">
				 <ele>273.8</ele>
			 </trkpt>
			 <trkpt lat="47.19738" lon="4.96212">
				 <ele>272.5</ele>
			 </trkpt>
			 <trkpt lat="47.19656" lon="4.96209">
				 <ele>271</ele>
			 </trkpt>
			 <trkpt lat="47.19568" lon="4.96181">
				 <ele>270.3</ele>
			 </trkpt>
			 <trkpt lat="47.19555" lon="4.9618">
				 <ele>269.7</ele>
			 </trkpt>
			 <trkpt lat="47.1947" lon="4.96117">
				 <ele>269.2</ele>
			 </trkpt>
			 <trkpt lat="47.19406" lon="4.96075">
				 <ele>269</ele>
			 </trkpt>
			 <trkpt lat="47.19359" lon="4.96048">
				 <ele>268.9</ele>
			 </trkpt>
			 <trkpt lat="47.19169" lon="4.95906">
				 <ele>269.2</ele>
			 </trkpt>
			 <trkpt lat="47.19142" lon="4.95888">
				 <ele>269.6</ele>
			 </trkpt>
			 <trkpt lat="47.19025" lon="4.95833">
				 <ele>270.3</ele>
			 </trkpt>
			 <trkpt lat="47.18975" lon="4.9579">
				 <ele>270.9</ele>
			 </trkpt>
			 <trkpt lat="47.18906" lon="4.95721">
				 <ele>271.6</ele>
			 </trkpt>
			 <trkpt lat="47.18883" lon="4.95703">
				 <ele>272.5</ele>
			 </trkpt>
			 <trkpt lat="47.18822" lon="4.95676">
				 <ele>272.5</ele>
			 </trkpt>
			 <trkpt lat="47.18742" lon="4.95587">
				 <ele>272.7</ele>
			 </trkpt>
			 <trkpt lat="47.18721" lon="4.9556">
				 <ele>273.3</ele>
			 </trkpt>
			 <trkpt lat="47.18689" lon="4.95511">
				 <ele>273.9</ele>
			 </trkpt>
			 <trkpt lat="47.1868" lon="4.95504">
				 <ele>274.8</ele>
			 </trkpt>
			 <trkpt lat="47.18664" lon="4.95504">
				 <ele>275.5</ele>
			 </trkpt>
			 <trkpt lat="47.18631" lon="4.95418">
				 <ele>276.4</ele>
			 </trkpt>
			 <trkpt lat="47.18616" lon="4.95304">
				 <ele>277</ele>
			 </trkpt>
			 <trkpt lat="47.18614" lon="4.95265">
				 <ele>277.5</ele>
			 </trkpt>
			 <trkpt lat="47.18602" lon="4.95166">
				 <ele>278</ele>
			 </trkpt>
			 <trkpt lat="47.18556" lon="4.95173">
				 <ele>278.2</ele>
			 </trkpt>
			 <trkpt lat="47.18503" lon="4.95192">
				 <ele>278.2</ele>
			 </trkpt>
			 <trkpt lat="47.18497" lon="4.95212">
				 <ele>277.7</ele>
			 </trkpt>
			 <trkpt lat="47.18493" lon="4.95262">
				 <ele>276.8</ele>
			 </trkpt>
			 <trkpt lat="47.18486" lon="4.95294">
				 <ele>275.5</ele>
			 </trkpt>
			 <trkpt lat="47.18453" lon="4.95379">
				 <ele>273.8</ele>
			 </trkpt>
			 <trkpt lat="47.1843" lon="4.95425">
				 <ele>272.5</ele>
			 </trkpt>
			 <trkpt lat="47.18341" lon="4.95585">
				 <ele>271</ele>
			 </trkpt>
			 <trkpt lat="47.18254" lon="4.95697">
				 <ele>269.5</ele>
			 </trkpt>
			 <trkpt lat="47.18177" lon="4.95776">
				 <ele>268.1</ele>
			 </trkpt>
			 <trkpt lat="47.18223" lon="4.9581">
				 <ele>266.7</ele>
			 </trkpt>
			 <trkpt lat="47.18278" lon="4.95775">
				 <ele>265.8</ele>
			 </trkpt>
			 <trkpt lat="47.1831" lon="4.95782">
				 <ele>265.1</ele>
			 </trkpt>
			 <trkpt lat="47.18376" lon="4.95775">
				 <ele>264.8</ele>
			 </trkpt>
			 <trkpt lat="47.18397" lon="4.95766">
				 <ele>264.8</ele>
			 </trkpt>
			 <trkpt lat="47.18422" lon="4.95744">
				 <ele>265</ele>
			 </trkpt>
			 <trkpt lat="47.18467" lon="4.95684">
				 <ele>265.4</ele>
			 </trkpt>
			 <trkpt lat="47.18492" lon="4.95661">
				 <ele>265.7</ele>
			 </trkpt>
			 <trkpt lat="47.18529" lon="4.95635">
				 <ele>266.5</ele>
			 </trkpt>
			 <trkpt lat="47.18573" lon="4.95599">
				 <ele>267.3</ele>
			 </trkpt>
			 <trkpt lat="47.1858" lon="4.95597">
				 <ele>268.2</ele>
			 </trkpt>
			 <trkpt lat="47.18596" lon="4.95599">
				 <ele>269</ele>
			 </trkpt>
			 <trkpt lat="47.18601" lon="4.95593">
				 <ele>269.5</ele>
			 </trkpt>
			 <trkpt lat="47.18614" lon="4.95508">
				 <ele>269.9</ele>
			 </trkpt>
			 <trkpt lat="47.18656" lon="4.95483">
				 <ele>270</ele>
			 </trkpt>
			 <trkpt lat="47.18664" lon="4.95505">
				 <ele>269.5</ele>
			 </trkpt>
			 <trkpt lat="47.18663" lon="4.95514">
				 <ele>268.9</ele>
			 </trkpt>
			 <trkpt lat="47.18674" lon="4.95555">
				 <ele>268.3</ele>
			 </trkpt>
			 <trkpt lat="47.18681" lon="4.95614">
				 <ele>267.5</ele>
			 </trkpt>
			 <trkpt lat="47.1868" lon="4.95667">
				 <ele>266.3</ele>
			 </trkpt>
			 <trkpt lat="47.18666" lon="4.95794">
				 <ele>265</ele>
			 </trkpt>
			 <trkpt lat="47.18664" lon="4.95859">
				 <ele>263.8</ele>
			 </trkpt>
			 <trkpt lat="47.18661" lon="4.95877">
				 <ele>262.8</ele>
			 </trkpt>
			 <trkpt lat="47.18625" lon="4.95974">
				 <ele>262.1</ele>
			 </trkpt>
			 <trkpt lat="47.18622" lon="4.95999">
				 <ele>261.6</ele>
			 </trkpt>
			 <trkpt lat="47.18628" lon="4.96021">
				 <ele>261.5</ele>
			 </trkpt>
			 <trkpt lat="47.18651" lon="4.96025">
				 <ele>261.6</ele>
			 </trkpt>
			 <trkpt lat="47.18718" lon="4.96024">
				 <ele>261.8</ele>
			 </trkpt>
			 <trkpt lat="47.18827" lon="4.96049">
				 <ele>262.1</ele>
			 </trkpt>
			 <trkpt lat="47.18873" lon="4.96049">
				 <ele>262.5</ele>
			 </trkpt>
			 <trkpt lat="47.18937" lon="4.96053">
				 <ele>263.3</ele>
			 </trkpt>
			 <trkpt lat="47.18987" lon="4.9606">
				 <ele>264</ele>
			 </trkpt>
			 <trkpt lat="47.19002" lon="4.9606">
				 <ele>264.6</ele>
			 </trkpt>
			 <trkpt lat="47.19037" lon="4.96051">
				 <ele>265.2</ele>
			 </trkpt>
			 <trkpt lat="47.19053" lon="4.96043">
				 <ele>265.4</ele>
			 </trkpt>
			 <trkpt lat="47.19129" lon="4.95986">
				 <ele>265.5</ele>
			 </trkpt>
			 <trkpt lat="47.19143" lon="4.95979">
				 <ele>265.5</ele>
			 </trkpt>
			 <trkpt lat="47.19154" lon="4.95978">
				 <ele>265.6</ele>
			 </trkpt>
			 <trkpt lat="47.19169" lon="4.95981">
				 <ele>265.6</ele>
			 </trkpt>
			 <trkpt lat="47.19228" lon="4.95997">
				 <ele>265.8</ele>
			 </trkpt>
			 <trkpt lat="47.19264" lon="4.95996">
				 <ele>265.9</ele>
			 </trkpt>
			 <trkpt lat="47.19297" lon="4.96008">
				 <ele>265.8</ele>
			 </trkpt>
			 <trkpt lat="47.19302" lon="4.96005">
				 <ele>265.7</ele>
			 </trkpt>
			 <trkpt lat="47.19367" lon="4.96054">
				 <ele>265.9</ele>
			 </trkpt>
			 <trkpt lat="47.19461" lon="4.9611">
				 <ele>266.2</ele>
			 </trkpt>
			 <trkpt lat="47.19555" lon="4.96182">
				 <ele>266.8</ele>
			 </trkpt>
			 <trkpt lat="47.19561" lon="4.9618">
				 <ele>267.5</ele>
			 </trkpt>
			 <trkpt lat="47.19571" lon="4.96182">
				 <ele>268.7</ele>
			 </trkpt>
			 <trkpt lat="47.19653" lon="4.96208">
				 <ele>269.9</ele>
			 </trkpt>
			 <trkpt lat="47.19676" lon="4.96211">
				 <ele>271.4</ele>
			 </trkpt>
			 <trkpt lat="47.19698" lon="4.96209">
				 <ele>272.6</ele>
			 </trkpt>
			 <trkpt lat="47.19734" lon="4.96211">
				 <ele>273.9</ele>
			 </trkpt>
			 <trkpt lat="47.19827" lon="4.96248">
				 <ele>275.2</ele>
			 </trkpt>
			 <trkpt lat="47.19837" lon="4.96246">
				 <ele>276.3</ele>
			 </trkpt>
			 <trkpt lat="47.19867" lon="4.9622">
				 <ele>276.7</ele>
			 </trkpt>
			 <trkpt lat="47.19874" lon="4.96219">
				 <ele>277.1</ele>
			 </trkpt>
			 <trkpt lat="47.19888" lon="4.96224">
				 <ele>277.2</ele>
			 </trkpt>
			 <trkpt lat="47.19905" lon="4.96239">
				 <ele>276.6</ele>
			 </trkpt>
			 <trkpt lat="47.19927" lon="4.963">
				 <ele>275.6</ele>
			 </trkpt>
			 <trkpt lat="47.19972" lon="4.96374">
				 <ele>274.5</ele>
			 </trkpt>
			 <trkpt lat="47.19983" lon="4.96384">
				 <ele>273.4</ele>
			 </trkpt>
			 <trkpt lat="47.20012" lon="4.964">
				 <ele>272.3</ele>
			 </trkpt>
			 <trkpt lat="47.20257" lon="4.96505">
				 <ele>271.2</ele>
			 </trkpt>
			 <trkpt lat="47.20412" lon="4.96542">
				 <ele>270.3</ele>
			 </trkpt>
			 <trkpt lat="47.20458" lon="4.96561">
				 <ele>269.7</ele>
			 </trkpt>
			 <trkpt lat="47.20524" lon="4.96569">
				 <ele>269.6</ele>
			 </trkpt>
			 <trkpt lat="47.20613" lon="4.96576">
				 <ele>270.1</ele>
			 </trkpt>
			 <trkpt lat="47.20626" lon="4.96572">
				 <ele>270.7</ele>
			 </trkpt>
			 <trkpt lat="47.20664" lon="4.96551">
				 <ele>271.8</ele>
			 </trkpt>
			 <trkpt lat="47.20692" lon="4.96542">
				 <ele>272.9</ele>
			 </trkpt>
			 <trkpt lat="47.20724" lon="4.96537">
				 <ele>274</ele>
			 </trkpt>
			 <trkpt lat="47.20893" lon="4.96522">
				 <ele>275</ele>
			 </trkpt>
			 <trkpt lat="47.20906" lon="4.96522">
				 <ele>275.5</ele>
			 </trkpt>
			 <trkpt lat="47.20928" lon="4.96527">
				 <ele>276</ele>
			 </trkpt>
			 <trkpt lat="47.20949" lon="4.96539">
				 <ele>276.3</ele>
			 </trkpt>
			 <trkpt lat="47.20987" lon="4.96567">
				 <ele>276.3</ele>
			 </trkpt>
			 <trkpt lat="47.2101" lon="4.96579">
				 <ele>276.4</ele>
			 </trkpt>
			 <trkpt lat="47.21141" lon="4.96631">
				 <ele>275.8</ele>
			 </trkpt>
			 <trkpt lat="47.21228" lon="4.96653">
				 <ele>275.2</ele>
			 </trkpt>
			 <trkpt lat="47.21372" lon="4.96724">
				 <ele>274.4</ele>
			 </trkpt>
			 <trkpt lat="47.21394" lon="4.96728">
				 <ele>273.6</ele>
			 </trkpt>
			 <trkpt lat="47.21464" lon="4.96712">
				 <ele>273.1</ele>
			 </trkpt>
			 <trkpt lat="47.21483" lon="4.96717">
				 <ele>272.6</ele>
			 </trkpt>
			 <trkpt lat="47.2157" lon="4.96759">
				 <ele>272.5</ele>
			 </trkpt>
			 <trkpt lat="47.21709" lon="4.96813">
				 <ele>272.5</ele>
			 </trkpt>
			 <trkpt lat="47.21769" lon="4.96832">
				 <ele>272.5</ele>
			 </trkpt>
			 <trkpt lat="47.21877" lon="4.96849">
				 <ele>272.7</ele>
			 </trkpt>
			 <trkpt lat="47.21993" lon="4.96901">
				 <ele>272.7</ele>
			 </trkpt>
			 <trkpt lat="47.22052" lon="4.96922">
				 <ele>272.8</ele>
			 </trkpt>
			 <trkpt lat="47.22117" lon="4.96938">
				 <ele>273.2</ele>
			 </trkpt>
			 <trkpt lat="47.22161" lon="4.96954">
				 <ele>273.8</ele>
			 </trkpt>
			 <trkpt lat="47.22219" lon="4.96988">
				 <ele>274.5</ele>
			 </trkpt>
			 <trkpt lat="47.2224" lon="4.96994">
				 <ele>275.1</ele>
			 </trkpt>
			 <trkpt lat="47.22257" lon="4.96994">
				 <ele>275.6</ele>
			 </trkpt>
			 <trkpt lat="47.22342" lon="4.9698">
				 <ele>276.2</ele>
			 </trkpt>
			 <trkpt lat="47.22362" lon="4.96968">
				 <ele>276.7</ele>
			 </trkpt>
			 <trkpt lat="47.2238" lon="4.96964">
				 <ele>277.2</ele>
			 </trkpt>
			 <trkpt lat="47.22395" lon="4.96966">
				 <ele>277.5</ele>
			 </trkpt>
			 <trkpt lat="47.22408" lon="4.96974">
				 <ele>277.8</ele>
			 </trkpt>
			 <trkpt lat="47.22438" lon="4.97006">
				 <ele>278.1</ele>
			 </trkpt>
			 <trkpt lat="47.22447" lon="4.9702">
				 <ele>278.2</ele>
			 </trkpt>
			 <trkpt lat="47.22453" lon="4.97049">
				 <ele>278.2</ele>
			 </trkpt>
			 <trkpt lat="47.2246" lon="4.97063">
				 <ele>278.3</ele>
			 </trkpt>
			 <trkpt lat="47.2247" lon="4.97072">
				 <ele>278.4</ele>
			 </trkpt>
			 <trkpt lat="47.22491" lon="4.97073">
				 <ele>278.5</ele>
			 </trkpt>
			 <trkpt lat="47.22493" lon="4.97068">
				 <ele>278.5</ele>
			 </trkpt>
			 <trkpt lat="47.22543" lon="4.97029">
				 <ele>278.5</ele>
			 </trkpt>
			 <trkpt lat="47.22587" lon="4.97012">
				 <ele>278.5</ele>
			 </trkpt>
			 <trkpt lat="47.226" lon="4.96921">
				 <ele>278.6</ele>
			 </trkpt>
			 <trkpt lat="47.22606" lon="4.96915">
				 <ele>279</ele>
			 </trkpt>
			 <trkpt lat="47.22635" lon="4.96914">
				 <ele>279.6</ele>
			 </trkpt>
			 <trkpt lat="47.2266" lon="4.9691">
				 <ele>280.2</ele>
			 </trkpt>
			 <trkpt lat="47.22709" lon="4.96886">
				 <ele>280.8</ele>
			 </trkpt>
			 <trkpt lat="47.2272" lon="4.9687">
				 <ele>281.4</ele>
			 </trkpt>
			 <trkpt lat="47.22776" lon="4.96748">
				 <ele>281.8</ele>
			 </trkpt>
			 <trkpt lat="47.22795" lon="4.96696">
				 <ele>282.5</ele>
			 </trkpt>
			 <trkpt lat="47.22806" lon="4.96685">
				 <ele>283.5</ele>
			 </trkpt>
			 <trkpt lat="47.22816" lon="4.96685">
				 <ele>284.8</ele>
			 </trkpt>
			 <trkpt lat="47.22869" lon="4.96711">
				 <ele>286.2</ele>
			 </trkpt>
			 <trkpt lat="47.22893" lon="4.9672">
				 <ele>287.5</ele>
			 </trkpt>
			 <trkpt lat="47.22975" lon="4.96735">
				 <ele>288.5</ele>
			 </trkpt>
			 <trkpt lat="47.23052" lon="4.96753">
				 <ele>289.3</ele>
			 </trkpt>
			 <trkpt lat="47.23203" lon="4.96794">
				 <ele>290</ele>
			 </trkpt>
			 <trkpt lat="47.23255" lon="4.96811">
				 <ele>290.7</ele>
			 </trkpt>
			 <trkpt lat="47.23352" lon="4.96869">
				 <ele>290.9</ele>
			 </trkpt>
			 <trkpt lat="47.23385" lon="4.96886">
				 <ele>290.6</ele>
			 </trkpt>
			 <trkpt lat="47.23582" lon="4.9696">
				 <ele>289.7</ele>
			 </trkpt>
			 <trkpt lat="47.23733" lon="4.97011">
				 <ele>288.4</ele>
			 </trkpt>
			 <trkpt lat="47.23776" lon="4.97017">
				 <ele>286.7</ele>
			 </trkpt>
			 <trkpt lat="47.2375" lon="4.97169">
				 <ele>285</ele>
			 </trkpt>
			 <trkpt lat="47.23738" lon="4.97279">
				 <ele>283.4</ele>
			 </trkpt>
			 <trkpt lat="47.23697" lon="4.97354">
				 <ele>281.9</ele>
			 </trkpt>
			 <trkpt lat="47.23682" lon="4.97406">
				 <ele>280.4</ele>
			 </trkpt>
			 <trkpt lat="47.23682" lon="4.97415">
				 <ele>279</ele>
			 </trkpt>
			 <trkpt lat="47.23689" lon="4.9743">
				 <ele>277.6</ele>
			 </trkpt>
			 <trkpt lat="47.23692" lon="4.97447">
				 <ele>276.8</ele>
			 </trkpt>
			 <trkpt lat="47.23703" lon="4.97441">
				 <ele>276.5</ele>
			 </trkpt>
			 <trkpt lat="47.23712" lon="4.97461">
				 <ele>276.5</ele>
			 </trkpt>
			 <trkpt lat="47.23729" lon="4.97475">
				 <ele>277.1</ele>
			 </trkpt>
			 <trkpt lat="47.23758" lon="4.97488">
				 <ele>277.8</ele>
			 </trkpt>
			 <trkpt lat="47.23776" lon="4.97492">
				 <ele>278.6</ele>
			 </trkpt>
			 <trkpt lat="47.23797" lon="4.97485">
				 <ele>279.5</ele>
			 </trkpt>
			 <trkpt lat="47.23811" lon="4.97466">
				 <ele>280.2</ele>
			 </trkpt>
			 <trkpt lat="47.23831" lon="4.97415">
				 <ele>281</ele>
			 </trkpt>
			 <trkpt lat="47.23837" lon="4.97388">
				 <ele>281.8</ele>
			 </trkpt>
			 <trkpt lat="47.23825" lon="4.97378">
				 <ele>282.5</ele>
			 </trkpt>
			 <trkpt lat="47.23796" lon="4.97367">
				 <ele>283.4</ele>
			 </trkpt>
			 <trkpt lat="47.23789" lon="4.97356">
				 <ele>284.4</ele>
			 </trkpt>
			 <trkpt lat="47.23784" lon="4.97333">
				 <ele>285.5</ele>
			 </trkpt>
			 <trkpt lat="47.23797" lon="4.9733">
				 <ele>286.5</ele>
			 </trkpt>
			 <trkpt lat="47.23802" lon="4.97326">
				 <ele>287.4</ele>
			 </trkpt>
			 <trkpt lat="47.23808" lon="4.97319">
				 <ele>288.3</ele>
			 </trkpt>
			 <trkpt lat="47.23816" lon="4.97299">
				 <ele>289.3</ele>
			 </trkpt>
			 <trkpt lat="47.23829" lon="4.9728">
				 <ele>290.2</ele>
			 </trkpt>
			 <trkpt lat="47.23866" lon="4.97239">
				 <ele>291</ele>
			 </trkpt>
			 <trkpt lat="47.23862" lon="4.97229">
				 <ele>291.7</ele>
			 </trkpt>
			 <trkpt lat="47.23864" lon="4.97202">
				 <ele>292.4</ele>
			 </trkpt>
			 <trkpt lat="47.23863" lon="4.97151">
				 <ele>292.8</ele>
			 </trkpt>
			 <trkpt lat="47.23843" lon="4.97096">
				 <ele>293</ele>
			 </trkpt>
			 <trkpt lat="47.23838" lon="4.97088">
				 <ele>292.7</ele>
			 </trkpt>
			 <trkpt lat="47.23829" lon="4.9708">
				 <ele>292</ele>
			 </trkpt>
			 <trkpt lat="47.23807" lon="4.97071">
				 <ele>291</ele>
			 </trkpt>
			 <trkpt lat="47.23792" lon="4.97072">
				 <ele>289.5</ele>
			 </trkpt>
			 <trkpt lat="47.23779" lon="4.97091">
				 <ele>287.9</ele>
			 </trkpt>
			 <trkpt lat="47.23763" lon="4.97162">
				 <ele>286.3</ele>
			 </trkpt>
			 <trkpt lat="47.23755" lon="4.97263">
				 <ele>284.5</ele>
			 </trkpt>
			 <trkpt lat="47.23743" lon="4.97306">
				 <ele>282.8</ele>
			 </trkpt>
			 <trkpt lat="47.23707" lon="4.97378">
				 <ele>281.2</ele>
			 </trkpt>
			 <trkpt lat="47.23699" lon="4.97405">
				 <ele>279.7</ele>
			 </trkpt>
			 <trkpt lat="47.23703" lon="4.97441">
				 <ele>278.5</ele>
			 </trkpt>
			 <trkpt lat="47.23692" lon="4.97447">
				 <ele>278</ele>
			 </trkpt>
			 <trkpt lat="47.23689" lon="4.9743">
				 <ele>278.3</ele>
			 </trkpt>
			 <trkpt lat="47.23681" lon="4.9741">
				 <ele>279.3</ele>
			 </trkpt>
			 <trkpt lat="47.23686" lon="4.97387">
				 <ele>280.7</ele>
			 </trkpt>
			 <trkpt lat="47.23701" lon="4.97344">
				 <ele>282.4</ele>
			 </trkpt>
			 <trkpt lat="47.23738" lon="4.97279">
				 <ele>284.2</ele>
			 </trkpt>
			 <trkpt lat="47.2375" lon="4.97166">
				 <ele>286.1</ele>
			 </trkpt>
			 <trkpt lat="47.23777" lon="4.97016">
				 <ele>287.7</ele>
			 </trkpt>
			 <trkpt lat="47.23815" lon="4.97015">
				 <ele>289.2</ele>
			 </trkpt>
			 <trkpt lat="47.23837" lon="4.97022">
				 <ele>290.5</ele>
			 </trkpt>
			 <trkpt lat="47.23885" lon="4.97052">
				 <ele>291.5</ele>
			 </trkpt>
			 <trkpt lat="47.23951" lon="4.971">
				 <ele>292.4</ele>
			 </trkpt>
			 <trkpt lat="47.24058" lon="4.97164">
				 <ele>292.8</ele>
			 </trkpt>
			 <trkpt lat="47.241" lon="4.97183">
				 <ele>292.8</ele>
			 </trkpt>
			 <trkpt lat="47.24143" lon="4.972">
				 <ele>292.7</ele>
			 </trkpt>
			 <trkpt lat="47.24169" lon="4.97196">
				 <ele>292.5</ele>
			 </trkpt>
			 <trkpt lat="47.24198" lon="4.97198">
				 <ele>292.2</ele>
			 </trkpt>
			 <trkpt lat="47.24223" lon="4.97195">
				 <ele>291.7</ele>
			 </trkpt>
			 <trkpt lat="47.24243" lon="4.97198">
				 <ele>291.5</ele>
			 </trkpt>
			 <trkpt lat="47.24307" lon="4.97227">
				 <ele>291.5</ele>
			 </trkpt>
			 <trkpt lat="47.24341" lon="4.97232">
				 <ele>291.6</ele>
			 </trkpt>
			 <trkpt lat="47.24359" lon="4.97244">
				 <ele>291.9</ele>
			 </trkpt>
			 <trkpt lat="47.24385" lon="4.97268">
				 <ele>292.2</ele>
			 </trkpt>
			 <trkpt lat="47.24417" lon="4.97286">
				 <ele>292.4</ele>
			 </trkpt>
			 <trkpt lat="47.24433" lon="4.97288">
				 <ele>292.5</ele>
			 </trkpt>
			 <trkpt lat="47.24445" lon="4.97286">
				 <ele>292.7</ele>
			 </trkpt>
			 <trkpt lat="47.24493" lon="4.97308">
				 <ele>292.9</ele>
			 </trkpt>
			 <trkpt lat="47.24536" lon="4.97323">
				 <ele>293.1</ele>
			 </trkpt>
			 <trkpt lat="47.24561" lon="4.97335">
				 <ele>293.3</ele>
			 </trkpt>
			 <trkpt lat="47.24601" lon="4.97367">
				 <ele>293.6</ele>
			 </trkpt>
			 <trkpt lat="47.24627" lon="4.97384">
				 <ele>294</ele>
			 </trkpt>
			 <trkpt lat="47.24665" lon="4.97399">
				 <ele>294.2</ele>
			 </trkpt>
			 <trkpt lat="47.24701" lon="4.97405">
				 <ele>294</ele>
			 </trkpt>
			 <trkpt lat="47.24736" lon="4.97418">
				 <ele>294</ele>
			 </trkpt>
			 <trkpt lat="47.24868" lon="4.97483">
				 <ele>294</ele>
			 </trkpt>
			 <trkpt lat="47.24912" lon="4.975">
				 <ele>293.7</ele>
			 </trkpt>
			 <trkpt lat="47.24998" lon="4.97541">
				 <ele>293.3</ele>
			 </trkpt>
			 <trkpt lat="47.25356" lon="4.97694">
				 <ele>292.8</ele>
			 </trkpt>
			 <trkpt lat="47.25582" lon="4.97717">
				 <ele>292.4</ele>
			 </trkpt>
			 <trkpt lat="47.25604" lon="4.97728">
				 <ele>291.9</ele>
			 </trkpt>
			 <trkpt lat="47.25759" lon="4.97791">
				 <ele>291.4</ele>
			 </trkpt>
			 <trkpt lat="47.25793" lon="4.9781">
				 <ele>290.8</ele>
			 </trkpt>
			 <trkpt lat="47.25809" lon="4.97822">
				 <ele>290.6</ele>
			 </trkpt>
			 <trkpt lat="47.25823" lon="4.97838">
				 <ele>290.7</ele>
			 </trkpt>
			 <trkpt lat="47.25857" lon="4.9789">
				 <ele>290.5</ele>
			 </trkpt>
			 <trkpt lat="47.25885" lon="4.97914">
				 <ele>290.4</ele>
			 </trkpt>
			 <trkpt lat="47.25895" lon="4.97918">
				 <ele>290.2</ele>
			 </trkpt>
			 <trkpt lat="47.25948" lon="4.97918">
				 <ele>290.2</ele>
			 </trkpt>
			 <trkpt lat="47.26027" lon="4.97939">
				 <ele>289.9</ele>
			 </trkpt>
			 <trkpt lat="47.2604" lon="4.97951">
				 <ele>289.7</ele>
			 </trkpt>
			 <trkpt lat="47.26059" lon="4.97982">
				 <ele>289.6</ele>
			 </trkpt>
			 <trkpt lat="47.26056" lon="4.98034">
				 <ele>289.5</ele>
			 </trkpt>
			 <trkpt lat="47.26081" lon="4.98066">
				 <ele>289.4</ele>
			 </trkpt>
			 <trkpt lat="47.26138" lon="4.98119">
				 <ele>288.9</ele>
			 </trkpt>
			 <trkpt lat="47.26142" lon="4.9813">
				 <ele>288.2</ele>
			 </trkpt>
			 <trkpt lat="47.26163" lon="4.98106">
				 <ele>287.3</ele>
			 </trkpt>
			 <trkpt lat="47.26169" lon="4.98103">
				 <ele>286.4</ele>
			 </trkpt>
			 <trkpt lat="47.26175" lon="4.98106">
				 <ele>285.6</ele>
			 </trkpt>
			 <trkpt lat="47.26249" lon="4.9817">
				 <ele>284.9</ele>
			 </trkpt>
			 <trkpt lat="47.26286" lon="4.98199">
				 <ele>284.4</ele>
			 </trkpt>
			 <trkpt lat="47.26365" lon="4.98238">
				 <ele>283.8</ele>
			 </trkpt>
			 <trkpt lat="47.26397" lon="4.98244">
				 <ele>283.3</ele>
			 </trkpt>
			 <trkpt lat="47.26408" lon="4.98242">
				 <ele>282.5</ele>
			 </trkpt>
			 <trkpt lat="47.26443" lon="4.98247">
				 <ele>282</ele>
			 </trkpt>
			 <trkpt lat="47.2649" lon="4.98272">
				 <ele>281.5</ele>
			 </trkpt>
			 <trkpt lat="47.26516" lon="4.98283">
				 <ele>281.4</ele>
			 </trkpt>
			 <trkpt lat="47.26571" lon="4.98312">
				 <ele>281.5</ele>
			 </trkpt>
			 <trkpt lat="47.26585" lon="4.98329">
				 <ele>281.7</ele>
			 </trkpt>
			 <trkpt lat="47.26607" lon="4.98349">
				 <ele>281.9</ele>
			 </trkpt>
			 <trkpt lat="47.26642" lon="4.98369">
				 <ele>282.1</ele>
			 </trkpt>
			 <trkpt lat="47.26677" lon="4.98385">
				 <ele>282.4</ele>
			 </trkpt>
			 <trkpt lat="47.26756" lon="4.9844">
				 <ele>282.6</ele>
			 </trkpt>
			 <trkpt lat="47.26808" lon="4.9847">
				 <ele>282.9</ele>
			 </trkpt>
			 <trkpt lat="47.26809" lon="4.98464">
				 <ele>283.3</ele>
			 </trkpt>
			 <trkpt lat="47.26816" lon="4.98468">
				 <ele>283.5</ele>
			 </trkpt>
			 <trkpt lat="47.26858" lon="4.98472">
				 <ele>283.5</ele>
			 </trkpt>
			 <trkpt lat="47.26869" lon="4.98469">
				 <ele>283.4</ele>
			 </trkpt>
			 <trkpt lat="47.26882" lon="4.98461">
				 <ele>282.9</ele>
			 </trkpt>
			 <trkpt lat="47.26891" lon="4.9846">
				 <ele>282.5</ele>
			 </trkpt>
			 <trkpt lat="47.26939" lon="4.98472">
				 <ele>282</ele>
			 </trkpt>
			 <trkpt lat="47.26967" lon="4.98489">
				 <ele>281.5</ele>
			 </trkpt>
			 <trkpt lat="47.27046" lon="4.98546">
				 <ele>281.1</ele>
			 </trkpt>
			 <trkpt lat="47.27109" lon="4.98577">
				 <ele>280.6</ele>
			 </trkpt>
			 <trkpt lat="47.27179" lon="4.98588">
				 <ele>280.3</ele>
			 </trkpt>
			 <trkpt lat="47.27245" lon="4.98553">
				 <ele>279.9</ele>
			 </trkpt>
			 <trkpt lat="47.27286" lon="4.98551">
				 <ele>279.6</ele>
			 </trkpt>
			 <trkpt lat="47.27339" lon="4.98563">
				 <ele>279.5</ele>
			 </trkpt>
			 <trkpt lat="47.27394" lon="4.98586">
				 <ele>279.5</ele>
			 </trkpt>
			 <trkpt lat="47.27422" lon="4.98589">
				 <ele>279.5</ele>
			 </trkpt>
			 <trkpt lat="47.27453" lon="4.98597">
				 <ele>279.5</ele>
			 </trkpt>
			 <trkpt lat="47.27474" lon="4.98611">
				 <ele>279.5</ele>
			 </trkpt>
			 <trkpt lat="47.27482" lon="4.98622">
				 <ele>279.5</ele>
			 </trkpt>
			 <trkpt lat="47.27495" lon="4.98654">
				 <ele>279.5</ele>
			 </trkpt>
			 <trkpt lat="47.27522" lon="4.98695">
				 <ele>279.6</ele>
			 </trkpt>
			 <trkpt lat="47.27531" lon="4.98697">
				 <ele>279.6</ele>
			 </trkpt>
			 <trkpt lat="47.27542" lon="4.98704">
				 <ele>279.6</ele>
			 </trkpt>
			 <trkpt lat="47.27658" lon="4.98798">
				 <ele>279.7</ele>
			 </trkpt>
			 <trkpt lat="47.27781" lon="4.98914">
				 <ele>279.7</ele>
			 </trkpt>
			 <trkpt lat="47.27841" lon="4.98955">
				 <ele>279.6</ele>
			 </trkpt>
			 <trkpt lat="47.27868" lon="4.98964">
				 <ele>279.7</ele>
			 </trkpt>
			 <trkpt lat="47.27899" lon="4.98978">
				 <ele>279.8</ele>
			 </trkpt>
			 <trkpt lat="47.27921" lon="4.99">
				 <ele>279.9</ele>
			 </trkpt>
			 <trkpt lat="47.27924" lon="4.98951">
				 <ele>280</ele>
			 </trkpt>
			 <trkpt lat="47.27932" lon="4.98904">
				 <ele>279.7</ele>
			 </trkpt>
			 <trkpt lat="47.2794" lon="4.98885">
				 <ele>279.4</ele>
			 </trkpt>
			 <trkpt lat="47.27956" lon="4.98937">
				 <ele>278.9</ele>
			 </trkpt>
			 <trkpt lat="47.27974" lon="4.99056">
				 <ele>278.2</ele>
			 </trkpt>
			 <trkpt lat="47.28019" lon="4.99159">
				 <ele>277.4</ele>
			 </trkpt>
			 <trkpt lat="47.28047" lon="4.99269">
				 <ele>276.5</ele>
			 </trkpt>
			 <trkpt lat="47.28071" lon="4.99324">
				 <ele>275.5</ele>
			 </trkpt>
			 <trkpt lat="47.28103" lon="4.99441">
				 <ele>274.5</ele>
			 </trkpt>
			 <trkpt lat="47.28159" lon="4.9959">
				 <ele>273.5</ele>
			 </trkpt>
			 <trkpt lat="47.28174" lon="4.99614">
				 <ele>272.4</ele>
			 </trkpt>
			 <trkpt lat="47.28223" lon="4.99681">
				 <ele>271.2</ele>
			 </trkpt>
			 <trkpt lat="47.28255" lon="4.99746">
				 <ele>270.2</ele>
			 </trkpt>
			 <trkpt lat="47.2827" lon="4.99771">
				 <ele>269.2</ele>
			 </trkpt>
			 <trkpt lat="47.28306" lon="4.99821">
				 <ele>268.2</ele>
			 </trkpt>
			 <trkpt lat="47.28308" lon="4.99841">
				 <ele>267.5</ele>
			 </trkpt>
			 <trkpt lat="47.28342" lon="4.99902">
				 <ele>266.7</ele>
			 </trkpt>
			 <trkpt lat="47.28369" lon="4.99967">
				 <ele>266.2</ele>
			 </trkpt>
			 <trkpt lat="47.2845" lon="5.00123">
				 <ele>265.6</ele>
			 </trkpt>
			 <trkpt lat="47.28465" lon="5.00163">
				 <ele>265.1</ele>
			 </trkpt>
			 <trkpt lat="47.28471" lon="5.00194">
				 <ele>264.6</ele>
			 </trkpt>
			 <trkpt lat="47.28472" lon="5.00225">
				 <ele>264.2</ele>
			 </trkpt>
			 <trkpt lat="47.28494" lon="5.00267">
				 <ele>263.8</ele>
			 </trkpt>
			 <trkpt lat="47.28527" lon="5.00288">
				 <ele>263.5</ele>
			 </trkpt>
			 <trkpt lat="47.28542" lon="5.00283">
				 <ele>263</ele>
			 </trkpt>
			 <trkpt lat="47.28548" lon="5.00288">
				 <ele>262.5</ele>
			 </trkpt>
			 <trkpt lat="47.28552" lon="5.00294">
				 <ele>261.9</ele>
			 </trkpt>
			 <trkpt lat="47.28556" lon="5.00309">
				 <ele>261.4</ele>
			 </trkpt>
			 <trkpt lat="47.28578" lon="5.00336">
				 <ele>260.8</ele>
			 </trkpt>
			 <trkpt lat="47.28685" lon="5.00426">
				 <ele>260.4</ele>
			 </trkpt>
			 <trkpt lat="47.28775" lon="5.00507">
				 <ele>259.6</ele>
			 </trkpt>
			 <trkpt lat="47.2883" lon="5.00567">
				 <ele>258.7</ele>
			 </trkpt>
			 <trkpt lat="47.29033" lon="5.00756">
				 <ele>257.7</ele>
			 </trkpt>
			 <trkpt lat="47.2903" lon="5.00766">
				 <ele>256.7</ele>
			 </trkpt>
			 <trkpt lat="47.2902" lon="5.00782">
				 <ele>255.6</ele>
			 </trkpt>
			 <trkpt lat="47.28941" lon="5.00896">
				 <ele>254.9</ele>
			 </trkpt>
			 <trkpt lat="47.28879" lon="5.00992">
				 <ele>254.3</ele>
			 </trkpt>
			 <trkpt lat="47.28792" lon="5.01231">
				 <ele>253.5</ele>
			 </trkpt>
			 <trkpt lat="47.28784" lon="5.0126">
				 <ele>252.9</ele>
			 </trkpt>
			 <trkpt lat="47.28783" lon="5.01274">
				 <ele>252.1</ele>
			 </trkpt>
			 <trkpt lat="47.28776" lon="5.01294">
				 <ele>251.3</ele>
			 </trkpt>
			 <trkpt lat="47.28773" lon="5.01323">
				 <ele>250.7</ele>
			 </trkpt>
			 <trkpt lat="47.28709" lon="5.01571">
				 <ele>250.3</ele>
			 </trkpt>
			 <trkpt lat="47.28656" lon="5.01745">
				 <ele>249.5</ele>
			 </trkpt>
			 <trkpt lat="47.28623" lon="5.01831">
				 <ele>248.3</ele>
			 </trkpt>
			 <trkpt lat="47.28634" lon="5.01837">
				 <ele>247.2</ele>
			 </trkpt>
			 <trkpt lat="47.28643" lon="5.01852">
				 <ele>246</ele>
			 </trkpt>
			 <trkpt lat="47.28648" lon="5.01868">
				 <ele>244.7</ele>
			 </trkpt>
			 <trkpt lat="47.2957" lon="5.02245">
				 <ele>243.5</ele>
			 </trkpt>
			 <trkpt lat="47.30001" lon="5.02426">
				 <ele>242.2</ele>
			 </trkpt>
			 <trkpt lat="47.30061" lon="5.02447">
				 <ele>241</ele>
			 </trkpt>
			 <trkpt lat="47.30135" lon="5.02469">
				 <ele>239.8</ele>
			 </trkpt>
			 <trkpt lat="47.30146" lon="5.02465">
				 <ele>238.6</ele>
			 </trkpt>
			 <trkpt lat="47.30157" lon="5.02445">
				 <ele>237.5</ele>
			 </trkpt>
			 <trkpt lat="47.30166" lon="5.02441">
				 <ele>236.8</ele>
			 </trkpt>
			 <trkpt lat="47.30171" lon="5.02442">
				 <ele>236.4</ele>
			 </trkpt>
			 <trkpt lat="47.30178" lon="5.02447">
				 <ele>235.9</ele>
			 </trkpt>
			 <trkpt lat="47.30185" lon="5.02469">
				 <ele>235.6</ele>
			 </trkpt>
			 <trkpt lat="47.30195" lon="5.02484">
				 <ele>235.5</ele>
			 </trkpt>
			 <trkpt lat="47.30237" lon="5.02499">
				 <ele>235.3</ele>
			 </trkpt>
			 <trkpt lat="47.30312" lon="5.02501">
				 <ele>235.1</ele>
			 </trkpt>
			 <trkpt lat="47.30341" lon="5.02506">
				 <ele>234.8</ele>
			 </trkpt>
			 <trkpt lat="47.30362" lon="5.02514">
				 <ele>234.6</ele>
			 </trkpt>
			 <trkpt lat="47.30371" lon="5.02535">
				 <ele>234.5</ele>
			 </trkpt>
			 <trkpt lat="47.30409" lon="5.0256">
				 <ele>234.5</ele>
			 </trkpt>
			 <trkpt lat="47.30519" lon="5.02687">
				 <ele>234.5</ele>
			 </trkpt>
			 <trkpt lat="47.30566" lon="5.02789">
				 <ele>234.5</ele>
			 </trkpt>
			 <trkpt lat="47.30636" lon="5.02964">
				 <ele>234.5</ele>
			 </trkpt>
			 <trkpt lat="47.30656" lon="5.02994">
				 <ele>234.4</ele>
			 </trkpt>
			 <trkpt lat="47.30674" lon="5.03012">
				 <ele>234.3</ele>
			 </trkpt>
			 <trkpt lat="47.30702" lon="5.0303">
				 <ele>234.3</ele>
			 </trkpt>
			 <trkpt lat="47.30722" lon="5.03035">
				 <ele>234.4</ele>
			 </trkpt>
			 <trkpt lat="47.30747" lon="5.03037">
				 <ele>234.5</ele>
			 </trkpt>
			 <trkpt lat="47.30829" lon="5.03019">
				 <ele>234.7</ele>
			 </trkpt>
			 <trkpt lat="47.30843" lon="5.03024">
				 <ele>234.5</ele>
			 </trkpt>
			 <trkpt lat="47.30851" lon="5.03032">
				 <ele>234.4</ele>
			 </trkpt>
			 <trkpt lat="47.30861" lon="5.03053">
				 <ele>234.4</ele>
			 </trkpt>
			 <trkpt lat="47.30862" lon="5.03064">
				 <ele>234.4</ele>
			 </trkpt>
			 <trkpt lat="47.30862" lon="5.03181">
				 <ele>234.5</ele>
			 </trkpt>
			 <trkpt lat="47.30873" lon="5.03305">
				 <ele>234.5</ele>
			 </trkpt>
			 <trkpt lat="47.30882" lon="5.03553">
				 <ele>234.4</ele>
			 </trkpt>
			 <trkpt lat="47.30898" lon="5.03776">
				 <ele>234.4</ele>
			 </trkpt>
			 <trkpt lat="47.30878" lon="5.03862">
				 <ele>234.1</ele>
			 </trkpt>
			 <trkpt lat="47.30846" lon="5.03957">
				 <ele>233.9</ele>
			 </trkpt>
			 <trkpt lat="47.30802" lon="5.0411">
				 <ele>233.6</ele>
			 </trkpt>
			 <trkpt lat="47.30701" lon="5.04402">
				 <ele>233.6</ele>
			 </trkpt>
			 <trkpt lat="47.30623" lon="5.04585">
				 <ele>233.6</ele>
			 </trkpt>
			 <trkpt lat="47.30596" lon="5.04677">
				 <ele>233.5</ele>
			 </trkpt>
			 <trkpt lat="47.30589" lon="5.04724">
				 <ele>233.4</ele>
			 </trkpt>
			 <trkpt lat="47.30591" lon="5.04728">
				 <ele>233.2</ele>
			 </trkpt>
			 <trkpt lat="47.30623" lon="5.0472">
				 <ele>233.2</ele>
			 </trkpt>
			 <trkpt lat="47.30795" lon="5.04649">
				 <ele>233.4</ele>
			 </trkpt>
			 <trkpt lat="47.30817" lon="5.04645">
				 <ele>233.4</ele>
			 </trkpt>
			 <trkpt lat="47.30823" lon="5.04648">
				 <ele>233.7</ele>
			 </trkpt>
			 <trkpt lat="47.30845" lon="5.04674">
				 <ele>233.9</ele>
			 </trkpt>
			 <trkpt lat="47.3086" lon="5.04681">
				 <ele>234.1</ele>
			 </trkpt>
			 <trkpt lat="47.30878" lon="5.04677">
				 <ele>234.3</ele>
			 </trkpt>
			 <trkpt lat="47.30889" lon="5.04668">
				 <ele>234.7</ele>
			 </trkpt>
			 <trkpt lat="47.309" lon="5.04651">
				 <ele>235.3</ele>
			 </trkpt>
			 <trkpt lat="47.30908" lon="5.04615">
				 <ele>235.5</ele>
			 </trkpt>
			 <trkpt lat="47.30912" lon="5.04604">
				 <ele>235.8</ele>
			 </trkpt>
			 <trkpt lat="47.30918" lon="5.046">
				 <ele>236</ele>
			 </trkpt>
			 <trkpt lat="47.31352" lon="5.0441">
				 <ele>236.1</ele>
			 </trkpt>
			 <trkpt lat="47.31411" lon="5.04387">
				 <ele>236.3</ele>
			 </trkpt>
		 </trkseg>
	 </trk>
</gpx>