<?xml version="1.0" encoding="UTF-8"?>
 <gpx creator="Garmin Connect" version="1.1"
	 xsi:schemaLocation="http://www.topografix.com/GPX/1/1 http://www.topografix.com/GPX/11.xsd"
	 xmlns:ns3="http://www.garmin.com/xmlschemas/TrackPointExtension/v1"
	 xmlns="http://www.topografix.com/GPX/1/1"
	 xmlns:xsi="http://www.w3.org/2001/XMLSchema-instance" xmlns:ns2="http://www.garmin.com/xmlschemas/GpxExtensions/v3">
	 <metadata>
		<name>13° Maratona di San Valentino - 42.195 km</name>
		 <link href="https://www.goandrace.com">
		 <text>Garmin Connect</text>
		 </link>
	 <time>2026-08-11T02:26:03</time>
	 </metadata>
	 <trk>
		 <name>13° Maratona di San Valentino - 42.195 km</name>
		 <trkseg>
			 <trkpt lat="42.558446" lon="12.645776">
				 <ele>128</ele>
			 </trkpt>
			 <trkpt lat="42.558076" lon="12.645579">
				 <ele>126</ele>
			 </trkpt>
			 <trkpt lat="42.55788" lon="12.64547">
				 <ele>126</ele>
			 </trkpt>
			 <trkpt lat="42.557339" lon="12.645">
				 <ele>125</ele>
			 </trkpt>
			 <trkpt lat="42.556099" lon="12.64502">
				 <ele>121</ele>
			 </trkpt>
			 <trkpt lat="42.555729" lon="12.6449">
				 <ele>121</ele>
			 </trkpt>
			 <trkpt lat="42.555359" lon="12.642099">
				 <ele>118</ele>
			 </trkpt>
			 <trkpt lat="42.554682" lon="12.638491">
				 <ele>125</ele>
			 </trkpt>
			 <trkpt lat="42.553581" lon="12.638828">
				 <ele>128</ele>
			 </trkpt>
			 <trkpt lat="42.552054" lon="12.639431">
				 <ele>132</ele>
			 </trkpt>
			 <trkpt lat="42.552756" lon="12.644125">
				 <ele>131</ele>
			 </trkpt>
			 <trkpt lat="42.549641" lon="12.64323">
				 <ele>135</ele>
			 </trkpt>
			 <trkpt lat="42.549252" lon="12.6416">
				 <ele>134</ele>
			 </trkpt>
			 <trkpt lat="42.547699" lon="12.64148">
				 <ele>139</ele>
			 </trkpt>
			 <trkpt lat="42.547192" lon="12.64153">
				 <ele>140</ele>
			 </trkpt>
			 <trkpt lat="42.546661" lon="12.64166">
				 <ele>142</ele>
			 </trkpt>
			 <trkpt lat="42.546791" lon="12.64263">
				 <ele>151</ele>
			 </trkpt>
			 <trkpt lat="42.546631" lon="12.64279">
				 <ele>151</ele>
			 </trkpt>
			 <trkpt lat="42.54668" lon="12.64374">
				 <ele>151</ele>
			 </trkpt>
			 <trkpt lat="42.547116" lon="12.643546">
				 <ele>151</ele>
			 </trkpt>
			 <trkpt lat="42.547356" lon="12.643429">
				 <ele>149</ele>
			 </trkpt>
			 <trkpt lat="42.547738" lon="12.643333">
				 <ele>145</ele>
			 </trkpt>
			 <trkpt lat="42.548598" lon="12.643228">
				 <ele>139</ele>
			 </trkpt>
			 <trkpt lat="42.549008" lon="12.643236">
				 <ele>139</ele>
			 </trkpt>
			 <trkpt lat="42.549335" lon="12.643276">
				 <ele>138</ele>
			 </trkpt>
			 <trkpt lat="42.549658" lon="12.643399">
				 <ele>135</ele>
			 </trkpt>
			 <trkpt lat="42.552769" lon="12.644255">
				 <ele>131</ele>
			 </trkpt>
			 <trkpt lat="42.55294" lon="12.645304">
				 <ele>128</ele>
			 </trkpt>
			 <trkpt lat="42.553011" lon="12.645667">
				 <ele>128</ele>
			 </trkpt>
			 <trkpt lat="42.553133" lon="12.646182">
				 <ele>129</ele>
			 </trkpt>
			 <trkpt lat="42.553548" lon="12.647409">
				 <ele>130</ele>
			 </trkpt>
			 <trkpt lat="42.553983" lon="12.648434">
				 <ele>129</ele>
			 </trkpt>
			 <trkpt lat="42.554267" lon="12.649033">
				 <ele>131</ele>
			 </trkpt>
			 <trkpt lat="42.554523" lon="12.649513">
				 <ele>133</ele>
			 </trkpt>
			 <trkpt lat="42.554686" lon="12.649788">
				 <ele>134</ele>
			 </trkpt>
			 <trkpt lat="42.554783" lon="12.650115">
				 <ele>136</ele>
			 </trkpt>
			 <trkpt lat="42.555021" lon="12.650857">
				 <ele>133</ele>
			 </trkpt>
			 <trkpt lat="42.555239" lon="12.651649">
				 <ele>130</ele>
			 </trkpt>
			 <trkpt lat="42.555569" lon="12.65259">
				 <ele>133</ele>
			 </trkpt>
			 <trkpt lat="42.55648" lon="12.6536">
				 <ele>137</ele>
			 </trkpt>
			 <trkpt lat="42.55714" lon="12.65419">
				 <ele>136</ele>
			 </trkpt>
			 <trkpt lat="42.558121" lon="12.65523">
				 <ele>130</ele>
			 </trkpt>
			 <trkpt lat="42.558578" lon="12.65606">
				 <ele>126</ele>
			 </trkpt>
			 <trkpt lat="42.558559" lon="12.65642">
				 <ele>126</ele>
			 </trkpt>
			 <trkpt lat="42.558651" lon="12.65674">
				 <ele>128</ele>
			 </trkpt>
			 <trkpt lat="42.558781" lon="12.65695">
				 <ele>128</ele>
			 </trkpt>
			 <trkpt lat="42.55901" lon="12.65712">
				 <ele>128</ele>
			 </trkpt>
			 <trkpt lat="42.560291" lon="12.65749">
				 <ele>127</ele>
			 </trkpt>
			 <trkpt lat="42.562481" lon="12.65828">
				 <ele>132</ele>
			 </trkpt>
			 <trkpt lat="42.564201" lon="12.659">
				 <ele>132</ele>
			 </trkpt>
			 <trkpt lat="42.561581" lon="12.6711">
				 <ele>143</ele>
			 </trkpt>
			 <trkpt lat="42.561031" lon="12.67337">
				 <ele>137</ele>
			 </trkpt>
			 <trkpt lat="42.560822" lon="12.67365">
				 <ele>138</ele>
			 </trkpt>
			 <trkpt lat="42.560699" lon="12.67374">
				 <ele>140</ele>
			 </trkpt>
			 <trkpt lat="42.560429" lon="12.6738">
				 <ele>142</ele>
			 </trkpt>
			 <trkpt lat="42.560188" lon="12.67371">
				 <ele>142</ele>
			 </trkpt>
			 <trkpt lat="42.55946" lon="12.67314">
				 <ele>143</ele>
			 </trkpt>
			 <trkpt lat="42.558491" lon="12.6728">
				 <ele>143</ele>
			 </trkpt>
			 <trkpt lat="42.558201" lon="12.67276">
				 <ele>143</ele>
			 </trkpt>
			 <trkpt lat="42.557911" lon="12.67281">
				 <ele>143</ele>
			 </trkpt>
			 <trkpt lat="42.55743" lon="12.67309">
				 <ele>147</ele>
			 </trkpt>
			 <trkpt lat="42.55698" lon="12.67348">
				 <ele>147</ele>
			 </trkpt>
			 <trkpt lat="42.556782" lon="12.67372">
				 <ele>146</ele>
			 </trkpt>
			 <trkpt lat="42.556629" lon="12.674">
				 <ele>147</ele>
			 </trkpt>
			 <trkpt lat="42.556549" lon="12.67437">
				 <ele>148</ele>
			 </trkpt>
			 <trkpt lat="42.55653" lon="12.67476">
				 <ele>149</ele>
			 </trkpt>
			 <trkpt lat="42.556622" lon="12.67595">
				 <ele>151</ele>
			 </trkpt>
			 <trkpt lat="42.55661" lon="12.67663">
				 <ele>153</ele>
			 </trkpt>
			 <trkpt lat="42.556339" lon="12.67746">
				 <ele>152</ele>
			 </trkpt>
			 <trkpt lat="42.555771" lon="12.67839">
				 <ele>151</ele>
			 </trkpt>
			 <trkpt lat="42.555672" lon="12.67906">
				 <ele>152</ele>
			 </trkpt>
			 <trkpt lat="42.555771" lon="12.67952">
				 <ele>154</ele>
			 </trkpt>
			 <trkpt lat="42.555962" lon="12.67987">
				 <ele>158</ele>
			 </trkpt>
			 <trkpt lat="42.557369" lon="12.68148">
				 <ele>160</ele>
			 </trkpt>
			 <trkpt lat="42.55817" lon="12.68219">
				 <ele>159</ele>
			 </trkpt>
			 <trkpt lat="42.558311" lon="12.68249">
				 <ele>156</ele>
			 </trkpt>
			 <trkpt lat="42.55864" lon="12.68383">
				 <ele>166</ele>
			 </trkpt>
			 <trkpt lat="42.558739" lon="12.68467">
				 <ele>163</ele>
			 </trkpt>
			 <trkpt lat="42.558708" lon="12.68519">
				 <ele>164</ele>
			 </trkpt>
			 <trkpt lat="42.558552" lon="12.68548">
				 <ele>162</ele>
			 </trkpt>
			 <trkpt lat="42.558521" lon="12.68571">
				 <ele>162</ele>
			 </trkpt>
			 <trkpt lat="42.558289" lon="12.6861">
				 <ele>160</ele>
			 </trkpt>
			 <trkpt lat="42.557919" lon="12.6864">
				 <ele>161</ele>
			 </trkpt>
			 <trkpt lat="42.555271" lon="12.68712">
				 <ele>164</ele>
			 </trkpt>
			 <trkpt lat="42.553921" lon="12.68788">
				 <ele>166</ele>
			 </trkpt>
			 <trkpt lat="42.553349" lon="12.68852">
				 <ele>166</ele>
			 </trkpt>
			 <trkpt lat="42.5532" lon="12.68879">
				 <ele>165</ele>
			 </trkpt>
			 <trkpt lat="42.55302" lon="12.68942">
				 <ele>165</ele>
			 </trkpt>
			 <trkpt lat="42.552559" lon="12.69425">
				 <ele>179</ele>
			 </trkpt>
			 <trkpt lat="42.552521" lon="12.69475">
				 <ele>183</ele>
			 </trkpt>
			 <trkpt lat="42.552551" lon="12.69521">
				 <ele>181</ele>
			 </trkpt>
			 <trkpt lat="42.55267" lon="12.69585">
				 <ele>180</ele>
			 </trkpt>
			 <trkpt lat="42.553268" lon="12.69803">
				 <ele>176</ele>
			 </trkpt>
			 <trkpt lat="42.553459" lon="12.69909">
				 <ele>198</ele>
			 </trkpt>
			 <trkpt lat="42.553539" lon="12.70031">
				 <ele>192</ele>
			 </trkpt>
			 <trkpt lat="42.553711" lon="12.70171">
				 <ele>190</ele>
			 </trkpt>
			 <trkpt lat="42.553719" lon="12.70277">
				 <ele>201</ele>
			 </trkpt>
			 <trkpt lat="42.553909" lon="12.70427">
				 <ele>200</ele>
			 </trkpt>
			 <trkpt lat="42.553959" lon="12.70444">
				 <ele>198</ele>
			 </trkpt>
			 <trkpt lat="42.554169" lon="12.70477">
				 <ele>198</ele>
			 </trkpt>
			 <trkpt lat="42.554359" lon="12.70496">
				 <ele>199</ele>
			 </trkpt>
			 <trkpt lat="42.55471" lon="12.70513">
				 <ele>201</ele>
			 </trkpt>
			 <trkpt lat="42.555019" lon="12.70538">
				 <ele>206</ele>
			 </trkpt>
			 <trkpt lat="42.555309" lon="12.7059">
				 <ele>201</ele>
			 </trkpt>
			 <trkpt lat="42.555382" lon="12.7063">
				 <ele>199</ele>
			 </trkpt>
			 <trkpt lat="42.555328" lon="12.70741">
				 <ele>208</ele>
			 </trkpt>
			 <trkpt lat="42.555389" lon="12.70898">
				 <ele>207</ele>
			 </trkpt>
			 <trkpt lat="42.55534" lon="12.70937">
				 <ele>207</ele>
			 </trkpt>
			 <trkpt lat="42.554699" lon="12.71189">
				 <ele>212</ele>
			 </trkpt>
			 <trkpt lat="42.554062" lon="12.71316">
				 <ele>227</ele>
			 </trkpt>
			 <trkpt lat="42.5541" lon="12.71423">
				 <ele>243</ele>
			 </trkpt>
			 <trkpt lat="42.55423" lon="12.71514">
				 <ele>229</ele>
			 </trkpt>
			 <trkpt lat="42.55439" lon="12.71548">
				 <ele>227</ele>
			 </trkpt>
			 <trkpt lat="42.556099" lon="12.71727">
				 <ele>221</ele>
			 </trkpt>
			 <trkpt lat="42.55637" lon="12.71767">
				 <ele>220</ele>
			 </trkpt>
			 <trkpt lat="42.55888" lon="12.72314">
				 <ele>219</ele>
			 </trkpt>
			 <trkpt lat="42.55975" lon="12.72396">
				 <ele>218</ele>
			 </trkpt>
			 <trkpt lat="42.562771" lon="12.72657">
				 <ele>224</ele>
			 </trkpt>
			 <trkpt lat="42.563358" lon="12.72716">
				 <ele>219</ele>
			 </trkpt>
			 <trkpt lat="42.564659" lon="12.72833">
				 <ele>222</ele>
			 </trkpt>
			 <trkpt lat="42.564812" lon="12.72855">
				 <ele>223</ele>
			 </trkpt>
			 <trkpt lat="42.564911" lon="12.72877">
				 <ele>226</ele>
			 </trkpt>
			 <trkpt lat="42.564968" lon="12.72915">
				 <ele>225</ele>
			 </trkpt>
			 <trkpt lat="42.565041" lon="12.7314">
				 <ele>222</ele>
			 </trkpt>
			 <trkpt lat="42.565109" lon="12.73185">
				 <ele>220</ele>
			 </trkpt>
			 <trkpt lat="42.565239" lon="12.73211">
				 <ele>220</ele>
			 </trkpt>
			 <trkpt lat="42.56546" lon="12.73239">
				 <ele>220</ele>
			 </trkpt>
			 <trkpt lat="42.56741" lon="12.7344">
				 <ele>215</ele>
			 </trkpt>
			 <trkpt lat="42.56916" lon="12.73629">
				 <ele>225</ele>
			 </trkpt>
			 <trkpt lat="42.569801" lon="12.73673">
				 <ele>223</ele>
			 </trkpt>
			 <trkpt lat="42.57058" lon="12.73717">
				 <ele>225</ele>
			 </trkpt>
			 <trkpt lat="42.572338" lon="12.7399">
				 <ele>224</ele>
			 </trkpt>
			 <trkpt lat="42.572639" lon="12.74013">
				 <ele>226</ele>
			 </trkpt>
			 <trkpt lat="42.573551" lon="12.74042">
				 <ele>232</ele>
			 </trkpt>
			 <trkpt lat="42.574421" lon="12.74032">
				 <ele>222</ele>
			 </trkpt>
			 <trkpt lat="42.575699" lon="12.74006">
				 <ele>218</ele>
			 </trkpt>
			 <trkpt lat="42.575989" lon="12.7401">
				 <ele>217</ele>
			 </trkpt>
			 <trkpt lat="42.576271" lon="12.74019">
				 <ele>216</ele>
			 </trkpt>
			 <trkpt lat="42.577862" lon="12.74114">
				 <ele>218</ele>
			 </trkpt>
			 <trkpt lat="42.578079" lon="12.74136">
				 <ele>218</ele>
			 </trkpt>
			 <trkpt lat="42.57822" lon="12.7416">
				 <ele>218</ele>
			 </trkpt>
			 <trkpt lat="42.578362" lon="12.74196">
				 <ele>218</ele>
			 </trkpt>
			 <trkpt lat="42.580212" lon="12.74992">
				 <ele>221</ele>
			 </trkpt>
			 <trkpt lat="42.58025" lon="12.75017">
				 <ele>221</ele>
			 </trkpt>
			 <trkpt lat="42.58041" lon="12.75392">
				 <ele>221</ele>
			 </trkpt>
			 <trkpt lat="42.580502" lon="12.75464">
				 <ele>225</ele>
			 </trkpt>
			 <trkpt lat="42.580601" lon="12.75491">
				 <ele>226</ele>
			 </trkpt>
			 <trkpt lat="42.581532" lon="12.75679">
				 <ele>227</ele>
			 </trkpt>
			 <trkpt lat="42.581951" lon="12.75746">
				 <ele>225</ele>
			 </trkpt>
			 <trkpt lat="42.583092" lon="12.75876">
				 <ele>221</ele>
			 </trkpt>
			 <trkpt lat="42.583269" lon="12.758948">
				 <ele>221</ele>
			 </trkpt>
			 <trkpt lat="42.583518" lon="12.759212">
				 <ele>222</ele>
			 </trkpt>
			 <trkpt lat="42.583734" lon="12.759419">
				 <ele>222</ele>
			 </trkpt>
			 <trkpt lat="42.583812" lon="12.759556">
				 <ele>222</ele>
			 </trkpt>
			 <trkpt lat="42.584944" lon="12.760832">
				 <ele>222</ele>
			 </trkpt>
			 <trkpt lat="42.586202" lon="12.762204">
				 <ele>224</ele>
			 </trkpt>
			 <trkpt lat="42.5871" lon="12.763225">
				 <ele>224</ele>
			 </trkpt>
			 <trkpt lat="42.588042" lon="12.764271">
				 <ele>223</ele>
			 </trkpt>
			 <trkpt lat="42.5881" lon="12.764359">
				 <ele>223</ele>
			 </trkpt>
			 <trkpt lat="42.588122" lon="12.764442">
				 <ele>223</ele>
			 </trkpt>
			 <trkpt lat="42.588042" lon="12.764622">
				 <ele>223</ele>
			 </trkpt>
			 <trkpt lat="42.586579" lon="12.765847">
				 <ele>226</ele>
			 </trkpt>
			 <trkpt lat="42.584589" lon="12.767408">
				 <ele>241</ele>
			 </trkpt>
			 <trkpt lat="42.584321" lon="12.767185">
				 <ele>241</ele>
			 </trkpt>
			 <trkpt lat="42.584202" lon="12.767574">
				 <ele>243</ele>
			 </trkpt>
			 <trkpt lat="42.584317" lon="12.7677">
				 <ele>244</ele>
			 </trkpt>
			 <trkpt lat="42.58452" lon="12.767506">
				 <ele>243</ele>
			 </trkpt>
			 <trkpt lat="42.585316" lon="12.766914">
				 <ele>234</ele>
			 </trkpt>
			 <trkpt lat="42.58806" lon="12.764702">
				 <ele>223</ele>
			 </trkpt>
			 <trkpt lat="42.58821" lon="12.764727">
				 <ele>223</ele>
			 </trkpt>
			 <trkpt lat="42.58873" lon="12.76497">
				 <ele>224</ele>
			 </trkpt>
			 <trkpt lat="42.589218" lon="12.76549">
				 <ele>228</ele>
			 </trkpt>
			 <trkpt lat="42.590488" lon="12.76736">
				 <ele>229</ele>
			 </trkpt>
			 <trkpt lat="42.591019" lon="12.76779">
				 <ele>226</ele>
			 </trkpt>
			 <trkpt lat="42.594452" lon="12.77011">
				 <ele>232</ele>
			 </trkpt>
			 <trkpt lat="42.597012" lon="12.77032">
				 <ele>237</ele>
			 </trkpt>
			 <trkpt lat="42.597931" lon="12.77034">
				 <ele>241</ele>
			 </trkpt>
			 <trkpt lat="42.598572" lon="12.77044">
				 <ele>247</ele>
			 </trkpt>
			 <trkpt lat="42.599129" lon="12.77065">
				 <ele>238</ele>
			 </trkpt>
			 <trkpt lat="42.60154" lon="12.77186">
				 <ele>233</ele>
			 </trkpt>
			 <trkpt lat="42.60289" lon="12.77238">
				 <ele>238</ele>
			 </trkpt>
			 <trkpt lat="42.604271" lon="12.77276">
				 <ele>239</ele>
			 </trkpt>
			 <trkpt lat="42.60545" lon="12.77319">
				 <ele>241</ele>
			 </trkpt>
			 <trkpt lat="42.606392" lon="12.77369">
				 <ele>238</ele>
			 </trkpt>
			 <trkpt lat="42.607929" lon="12.77466">
				 <ele>244</ele>
			 </trkpt>
			 <trkpt lat="42.609138" lon="12.7752">
				 <ele>249</ele>
			 </trkpt>
			 <trkpt lat="42.616341" lon="12.77789">
				 <ele>241</ele>
			 </trkpt>
			 <trkpt lat="42.61705" lon="12.77823">
				 <ele>249</ele>
			 </trkpt>
			 <trkpt lat="42.61763" lon="12.77867">
				 <ele>246</ele>
			 </trkpt>
			 <trkpt lat="42.61813" lon="12.7792">
				 <ele>245</ele>
			 </trkpt>
			 <trkpt lat="42.618858" lon="12.78021">
				 <ele>246</ele>
			 </trkpt>
			 <trkpt lat="42.618969" lon="12.78054">
				 <ele>246</ele>
			 </trkpt>
			 <trkpt lat="42.61903" lon="12.78087">
				 <ele>246</ele>
			 </trkpt>
			 <trkpt lat="42.618969" lon="12.78391">
				 <ele>242</ele>
			 </trkpt>
			 <trkpt lat="42.618992" lon="12.78533">
				 <ele>241</ele>
			 </trkpt>
			 <trkpt lat="42.619041" lon="12.78587">
				 <ele>241</ele>
			 </trkpt>
			 <trkpt lat="42.61969" lon="12.78897">
				 <ele>244</ele>
			 </trkpt>
			 <trkpt lat="42.620098" lon="12.79205">
				 <ele>248</ele>
			 </trkpt>
			 <trkpt lat="42.619968" lon="12.79237">
				 <ele>244</ele>
			 </trkpt>
			 <trkpt lat="42.61927" lon="12.79287">
				 <ele>249</ele>
			 </trkpt>
			 <trkpt lat="42.618887" lon="12.793078">
				 <ele>249</ele>
			 </trkpt>
			 <trkpt lat="42.618351" lon="12.79408">
				 <ele>253</ele>
			 </trkpt>
			 <trkpt lat="42.618938" lon="12.793113">
				 <ele>249</ele>
			 </trkpt>
			 <trkpt lat="42.619695" lon="12.792631">
				 <ele>245</ele>
			 </trkpt>
			 <trkpt lat="42.619947" lon="12.792489">
				 <ele>243</ele>
			 </trkpt>
			 <trkpt lat="42.620125" lon="12.792573">
				 <ele>245</ele>
			 </trkpt>
			 <trkpt lat="42.620391" lon="12.793011">
				 <ele>246</ele>
			 </trkpt>
			 <trkpt lat="42.620503" lon="12.79329">
				 <ele>245</ele>
			 </trkpt>
			 <trkpt lat="42.620583" lon="12.793499">
				 <ele>245</ele>
			 </trkpt>
			 <trkpt lat="42.620892" lon="12.79389">
				 <ele>245</ele>
			 </trkpt>
			 <trkpt lat="42.621319" lon="12.79429">
				 <ele>244</ele>
			 </trkpt>
			 <trkpt lat="42.621941" lon="12.79463">
				 <ele>252</ele>
			 </trkpt>
			 <trkpt lat="42.622509" lon="12.79473">
				 <ele>253</ele>
			 </trkpt>
			 <trkpt lat="42.624573" lon="12.794859">
				 <ele>262</ele>
			 </trkpt>
			 <trkpt lat="42.623502" lon="12.794724">
				 <ele>261</ele>
			 </trkpt>
			 <trkpt lat="42.623462" lon="12.794603">
				 <ele>266</ele>
			 </trkpt>
			 <trkpt lat="42.623371" lon="12.7946">
				 <ele>265</ele>
			 </trkpt>
			 <trkpt lat="42.62289" lon="12.79452">
				 <ele>267</ele>
			 </trkpt>
			 <trkpt lat="42.622261" lon="12.79457">
				 <ele>258</ele>
			 </trkpt>
			 <trkpt lat="42.622108" lon="12.79453">
				 <ele>257</ele>
			 </trkpt>
			 <trkpt lat="42.62175" lon="12.79405">
				 <ele>257</ele>
			 </trkpt>
			 <trkpt lat="42.62138" lon="12.79345">
				 <ele>262</ele>
			 </trkpt>
			 <trkpt lat="42.620609" lon="12.79199">
				 <ele>260</ele>
			 </trkpt>
			 <trkpt lat="42.62051" lon="12.79135">
				 <ele>258</ele>
			 </trkpt>
			 <trkpt lat="42.620449" lon="12.78417">
				 <ele>250</ele>
			 </trkpt>
			 <trkpt lat="42.620392" lon="12.78299">
				 <ele>248</ele>
			 </trkpt>
			 <trkpt lat="42.620251" lon="12.78229">
				 <ele>248</ele>
			 </trkpt>
			 <trkpt lat="42.619431" lon="12.78097">
				 <ele>248</ele>
			 </trkpt>
			 <trkpt lat="42.618469" lon="12.77963">
				 <ele>244</ele>
			 </trkpt>
			 <trkpt lat="42.617802" lon="12.77877">
				 <ele>246</ele>
			 </trkpt>
			 <trkpt lat="42.617458" lon="12.77846">
				 <ele>249</ele>
			 </trkpt>
			 <trkpt lat="42.617008" lon="12.77815">
				 <ele>250</ele>
			 </trkpt>
			 <trkpt lat="42.616402" lon="12.77789">
				 <ele>242</ele>
			 </trkpt>
			 <trkpt lat="42.608898" lon="12.77515">
				 <ele>251</ele>
			 </trkpt>
			 <trkpt lat="42.607929" lon="12.77462">
				 <ele>245</ele>
			 </trkpt>
			 <trkpt lat="42.60577" lon="12.77331">
				 <ele>239</ele>
			 </trkpt>
			 <trkpt lat="42.604401" lon="12.77274">
				 <ele>241</ele>
			 </trkpt>
			 <trkpt lat="42.602371" lon="12.77217">
				 <ele>236</ele>
			 </trkpt>
			 <trkpt lat="42.60125" lon="12.77168">
				 <ele>232</ele>
			 </trkpt>
			 <trkpt lat="42.598999" lon="12.77055">
				 <ele>241</ele>
			 </trkpt>
			 <trkpt lat="42.598579" lon="12.77042">
				 <ele>247</ele>
			 </trkpt>
			 <trkpt lat="42.597801" lon="12.77031">
				 <ele>242</ele>
			 </trkpt>
			 <trkpt lat="42.596989" lon="12.7703">
				 <ele>238</ele>
			 </trkpt>
			 <trkpt lat="42.594509" lon="12.77009">
				 <ele>232</ele>
			 </trkpt>
			 <trkpt lat="42.59436" lon="12.77003">
				 <ele>232</ele>
			 </trkpt>
			 <trkpt lat="42.590721" lon="12.76752">
				 <ele>229</ele>
			 </trkpt>
			 <trkpt lat="42.590488" lon="12.76728">
				 <ele>229</ele>
			 </trkpt>
			 <trkpt lat="42.58923" lon="12.76545">
				 <ele>228</ele>
			 </trkpt>
			 <trkpt lat="42.588619" lon="12.76477">
				 <ele>224</ele>
			 </trkpt>
			 <trkpt lat="42.588327" lon="12.764712">
				 <ele>223</ele>
			 </trkpt>
			 <trkpt lat="42.588193" lon="12.764386">
				 <ele>223</ele>
			 </trkpt>
			 <trkpt lat="42.586948" lon="12.76297">
				 <ele>224</ele>
			 </trkpt>
			 <trkpt lat="42.58197" lon="12.75745">
				 <ele>225</ele>
			 </trkpt>
			 <trkpt lat="42.58157" lon="12.75679">
				 <ele>228</ele>
			 </trkpt>
			 <trkpt lat="42.580589" lon="12.7548">
				 <ele>226</ele>
			 </trkpt>
			 <trkpt lat="42.580509" lon="12.75455">
				 <ele>225</ele>
			 </trkpt>
			 <trkpt lat="42.580429" lon="12.75394">
				 <ele>221</ele>
			 </trkpt>
			 <trkpt lat="42.58028" lon="12.7501">
				 <ele>221</ele>
			 </trkpt>
			 <trkpt lat="42.579121" lon="12.74504">
				 <ele>219</ele>
			 </trkpt>
			 <trkpt lat="42.578331" lon="12.74181">
				 <ele>218</ele>
			 </trkpt>
			 <trkpt lat="42.578209" lon="12.74153">
				 <ele>218</ele>
			 </trkpt>
			 <trkpt lat="42.577969" lon="12.74117">
				 <ele>218</ele>
			 </trkpt>
			 <trkpt lat="42.57626" lon="12.74014">
				 <ele>216</ele>
			 </trkpt>
			 <trkpt lat="42.576" lon="12.74006">
				 <ele>217</ele>
			 </trkpt>
			 <trkpt lat="42.575691" lon="12.74004">
				 <ele>218</ele>
			 </trkpt>
			 <trkpt lat="42.574268" lon="12.74033">
				 <ele>225</ele>
			 </trkpt>
			 <trkpt lat="42.57357" lon="12.74039">
				 <ele>233</ele>
			 </trkpt>
			 <trkpt lat="42.573349" lon="12.74036">
				 <ele>228</ele>
			 </trkpt>
			 <trkpt lat="42.572659" lon="12.74011">
				 <ele>227</ele>
			 </trkpt>
			 <trkpt lat="42.572369" lon="12.73987">
				 <ele>225</ele>
			 </trkpt>
			 <trkpt lat="42.57077" lon="12.73737">
				 <ele>222</ele>
			 </trkpt>
			 <trkpt lat="42.570541" lon="12.73708">
				 <ele>227</ele>
			 </trkpt>
			 <trkpt lat="42.569721" lon="12.73667">
				 <ele>222</ele>
			 </trkpt>
			 <trkpt lat="42.569118" lon="12.73623">
				 <ele>224</ele>
			 </trkpt>
			 <trkpt lat="42.565338" lon="12.73221">
				 <ele>221</ele>
			 </trkpt>
			 <trkpt lat="42.565121" lon="12.73182">
				 <ele>221</ele>
			 </trkpt>
			 <trkpt lat="42.565071" lon="12.73142">
				 <ele>223</ele>
			 </trkpt>
			 <trkpt lat="42.56498" lon="12.72899">
				 <ele>227</ele>
			 </trkpt>
			 <trkpt lat="42.56493" lon="12.72875">
				 <ele>226</ele>
			 </trkpt>
			 <trkpt lat="42.56469" lon="12.72832">
				 <ele>222</ele>
			 </trkpt>
			 <trkpt lat="42.56237" lon="12.7262">
				 <ele>231</ele>
			 </trkpt>
			 <trkpt lat="42.56007" lon="12.72422">
				 <ele>219</ele>
			 </trkpt>
			 <trkpt lat="42.55891" lon="12.72312">
				 <ele>219</ele>
			 </trkpt>
			 <trkpt lat="42.558769" lon="12.72288">
				 <ele>222</ele>
			 </trkpt>
			 <trkpt lat="42.556381" lon="12.71764">
				 <ele>220</ele>
			 </trkpt>
			 <trkpt lat="42.555981" lon="12.71711">
				 <ele>221</ele>
			 </trkpt>
			 <trkpt lat="42.555611" lon="12.71674">
				 <ele>220</ele>
			 </trkpt>
			 <trkpt lat="42.555462" lon="12.71669">
				 <ele>218</ele>
			 </trkpt>
			 <trkpt lat="42.554272" lon="12.71542">
				 <ele>223</ele>
			 </trkpt>
			 <trkpt lat="42.55381" lon="12.71487">
				 <ele>222</ele>
			 </trkpt>
			 <trkpt lat="42.55368" lon="12.71449">
				 <ele>227</ele>
			 </trkpt>
			 <trkpt lat="42.553638" lon="12.71418">
				 <ele>229</ele>
			 </trkpt>
			 <trkpt lat="42.55381" lon="12.7131">
				 <ele>220</ele>
			 </trkpt>
			 <trkpt lat="42.554081" lon="12.71258">
				 <ele>214</ele>
			 </trkpt>
			 <trkpt lat="42.554352" lon="12.71228">
				 <ele>212</ele>
			 </trkpt>
			 <trkpt lat="42.55452" lon="12.71218">
				 <ele>213</ele>
			 </trkpt>
			 <trkpt lat="42.55468" lon="12.71189">
				 <ele>212</ele>
			 </trkpt>
			 <trkpt lat="42.555389" lon="12.70925">
				 <ele>207</ele>
			 </trkpt>
			 <trkpt lat="42.555408" lon="12.70869">
				 <ele>206</ele>
			 </trkpt>
			 <trkpt lat="42.555359" lon="12.70791">
				 <ele>209</ele>
			 </trkpt>
			 <trkpt lat="42.555389" lon="12.7063">
				 <ele>200</ele>
			 </trkpt>
			 <trkpt lat="42.55526" lon="12.70567">
				 <ele>204</ele>
			 </trkpt>
			 <trkpt lat="42.55513" lon="12.70547">
				 <ele>207</ele>
			 </trkpt>
			 <trkpt lat="42.554852" lon="12.70519">
				 <ele>205</ele>
			 </trkpt>
			 <trkpt lat="42.554482" lon="12.70498">
				 <ele>200</ele>
			 </trkpt>
			 <trkpt lat="42.554161" lon="12.70473">
				 <ele>199</ele>
			 </trkpt>
			 <trkpt lat="42.553928" lon="12.70428">
				 <ele>200</ele>
			 </trkpt>
			 <trkpt lat="42.553749" lon="12.70278">
				 <ele>202</ele>
			 </trkpt>
			 <trkpt lat="42.553741" lon="12.70166">
				 <ele>190</ele>
			 </trkpt>
			 <trkpt lat="42.55357" lon="12.70039">
				 <ele>192</ele>
			 </trkpt>
			 <trkpt lat="42.55349" lon="12.69913">
				 <ele>199</ele>
			 </trkpt>
			 <trkpt lat="42.55328" lon="12.69797">
				 <ele>177</ele>
			 </trkpt>
			 <trkpt lat="42.552681" lon="12.69579">
				 <ele>180</ele>
			 </trkpt>
			 <trkpt lat="42.55257" lon="12.69522">
				 <ele>181</ele>
			 </trkpt>
			 <trkpt lat="42.552601" lon="12.69421">
				 <ele>179</ele>
			 </trkpt>
			 <trkpt lat="42.553028" lon="12.68951">
				 <ele>165</ele>
			 </trkpt>
			 <trkpt lat="42.553101" lon="12.68915">
				 <ele>165</ele>
			 </trkpt>
			 <trkpt lat="42.553268" lon="12.68872">
				 <ele>166</ele>
			 </trkpt>
			 <trkpt lat="42.553761" lon="12.68807">
				 <ele>166</ele>
			 </trkpt>
			 <trkpt lat="42.55471" lon="12.68744">
				 <ele>165</ele>
			 </trkpt>
			 <trkpt lat="42.555328" lon="12.68714">
				 <ele>164</ele>
			 </trkpt>
			 <trkpt lat="42.557941" lon="12.68643">
				 <ele>162</ele>
			 </trkpt>
			 <trkpt lat="42.558281" lon="12.68612">
				 <ele>160</ele>
			 </trkpt>
			 <trkpt lat="42.55854" lon="12.68576">
				 <ele>162</ele>
			 </trkpt>
			 <trkpt lat="42.558559" lon="12.6855">
				 <ele>162</ele>
			 </trkpt>
			 <trkpt lat="42.558731" lon="12.68521">
				 <ele>165</ele>
			 </trkpt>
			 <trkpt lat="42.558781" lon="12.68483">
				 <ele>165</ele>
			 </trkpt>
			 <trkpt lat="42.558632" lon="12.68361">
				 <ele>166</ele>
			 </trkpt>
			 <trkpt lat="42.558338" lon="12.68243">
				 <ele>156</ele>
			 </trkpt>
			 <trkpt lat="42.558189" lon="12.68216">
				 <ele>159</ele>
			 </trkpt>
			 <trkpt lat="42.557461" lon="12.68153">
				 <ele>161</ele>
			 </trkpt>
			 <trkpt lat="42.555889" lon="12.6797">
				 <ele>157</ele>
			 </trkpt>
			 <trkpt lat="42.555759" lon="12.67941">
				 <ele>154</ele>
			 </trkpt>
			 <trkpt lat="42.555698" lon="12.67906">
				 <ele>152</ele>
			 </trkpt>
			 <trkpt lat="42.55579" lon="12.67847">
				 <ele>151</ele>
			 </trkpt>
			 <trkpt lat="42.55624" lon="12.6777">
				 <ele>152</ele>
			 </trkpt>
			 <trkpt lat="42.556622" lon="12.67679">
				 <ele>154</ele>
			 </trkpt>
			 <trkpt lat="42.556671" lon="12.67607">
				 <ele>153</ele>
			 </trkpt>
			 <trkpt lat="42.556541" lon="12.67541">
				 <ele>148</ele>
			 </trkpt>
			 <trkpt lat="42.556568" lon="12.67438">
				 <ele>149</ele>
			 </trkpt>
			 <trkpt lat="42.556641" lon="12.67406">
				 <ele>148</ele>
			 </trkpt>
			 <trkpt lat="42.556789" lon="12.67373">
				 <ele>146</ele>
			 </trkpt>
			 <trkpt lat="42.556969" lon="12.67351">
				 <ele>147</ele>
			 </trkpt>
			 <trkpt lat="42.557251" lon="12.67324">
				 <ele>148</ele>
			 </trkpt>
			 <trkpt lat="42.55793" lon="12.67283">
				 <ele>144</ele>
			 </trkpt>
			 <trkpt lat="42.558189" lon="12.67278">
				 <ele>143</ele>
			 </trkpt>
			 <trkpt lat="42.559441" lon="12.67315">
				 <ele>143</ele>
			 </trkpt>
			 <trkpt lat="42.560169" lon="12.67374">
				 <ele>142</ele>
			 </trkpt>
			 <trkpt lat="42.560421" lon="12.67383">
				 <ele>142</ele>
			 </trkpt>
			 <trkpt lat="42.560741" lon="12.67377">
				 <ele>140</ele>
			 </trkpt>
			 <trkpt lat="42.56094" lon="12.67356">
				 <ele>137</ele>
			 </trkpt>
			 <trkpt lat="42.561131" lon="12.67321">
				 <ele>138</ele>
			 </trkpt>
			 <trkpt lat="42.565639" lon="12.6526">
				 <ele>129</ele>
			 </trkpt>
			 <trkpt lat="42.566395" lon="12.649358">
				 <ele>131</ele>
			 </trkpt>
			 <trkpt lat="42.566114" lon="12.64908">
				 <ele>132</ele>
			 </trkpt>
			 <trkpt lat="42.56599" lon="12.648963">
				 <ele>132</ele>
			 </trkpt>
			 <trkpt lat="42.563634" lon="12.647928">
				 <ele>136</ele>
			 </trkpt>
			 <trkpt lat="42.562981" lon="12.647652">
				 <ele>138</ele>
			 </trkpt>
			 <trkpt lat="42.56245" lon="12.647438">
				 <ele>138</ele>
			 </trkpt>
			 <trkpt lat="42.562094" lon="12.64725">
				 <ele>139</ele>
			 </trkpt>
			 <trkpt lat="42.561901" lon="12.647159">
				 <ele>139</ele>
			 </trkpt>
		 </trkseg>
	 </trk>
</gpx>