<?xml version="1.0" encoding="UTF-8"?>
 <gpx creator="Garmin Connect" version="1.1"
	 xsi:schemaLocation="http://www.topografix.com/GPX/1/1 http://www.topografix.com/GPX/11.xsd"
	 xmlns:ns3="http://www.garmin.com/xmlschemas/TrackPointExtension/v1"
	 xmlns="http://www.topografix.com/GPX/1/1"
	 xmlns:xsi="http://www.w3.org/2001/XMLSchema-instance" xmlns:ns2="http://www.garmin.com/xmlschemas/GpxExtensions/v3">
	 <metadata>
		<name>Marburger Nachtmarathon 2026 - 42.195 km</name>
		 <link href="https://www.goandrace.com">
		 <text>Garmin Connect</text>
		 </link>
	 <time>2026-08-09T21:08:52</time>
	 </metadata>
	 <trk>
		 <name>Marburger Nachtmarathon 2026 - 42.195 km</name>
		 <trkseg>
			 <trkpt lat="50.80901" lon="8.77032">
				 <ele>207.5</ele>
			 </trkpt>
			 <trkpt lat="50.80863" lon="8.7696">
				 <ele>206.6</ele>
			 </trkpt>
			 <trkpt lat="50.80836" lon="8.76882">
				 <ele>205.5</ele>
			 </trkpt>
			 <trkpt lat="50.80812" lon="8.76789">
				 <ele>204.6</ele>
			 </trkpt>
			 <trkpt lat="50.80798" lon="8.76692">
				 <ele>203.6</ele>
			 </trkpt>
			 <trkpt lat="50.80784" lon="8.76595">
				 <ele>202.8</ele>
			 </trkpt>
			 <trkpt lat="50.80765" lon="8.76523">
				 <ele>201</ele>
			 </trkpt>
			 <trkpt lat="50.80746" lon="8.76451">
				 <ele>199.3</ele>
			 </trkpt>
			 <trkpt lat="50.807235" lon="8.76381">
				 <ele>197.7</ele>
			 </trkpt>
			 <trkpt lat="50.80701" lon="8.76311">
				 <ele>196.4</ele>
			 </trkpt>
			 <trkpt lat="50.80683" lon="8.762385">
				 <ele>194.8</ele>
			 </trkpt>
			 <trkpt lat="50.80665" lon="8.76166">
				 <ele>193.5</ele>
			 </trkpt>
			 <trkpt lat="50.80628" lon="8.76064">
				 <ele>192.3</ele>
			 </trkpt>
			 <trkpt lat="50.80615" lon="8.76034">
				 <ele>191.3</ele>
			 </trkpt>
			 <trkpt lat="50.80595" lon="8.76007">
				 <ele>190</ele>
			 </trkpt>
			 <trkpt lat="50.805515" lon="8.75963">
				 <ele>188.8</ele>
			 </trkpt>
			 <trkpt lat="50.80508" lon="8.75919">
				 <ele>187.6</ele>
			 </trkpt>
			 <trkpt lat="50.80497" lon="8.7592">
				 <ele>186.5</ele>
			 </trkpt>
			 <trkpt lat="50.80499" lon="8.75945">
				 <ele>185.7</ele>
			 </trkpt>
			 <trkpt lat="50.80549" lon="8.760625">
				 <ele>185</ele>
			 </trkpt>
			 <trkpt lat="50.80599" lon="8.7618">
				 <ele>184.4</ele>
			 </trkpt>
			 <trkpt lat="50.80609" lon="8.76213">
				 <ele>184</ele>
			 </trkpt>
			 <trkpt lat="50.80624" lon="8.762835">
				 <ele>183.6</ele>
			 </trkpt>
			 <trkpt lat="50.80639" lon="8.76354">
				 <ele>183.5</ele>
			 </trkpt>
			 <trkpt lat="50.80659" lon="8.76492">
				 <ele>183.3</ele>
			 </trkpt>
			 <trkpt lat="50.80666" lon="8.765705">
				 <ele>183.2</ele>
			 </trkpt>
			 <trkpt lat="50.80673" lon="8.76649">
				 <ele>183.3</ele>
			 </trkpt>
			 <trkpt lat="50.806885" lon="8.767645">
				 <ele>183.3</ele>
			 </trkpt>
			 <trkpt lat="50.80704" lon="8.7688">
				 <ele>183.4</ele>
			 </trkpt>
			 <trkpt lat="50.807235" lon="8.77012">
				 <ele>183.5</ele>
			 </trkpt>
			 <trkpt lat="50.80743" lon="8.77144">
				 <ele>183.5</ele>
			 </trkpt>
			 <trkpt lat="50.80748" lon="8.77169">
				 <ele>183.5</ele>
			 </trkpt>
			 <trkpt lat="50.80761" lon="8.77207">
				 <ele>183.4</ele>
			 </trkpt>
			 <trkpt lat="50.80767" lon="8.77217">
				 <ele>183.3</ele>
			 </trkpt>
			 <trkpt lat="50.80773" lon="8.77224">
				 <ele>183</ele>
			 </trkpt>
			 <trkpt lat="50.80807" lon="8.77233">
				 <ele>182.7</ele>
			 </trkpt>
			 <trkpt lat="50.80816" lon="8.77236">
				 <ele>182.7</ele>
			 </trkpt>
			 <trkpt lat="50.80837" lon="8.77251">
				 <ele>182.6</ele>
			 </trkpt>
			 <trkpt lat="50.80868" lon="8.77262">
				 <ele>182.6</ele>
			 </trkpt>
			 <trkpt lat="50.80876" lon="8.77264">
				 <ele>182.5</ele>
			 </trkpt>
			 <trkpt lat="50.80883" lon="8.77269">
				 <ele>182.5</ele>
			 </trkpt>
			 <trkpt lat="50.80889" lon="8.77276">
				 <ele>182.4</ele>
			 </trkpt>
			 <trkpt lat="50.80916" lon="8.77335">
				 <ele>182.3</ele>
			 </trkpt>
			 <trkpt lat="50.80935" lon="8.77365">
				 <ele>182.2</ele>
			 </trkpt>
			 <trkpt lat="50.8095" lon="8.77383">
				 <ele>182.1</ele>
			 </trkpt>
			 <trkpt lat="50.80962" lon="8.77393">
				 <ele>182</ele>
			 </trkpt>
			 <trkpt lat="50.80982" lon="8.77405">
				 <ele>182</ele>
			 </trkpt>
			 <trkpt lat="50.810375" lon="8.77433">
				 <ele>182</ele>
			 </trkpt>
			 <trkpt lat="50.81093" lon="8.77461">
				 <ele>182</ele>
			 </trkpt>
			 <trkpt lat="50.811697" lon="8.77501">
				 <ele>182</ele>
			 </trkpt>
			 <trkpt lat="50.812463" lon="8.77541">
				 <ele>182</ele>
			 </trkpt>
			 <trkpt lat="50.81323" lon="8.77581">
				 <ele>182.1</ele>
			 </trkpt>
			 <trkpt lat="50.81328" lon="8.77581">
				 <ele>182.2</ele>
			 </trkpt>
			 <trkpt lat="50.81333" lon="8.7758">
				 <ele>182.3</ele>
			 </trkpt>
			 <trkpt lat="50.81337" lon="8.77576">
				 <ele>182.4</ele>
			 </trkpt>
			 <trkpt lat="50.8134" lon="8.77566">
				 <ele>182.5</ele>
			 </trkpt>
			 <trkpt lat="50.813633" lon="8.774693">
				 <ele>182.5</ele>
			 </trkpt>
			 <trkpt lat="50.813867" lon="8.773727">
				 <ele>182.6</ele>
			 </trkpt>
			 <trkpt lat="50.8141" lon="8.77276">
				 <ele>182.7</ele>
			 </trkpt>
			 <trkpt lat="50.81421" lon="8.77281">
				 <ele>182.8</ele>
			 </trkpt>
			 <trkpt lat="50.81441" lon="8.77284">
				 <ele>182.8</ele>
			 </trkpt>
			 <trkpt lat="50.81504" lon="8.77289">
				 <ele>182.8</ele>
			 </trkpt>
			 <trkpt lat="50.81534" lon="8.7729">
				 <ele>182.8</ele>
			 </trkpt>
			 <trkpt lat="50.81541" lon="8.77289">
				 <ele>182.9</ele>
			 </trkpt>
			 <trkpt lat="50.81547" lon="8.77286">
				 <ele>183</ele>
			 </trkpt>
			 <trkpt lat="50.81599" lon="8.77221">
				 <ele>183.1</ele>
			 </trkpt>
			 <trkpt lat="50.816555" lon="8.77148">
				 <ele>183.2</ele>
			 </trkpt>
			 <trkpt lat="50.81712" lon="8.77075">
				 <ele>183.2</ele>
			 </trkpt>
			 <trkpt lat="50.816585" lon="8.769705">
				 <ele>183.2</ele>
			 </trkpt>
			 <trkpt lat="50.81605" lon="8.76866">
				 <ele>183.2</ele>
			 </trkpt>
			 <trkpt lat="50.81604" lon="8.76856">
				 <ele>183.2</ele>
			 </trkpt>
			 <trkpt lat="50.81609" lon="8.76843">
				 <ele>183.3</ele>
			 </trkpt>
			 <trkpt lat="50.81629" lon="8.76831">
				 <ele>183.5</ele>
			 </trkpt>
			 <trkpt lat="50.81686" lon="8.76769">
				 <ele>183.8</ele>
			 </trkpt>
			 <trkpt lat="50.81719" lon="8.76723">
				 <ele>183.9</ele>
			 </trkpt>
			 <trkpt lat="50.81732" lon="8.7671">
				 <ele>184</ele>
			 </trkpt>
			 <trkpt lat="50.8175" lon="8.76696">
				 <ele>184</ele>
			 </trkpt>
			 <trkpt lat="50.81807" lon="8.7666">
				 <ele>184</ele>
			 </trkpt>
			 <trkpt lat="50.81861" lon="8.766205">
				 <ele>184</ele>
			 </trkpt>
			 <trkpt lat="50.81915" lon="8.76581">
				 <ele>184</ele>
			 </trkpt>
			 <trkpt lat="50.819795" lon="8.765175">
				 <ele>184</ele>
			 </trkpt>
			 <trkpt lat="50.82044" lon="8.76454">
				 <ele>184</ele>
			 </trkpt>
			 <trkpt lat="50.82084" lon="8.76413">
				 <ele>184</ele>
			 </trkpt>
			 <trkpt lat="50.82118" lon="8.7639">
				 <ele>183.8</ele>
			 </trkpt>
			 <trkpt lat="50.82152" lon="8.76371">
				 <ele>183.5</ele>
			 </trkpt>
			 <trkpt lat="50.82191" lon="8.76359">
				 <ele>183.2</ele>
			 </trkpt>
			 <trkpt lat="50.82249" lon="8.76349">
				 <ele>183</ele>
			 </trkpt>
			 <trkpt lat="50.82271" lon="8.76343">
				 <ele>182.9</ele>
			 </trkpt>
			 <trkpt lat="50.82348" lon="8.76311">
				 <ele>182.9</ele>
			 </trkpt>
			 <trkpt lat="50.82375" lon="8.76302">
				 <ele>183.1</ele>
			 </trkpt>
			 <trkpt lat="50.824505" lon="8.763018">
				 <ele>183.3</ele>
			 </trkpt>
			 <trkpt lat="50.82526" lon="8.763015">
				 <ele>183.5</ele>
			 </trkpt>
			 <trkpt lat="50.826015" lon="8.763013">
				 <ele>183.6</ele>
			 </trkpt>
			 <trkpt lat="50.82677" lon="8.76301">
				 <ele>183.8</ele>
			 </trkpt>
			 <trkpt lat="50.82749" lon="8.76311">
				 <ele>184.1</ele>
			 </trkpt>
			 <trkpt lat="50.82791" lon="8.76306">
				 <ele>184.5</ele>
			 </trkpt>
			 <trkpt lat="50.82843" lon="8.76296">
				 <ele>184.7</ele>
			 </trkpt>
			 <trkpt lat="50.82904" lon="8.76303">
				 <ele>184.9</ele>
			 </trkpt>
			 <trkpt lat="50.82959" lon="8.76301">
				 <ele>185.1</ele>
			 </trkpt>
			 <trkpt lat="50.82993" lon="8.76295">
				 <ele>185.2</ele>
			 </trkpt>
			 <trkpt lat="50.83055" lon="8.76279">
				 <ele>185.2</ele>
			 </trkpt>
			 <trkpt lat="50.83124" lon="8.762495">
				 <ele>185.2</ele>
			 </trkpt>
			 <trkpt lat="50.83193" lon="8.7622">
				 <ele>185.2</ele>
			 </trkpt>
			 <trkpt lat="50.83244" lon="8.76198">
				 <ele>185.2</ele>
			 </trkpt>
			 <trkpt lat="50.83287" lon="8.76172">
				 <ele>185.2</ele>
			 </trkpt>
			 <trkpt lat="50.83363" lon="8.76117">
				 <ele>185.1</ele>
			 </trkpt>
			 <trkpt lat="50.83439" lon="8.76062">
				 <ele>185</ele>
			 </trkpt>
			 <trkpt lat="50.83455" lon="8.76056">
				 <ele>185.1</ele>
			 </trkpt>
			 <trkpt lat="50.83471" lon="8.76056">
				 <ele>185.2</ele>
			 </trkpt>
			 <trkpt lat="50.8352" lon="8.7607">
				 <ele>185.4</ele>
			 </trkpt>
			 <trkpt lat="50.83534" lon="8.76068">
				 <ele>185.5</ele>
			 </trkpt>
			 <trkpt lat="50.8355" lon="8.76064">
				 <ele>185.6</ele>
			 </trkpt>
			 <trkpt lat="50.8359" lon="8.76047">
				 <ele>185.6</ele>
			 </trkpt>
			 <trkpt lat="50.83602" lon="8.7604">
				 <ele>185.6</ele>
			 </trkpt>
			 <trkpt lat="50.8364" lon="8.76014">
				 <ele>185.6</ele>
			 </trkpt>
			 <trkpt lat="50.83651" lon="8.76012">
				 <ele>185.5</ele>
			 </trkpt>
			 <trkpt lat="50.83671" lon="8.76016">
				 <ele>185.5</ele>
			 </trkpt>
			 <trkpt lat="50.83705" lon="8.76037">
				 <ele>185.4</ele>
			 </trkpt>
			 <trkpt lat="50.83718" lon="8.76042">
				 <ele>185.3</ele>
			 </trkpt>
			 <trkpt lat="50.83734" lon="8.76044">
				 <ele>185.2</ele>
			 </trkpt>
			 <trkpt lat="50.83765" lon="8.76043">
				 <ele>185.1</ele>
			 </trkpt>
			 <trkpt lat="50.83769" lon="8.76053">
				 <ele>184.6</ele>
			 </trkpt>
			 <trkpt lat="50.83775" lon="8.76055">
				 <ele>184.5</ele>
			 </trkpt>
			 <trkpt lat="50.8378" lon="8.7605">
				 <ele>184.5</ele>
			 </trkpt>
			 <trkpt lat="50.83818" lon="8.76113">
				 <ele>184.5</ele>
			 </trkpt>
			 <trkpt lat="50.83852" lon="8.76166">
				 <ele>184.6</ele>
			 </trkpt>
			 <trkpt lat="50.83888" lon="8.76209">
				 <ele>184.6</ele>
			 </trkpt>
			 <trkpt lat="50.83924" lon="8.76252">
				 <ele>184.6</ele>
			 </trkpt>
			 <trkpt lat="50.83936" lon="8.76269">
				 <ele>184.6</ele>
			 </trkpt>
			 <trkpt lat="50.83962" lon="8.76323">
				 <ele>184.5</ele>
			 </trkpt>
			 <trkpt lat="50.83977" lon="8.76367">
				 <ele>184.5</ele>
			 </trkpt>
			 <trkpt lat="50.83953" lon="8.76386">
				 <ele>184.3</ele>
			 </trkpt>
			 <trkpt lat="50.83935" lon="8.76405">
				 <ele>184.5</ele>
			 </trkpt>
			 <trkpt lat="50.83891" lon="8.7644">
				 <ele>184.5</ele>
			 </trkpt>
			 <trkpt lat="50.8384" lon="8.76475">
				 <ele>184.3</ele>
			 </trkpt>
			 <trkpt lat="50.83765" lon="8.76534">
				 <ele>184.2</ele>
			 </trkpt>
			 <trkpt lat="50.8374" lon="8.7655">
				 <ele>184</ele>
			 </trkpt>
			 <trkpt lat="50.83714" lon="8.7656">
				 <ele>184</ele>
			 </trkpt>
			 <trkpt lat="50.83689" lon="8.76562">
				 <ele>183.9</ele>
			 </trkpt>
			 <trkpt lat="50.83664" lon="8.76559">
				 <ele>183.9</ele>
			 </trkpt>
			 <trkpt lat="50.83596" lon="8.76536">
				 <ele>183.8</ele>
			 </trkpt>
			 <trkpt lat="50.83585" lon="8.7653">
				 <ele>183.8</ele>
			 </trkpt>
			 <trkpt lat="50.8356" lon="8.76512">
				 <ele>183.7</ele>
			 </trkpt>
			 <trkpt lat="50.83527" lon="8.76485">
				 <ele>183.6</ele>
			 </trkpt>
			 <trkpt lat="50.83495" lon="8.76465">
				 <ele>183.5</ele>
			 </trkpt>
			 <trkpt lat="50.83451" lon="8.76447">
				 <ele>183.5</ele>
			 </trkpt>
			 <trkpt lat="50.83422" lon="8.76446">
				 <ele>183.4</ele>
			 </trkpt>
			 <trkpt lat="50.83387" lon="8.76455">
				 <ele>183.3</ele>
			 </trkpt>
			 <trkpt lat="50.83359" lon="8.76469">
				 <ele>183.2</ele>
			 </trkpt>
			 <trkpt lat="50.83327" lon="8.76489">
				 <ele>183.2</ele>
			 </trkpt>
			 <trkpt lat="50.83289" lon="8.76525">
				 <ele>183.2</ele>
			 </trkpt>
			 <trkpt lat="50.83241" lon="8.76576">
				 <ele>183.4</ele>
			 </trkpt>
			 <trkpt lat="50.83189" lon="8.76606">
				 <ele>183.4</ele>
			 </trkpt>
			 <trkpt lat="50.83158" lon="8.76619">
				 <ele>183.5</ele>
			 </trkpt>
			 <trkpt lat="50.8313" lon="8.76628">
				 <ele>183.5</ele>
			 </trkpt>
			 <trkpt lat="50.83065" lon="8.76642">
				 <ele>183.5</ele>
			 </trkpt>
			 <trkpt lat="50.83043" lon="8.76651">
				 <ele>183.5</ele>
			 </trkpt>
			 <trkpt lat="50.82973" lon="8.766525">
				 <ele>183.5</ele>
			 </trkpt>
			 <trkpt lat="50.82903" lon="8.76654">
				 <ele>183.5</ele>
			 </trkpt>
			 <trkpt lat="50.828355" lon="8.766345">
				 <ele>183.5</ele>
			 </trkpt>
			 <trkpt lat="50.82768" lon="8.76615">
				 <ele>183.7</ele>
			 </trkpt>
			 <trkpt lat="50.82724" lon="8.765985">
				 <ele>183.7</ele>
			 </trkpt>
			 <trkpt lat="50.8268" lon="8.76582">
				 <ele>183.6</ele>
			 </trkpt>
			 <trkpt lat="50.826175" lon="8.765765">
				 <ele>183.6</ele>
			 </trkpt>
			 <trkpt lat="50.82555" lon="8.76571">
				 <ele>183.5</ele>
			 </trkpt>
			 <trkpt lat="50.82545" lon="8.76567">
				 <ele>183.4</ele>
			 </trkpt>
			 <trkpt lat="50.82522" lon="8.76544">
				 <ele>183.3</ele>
			 </trkpt>
			 <trkpt lat="50.82517" lon="8.76543">
				 <ele>183.2</ele>
			 </trkpt>
			 <trkpt lat="50.82512" lon="8.76547">
				 <ele>183.1</ele>
			 </trkpt>
			 <trkpt lat="50.82502" lon="8.7652">
				 <ele>183</ele>
			 </trkpt>
			 <trkpt lat="50.82491" lon="8.76502">
				 <ele>182.8</ele>
			 </trkpt>
			 <trkpt lat="50.82485" lon="8.76496">
				 <ele>182.5</ele>
			 </trkpt>
			 <trkpt lat="50.82471" lon="8.76495">
				 <ele>182.4</ele>
			 </trkpt>
			 <trkpt lat="50.824255" lon="8.765165">
				 <ele>182.2</ele>
			 </trkpt>
			 <trkpt lat="50.8238" lon="8.76538">
				 <ele>182</ele>
			 </trkpt>
			 <trkpt lat="50.82354" lon="8.76556">
				 <ele>182</ele>
			 </trkpt>
			 <trkpt lat="50.82319" lon="8.76584">
				 <ele>182</ele>
			 </trkpt>
			 <trkpt lat="50.82294" lon="8.76611">
				 <ele>182</ele>
			 </trkpt>
			 <trkpt lat="50.82272" lon="8.76613">
				 <ele>182</ele>
			 </trkpt>
			 <trkpt lat="50.82241" lon="8.76631">
				 <ele>182</ele>
			 </trkpt>
			 <trkpt lat="50.82178" lon="8.766755">
				 <ele>181.8</ele>
			 </trkpt>
			 <trkpt lat="50.82115" lon="8.7672">
				 <ele>181.5</ele>
			 </trkpt>
			 <trkpt lat="50.82113" lon="8.76725">
				 <ele>181.4</ele>
			 </trkpt>
			 <trkpt lat="50.82096" lon="8.7674">
				 <ele>181.2</ele>
			 </trkpt>
			 <trkpt lat="50.8203" lon="8.76764">
				 <ele>181</ele>
			 </trkpt>
			 <trkpt lat="50.81964" lon="8.76788">
				 <ele>180.7</ele>
			 </trkpt>
			 <trkpt lat="50.819495" lon="8.769005">
				 <ele>180.5</ele>
			 </trkpt>
			 <trkpt lat="50.81935" lon="8.77013">
				 <ele>180.3</ele>
			 </trkpt>
			 <trkpt lat="50.81929" lon="8.7704">
				 <ele>180.1</ele>
			 </trkpt>
			 <trkpt lat="50.81917" lon="8.77087">
				 <ele>179.8</ele>
			 </trkpt>
			 <trkpt lat="50.81901" lon="8.77136">
				 <ele>179.6</ele>
			 </trkpt>
			 <trkpt lat="50.81885" lon="8.77178">
				 <ele>179.8</ele>
			 </trkpt>
			 <trkpt lat="50.81864" lon="8.77222">
				 <ele>180</ele>
			 </trkpt>
			 <trkpt lat="50.81849" lon="8.7725">
				 <ele>180.2</ele>
			 </trkpt>
			 <trkpt lat="50.81805" lon="8.77298">
				 <ele>180.3</ele>
			 </trkpt>
			 <trkpt lat="50.817547" lon="8.773593">
				 <ele>180.4</ele>
			 </trkpt>
			 <trkpt lat="50.817043" lon="8.774207">
				 <ele>180.5</ele>
			 </trkpt>
			 <trkpt lat="50.81654" lon="8.77482">
				 <ele>180.5</ele>
			 </trkpt>
			 <trkpt lat="50.816013" lon="8.775543">
				 <ele>180.6</ele>
			 </trkpt>
			 <trkpt lat="50.815487" lon="8.776267">
				 <ele>180.6</ele>
			 </trkpt>
			 <trkpt lat="50.81496" lon="8.77699">
				 <ele>180.7</ele>
			 </trkpt>
			 <trkpt lat="50.81439" lon="8.77753">
				 <ele>180.7</ele>
			 </trkpt>
			 <trkpt lat="50.81386" lon="8.77797">
				 <ele>180.5</ele>
			 </trkpt>
			 <trkpt lat="50.81314" lon="8.77841">
				 <ele>180.5</ele>
			 </trkpt>
			 <trkpt lat="50.8124" lon="8.77851">
				 <ele>180.3</ele>
			 </trkpt>
			 <trkpt lat="50.81201" lon="8.77844">
				 <ele>180.3</ele>
			 </trkpt>
			 <trkpt lat="50.81173" lon="8.77849">
				 <ele>180.3</ele>
			 </trkpt>
			 <trkpt lat="50.81152" lon="8.77849">
				 <ele>180.5</ele>
			 </trkpt>
			 <trkpt lat="50.810925" lon="8.77839">
				 <ele>180.6</ele>
			 </trkpt>
			 <trkpt lat="50.81033" lon="8.77829">
				 <ele>180.7</ele>
			 </trkpt>
			 <trkpt lat="50.81027" lon="8.7783">
				 <ele>181</ele>
			 </trkpt>
			 <trkpt lat="50.81007" lon="8.77837">
				 <ele>181.2</ele>
			 </trkpt>
			 <trkpt lat="50.80989" lon="8.7783">
				 <ele>181.5</ele>
			 </trkpt>
			 <trkpt lat="50.80955" lon="8.77796">
				 <ele>181.5</ele>
			 </trkpt>
			 <trkpt lat="50.8093" lon="8.77763">
				 <ele>181.6</ele>
			 </trkpt>
			 <trkpt lat="50.80917" lon="8.77741">
				 <ele>181.7</ele>
			 </trkpt>
			 <trkpt lat="50.809" lon="8.77695">
				 <ele>181.7</ele>
			 </trkpt>
			 <trkpt lat="50.80868" lon="8.77589">
				 <ele>181.7</ele>
			 </trkpt>
			 <trkpt lat="50.80845" lon="8.77523">
				 <ele>181.5</ele>
			 </trkpt>
			 <trkpt lat="50.80836" lon="8.77522">
				 <ele>181.5</ele>
			 </trkpt>
			 <trkpt lat="50.8079" lon="8.77453">
				 <ele>181.5</ele>
			 </trkpt>
			 <trkpt lat="50.80801" lon="8.77421">
				 <ele>181.2</ele>
			 </trkpt>
			 <trkpt lat="50.80798" lon="8.77419">
				 <ele>181.1</ele>
			 </trkpt>
			 <trkpt lat="50.80802" lon="8.77403">
				 <ele>180.9</ele>
			 </trkpt>
			 <trkpt lat="50.80787" lon="8.77374">
				 <ele>180.8</ele>
			 </trkpt>
			 <trkpt lat="50.80765" lon="8.77349">
				 <ele>180.7</ele>
			 </trkpt>
			 <trkpt lat="50.80715" lon="8.77331">
				 <ele>180.6</ele>
			 </trkpt>
			 <trkpt lat="50.80699" lon="8.7733">
				 <ele>180.6</ele>
			 </trkpt>
			 <trkpt lat="50.80697" lon="8.77333">
				 <ele>180.6</ele>
			 </trkpt>
			 <trkpt lat="50.80698" lon="8.77345">
				 <ele>180.7</ele>
			 </trkpt>
			 <trkpt lat="50.80694" lon="8.77353">
				 <ele>180.7</ele>
			 </trkpt>
			 <trkpt lat="50.80682" lon="8.77341">
				 <ele>180.5</ele>
			 </trkpt>
			 <trkpt lat="50.80673" lon="8.77326">
				 <ele>180.6</ele>
			 </trkpt>
			 <trkpt lat="50.80633" lon="8.7729">
				 <ele>180.6</ele>
			 </trkpt>
			 <trkpt lat="50.80619" lon="8.7728">
				 <ele>180.5</ele>
			 </trkpt>
			 <trkpt lat="50.80605" lon="8.77274">
				 <ele>180.5</ele>
			 </trkpt>
			 <trkpt lat="50.80553" lon="8.77262">
				 <ele>180.5</ele>
			 </trkpt>
			 <trkpt lat="50.80537" lon="8.77263">
				 <ele>180.5</ele>
			 </trkpt>
			 <trkpt lat="50.80514" lon="8.7727">
				 <ele>180.5</ele>
			 </trkpt>
			 <trkpt lat="50.80498" lon="8.77285">
				 <ele>180.2</ele>
			 </trkpt>
			 <trkpt lat="50.80485" lon="8.77286">
				 <ele>180.1</ele>
			 </trkpt>
			 <trkpt lat="50.80472" lon="8.7728">
				 <ele>180</ele>
			 </trkpt>
			 <trkpt lat="50.80458" lon="8.77279">
				 <ele>180</ele>
			 </trkpt>
			 <trkpt lat="50.80377" lon="8.77304">
				 <ele>179.9</ele>
			 </trkpt>
			 <trkpt lat="50.80367" lon="8.7719">
				 <ele>179.7</ele>
			 </trkpt>
			 <trkpt lat="50.80358" lon="8.77106">
				 <ele>179.6</ele>
			 </trkpt>
			 <trkpt lat="50.80388" lon="8.7703">
				 <ele>179.5</ele>
			 </trkpt>
			 <trkpt lat="50.80412" lon="8.76997">
				 <ele>179.5</ele>
			 </trkpt>
			 <trkpt lat="50.803665" lon="8.76909">
				 <ele>179.4</ele>
			 </trkpt>
			 <trkpt lat="50.80321" lon="8.76821">
				 <ele>179.4</ele>
			 </trkpt>
			 <trkpt lat="50.802805" lon="8.767455">
				 <ele>179.4</ele>
			 </trkpt>
			 <trkpt lat="50.8024" lon="8.7667">
				 <ele>179.1</ele>
			 </trkpt>
			 <trkpt lat="50.80208" lon="8.76701">
				 <ele>178.7</ele>
			 </trkpt>
			 <trkpt lat="50.801605" lon="8.76738">
				 <ele>178.4</ele>
			 </trkpt>
			 <trkpt lat="50.80113" lon="8.76775">
				 <ele>178</ele>
			 </trkpt>
			 <trkpt lat="50.80094" lon="8.76786">
				 <ele>177.7</ele>
			 </trkpt>
			 <trkpt lat="50.80076" lon="8.76785">
				 <ele>177.5</ele>
			 </trkpt>
			 <trkpt lat="50.80057" lon="8.7678">
				 <ele>177.3</ele>
			 </trkpt>
			 <trkpt lat="50.80048" lon="8.76777">
				 <ele>177.1</ele>
			 </trkpt>
			 <trkpt lat="50.80039" lon="8.76769">
				 <ele>176.9</ele>
			 </trkpt>
			 <trkpt lat="50.80021" lon="8.76748">
				 <ele>176.6</ele>
			 </trkpt>
			 <trkpt lat="50.79991" lon="8.76691">
				 <ele>176.5</ele>
			 </trkpt>
			 <trkpt lat="50.79977" lon="8.76669">
				 <ele>176.5</ele>
			 </trkpt>
			 <trkpt lat="50.79924" lon="8.76597">
				 <ele>176.5</ele>
			 </trkpt>
			 <trkpt lat="50.7987" lon="8.76517">
				 <ele>176.5</ele>
			 </trkpt>
			 <trkpt lat="50.798195" lon="8.76449">
				 <ele>176.5</ele>
			 </trkpt>
			 <trkpt lat="50.79769" lon="8.76381">
				 <ele>176.5</ele>
			 </trkpt>
			 <trkpt lat="50.79734" lon="8.763295">
				 <ele>176.7</ele>
			 </trkpt>
			 <trkpt lat="50.79699" lon="8.76278">
				 <ele>176.8</ele>
			 </trkpt>
			 <trkpt lat="50.79654" lon="8.76191">
				 <ele>176.9</ele>
			 </trkpt>
			 <trkpt lat="50.79624" lon="8.76146">
				 <ele>177</ele>
			 </trkpt>
			 <trkpt lat="50.79599" lon="8.76103">
				 <ele>177.1</ele>
			 </trkpt>
			 <trkpt lat="50.79582" lon="8.76059">
				 <ele>177.3</ele>
			 </trkpt>
			 <trkpt lat="50.79581" lon="8.76045">
				 <ele>177.4</ele>
			 </trkpt>
			 <trkpt lat="50.79582" lon="8.76034">
				 <ele>177.5</ele>
			 </trkpt>
			 <trkpt lat="50.79568" lon="8.76004">
				 <ele>177.6</ele>
			 </trkpt>
			 <trkpt lat="50.79538" lon="8.75977">
				 <ele>177.7</ele>
			 </trkpt>
			 <trkpt lat="50.79531" lon="8.75957">
				 <ele>177.7</ele>
			 </trkpt>
			 <trkpt lat="50.79521" lon="8.75909">
				 <ele>177.5</ele>
			 </trkpt>
			 <trkpt lat="50.7951" lon="8.75881">
				 <ele>177.4</ele>
			 </trkpt>
			 <trkpt lat="50.794613" lon="8.757717">
				 <ele>177.2</ele>
			 </trkpt>
			 <trkpt lat="50.794127" lon="8.756623">
				 <ele>177.1</ele>
			 </trkpt>
			 <trkpt lat="50.79364" lon="8.75553">
				 <ele>177</ele>
			 </trkpt>
			 <trkpt lat="50.79349" lon="8.75513">
				 <ele>176.8</ele>
			 </trkpt>
			 <trkpt lat="50.79335" lon="8.75486">
				 <ele>176.6</ele>
			 </trkpt>
			 <trkpt lat="50.79287" lon="8.75416">
				 <ele>176.5</ele>
			 </trkpt>
			 <trkpt lat="50.79229" lon="8.75344">
				 <ele>176.5</ele>
			 </trkpt>
			 <trkpt lat="50.79212" lon="8.75327">
				 <ele>176.5</ele>
			 </trkpt>
			 <trkpt lat="50.79195" lon="8.75319">
				 <ele>176.6</ele>
			 </trkpt>
			 <trkpt lat="50.79143" lon="8.752715">
				 <ele>176.7</ele>
			 </trkpt>
			 <trkpt lat="50.79091" lon="8.75224">
				 <ele>176.7</ele>
			 </trkpt>
			 <trkpt lat="50.79079" lon="8.75211">
				 <ele>176.7</ele>
			 </trkpt>
			 <trkpt lat="50.79061" lon="8.752">
				 <ele>176.6</ele>
			 </trkpt>
			 <trkpt lat="50.79049" lon="8.75196">
				 <ele>176.6</ele>
			 </trkpt>
			 <trkpt lat="50.79027" lon="8.75182">
				 <ele>176.7</ele>
			 </trkpt>
			 <trkpt lat="50.79004" lon="8.75184">
				 <ele>176.8</ele>
			 </trkpt>
			 <trkpt lat="50.78984" lon="8.75175">
				 <ele>176.8</ele>
			 </trkpt>
			 <trkpt lat="50.78939" lon="8.75149">
				 <ele>176.8</ele>
			 </trkpt>
			 <trkpt lat="50.78886" lon="8.75126">
				 <ele>176.9</ele>
			 </trkpt>
			 <trkpt lat="50.78829" lon="8.751155">
				 <ele>177</ele>
			 </trkpt>
			 <trkpt lat="50.78772" lon="8.75105">
				 <ele>177.1</ele>
			 </trkpt>
			 <trkpt lat="50.7874" lon="8.75105">
				 <ele>177.2</ele>
			 </trkpt>
			 <trkpt lat="50.78655" lon="8.7512">
				 <ele>177.2</ele>
			 </trkpt>
			 <trkpt lat="50.78597" lon="8.75127">
				 <ele>177.2</ele>
			 </trkpt>
			 <trkpt lat="50.785235" lon="8.75122">
				 <ele>177.1</ele>
			 </trkpt>
			 <trkpt lat="50.7845" lon="8.75117">
				 <ele>177.1</ele>
			 </trkpt>
			 <trkpt lat="50.783773" lon="8.751047">
				 <ele>177.1</ele>
			 </trkpt>
			 <trkpt lat="50.783047" lon="8.750923">
				 <ele>177.1</ele>
			 </trkpt>
			 <trkpt lat="50.78232" lon="8.7508">
				 <ele>177</ele>
			 </trkpt>
			 <trkpt lat="50.78201" lon="8.75073">
				 <ele>176.9</ele>
			 </trkpt>
			 <trkpt lat="50.78172" lon="8.7507">
				 <ele>176.8</ele>
			 </trkpt>
			 <trkpt lat="50.780907" lon="8.750665">
				 <ele>176.7</ele>
			 </trkpt>
			 <trkpt lat="50.780093" lon="8.75063">
				 <ele>176.7</ele>
			 </trkpt>
			 <trkpt lat="50.77928" lon="8.750595">
				 <ele>176.8</ele>
			 </trkpt>
			 <trkpt lat="50.778467" lon="8.75056">
				 <ele>176.9</ele>
			 </trkpt>
			 <trkpt lat="50.777653" lon="8.750525">
				 <ele>177</ele>
			 </trkpt>
			 <trkpt lat="50.77684" lon="8.75049">
				 <ele>177</ele>
			 </trkpt>
			 <trkpt lat="50.776045" lon="8.750425">
				 <ele>177</ele>
			 </trkpt>
			 <trkpt lat="50.77525" lon="8.75036">
				 <ele>177</ele>
			 </trkpt>
			 <trkpt lat="50.77452" lon="8.75033">
				 <ele>177</ele>
			 </trkpt>
			 <trkpt lat="50.77452" lon="8.75162">
				 <ele>176.9</ele>
			 </trkpt>
			 <trkpt lat="50.77422" lon="8.752">
				 <ele>176.8</ele>
			 </trkpt>
			 <trkpt lat="50.77411" lon="8.7521">
				 <ele>176.7</ele>
			 </trkpt>
			 <trkpt lat="50.77406" lon="8.75211">
				 <ele>176.6</ele>
			 </trkpt>
			 <trkpt lat="50.774" lon="8.7521">
				 <ele>176.6</ele>
			 </trkpt>
			 <trkpt lat="50.77322" lon="8.751425">
				 <ele>176.6</ele>
			 </trkpt>
			 <trkpt lat="50.77244" lon="8.75075">
				 <ele>176.6</ele>
			 </trkpt>
			 <trkpt lat="50.77215" lon="8.752035">
				 <ele>176.5</ele>
			 </trkpt>
			 <trkpt lat="50.77186" lon="8.75332">
				 <ele>176.3</ele>
			 </trkpt>
			 <trkpt lat="50.77168" lon="8.75403">
				 <ele>176.1</ele>
			 </trkpt>
			 <trkpt lat="50.77171" lon="8.75422">
				 <ele>176.1</ele>
			 </trkpt>
			 <trkpt lat="50.77176" lon="8.75428">
				 <ele>176.3</ele>
			 </trkpt>
			 <trkpt lat="50.77196" lon="8.7544">
				 <ele>176.5</ele>
			 </trkpt>
			 <trkpt lat="50.772" lon="8.75448">
				 <ele>176.7</ele>
			 </trkpt>
			 <trkpt lat="50.77201" lon="8.75461">
				 <ele>177.2</ele>
			 </trkpt>
			 <trkpt lat="50.77196" lon="8.75482">
				 <ele>177</ele>
			 </trkpt>
			 <trkpt lat="50.77198" lon="8.75491">
				 <ele>177.5</ele>
			 </trkpt>
			 <trkpt lat="50.77204" lon="8.75503">
				 <ele>178</ele>
			 </trkpt>
			 <trkpt lat="50.772637" lon="8.75587">
				 <ele>178.6</ele>
			 </trkpt>
			 <trkpt lat="50.773233" lon="8.75671">
				 <ele>179.1</ele>
			 </trkpt>
			 <trkpt lat="50.77383" lon="8.75755">
				 <ele>179.5</ele>
			 </trkpt>
			 <trkpt lat="50.77416" lon="8.75793">
				 <ele>180</ele>
			 </trkpt>
			 <trkpt lat="50.77464" lon="8.75841">
				 <ele>180</ele>
			 </trkpt>
			 <trkpt lat="50.77513" lon="8.75875">
				 <ele>180</ele>
			 </trkpt>
			 <trkpt lat="50.77567" lon="8.75904">
				 <ele>179.9</ele>
			 </trkpt>
			 <trkpt lat="50.77621" lon="8.75933">
				 <ele>179.7</ele>
			 </trkpt>
			 <trkpt lat="50.776187" lon="8.759475">
				 <ele>180</ele>
			 </trkpt>
			 <trkpt lat="50.776078" lon="8.760001">
				 <ele>179.5</ele>
			 </trkpt>
			 <trkpt lat="50.776054" lon="8.760119">
				 <ele>179.1</ele>
			 </trkpt>
			 <trkpt lat="50.775807" lon="8.761159">
				 <ele>178.8</ele>
			 </trkpt>
			 <trkpt lat="50.775529" lon="8.762503">
				 <ele>178.6</ele>
			 </trkpt>
			 <trkpt lat="50.774627" lon="8.762138">
				 <ele>178.5</ele>
			 </trkpt>
			 <trkpt lat="50.774029" lon="8.761932">
				 <ele>178.1</ele>
			 </trkpt>
			 <trkpt lat="50.774627" lon="8.762138">
				 <ele>178.5</ele>
			 </trkpt>
			 <trkpt lat="50.775529" lon="8.762503">
				 <ele>178.6</ele>
			 </trkpt>
			 <trkpt lat="50.775807" lon="8.761159">
				 <ele>178.6</ele>
			 </trkpt>
			 <trkpt lat="50.776054" lon="8.760119">
				 <ele>178.5</ele>
			 </trkpt>
			 <trkpt lat="50.776078" lon="8.760001">
				 <ele>178.4</ele>
			 </trkpt>
			 <trkpt lat="50.776187" lon="8.759475">
				 <ele>178.3</ele>
			 </trkpt>
			 <trkpt lat="50.77622" lon="8.759331">
				 <ele>178.1</ele>
			 </trkpt>
			 <trkpt lat="50.776301" lon="8.759157">
				 <ele>178</ele>
			 </trkpt>
			 <trkpt lat="50.776433" lon="8.758931">
				 <ele>177.8</ele>
			 </trkpt>
			 <trkpt lat="50.776519" lon="8.758706">
				 <ele>177.6</ele>
			 </trkpt>
			 <trkpt lat="50.77658" lon="8.758423">
				 <ele>177.5</ele>
			 </trkpt>
			 <trkpt lat="50.776614" lon="8.75833">
				 <ele>176.9</ele>
			 </trkpt>
			 <trkpt lat="50.776699" lon="8.7581">
				 <ele>176.6</ele>
			 </trkpt>
			 <trkpt lat="50.777391" lon="8.756534">
				 <ele>176.5</ele>
			 </trkpt>
			 <trkpt lat="50.777943" lon="8.7569">
				 <ele>176.5</ele>
			 </trkpt>
			 <trkpt lat="50.778507" lon="8.75727">
				 <ele>176.5</ele>
			 </trkpt>
			 <trkpt lat="50.77907" lon="8.75764">
				 <ele>176.6</ele>
			 </trkpt>
			 <trkpt lat="50.77903" lon="8.75691">
				 <ele>176.7</ele>
			 </trkpt>
			 <trkpt lat="50.77899" lon="8.75618">
				 <ele>176.6</ele>
			 </trkpt>
			 <trkpt lat="50.77901" lon="8.75615">
				 <ele>176.7</ele>
			 </trkpt>
			 <trkpt lat="50.77904" lon="8.75613">
				 <ele>176.8</ele>
			 </trkpt>
			 <trkpt lat="50.77987" lon="8.75589">
				 <ele>176.9</ele>
			 </trkpt>
			 <trkpt lat="50.7807" lon="8.75565">
				 <ele>176.9</ele>
			 </trkpt>
			 <trkpt lat="50.78148" lon="8.755681">
				 <ele>177</ele>
			 </trkpt>
			 <trkpt lat="50.78226" lon="8.755713">
				 <ele>177.1</ele>
			 </trkpt>
			 <trkpt lat="50.78304" lon="8.755744">
				 <ele>177.2</ele>
			 </trkpt>
			 <trkpt lat="50.78382" lon="8.755776">
				 <ele>177.3</ele>
			 </trkpt>
			 <trkpt lat="50.7846" lon="8.755807">
				 <ele>177.4</ele>
			 </trkpt>
			 <trkpt lat="50.78538" lon="8.755839">
				 <ele>177.5</ele>
			 </trkpt>
			 <trkpt lat="50.78616" lon="8.75587">
				 <ele>177.5</ele>
			 </trkpt>
			 <trkpt lat="50.7862" lon="8.75588">
				 <ele>177.6</ele>
			 </trkpt>
			 <trkpt lat="50.78649" lon="8.75634">
				 <ele>177.6</ele>
			 </trkpt>
			 <trkpt lat="50.7867" lon="8.75663">
				 <ele>177.7</ele>
			 </trkpt>
			 <trkpt lat="50.78694" lon="8.75682">
				 <ele>177.7</ele>
			 </trkpt>
			 <trkpt lat="50.78727" lon="8.75703">
				 <ele>177.7</ele>
			 </trkpt>
			 <trkpt lat="50.78742" lon="8.75708">
				 <ele>177.6</ele>
			 </trkpt>
			 <trkpt lat="50.78757" lon="8.75707">
				 <ele>177.6</ele>
			 </trkpt>
			 <trkpt lat="50.78812" lon="8.75697">
				 <ele>177.7</ele>
			 </trkpt>
			 <trkpt lat="50.78835" lon="8.75683">
				 <ele>177.7</ele>
			 </trkpt>
			 <trkpt lat="50.78846" lon="8.75667">
				 <ele>177.7</ele>
			 </trkpt>
			 <trkpt lat="50.78865" lon="8.75596">
				 <ele>177.8</ele>
			 </trkpt>
			 <trkpt lat="50.78899" lon="8.75612">
				 <ele>177.9</ele>
			 </trkpt>
			 <trkpt lat="50.78914" lon="8.75558">
				 <ele>178.1</ele>
			 </trkpt>
			 <trkpt lat="50.78924" lon="8.75536">
				 <ele>178.2</ele>
			 </trkpt>
			 <trkpt lat="50.78958" lon="8.75496">
				 <ele>178.4</ele>
			 </trkpt>
			 <trkpt lat="50.7899" lon="8.75472">
				 <ele>178.5</ele>
			 </trkpt>
			 <trkpt lat="50.79011" lon="8.75463">
				 <ele>178.6</ele>
			 </trkpt>
			 <trkpt lat="50.79041" lon="8.7546">
				 <ele>178.6</ele>
			 </trkpt>
			 <trkpt lat="50.79069" lon="8.75464">
				 <ele>178.5</ele>
			 </trkpt>
			 <trkpt lat="50.79093" lon="8.75472">
				 <ele>178.5</ele>
			 </trkpt>
			 <trkpt lat="50.79111" lon="8.75482">
				 <ele>178.5</ele>
			 </trkpt>
			 <trkpt lat="50.79138" lon="8.75491">
				 <ele>178.5</ele>
			 </trkpt>
			 <trkpt lat="50.79155" lon="8.75499">
				 <ele>178.3</ele>
			 </trkpt>
			 <trkpt lat="50.79198" lon="8.75527">
				 <ele>178.2</ele>
			 </trkpt>
			 <trkpt lat="50.79237" lon="8.75558">
				 <ele>178.1</ele>
			 </trkpt>
			 <trkpt lat="50.79268" lon="8.75594">
				 <ele>178</ele>
			 </trkpt>
			 <trkpt lat="50.79297" lon="8.75636">
				 <ele>177.9</ele>
			 </trkpt>
			 <trkpt lat="50.79324" lon="8.75683">
				 <ele>177.8</ele>
			 </trkpt>
			 <trkpt lat="50.79373" lon="8.75802">
				 <ele>177.7</ele>
			 </trkpt>
			 <trkpt lat="50.79391" lon="8.75883">
				 <ele>177.6</ele>
			 </trkpt>
			 <trkpt lat="50.79398" lon="8.75885">
				 <ele>177.5</ele>
			 </trkpt>
			 <trkpt lat="50.79412" lon="8.75894">
				 <ele>177.5</ele>
			 </trkpt>
			 <trkpt lat="50.79433" lon="8.75917">
				 <ele>177.5</ele>
			 </trkpt>
			 <trkpt lat="50.79455" lon="8.75952">
				 <ele>177.7</ele>
			 </trkpt>
			 <trkpt lat="50.79478" lon="8.76">
				 <ele>177.9</ele>
			 </trkpt>
			 <trkpt lat="50.79537" lon="8.76094">
				 <ele>178.2</ele>
			 </trkpt>
			 <trkpt lat="50.79581" lon="8.762">
				 <ele>178.5</ele>
			 </trkpt>
			 <trkpt lat="50.79589" lon="8.76233">
				 <ele>178.7</ele>
			 </trkpt>
			 <trkpt lat="50.79591" lon="8.76254">
				 <ele>179.1</ele>
			 </trkpt>
			 <trkpt lat="50.79614" lon="8.76299">
				 <ele>179.5</ele>
			 </trkpt>
			 <trkpt lat="50.79684" lon="8.76384">
				 <ele>179.8</ele>
			 </trkpt>
			 <trkpt lat="50.79731" lon="8.76451">
				 <ele>180.2</ele>
			 </trkpt>
			 <trkpt lat="50.79778" lon="8.76518">
				 <ele>180.5</ele>
			 </trkpt>
			 <trkpt lat="50.79825" lon="8.76585">
				 <ele>180.7</ele>
			 </trkpt>
			 <trkpt lat="50.79864" lon="8.766655">
				 <ele>180.9</ele>
			 </trkpt>
			 <trkpt lat="50.79903" lon="8.76746">
				 <ele>180.9</ele>
			 </trkpt>
			 <trkpt lat="50.79926" lon="8.76782">
				 <ele>180.8</ele>
			 </trkpt>
			 <trkpt lat="50.79957" lon="8.76819">
				 <ele>180.7</ele>
			 </trkpt>
			 <trkpt lat="50.79978" lon="8.76873">
				 <ele>180.5</ele>
			 </trkpt>
			 <trkpt lat="50.79981" lon="8.76875">
				 <ele>180.4</ele>
			 </trkpt>
			 <trkpt lat="50.8" lon="8.76862">
				 <ele>180.3</ele>
			 </trkpt>
			 <trkpt lat="50.80008" lon="8.76865">
				 <ele>180.2</ele>
			 </trkpt>
			 <trkpt lat="50.80067" lon="8.76972">
				 <ele>180.1</ele>
			 </trkpt>
			 <trkpt lat="50.80091" lon="8.77021">
				 <ele>180</ele>
			 </trkpt>
			 <trkpt lat="50.80124" lon="8.771135">
				 <ele>179.9</ele>
			 </trkpt>
			 <trkpt lat="50.80157" lon="8.77206">
				 <ele>179.8</ele>
			 </trkpt>
			 <trkpt lat="50.80182" lon="8.77262">
				 <ele>179.8</ele>
			 </trkpt>
			 <trkpt lat="50.802" lon="8.77296">
				 <ele>179.8</ele>
			 </trkpt>
			 <trkpt lat="50.80208" lon="8.77306">
				 <ele>179.8</ele>
			 </trkpt>
			 <trkpt lat="50.80221" lon="8.77314">
				 <ele>179.9</ele>
			 </trkpt>
			 <trkpt lat="50.80235" lon="8.7732">
				 <ele>179.6</ele>
			 </trkpt>
			 <trkpt lat="50.80293" lon="8.77329">
				 <ele>179.5</ele>
			 </trkpt>
			 <trkpt lat="50.80325" lon="8.77324">
				 <ele>179.5</ele>
			 </trkpt>
			 <trkpt lat="50.80365" lon="8.77311">
				 <ele>179.5</ele>
			 </trkpt>
			 <trkpt lat="50.80377" lon="8.77304">
				 <ele>179.5</ele>
			 </trkpt>
			 <trkpt lat="50.803707" lon="8.772335">
				 <ele>179.6</ele>
			 </trkpt>
			 <trkpt lat="50.803666" lon="8.771871">
				 <ele>179.5</ele>
			 </trkpt>
			 <trkpt lat="50.80359" lon="8.771169">
				 <ele>179.5</ele>
			 </trkpt>
			 <trkpt lat="50.803588" lon="8.771094">
				 <ele>179.5</ele>
			 </trkpt>
			 <trkpt lat="50.803606" lon="8.77098">
				 <ele>179.5</ele>
			 </trkpt>
			 <trkpt lat="50.803654" lon="8.770868">
				 <ele>179.5</ele>
			 </trkpt>
			 <trkpt lat="50.803771" lon="8.770572">
				 <ele>179.8</ele>
			 </trkpt>
			 <trkpt lat="50.803884" lon="8.770308">
				 <ele>179.8</ele>
			 </trkpt>
			 <trkpt lat="50.803952" lon="8.770201">
				 <ele>179.7</ele>
			 </trkpt>
			 <trkpt lat="50.804121" lon="8.769979">
				 <ele>179.6</ele>
			 </trkpt>
			 <trkpt lat="50.80346" lon="8.768699">
				 <ele>179.5</ele>
			 </trkpt>
			 <trkpt lat="50.803213" lon="8.768215">
				 <ele>179.4</ele>
			 </trkpt>
			 <trkpt lat="50.802794" lon="8.767453">
				 <ele>179.5</ele>
			 </trkpt>
			 <trkpt lat="50.802401" lon="8.76671">
				 <ele>179.3</ele>
			 </trkpt>
			 <trkpt lat="50.802283" lon="8.766824">
				 <ele>179</ele>
			 </trkpt>
			 <trkpt lat="50.802088" lon="8.767014">
				 <ele>178.6</ele>
			 </trkpt>
			 <trkpt lat="50.801759" lon="8.767255">
				 <ele>178.3</ele>
			 </trkpt>
			 <trkpt lat="50.801133" lon="8.76776">
				 <ele>178</ele>
			 </trkpt>
			 <trkpt lat="50.800942" lon="8.767869">
				 <ele>177.7</ele>
			 </trkpt>
			 <trkpt lat="50.800766" lon="8.767854">
				 <ele>177.5</ele>
			 </trkpt>
			 <trkpt lat="50.80058" lon="8.76781">
				 <ele>177.3</ele>
			 </trkpt>
			 <trkpt lat="50.800483" lon="8.767772">
				 <ele>177.1</ele>
			 </trkpt>
			 <trkpt lat="50.800393" lon="8.767696">
				 <ele>176.9</ele>
			 </trkpt>
			 <trkpt lat="50.800302" lon="8.767597">
				 <ele>176.6</ele>
			 </trkpt>
			 <trkpt lat="50.800219" lon="8.767488">
				 <ele>176.5</ele>
			 </trkpt>
			 <trkpt lat="50.799918" lon="8.766912">
				 <ele>176.4</ele>
			 </trkpt>
			 <trkpt lat="50.79983" lon="8.766785">
				 <ele>176.4</ele>
			 </trkpt>
			 <trkpt lat="50.799244" lon="8.76598">
				 <ele>176.5</ele>
			 </trkpt>
			 <trkpt lat="50.798705" lon="8.765175">
				 <ele>176.5</ele>
			 </trkpt>
			 <trkpt lat="50.79769" lon="8.763818">
				 <ele>176.5</ele>
			 </trkpt>
			 <trkpt lat="50.797156" lon="8.763032">
				 <ele>176.5</ele>
			 </trkpt>
			 <trkpt lat="50.796998" lon="8.762781">
				 <ele>176.5</ele>
			 </trkpt>
			 <trkpt lat="50.796546" lon="8.76192">
				 <ele>176.6</ele>
			 </trkpt>
			 <trkpt lat="50.796245" lon="8.76147">
				 <ele>176.7</ele>
			 </trkpt>
			 <trkpt lat="50.796097" lon="8.761223">
				 <ele>176.8</ele>
			 </trkpt>
			 <trkpt lat="50.795993" lon="8.761036">
				 <ele>177</ele>
			 </trkpt>
			 <trkpt lat="50.795903" lon="8.760824">
				 <ele>177.2</ele>
			 </trkpt>
			 <trkpt lat="50.795829" lon="8.760596">
				 <ele>177.4</ele>
			 </trkpt>
			 <trkpt lat="50.795816" lon="8.760456">
				 <ele>177.5</ele>
			 </trkpt>
			 <trkpt lat="50.795826" lon="8.760349">
				 <ele>177.6</ele>
			 </trkpt>
			 <trkpt lat="50.795681" lon="8.760044">
				 <ele>177.7</ele>
			 </trkpt>
			 <trkpt lat="50.795386" lon="8.759777">
				 <ele>177.8</ele>
			 </trkpt>
			 <trkpt lat="50.795315" lon="8.75958">
				 <ele>177.7</ele>
			 </trkpt>
			 <trkpt lat="50.795235" lon="8.759199">
				 <ele>177.5</ele>
			 </trkpt>
			 <trkpt lat="50.795212" lon="8.759091">
				 <ele>177.4</ele>
			 </trkpt>
			 <trkpt lat="50.795104" lon="8.758818">
				 <ele>177.2</ele>
			 </trkpt>
			 <trkpt lat="50.794436" lon="8.757327">
				 <ele>177</ele>
			 </trkpt>
			 <trkpt lat="50.793644" lon="8.755534">
				 <ele>176.8</ele>
			 </trkpt>
			 <trkpt lat="50.793494" lon="8.755136">
				 <ele>176.6</ele>
			 </trkpt>
			 <trkpt lat="50.793356" lon="8.754864">
				 <ele>176.5</ele>
			 </trkpt>
			 <trkpt lat="50.793207" lon="8.754636">
				 <ele>176.4</ele>
			 </trkpt>
			 <trkpt lat="50.792875" lon="8.754166">
				 <ele>176.2</ele>
			 </trkpt>
			 <trkpt lat="50.792589" lon="8.753799">
				 <ele>176.2</ele>
			 </trkpt>
			 <trkpt lat="50.79229" lon="8.753449">
				 <ele>176.4</ele>
			 </trkpt>
			 <trkpt lat="50.792125" lon="8.753277">
				 <ele>176.5</ele>
			 </trkpt>
			 <trkpt lat="50.791959" lon="8.753195">
				 <ele>176.5</ele>
			 </trkpt>
			 <trkpt lat="50.79128" lon="8.752563">
				 <ele>176.6</ele>
			 </trkpt>
			 <trkpt lat="50.790917" lon="8.752242">
				 <ele>176.6</ele>
			 </trkpt>
			 <trkpt lat="50.790802" lon="8.75213">
				 <ele>176.6</ele>
			 </trkpt>
			 <trkpt lat="50.790619" lon="8.752003">
				 <ele>176.6</ele>
			 </trkpt>
			 <trkpt lat="50.790496" lon="8.751967">
				 <ele>176.6</ele>
			 </trkpt>
			 <trkpt lat="50.790275" lon="8.751825">
				 <ele>176.7</ele>
			 </trkpt>
			 <trkpt lat="50.790049" lon="8.751847">
				 <ele>176.8</ele>
			 </trkpt>
			 <trkpt lat="50.789842" lon="8.751752">
				 <ele>176.8</ele>
			 </trkpt>
			 <trkpt lat="50.789396" lon="8.751491">
				 <ele>176.8</ele>
			 </trkpt>
			 <trkpt lat="50.788865" lon="8.751263">
				 <ele>176.9</ele>
			 </trkpt>
			 <trkpt lat="50.788006" lon="8.751104">
				 <ele>177</ele>
			 </trkpt>
			 <trkpt lat="50.78773" lon="8.751052">
				 <ele>176.9</ele>
			 </trkpt>
			 <trkpt lat="50.787404" lon="8.751055">
				 <ele>176.9</ele>
			 </trkpt>
			 <trkpt lat="50.78656" lon="8.7512">
				 <ele>176.9</ele>
			 </trkpt>
			 <trkpt lat="50.785979" lon="8.751277">
				 <ele>177</ele>
			 </trkpt>
			 <trkpt lat="50.784505" lon="8.751174">
				 <ele>177</ele>
			 </trkpt>
			 <trkpt lat="50.783151" lon="8.750934">
				 <ele>177</ele>
			 </trkpt>
			 <trkpt lat="50.782324" lon="8.750801">
				 <ele>177</ele>
			 </trkpt>
			 <trkpt lat="50.78202" lon="8.750734">
				 <ele>177</ele>
			 </trkpt>
			 <trkpt lat="50.78172" lon="8.750705">
				 <ele>177</ele>
			 </trkpt>
			 <trkpt lat="50.777733" lon="8.750538">
				 <ele>176.9</ele>
			 </trkpt>
			 <trkpt lat="50.77758" lon="8.750545">
				 <ele>176.8</ele>
			 </trkpt>
			 <trkpt lat="50.776653" lon="8.750502">
				 <ele>176.9</ele>
			 </trkpt>
			 <trkpt lat="50.776252" lon="8.750429">
				 <ele>177</ele>
			 </trkpt>
			 <trkpt lat="50.775479" lon="8.750388">
				 <ele>177.1</ele>
			 </trkpt>
			 <trkpt lat="50.775259" lon="8.750364">
				 <ele>177.1</ele>
			 </trkpt>
			 <trkpt lat="50.774646" lon="8.750342">
				 <ele>177.1</ele>
			 </trkpt>
			 <trkpt lat="50.77451" lon="8.75032">
				 <ele>177.1</ele>
			 </trkpt>
			 <trkpt lat="50.774512" lon="8.751031">
				 <ele>177.1</ele>
			 </trkpt>
			 <trkpt lat="50.774521" lon="8.751612">
				 <ele>177</ele>
			 </trkpt>
			 <trkpt lat="50.774225" lon="8.752001">
				 <ele>176.8</ele>
			 </trkpt>
			 <trkpt lat="50.774116" lon="8.752101">
				 <ele>176.7</ele>
			 </trkpt>
			 <trkpt lat="50.77406" lon="8.752117">
				 <ele>176.6</ele>
			 </trkpt>
			 <trkpt lat="50.774001" lon="8.752105">
				 <ele>176.5</ele>
			 </trkpt>
			 <trkpt lat="50.773545" lon="8.751711">
				 <ele>176.5</ele>
			 </trkpt>
			 <trkpt lat="50.772441" lon="8.750756">
				 <ele>176.4</ele>
			 </trkpt>
			 <trkpt lat="50.772378" lon="8.751041">
				 <ele>176.4</ele>
			 </trkpt>
			 <trkpt lat="50.772059" lon="8.752442">
				 <ele>176.4</ele>
			 </trkpt>
			 <trkpt lat="50.772018" lon="8.752611">
				 <ele>176.4</ele>
			 </trkpt>
			 <trkpt lat="50.77191" lon="8.753072">
				 <ele>176.4</ele>
			 </trkpt>
			 <trkpt lat="50.771865" lon="8.753321">
				 <ele>176.4</ele>
			 </trkpt>
			 <trkpt lat="50.771682" lon="8.754033">
				 <ele>176.3</ele>
			 </trkpt>
			 <trkpt lat="50.771694" lon="8.754155">
				 <ele>176.2</ele>
			 </trkpt>
			 <trkpt lat="50.771716" lon="8.754225">
				 <ele>176.1</ele>
			 </trkpt>
			 <trkpt lat="50.771762" lon="8.754283">
				 <ele>176</ele>
			 </trkpt>
			 <trkpt lat="50.771875" lon="8.754342">
				 <ele>175.9</ele>
			 </trkpt>
			 <trkpt lat="50.771964" lon="8.754406">
				 <ele>175.9</ele>
			 </trkpt>
			 <trkpt lat="50.772003" lon="8.754485">
				 <ele>175.9</ele>
			 </trkpt>
			 <trkpt lat="50.772016" lon="8.754543">
				 <ele>176</ele>
			 </trkpt>
			 <trkpt lat="50.772013" lon="8.754611">
				 <ele>176.1</ele>
			 </trkpt>
			 <trkpt lat="50.772004" lon="8.754665">
				 <ele>176.4</ele>
			 </trkpt>
			 <trkpt lat="50.771964" lon="8.75476">
				 <ele>176.8</ele>
			 </trkpt>
			 <trkpt lat="50.77196" lon="8.754828">
				 <ele>177.4</ele>
			 </trkpt>
			 <trkpt lat="50.77198" lon="8.754916">
				 <ele>177.9</ele>
			 </trkpt>
			 <trkpt lat="50.772043" lon="8.755038">
				 <ele>178.5</ele>
			 </trkpt>
			 <trkpt lat="50.772763" lon="8.756055">
				 <ele>178.5</ele>
			 </trkpt>
			 <trkpt lat="50.773109" lon="8.756552">
				 <ele>179.1</ele>
			 </trkpt>
			 <trkpt lat="50.773328" lon="8.756841">
				 <ele>179.7</ele>
			 </trkpt>
			 <trkpt lat="50.773404" lon="8.756941">
				 <ele>180.2</ele>
			 </trkpt>
			 <trkpt lat="50.773451" lon="8.757029">
				 <ele>180.5</ele>
			 </trkpt>
			 <trkpt lat="50.773836" lon="8.757559">
				 <ele>180.6</ele>
			 </trkpt>
			 <trkpt lat="50.774166" lon="8.757932">
				 <ele>180.5</ele>
			 </trkpt>
			 <trkpt lat="50.774642" lon="8.75841">
				 <ele>180.7</ele>
			 </trkpt>
			 <trkpt lat="50.775135" lon="8.758752">
				 <ele>180.5</ele>
			 </trkpt>
			 <trkpt lat="50.775607" lon="8.759019">
				 <ele>180.2</ele>
			 </trkpt>
			 <trkpt lat="50.776043" lon="8.759241">
				 <ele>179.9</ele>
			 </trkpt>
			 <trkpt lat="50.77622" lon="8.759331">
				 <ele>180.2</ele>
			 </trkpt>
			 <trkpt lat="50.776187" lon="8.759475">
				 <ele>179.9</ele>
			 </trkpt>
			 <trkpt lat="50.776078" lon="8.760001">
				 <ele>179.5</ele>
			 </trkpt>
			 <trkpt lat="50.776054" lon="8.760119">
				 <ele>179</ele>
			 </trkpt>
			 <trkpt lat="50.775978" lon="8.760436">
				 <ele>178.7</ele>
			 </trkpt>
			 <trkpt lat="50.775807" lon="8.761159">
				 <ele>178.6</ele>
			 </trkpt>
			 <trkpt lat="50.775529" lon="8.762503">
				 <ele>178.5</ele>
			 </trkpt>
			 <trkpt lat="50.774627" lon="8.762138">
				 <ele>178.1</ele>
			 </trkpt>
			 <trkpt lat="50.774021" lon="8.76193">
				 <ele>178.1</ele>
			 </trkpt>
			 <trkpt lat="50.774627" lon="8.762138">
				 <ele>178.1</ele>
			 </trkpt>
			 <trkpt lat="50.775529" lon="8.762503">
				 <ele>178.5</ele>
			 </trkpt>
			 <trkpt lat="50.775807" lon="8.761159">
				 <ele>178.6</ele>
			 </trkpt>
			 <trkpt lat="50.775945" lon="8.760577">
				 <ele>178.5</ele>
			 </trkpt>
			 <trkpt lat="50.776054" lon="8.760119">
				 <ele>178.5</ele>
			 </trkpt>
			 <trkpt lat="50.776078" lon="8.760001">
				 <ele>178.5</ele>
			 </trkpt>
			 <trkpt lat="50.776187" lon="8.759475">
				 <ele>178.3</ele>
			 </trkpt>
			 <trkpt lat="50.77622" lon="8.759331">
				 <ele>178</ele>
			 </trkpt>
			 <trkpt lat="50.776301" lon="8.759157">
				 <ele>178</ele>
			 </trkpt>
			 <trkpt lat="50.776433" lon="8.758931">
				 <ele>177.8</ele>
			 </trkpt>
			 <trkpt lat="50.776519" lon="8.758706">
				 <ele>177.6</ele>
			 </trkpt>
			 <trkpt lat="50.77658" lon="8.758423">
				 <ele>177.5</ele>
			 </trkpt>
			 <trkpt lat="50.776614" lon="8.75833">
				 <ele>176.9</ele>
			 </trkpt>
			 <trkpt lat="50.776699" lon="8.7581">
				 <ele>176.7</ele>
			 </trkpt>
			 <trkpt lat="50.777312" lon="8.756713">
				 <ele>176.6</ele>
			 </trkpt>
			 <trkpt lat="50.777391" lon="8.756534">
				 <ele>176.6</ele>
			 </trkpt>
			 <trkpt lat="50.778713" lon="8.757405">
				 <ele>176.6</ele>
			 </trkpt>
			 <trkpt lat="50.779071" lon="8.757641">
				 <ele>176.7</ele>
			 </trkpt>
			 <trkpt lat="50.779075" lon="8.757453">
				 <ele>176.8</ele>
			 </trkpt>
			 <trkpt lat="50.779001" lon="8.756188">
				 <ele>176.7</ele>
			 </trkpt>
			 <trkpt lat="50.779042" lon="8.756134">
				 <ele>176.8</ele>
			 </trkpt>
			 <trkpt lat="50.779653" lon="8.755949">
				 <ele>177</ele>
			 </trkpt>
			 <trkpt lat="50.780699" lon="8.755652">
				 <ele>177.2</ele>
			 </trkpt>
			 <trkpt lat="50.780743" lon="8.755646">
				 <ele>177.3</ele>
			 </trkpt>
			 <trkpt lat="50.781524" lon="8.755679">
				 <ele>177.3</ele>
			 </trkpt>
			 <trkpt lat="50.784263" lon="8.755803">
				 <ele>177.4</ele>
			 </trkpt>
			 <trkpt lat="50.785932" lon="8.755867">
				 <ele>177.5</ele>
			 </trkpt>
			 <trkpt lat="50.786168" lon="8.755876">
				 <ele>177.5</ele>
			 </trkpt>
			 <trkpt lat="50.786207" lon="8.75589">
				 <ele>177.6</ele>
			 </trkpt>
			 <trkpt lat="50.786332" lon="8.756079">
				 <ele>177.7</ele>
			 </trkpt>
			 <trkpt lat="50.786492" lon="8.756347">
				 <ele>177.7</ele>
			 </trkpt>
			 <trkpt lat="50.786702" lon="8.756634">
				 <ele>177.8</ele>
			 </trkpt>
			 <trkpt lat="50.786943" lon="8.756821">
				 <ele>177.8</ele>
			 </trkpt>
			 <trkpt lat="50.787273" lon="8.757033">
				 <ele>177.7</ele>
			 </trkpt>
			 <trkpt lat="50.787427" lon="8.757082">
				 <ele>177.6</ele>
			 </trkpt>
			 <trkpt lat="50.78758" lon="8.757071">
				 <ele>177.6</ele>
			 </trkpt>
			 <trkpt lat="50.787944" lon="8.75701">
				 <ele>177.5</ele>
			 </trkpt>
			 <trkpt lat="50.788125" lon="8.756979">
				 <ele>177.5</ele>
			 </trkpt>
			 <trkpt lat="50.78835" lon="8.756837">
				 <ele>177.5</ele>
			 </trkpt>
			 <trkpt lat="50.788419" lon="8.756759">
				 <ele>177.6</ele>
			 </trkpt>
			 <trkpt lat="50.788461" lon="8.756671">
				 <ele>177.7</ele>
			 </trkpt>
			 <trkpt lat="50.788559" lon="8.756311">
				 <ele>177.8</ele>
			 </trkpt>
			 <trkpt lat="50.788652" lon="8.755968">
				 <ele>177.8</ele>
			 </trkpt>
			 <trkpt lat="50.788989" lon="8.756127">
				 <ele>177.8</ele>
			 </trkpt>
			 <trkpt lat="50.789045" lon="8.755919">
				 <ele>177.9</ele>
			 </trkpt>
			 <trkpt lat="50.789142" lon="8.755589">
				 <ele>178</ele>
			 </trkpt>
			 <trkpt lat="50.789244" lon="8.755369">
				 <ele>178.2</ele>
			 </trkpt>
			 <trkpt lat="50.789317" lon="8.755271">
				 <ele>178.4</ele>
			 </trkpt>
			 <trkpt lat="50.789464" lon="8.755107">
				 <ele>178.5</ele>
			 </trkpt>
			 <trkpt lat="50.78959" lon="8.754967">
				 <ele>178.5</ele>
			 </trkpt>
			 <trkpt lat="50.789754" lon="8.754824">
				 <ele>178.5</ele>
			 </trkpt>
			 <trkpt lat="50.789909" lon="8.754726">
				 <ele>178.5</ele>
			 </trkpt>
			 <trkpt lat="50.790114" lon="8.754638">
				 <ele>178.5</ele>
			 </trkpt>
			 <trkpt lat="50.790416" lon="8.7546">
				 <ele>178.5</ele>
			 </trkpt>
			 <trkpt lat="50.790699" lon="8.754647">
				 <ele>178.5</ele>
			 </trkpt>
			 <trkpt lat="50.790932" lon="8.754725">
				 <ele>178.5</ele>
			 </trkpt>
			 <trkpt lat="50.791119" lon="8.754822">
				 <ele>178.5</ele>
			 </trkpt>
			 <trkpt lat="50.791388" lon="8.754911">
				 <ele>178.5</ele>
			 </trkpt>
			 <trkpt lat="50.79144" lon="8.754937">
				 <ele>178.4</ele>
			 </trkpt>
			 <trkpt lat="50.791556" lon="8.754996">
				 <ele>178.3</ele>
			 </trkpt>
			 <trkpt lat="50.791991" lon="8.755289">
				 <ele>178.1</ele>
			 </trkpt>
			 <trkpt lat="50.792373" lon="8.755587">
				 <ele>178</ele>
			 </trkpt>
			 <trkpt lat="50.792549" lon="8.755775">
				 <ele>177.9</ele>
			 </trkpt>
			 <trkpt lat="50.792688" lon="8.755943">
				 <ele>177.9</ele>
			 </trkpt>
			 <trkpt lat="50.79298" lon="8.756366">
				 <ele>177.9</ele>
			 </trkpt>
			 <trkpt lat="50.793247" lon="8.75683">
				 <ele>177.9</ele>
			 </trkpt>
			 <trkpt lat="50.793731" lon="8.758027">
				 <ele>177.8</ele>
			 </trkpt>
			 <trkpt lat="50.79379" lon="8.758255">
				 <ele>177.7</ele>
			 </trkpt>
			 <trkpt lat="50.793914" lon="8.758832">
				 <ele>177.6</ele>
			 </trkpt>
			 <trkpt lat="50.793973" lon="8.758852">
				 <ele>177.5</ele>
			 </trkpt>
			 <trkpt lat="50.794121" lon="8.758944">
				 <ele>177.5</ele>
			 </trkpt>
			 <trkpt lat="50.794333" lon="8.75918">
				 <ele>177.5</ele>
			 </trkpt>
			 <trkpt lat="50.794447" lon="8.759343">
				 <ele>177.5</ele>
			 </trkpt>
			 <trkpt lat="50.794554" lon="8.759527">
				 <ele>177.5</ele>
			 </trkpt>
			 <trkpt lat="50.794788" lon="8.760008">
				 <ele>177.5</ele>
			 </trkpt>
			 <trkpt lat="50.795045" lon="8.760433">
				 <ele>177.5</ele>
			 </trkpt>
			 <trkpt lat="50.795372" lon="8.760945">
				 <ele>177.5</ele>
			 </trkpt>
			 <trkpt lat="50.795583" lon="8.761423">
				 <ele>177.7</ele>
			 </trkpt>
			 <trkpt lat="50.795739" lon="8.761802">
				 <ele>178</ele>
			 </trkpt>
			 <trkpt lat="50.795814" lon="8.762005">
				 <ele>178.3</ele>
			 </trkpt>
			 <trkpt lat="50.795893" lon="8.762333">
				 <ele>178.5</ele>
			 </trkpt>
			 <trkpt lat="50.795917" lon="8.762542">
				 <ele>178.9</ele>
			 </trkpt>
			 <trkpt lat="50.796016" lon="8.762729">
				 <ele>179.3</ele>
			 </trkpt>
			 <trkpt lat="50.796141" lon="8.762994">
				 <ele>179.5</ele>
			 </trkpt>
			 <trkpt lat="50.796216" lon="8.763077">
				 <ele>179.8</ele>
			 </trkpt>
			 <trkpt lat="50.796329" lon="8.763203">
				 <ele>180.1</ele>
			 </trkpt>
			 <trkpt lat="50.796848" lon="8.76384">
				 <ele>180.4</ele>
			 </trkpt>
			 <trkpt lat="50.797231" lon="8.764372">
				 <ele>180.5</ele>
			 </trkpt>
			 <trkpt lat="50.798256" lon="8.765853">
				 <ele>180.7</ele>
			 </trkpt>
			 <trkpt lat="50.798674" lon="8.766714">
				 <ele>180.8</ele>
			 </trkpt>
			 <trkpt lat="50.799035" lon="8.76746">
				 <ele>180.9</ele>
			 </trkpt>
			 <trkpt lat="50.799263" lon="8.767828">
				 <ele>180.9</ele>
			 </trkpt>
			 <trkpt lat="50.799402" lon="8.767978">
				 <ele>180.8</ele>
			 </trkpt>
			 <trkpt lat="50.799581" lon="8.768194">
				 <ele>180.7</ele>
			 </trkpt>
			 <trkpt lat="50.799786" lon="8.768738">
				 <ele>180.6</ele>
			 </trkpt>
			 <trkpt lat="50.799813" lon="8.768758">
				 <ele>180.5</ele>
			 </trkpt>
			 <trkpt lat="50.800007" lon="8.768628">
				 <ele>180.4</ele>
			 </trkpt>
			 <trkpt lat="50.800083" lon="8.768657">
				 <ele>180.3</ele>
			 </trkpt>
			 <trkpt lat="50.800533" lon="8.769471">
				 <ele>180.2</ele>
			 </trkpt>
			 <trkpt lat="50.800677" lon="8.769725">
				 <ele>180.1</ele>
			 </trkpt>
			 <trkpt lat="50.800916" lon="8.77021">
				 <ele>180</ele>
			 </trkpt>
			 <trkpt lat="50.801578" lon="8.77206">
				 <ele>179.9</ele>
			 </trkpt>
			 <trkpt lat="50.801723" lon="8.77241">
				 <ele>179.9</ele>
			 </trkpt>
			 <trkpt lat="50.801824" lon="8.772629">
				 <ele>179.9</ele>
			 </trkpt>
			 <trkpt lat="50.802044" lon="8.773053">
				 <ele>179.9</ele>
			 </trkpt>
			 <trkpt lat="50.802212" lon="8.773147">
				 <ele>179.9</ele>
			 </trkpt>
			 <trkpt lat="50.802354" lon="8.773203">
				 <ele>180</ele>
			 </trkpt>
			 <trkpt lat="50.802643" lon="8.773256">
				 <ele>180</ele>
			 </trkpt>
			 <trkpt lat="50.802939" lon="8.773296">
				 <ele>180</ele>
			 </trkpt>
			 <trkpt lat="50.803106" lon="8.773278">
				 <ele>180</ele>
			 </trkpt>
			 <trkpt lat="50.803258" lon="8.773241">
				 <ele>179.8</ele>
			 </trkpt>
			 <trkpt lat="50.803592" lon="8.773134">
				 <ele>179.8</ele>
			 </trkpt>
			 <trkpt lat="50.803654" lon="8.773114">
				 <ele>179.8</ele>
			 </trkpt>
			 <trkpt lat="50.803777" lon="8.773049">
				 <ele>179.8</ele>
			 </trkpt>
			 <trkpt lat="50.803781" lon="8.772986">
				 <ele>179.8</ele>
			 </trkpt>
			 <trkpt lat="50.803678" lon="8.771909">
				 <ele>179.9</ele>
			 </trkpt>
			 <trkpt lat="50.803636" lon="8.7715">
				 <ele>179.8</ele>
			 </trkpt>
			 <trkpt lat="50.803595" lon="8.771282">
				 <ele>179.8</ele>
			 </trkpt>
			 <trkpt lat="50.803587" lon="8.771069">
				 <ele>179.8</ele>
			 </trkpt>
			 <trkpt lat="50.803606" lon="8.77098">
				 <ele>179.8</ele>
			 </trkpt>
			 <trkpt lat="50.803654" lon="8.770868">
				 <ele>179.8</ele>
			 </trkpt>
			 <trkpt lat="50.803771" lon="8.770572">
				 <ele>179.9</ele>
			 </trkpt>
			 <trkpt lat="50.803884" lon="8.770308">
				 <ele>179.8</ele>
			 </trkpt>
			 <trkpt lat="50.803952" lon="8.770201">
				 <ele>179.7</ele>
			 </trkpt>
			 <trkpt lat="50.804121" lon="8.769979">
				 <ele>179.6</ele>
			 </trkpt>
			 <trkpt lat="50.803508" lon="8.768792">
				 <ele>179.5</ele>
			 </trkpt>
			 <trkpt lat="50.803213" lon="8.768215">
				 <ele>179.5</ele>
			 </trkpt>
			 <trkpt lat="50.802794" lon="8.767453">
				 <ele>179.4</ele>
			 </trkpt>
			 <trkpt lat="50.802401" lon="8.76671">
				 <ele>179.1</ele>
			 </trkpt>
			 <trkpt lat="50.802088" lon="8.767014">
				 <ele>178.7</ele>
			 </trkpt>
			 <trkpt lat="50.801818" lon="8.767211">
				 <ele>178.4</ele>
			 </trkpt>
			 <trkpt lat="50.801133" lon="8.76776">
				 <ele>178</ele>
			 </trkpt>
			 <trkpt lat="50.800942" lon="8.767869">
				 <ele>177.7</ele>
			 </trkpt>
			 <trkpt lat="50.800766" lon="8.767854">
				 <ele>177.5</ele>
			 </trkpt>
			 <trkpt lat="50.80058" lon="8.76781">
				 <ele>177.3</ele>
			 </trkpt>
			 <trkpt lat="50.800483" lon="8.767772">
				 <ele>177.1</ele>
			 </trkpt>
			 <trkpt lat="50.800393" lon="8.767696">
				 <ele>176.9</ele>
			 </trkpt>
			 <trkpt lat="50.800302" lon="8.767597">
				 <ele>176.6</ele>
			 </trkpt>
			 <trkpt lat="50.800219" lon="8.767488">
				 <ele>176.5</ele>
			 </trkpt>
			 <trkpt lat="50.799918" lon="8.766912">
				 <ele>176.4</ele>
			 </trkpt>
			 <trkpt lat="50.799244" lon="8.76598">
				 <ele>176.4</ele>
			 </trkpt>
			 <trkpt lat="50.79887" lon="8.765422">
				 <ele>176.5</ele>
			 </trkpt>
			 <trkpt lat="50.798705" lon="8.765175">
				 <ele>176.5</ele>
			 </trkpt>
			 <trkpt lat="50.79769" lon="8.763818">
				 <ele>176.5</ele>
			 </trkpt>
			 <trkpt lat="50.797156" lon="8.763032">
				 <ele>176.5</ele>
			 </trkpt>
			 <trkpt lat="50.796998" lon="8.762781">
				 <ele>176.5</ele>
			 </trkpt>
			 <trkpt lat="50.796546" lon="8.76192">
				 <ele>176.6</ele>
			 </trkpt>
			 <trkpt lat="50.796245" lon="8.76147">
				 <ele>176.7</ele>
			 </trkpt>
			 <trkpt lat="50.796097" lon="8.761223">
				 <ele>176.8</ele>
			 </trkpt>
			 <trkpt lat="50.795993" lon="8.761036">
				 <ele>177</ele>
			 </trkpt>
			 <trkpt lat="50.795903" lon="8.760824">
				 <ele>177.2</ele>
			 </trkpt>
			 <trkpt lat="50.795829" lon="8.760596">
				 <ele>177.4</ele>
			 </trkpt>
			 <trkpt lat="50.795816" lon="8.760456">
				 <ele>177.5</ele>
			 </trkpt>
			 <trkpt lat="50.795826" lon="8.760349">
				 <ele>177.6</ele>
			 </trkpt>
			 <trkpt lat="50.795681" lon="8.760044">
				 <ele>177.7</ele>
			 </trkpt>
			 <trkpt lat="50.795386" lon="8.759777">
				 <ele>177.7</ele>
			 </trkpt>
			 <trkpt lat="50.795315" lon="8.75958">
				 <ele>177.6</ele>
			 </trkpt>
			 <trkpt lat="50.795212" lon="8.759091">
				 <ele>177.5</ele>
			 </trkpt>
			 <trkpt lat="50.795104" lon="8.758818">
				 <ele>177.3</ele>
			 </trkpt>
			 <trkpt lat="50.794646" lon="8.757796">
				 <ele>177.1</ele>
			 </trkpt>
			 <trkpt lat="50.793644" lon="8.755534">
				 <ele>176.9</ele>
			 </trkpt>
			 <trkpt lat="50.793494" lon="8.755136">
				 <ele>176.7</ele>
			 </trkpt>
			 <trkpt lat="50.793356" lon="8.754864">
				 <ele>176.6</ele>
			 </trkpt>
			 <trkpt lat="50.793207" lon="8.754636">
				 <ele>176.5</ele>
			 </trkpt>
			 <trkpt lat="50.792875" lon="8.754166">
				 <ele>176.3</ele>
			 </trkpt>
			 <trkpt lat="50.792589" lon="8.753799">
				 <ele>176.2</ele>
			 </trkpt>
			 <trkpt lat="50.79229" lon="8.753449">
				 <ele>176.4</ele>
			 </trkpt>
			 <trkpt lat="50.792125" lon="8.753277">
				 <ele>176.5</ele>
			 </trkpt>
			 <trkpt lat="50.791959" lon="8.753195">
				 <ele>176.5</ele>
			 </trkpt>
			 <trkpt lat="50.79128" lon="8.752563">
				 <ele>176.6</ele>
			 </trkpt>
			 <trkpt lat="50.790917" lon="8.752242">
				 <ele>176.7</ele>
			 </trkpt>
			 <trkpt lat="50.790802" lon="8.75213">
				 <ele>176.7</ele>
			 </trkpt>
			 <trkpt lat="50.790619" lon="8.752003">
				 <ele>176.7</ele>
			 </trkpt>
			 <trkpt lat="50.790496" lon="8.751967">
				 <ele>176.6</ele>
			 </trkpt>
			 <trkpt lat="50.790323" lon="8.751856">
				 <ele>176.7</ele>
			 </trkpt>
			 <trkpt lat="50.790275" lon="8.751825">
				 <ele>176.8</ele>
			 </trkpt>
			 <trkpt lat="50.790049" lon="8.751847">
				 <ele>176.8</ele>
			 </trkpt>
			 <trkpt lat="50.789842" lon="8.751752">
				 <ele>176.6</ele>
			 </trkpt>
			 <trkpt lat="50.789396" lon="8.751491">
				 <ele>176.7</ele>
			 </trkpt>
			 <trkpt lat="50.788865" lon="8.751263">
				 <ele>176.8</ele>
			 </trkpt>
			 <trkpt lat="50.78773" lon="8.751052">
				 <ele>176.9</ele>
			 </trkpt>
			 <trkpt lat="50.787404" lon="8.751055">
				 <ele>176.8</ele>
			 </trkpt>
			 <trkpt lat="50.787162" lon="8.751096">
				 <ele>176.8</ele>
			 </trkpt>
			 <trkpt lat="50.78656" lon="8.7512">
				 <ele>176.8</ele>
			 </trkpt>
			 <trkpt lat="50.785979" lon="8.751277">
				 <ele>176.9</ele>
			 </trkpt>
			 <trkpt lat="50.784505" lon="8.751174">
				 <ele>176.9</ele>
			 </trkpt>
			 <trkpt lat="50.783151" lon="8.750934">
				 <ele>176.9</ele>
			 </trkpt>
			 <trkpt lat="50.782324" lon="8.750801">
				 <ele>176.9</ele>
			 </trkpt>
			 <trkpt lat="50.78202" lon="8.750734">
				 <ele>177</ele>
			 </trkpt>
			 <trkpt lat="50.78172" lon="8.750705">
				 <ele>177</ele>
			 </trkpt>
			 <trkpt lat="50.777733" lon="8.750538">
				 <ele>176.9</ele>
			 </trkpt>
			 <trkpt lat="50.77758" lon="8.750545">
				 <ele>176.8</ele>
			 </trkpt>
			 <trkpt lat="50.776653" lon="8.750502">
				 <ele>176.9</ele>
			 </trkpt>
			 <trkpt lat="50.776252" lon="8.750429">
				 <ele>177</ele>
			 </trkpt>
			 <trkpt lat="50.775479" lon="8.750388">
				 <ele>177.1</ele>
			 </trkpt>
			 <trkpt lat="50.775259" lon="8.750364">
				 <ele>177.1</ele>
			 </trkpt>
			 <trkpt lat="50.774564" lon="8.750339">
				 <ele>177.1</ele>
			 </trkpt>
			 <trkpt lat="50.7745" lon="8.750321">
				 <ele>177.1</ele>
			 </trkpt>
			 <trkpt lat="50.774528" lon="8.750322">
				 <ele>177.1</ele>
			 </trkpt>
			 <trkpt lat="50.774519" lon="8.751307">
				 <ele>177.1</ele>
			 </trkpt>
			 <trkpt lat="50.774521" lon="8.751621">
				 <ele>176.9</ele>
			 </trkpt>
			 <trkpt lat="50.774231" lon="8.751994">
				 <ele>176.8</ele>
			 </trkpt>
			 <trkpt lat="50.774116" lon="8.752101">
				 <ele>176.7</ele>
			 </trkpt>
			 <trkpt lat="50.77406" lon="8.752117">
				 <ele>176.6</ele>
			 </trkpt>
			 <trkpt lat="50.774001" lon="8.752105">
				 <ele>176.5</ele>
			 </trkpt>
			 <trkpt lat="50.772829" lon="8.751092">
				 <ele>176.5</ele>
			 </trkpt>
			 <trkpt lat="50.772441" lon="8.750756">
				 <ele>176.5</ele>
			 </trkpt>
			 <trkpt lat="50.772059" lon="8.752442">
				 <ele>176.5</ele>
			 </trkpt>
			 <trkpt lat="50.772018" lon="8.752611">
				 <ele>176.5</ele>
			 </trkpt>
			 <trkpt lat="50.77191" lon="8.753072">
				 <ele>176.5</ele>
			 </trkpt>
			 <trkpt lat="50.771865" lon="8.753321">
				 <ele>176.4</ele>
			 </trkpt>
			 <trkpt lat="50.771682" lon="8.754033">
				 <ele>176.3</ele>
			 </trkpt>
			 <trkpt lat="50.771694" lon="8.754155">
				 <ele>176.2</ele>
			 </trkpt>
			 <trkpt lat="50.771716" lon="8.754225">
				 <ele>176.1</ele>
			 </trkpt>
			 <trkpt lat="50.771762" lon="8.754283">
				 <ele>176</ele>
			 </trkpt>
			 <trkpt lat="50.771916" lon="8.754364">
				 <ele>176</ele>
			 </trkpt>
			 <trkpt lat="50.771964" lon="8.754406">
				 <ele>176.1</ele>
			 </trkpt>
			 <trkpt lat="50.772003" lon="8.754485">
				 <ele>176.2</ele>
			 </trkpt>
			 <trkpt lat="50.772016" lon="8.754543">
				 <ele>176.3</ele>
			 </trkpt>
			 <trkpt lat="50.772004" lon="8.754665">
				 <ele>176.5</ele>
			 </trkpt>
			 <trkpt lat="50.771964" lon="8.75476">
				 <ele>176.8</ele>
			 </trkpt>
			 <trkpt lat="50.77196" lon="8.754828">
				 <ele>177.3</ele>
			 </trkpt>
			 <trkpt lat="50.77198" lon="8.754916">
				 <ele>177.8</ele>
			 </trkpt>
			 <trkpt lat="50.772043" lon="8.755038">
				 <ele>177.8</ele>
			 </trkpt>
			 <trkpt lat="50.772565" lon="8.755775">
				 <ele>178.5</ele>
			 </trkpt>
			 <trkpt lat="50.773109" lon="8.756552">
				 <ele>179.2</ele>
			 </trkpt>
			 <trkpt lat="50.773404" lon="8.756941">
				 <ele>179.7</ele>
			 </trkpt>
			 <trkpt lat="50.773451" lon="8.757029">
				 <ele>180.1</ele>
			 </trkpt>
			 <trkpt lat="50.773836" lon="8.757559">
				 <ele>180.2</ele>
			 </trkpt>
			 <trkpt lat="50.774166" lon="8.757932">
				 <ele>180.6</ele>
			 </trkpt>
			 <trkpt lat="50.774642" lon="8.75841">
				 <ele>180.5</ele>
			 </trkpt>
			 <trkpt lat="50.775135" lon="8.758752">
				 <ele>180.3</ele>
			 </trkpt>
			 <trkpt lat="50.775607" lon="8.759019">
				 <ele>180</ele>
			 </trkpt>
			 <trkpt lat="50.77622" lon="8.759331">
				 <ele>179.7</ele>
			 </trkpt>
			 <trkpt lat="50.776187" lon="8.759475">
				 <ele>180.1</ele>
			 </trkpt>
			 <trkpt lat="50.776078" lon="8.760001">
				 <ele>179.7</ele>
			 </trkpt>
			 <trkpt lat="50.776054" lon="8.760119">
				 <ele>179.2</ele>
			 </trkpt>
			 <trkpt lat="50.775904" lon="8.760752">
				 <ele>178.8</ele>
			 </trkpt>
			 <trkpt lat="50.775807" lon="8.761159">
				 <ele>178.6</ele>
			 </trkpt>
			 <trkpt lat="50.775529" lon="8.762503">
				 <ele>178.5</ele>
			 </trkpt>
			 <trkpt lat="50.774627" lon="8.762138">
				 <ele>178.1</ele>
			 </trkpt>
			 <trkpt lat="50.774018" lon="8.761929">
				 <ele>178.1</ele>
			 </trkpt>
			 <trkpt lat="50.774627" lon="8.762138">
				 <ele>178.5</ele>
			 </trkpt>
			 <trkpt lat="50.775529" lon="8.762503">
				 <ele>178.6</ele>
			 </trkpt>
			 <trkpt lat="50.775814" lon="8.76113">
				 <ele>178.6</ele>
			 </trkpt>
			 <trkpt lat="50.776054" lon="8.760119">
				 <ele>178.5</ele>
			 </trkpt>
			 <trkpt lat="50.776078" lon="8.760001">
				 <ele>178.4</ele>
			 </trkpt>
			 <trkpt lat="50.776187" lon="8.759475">
				 <ele>178.3</ele>
			 </trkpt>
			 <trkpt lat="50.77622" lon="8.759331">
				 <ele>178.1</ele>
			 </trkpt>
			 <trkpt lat="50.776301" lon="8.759157">
				 <ele>178</ele>
			 </trkpt>
			 <trkpt lat="50.776433" lon="8.758931">
				 <ele>177.8</ele>
			 </trkpt>
			 <trkpt lat="50.776519" lon="8.758706">
				 <ele>177.6</ele>
			 </trkpt>
			 <trkpt lat="50.77658" lon="8.758423">
				 <ele>177.5</ele>
			 </trkpt>
			 <trkpt lat="50.776614" lon="8.75833">
				 <ele>176.9</ele>
			 </trkpt>
			 <trkpt lat="50.776699" lon="8.7581">
				 <ele>176.7</ele>
			 </trkpt>
			 <trkpt lat="50.777188" lon="8.756993">
				 <ele>176.6</ele>
			 </trkpt>
			 <trkpt lat="50.777391" lon="8.756534">
				 <ele>176.6</ele>
			 </trkpt>
			 <trkpt lat="50.778752" lon="8.757431">
				 <ele>176.6</ele>
			 </trkpt>
			 <trkpt lat="50.779071" lon="8.757641">
				 <ele>176.7</ele>
			 </trkpt>
			 <trkpt lat="50.779075" lon="8.757453">
				 <ele>176.8</ele>
			 </trkpt>
			 <trkpt lat="50.779001" lon="8.756188">
				 <ele>176.7</ele>
			 </trkpt>
			 <trkpt lat="50.779042" lon="8.756134">
				 <ele>176.9</ele>
			 </trkpt>
			 <trkpt lat="50.779843" lon="8.755891">
				 <ele>177.1</ele>
			 </trkpt>
			 <trkpt lat="50.78037" lon="8.755744">
				 <ele>177.2</ele>
			 </trkpt>
			 <trkpt lat="50.780743" lon="8.755646">
				 <ele>177.3</ele>
			 </trkpt>
			 <trkpt lat="50.783374" lon="8.755762">
				 <ele>177.4</ele>
			 </trkpt>
			 <trkpt lat="50.786168" lon="8.755876">
				 <ele>177.5</ele>
			 </trkpt>
			 <trkpt lat="50.786207" lon="8.75589">
				 <ele>177.5</ele>
			 </trkpt>
			 <trkpt lat="50.786332" lon="8.756079">
				 <ele>177.6</ele>
			 </trkpt>
			 <trkpt lat="50.786492" lon="8.756347">
				 <ele>177.7</ele>
			 </trkpt>
			 <trkpt lat="50.786702" lon="8.756634">
				 <ele>177.7</ele>
			 </trkpt>
			 <trkpt lat="50.786943" lon="8.756821">
				 <ele>177.8</ele>
			 </trkpt>
			 <trkpt lat="50.787042" lon="8.756885">
				 <ele>177.7</ele>
			 </trkpt>
			 <trkpt lat="50.787273" lon="8.757033">
				 <ele>177.6</ele>
			 </trkpt>
			 <trkpt lat="50.787427" lon="8.757082">
				 <ele>177.6</ele>
			 </trkpt>
			 <trkpt lat="50.78758" lon="8.757071">
				 <ele>177.5</ele>
			 </trkpt>
			 <trkpt lat="50.788125" lon="8.756979">
				 <ele>177.6</ele>
			 </trkpt>
			 <trkpt lat="50.78835" lon="8.756837">
				 <ele>177.7</ele>
			 </trkpt>
			 <trkpt lat="50.788419" lon="8.756759">
				 <ele>177.8</ele>
			 </trkpt>
			 <trkpt lat="50.788461" lon="8.756671">
				 <ele>177.8</ele>
			 </trkpt>
			 <trkpt lat="50.788652" lon="8.755968">
				 <ele>177.8</ele>
			 </trkpt>
			 <trkpt lat="50.788989" lon="8.756127">
				 <ele>177.9</ele>
			 </trkpt>
			 <trkpt lat="50.789045" lon="8.755919">
				 <ele>177.9</ele>
			 </trkpt>
			 <trkpt lat="50.789142" lon="8.755589">
				 <ele>178.1</ele>
			 </trkpt>
			 <trkpt lat="50.789244" lon="8.755369">
				 <ele>178.3</ele>
			 </trkpt>
			 <trkpt lat="50.789317" lon="8.755271">
				 <ele>178.5</ele>
			 </trkpt>
			 <trkpt lat="50.78959" lon="8.754967">
				 <ele>178.6</ele>
			 </trkpt>
			 <trkpt lat="50.789754" lon="8.754824">
				 <ele>178.6</ele>
			 </trkpt>
			 <trkpt lat="50.789909" lon="8.754726">
				 <ele>178.6</ele>
			 </trkpt>
			 <trkpt lat="50.790114" lon="8.754638">
				 <ele>178.6</ele>
			 </trkpt>
			 <trkpt lat="50.790286" lon="8.754616">
				 <ele>178.6</ele>
			 </trkpt>
			 <trkpt lat="50.790416" lon="8.7546">
				 <ele>178.6</ele>
			 </trkpt>
			 <trkpt lat="50.790699" lon="8.754647">
				 <ele>178.6</ele>
			 </trkpt>
			 <trkpt lat="50.790932" lon="8.754725">
				 <ele>178.6</ele>
			 </trkpt>
			 <trkpt lat="50.791119" lon="8.754822">
				 <ele>178.5</ele>
			 </trkpt>
			 <trkpt lat="50.791388" lon="8.754911">
				 <ele>178.5</ele>
			 </trkpt>
			 <trkpt lat="50.791556" lon="8.754996">
				 <ele>178.4</ele>
			 </trkpt>
			 <trkpt lat="50.791991" lon="8.755289">
				 <ele>178.2</ele>
			 </trkpt>
			 <trkpt lat="50.792373" lon="8.755587">
				 <ele>178.1</ele>
			 </trkpt>
			 <trkpt lat="50.792549" lon="8.755775">
				 <ele>178</ele>
			 </trkpt>
			 <trkpt lat="50.792688" lon="8.755943">
				 <ele>177.9</ele>
			 </trkpt>
			 <trkpt lat="50.79298" lon="8.756366">
				 <ele>177.9</ele>
			 </trkpt>
			 <trkpt lat="50.793247" lon="8.75683">
				 <ele>177.9</ele>
			 </trkpt>
			 <trkpt lat="50.793731" lon="8.758027">
				 <ele>177.8</ele>
			 </trkpt>
			 <trkpt lat="50.79379" lon="8.758255">
				 <ele>177.7</ele>
			 </trkpt>
			 <trkpt lat="50.793914" lon="8.758832">
				 <ele>177.6</ele>
			 </trkpt>
			 <trkpt lat="50.793981" lon="8.758855">
				 <ele>177.5</ele>
			 </trkpt>
			 <trkpt lat="50.794121" lon="8.758944">
				 <ele>177.5</ele>
			 </trkpt>
			 <trkpt lat="50.794333" lon="8.75918">
				 <ele>177.5</ele>
			 </trkpt>
			 <trkpt lat="50.794447" lon="8.759343">
				 <ele>177.4</ele>
			 </trkpt>
			 <trkpt lat="50.794554" lon="8.759527">
				 <ele>177.4</ele>
			 </trkpt>
			 <trkpt lat="50.794698" lon="8.759822">
				 <ele>177.4</ele>
			 </trkpt>
			 <trkpt lat="50.794788" lon="8.760008">
				 <ele>177.4</ele>
			 </trkpt>
			 <trkpt lat="50.795045" lon="8.760433">
				 <ele>177.4</ele>
			 </trkpt>
			 <trkpt lat="50.795372" lon="8.760945">
				 <ele>177.5</ele>
			 </trkpt>
			 <trkpt lat="50.795583" lon="8.761423">
				 <ele>177.7</ele>
			 </trkpt>
			 <trkpt lat="50.795739" lon="8.761802">
				 <ele>178</ele>
			 </trkpt>
			 <trkpt lat="50.795814" lon="8.762005">
				 <ele>178.3</ele>
			 </trkpt>
			 <trkpt lat="50.795893" lon="8.762333">
				 <ele>178.6</ele>
			 </trkpt>
			 <trkpt lat="50.795917" lon="8.762542">
				 <ele>179</ele>
			 </trkpt>
			 <trkpt lat="50.796016" lon="8.762729">
				 <ele>179.4</ele>
			 </trkpt>
			 <trkpt lat="50.796141" lon="8.762994">
				 <ele>179.6</ele>
			 </trkpt>
			 <trkpt lat="50.796329" lon="8.763203">
				 <ele>179.9</ele>
			 </trkpt>
			 <trkpt lat="50.796848" lon="8.76384">
				 <ele>180.2</ele>
			 </trkpt>
			 <trkpt lat="50.797231" lon="8.764372">
				 <ele>180.5</ele>
			 </trkpt>
			 <trkpt lat="50.798256" lon="8.765853">
				 <ele>180.6</ele>
			 </trkpt>
			 <trkpt lat="50.799035" lon="8.76746">
				 <ele>180.8</ele>
			 </trkpt>
			 <trkpt lat="50.799263" lon="8.767828">
				 <ele>180.8</ele>
			 </trkpt>
			 <trkpt lat="50.799402" lon="8.767978">
				 <ele>180.8</ele>
			 </trkpt>
			 <trkpt lat="50.799581" lon="8.768194">
				 <ele>180.7</ele>
			 </trkpt>
			 <trkpt lat="50.799786" lon="8.768738">
				 <ele>180.6</ele>
			 </trkpt>
			 <trkpt lat="50.799813" lon="8.768758">
				 <ele>180.5</ele>
			 </trkpt>
			 <trkpt lat="50.800007" lon="8.768628">
				 <ele>180.3</ele>
			 </trkpt>
			 <trkpt lat="50.800083" lon="8.768657">
				 <ele>180.2</ele>
			 </trkpt>
			 <trkpt lat="50.80031" lon="8.769077">
				 <ele>180.1</ele>
			 </trkpt>
			 <trkpt lat="50.800677" lon="8.769725">
				 <ele>180</ele>
			 </trkpt>
			 <trkpt lat="50.800784" lon="8.769943">
				 <ele>179.9</ele>
			 </trkpt>
			 <trkpt lat="50.800916" lon="8.77021">
				 <ele>179.8</ele>
			 </trkpt>
			 <trkpt lat="50.801578" lon="8.77206">
				 <ele>179.8</ele>
			 </trkpt>
			 <trkpt lat="50.801723" lon="8.77241">
				 <ele>179.8</ele>
			 </trkpt>
			 <trkpt lat="50.801824" lon="8.772629">
				 <ele>179.8</ele>
			 </trkpt>
			 <trkpt lat="50.802044" lon="8.773053">
				 <ele>179.8</ele>
			 </trkpt>
			 <trkpt lat="50.802212" lon="8.773147">
				 <ele>179.9</ele>
			 </trkpt>
			 <trkpt lat="50.802354" lon="8.773203">
				 <ele>180</ele>
			 </trkpt>
			 <trkpt lat="50.802643" lon="8.773256">
				 <ele>180</ele>
			 </trkpt>
			 <trkpt lat="50.802939" lon="8.773296">
				 <ele>180</ele>
			 </trkpt>
			 <trkpt lat="50.803106" lon="8.773278">
				 <ele>180</ele>
			 </trkpt>
			 <trkpt lat="50.803355" lon="8.77321">
				 <ele>179.9</ele>
			 </trkpt>
			 <trkpt lat="50.803654" lon="8.773114">
				 <ele>179.8</ele>
			 </trkpt>
			 <trkpt lat="50.803777" lon="8.773049">
				 <ele>179.7</ele>
			 </trkpt>
			 <trkpt lat="50.803802" lon="8.773304">
				 <ele>179.6</ele>
			 </trkpt>
			 <trkpt lat="50.803816" lon="8.773395">
				 <ele>179.5</ele>
			 </trkpt>
			 <trkpt lat="50.803913" lon="8.774009">
				 <ele>179.5</ele>
			 </trkpt>
			 <trkpt lat="50.80385" lon="8.774132">
				 <ele>179.4</ele>
			 </trkpt>
			 <trkpt lat="50.80356" lon="8.774111">
				 <ele>179.3</ele>
			 </trkpt>
			 <trkpt lat="50.803554" lon="8.773983">
				 <ele>179.2</ele>
			 </trkpt>
			 <trkpt lat="50.803503" lon="8.773855">
				 <ele>179.1</ele>
			 </trkpt>
			 <trkpt lat="50.803432" lon="8.773733">
				 <ele>179</ele>
			 </trkpt>
			 <trkpt lat="50.803365" lon="8.773631">
				 <ele>179</ele>
			 </trkpt>
			 <trkpt lat="50.803271" lon="8.773589">
				 <ele>179</ele>
			 </trkpt>
			 <trkpt lat="50.802821" lon="8.773606">
				 <ele>179</ele>
			 </trkpt>
			 <trkpt lat="50.80246" lon="8.773621">
				 <ele>179</ele>
			 </trkpt>
			 <trkpt lat="50.802312" lon="8.773669">
				 <ele>179</ele>
			 </trkpt>
			 <trkpt lat="50.802218" lon="8.773775">
				 <ele>179</ele>
			 </trkpt>
			 <trkpt lat="50.802164" lon="8.773919">
				 <ele>179</ele>
			 </trkpt>
			 <trkpt lat="50.802123" lon="8.774073">
				 <ele>179</ele>
			 </trkpt>
			 <trkpt lat="50.80212" lon="8.774265">
				 <ele>179</ele>
			 </trkpt>
			 <trkpt lat="50.80216" lon="8.774438">
				 <ele>179</ele>
			 </trkpt>
			 <trkpt lat="50.802213" lon="8.774563">
				 <ele>179</ele>
			 </trkpt>
			 <trkpt lat="50.80229" lon="8.774651">
				 <ele>179</ele>
			 </trkpt>
			 <trkpt lat="50.802371" lon="8.774675">
				 <ele>179</ele>
			 </trkpt>
			 <trkpt lat="50.802819" lon="8.774683">
				 <ele>179</ele>
			 </trkpt>
		 </trkseg>
	 </trk>
</gpx>