<?xml version="1.0" encoding="UTF-8"?>
 <gpx creator="Garmin Connect" version="1.1"
	 xsi:schemaLocation="http://www.topografix.com/GPX/1/1 http://www.topografix.com/GPX/11.xsd"
	 xmlns:ns3="http://www.garmin.com/xmlschemas/TrackPointExtension/v1"
	 xmlns="http://www.topografix.com/GPX/1/1"
	 xmlns:xsi="http://www.w3.org/2001/XMLSchema-instance" xmlns:ns2="http://www.garmin.com/xmlschemas/GpxExtensions/v3">
	 <metadata>
		<name>Marine Marathon 2023 - 42.195 km</name>
		 <link href="https://www.goandrace.com">
		 <text>Garmin Connect</text>
		 </link>
	 <time>2026-08-09T17:14:06</time>
	 </metadata>
	 <trk>
		 <name>Marine Marathon 2023 - 42.195 km</name>
		 <trkseg>
			 <trkpt lat="38.881879" lon="-77.062061">
				 <ele>10</ele>
			 </trkpt>
			 <trkpt lat="38.882764" lon="-77.062727">
				 <ele>8</ele>
			 </trkpt>
			 <trkpt lat="38.887017" lon="-77.065381">
				 <ele>6</ele>
			 </trkpt>
			 <trkpt lat="38.888169" lon="-77.066122">
				 <ele>5</ele>
			 </trkpt>
			 <trkpt lat="38.889347" lon="-77.067549">
				 <ele>5</ele>
			 </trkpt>
			 <trkpt lat="38.889928" lon="-77.067771">
				 <ele>6</ele>
			 </trkpt>
			 <trkpt lat="38.89131" lon="-77.067847">
				 <ele>7</ele>
			 </trkpt>
			 <trkpt lat="38.892395" lon="-77.0676">
				 <ele>8</ele>
			 </trkpt>
			 <trkpt lat="38.892971" lon="-77.0676">
				 <ele>9</ele>
			 </trkpt>
			 <trkpt lat="38.89413" lon="-77.068394">
				 <ele>10</ele>
			 </trkpt>
			 <trkpt lat="38.894473" lon="-77.068769">
				 <ele>12</ele>
			 </trkpt>
			 <trkpt lat="38.89496" lon="-77.06965">
				 <ele>12</ele>
			 </trkpt>
			 <trkpt lat="38.89517" lon="-77.07036">
				 <ele>13</ele>
			 </trkpt>
			 <trkpt lat="38.89519" lon="-77.07061">
				 <ele>14</ele>
			 </trkpt>
			 <trkpt lat="38.8952" lon="-77.07071">
				 <ele>16</ele>
			 </trkpt>
			 <trkpt lat="38.8955" lon="-77.07075">
				 <ele>16</ele>
			 </trkpt>
			 <trkpt lat="38.89695" lon="-77.0708">
				 <ele>14</ele>
			 </trkpt>
			 <trkpt lat="38.89695" lon="-77.0708">
				 <ele>13</ele>
			 </trkpt>
			 <trkpt lat="38.89819" lon="-77.07076">
				 <ele>15</ele>
			 </trkpt>
			 <trkpt lat="38.8983" lon="-77.07086">
				 <ele>19</ele>
			 </trkpt>
			 <trkpt lat="38.89831" lon="-77.07119">
				 <ele>23</ele>
			 </trkpt>
			 <trkpt lat="38.89836" lon="-77.07209">
				 <ele>26</ele>
			 </trkpt>
			 <trkpt lat="38.898401" lon="-77.07305">
				 <ele>23</ele>
			 </trkpt>
			 <trkpt lat="38.898426" lon="-77.075593">
				 <ele>21</ele>
			 </trkpt>
			 <trkpt lat="38.89835" lon="-77.07618">
				 <ele>20</ele>
			 </trkpt>
			 <trkpt lat="38.89821" lon="-77.077">
				 <ele>18</ele>
			 </trkpt>
			 <trkpt lat="38.89792" lon="-77.07802">
				 <ele>21</ele>
			 </trkpt>
			 <trkpt lat="38.89779" lon="-77.0784">
				 <ele>24</ele>
			 </trkpt>
			 <trkpt lat="38.89652" lon="-77.08106">
				 <ele>29</ele>
			 </trkpt>
			 <trkpt lat="38.89635" lon="-77.08173">
				 <ele>36</ele>
			 </trkpt>
			 <trkpt lat="38.89631" lon="-77.08218">
				 <ele>35</ele>
			 </trkpt>
			 <trkpt lat="38.89629" lon="-77.08393">
				 <ele>35</ele>
			 </trkpt>
			 <trkpt lat="38.89629" lon="-77.08462">
				 <ele>31</ele>
			 </trkpt>
			 <trkpt lat="38.89617" lon="-77.0854">
				 <ele>30</ele>
			 </trkpt>
			 <trkpt lat="38.89568" lon="-77.08712">
				 <ele>31</ele>
			 </trkpt>
			 <trkpt lat="38.89531" lon="-77.08865">
				 <ele>34</ele>
			 </trkpt>
			 <trkpt lat="38.8949" lon="-77.09034">
				 <ele>38</ele>
			 </trkpt>
			 <trkpt lat="38.8948" lon="-77.09081">
				 <ele>42</ele>
			 </trkpt>
			 <trkpt lat="38.8946" lon="-77.09252">
				 <ele>46</ele>
			 </trkpt>
			 <trkpt lat="38.89456" lon="-77.09309">
				 <ele>50</ele>
			 </trkpt>
			 <trkpt lat="38.89466" lon="-77.0939">
				 <ele>54</ele>
			 </trkpt>
			 <trkpt lat="38.8949" lon="-77.09456">
				 <ele>60</ele>
			 </trkpt>
			 <trkpt lat="38.89522" lon="-77.09505">
				 <ele>66</ele>
			 </trkpt>
			 <trkpt lat="38.89566" lon="-77.09587">
				 <ele>70</ele>
			 </trkpt>
			 <trkpt lat="38.89569" lon="-77.09599">
				 <ele>68</ele>
			 </trkpt>
			 <trkpt lat="38.89571" lon="-77.09607">
				 <ele>66</ele>
			 </trkpt>
			 <trkpt lat="38.89581" lon="-77.0961">
				 <ele>66</ele>
			 </trkpt>
			 <trkpt lat="38.89592" lon="-77.09598">
				 <ele>70</ele>
			 </trkpt>
			 <trkpt lat="38.89668" lon="-77.09517">
				 <ele>71</ele>
			 </trkpt>
			 <trkpt lat="38.89696" lon="-77.09486">
				 <ele>68</ele>
			 </trkpt>
			 <trkpt lat="38.89767" lon="-77.0941">
				 <ele>63</ele>
			 </trkpt>
			 <trkpt lat="38.89825" lon="-77.0935">
				 <ele>59</ele>
			 </trkpt>
			 <trkpt lat="38.89856" lon="-77.09287">
				 <ele>56</ele>
			 </trkpt>
			 <trkpt lat="38.898867" lon="-77.091475">
				 <ele>54</ele>
			 </trkpt>
			 <trkpt lat="38.898934" lon="-77.091024">
				 <ele>54</ele>
			 </trkpt>
			 <trkpt lat="38.89946" lon="-77.089973">
				 <ele>52</ele>
			 </trkpt>
			 <trkpt lat="38.899761" lon="-77.089437">
				 <ele>50</ele>
			 </trkpt>
			 <trkpt lat="38.899908" lon="-77.088288">
				 <ele>47</ele>
			 </trkpt>
			 <trkpt lat="38.899866" lon="-77.086645">
				 <ele>44</ele>
			 </trkpt>
			 <trkpt lat="38.899983" lon="-77.086097">
				 <ele>43</ele>
			 </trkpt>
			 <trkpt lat="38.900698" lon="-77.084998">
				 <ele>42</ele>
			 </trkpt>
			 <trkpt lat="38.901182" lon="-77.084344">
				 <ele>41</ele>
			 </trkpt>
			 <trkpt lat="38.901842" lon="-77.082889">
				 <ele>38</ele>
			 </trkpt>
			 <trkpt lat="38.902122" lon="-77.081832">
				 <ele>34</ele>
			 </trkpt>
			 <trkpt lat="38.902193" lon="-77.081387">
				 <ele>30</ele>
			 </trkpt>
			 <trkpt lat="38.902129" lon="-77.078949">
				 <ele>28</ele>
			 </trkpt>
			 <trkpt lat="38.901962" lon="-77.077772">
				 <ele>26</ele>
			 </trkpt>
			 <trkpt lat="38.900721" lon="-77.07386">
				 <ele>21</ele>
			 </trkpt>
			 <trkpt lat="38.900336" lon="-77.072551">
				 <ele>15</ele>
			 </trkpt>
			 <trkpt lat="38.900035" lon="-77.071494">
				 <ele>9</ele>
			 </trkpt>
			 <trkpt lat="38.900231" lon="-77.070974">
				 <ele>6</ele>
			 </trkpt>
			 <trkpt lat="38.900503" lon="-77.070764">
				 <ele>5</ele>
			 </trkpt>
			 <trkpt lat="38.904721" lon="-77.0688">
				 <ele>6</ele>
			 </trkpt>
			 <trkpt lat="38.904897" lon="-77.068606">
				 <ele>6</ele>
			 </trkpt>
			 <trkpt lat="38.905072" lon="-77.067458">
				 <ele>5</ele>
			 </trkpt>
			 <trkpt lat="38.902737" lon="-77.062751">
				 <ele>5</ele>
			 </trkpt>
			 <trkpt lat="38.90256" lon="-77.062684">
				 <ele>5</ele>
			 </trkpt>
			 <trkpt lat="38.902537" lon="-77.058457">
				 <ele>5</ele>
			 </trkpt>
			 <trkpt lat="38.90253" lon="-77.057206">
				 <ele>7</ele>
			 </trkpt>
			 <trkpt lat="38.902335" lon="-77.056099">
				 <ele>6</ele>
			 </trkpt>
			 <trkpt lat="38.900728" lon="-77.056256">
				 <ele>16</ele>
			 </trkpt>
			 <trkpt lat="38.900674" lon="-77.056466">
				 <ele>17</ele>
			 </trkpt>
			 <trkpt lat="38.900945" lon="-77.057077">
				 <ele>12</ele>
			 </trkpt>
			 <trkpt lat="38.9012" lon="-77.057195">
				 <ele>1</ele>
			 </trkpt>
			 <trkpt lat="38.902273" lon="-77.056997">
				 <ele>0</ele>
			 </trkpt>
			 <trkpt lat="38.903168" lon="-77.056665">
				 <ele>0</ele>
			 </trkpt>
			 <trkpt lat="38.904149" lon="-77.056456">
				 <ele>0</ele>
			 </trkpt>
			 <trkpt lat="38.90439" lon="-77.0563">
				 <ele>4</ele>
			 </trkpt>
			 <trkpt lat="38.90467" lon="-77.05611">
				 <ele>19</ele>
			 </trkpt>
			 <trkpt lat="38.9058" lon="-77.05537">
				 <ele>23</ele>
			 </trkpt>
			 <trkpt lat="38.90653" lon="-77.05503">
				 <ele>22</ele>
			 </trkpt>
			 <trkpt lat="38.90688" lon="-77.05487">
				 <ele>17</ele>
			 </trkpt>
			 <trkpt lat="38.90797" lon="-77.05432">
				 <ele>12</ele>
			 </trkpt>
			 <trkpt lat="38.90816" lon="-77.05417">
				 <ele>10</ele>
			 </trkpt>
			 <trkpt lat="38.90857" lon="-77.05374">
				 <ele>9</ele>
			 </trkpt>
			 <trkpt lat="38.90877" lon="-77.05344">
				 <ele>6</ele>
			 </trkpt>
			 <trkpt lat="38.90897" lon="-77.05294">
				 <ele>3</ele>
			 </trkpt>
			 <trkpt lat="38.90902" lon="-77.0525">
				 <ele>3</ele>
			 </trkpt>
			 <trkpt lat="38.90897" lon="-77.05152">
				 <ele>3</ele>
			 </trkpt>
			 <trkpt lat="38.90903" lon="-77.05113">
				 <ele>3</ele>
			 </trkpt>
			 <trkpt lat="38.90908" lon="-77.05096">
				 <ele>5</ele>
			 </trkpt>
			 <trkpt lat="38.90912" lon="-77.05087">
				 <ele>3</ele>
			 </trkpt>
			 <trkpt lat="38.90918" lon="-77.05076">
				 <ele>10</ele>
			 </trkpt>
			 <trkpt lat="38.90953" lon="-77.05043">
				 <ele>8</ele>
			 </trkpt>
			 <trkpt lat="38.90975" lon="-77.05036">
				 <ele>7</ele>
			 </trkpt>
			 <trkpt lat="38.90994" lon="-77.05035">
				 <ele>6</ele>
			 </trkpt>
			 <trkpt lat="38.91026" lon="-77.05045">
				 <ele>6</ele>
			 </trkpt>
			 <trkpt lat="38.91046" lon="-77.0506">
				 <ele>6</ele>
			 </trkpt>
			 <trkpt lat="38.91145" lon="-77.05158">
				 <ele>6</ele>
			 </trkpt>
			 <trkpt lat="38.91258" lon="-77.05292">
				 <ele>6</ele>
			 </trkpt>
			 <trkpt lat="38.91263" lon="-77.053">
				 <ele>5</ele>
			 </trkpt>
			 <trkpt lat="38.91279" lon="-77.05328">
				 <ele>5</ele>
			 </trkpt>
			 <trkpt lat="38.91292" lon="-77.05368">
				 <ele>5</ele>
			 </trkpt>
			 <trkpt lat="38.91301" lon="-77.05403">
				 <ele>6</ele>
			 </trkpt>
			 <trkpt lat="38.9133" lon="-77.05459">
				 <ele>6</ele>
			 </trkpt>
			 <trkpt lat="38.91351" lon="-77.05484">
				 <ele>6</ele>
			 </trkpt>
			 <trkpt lat="38.91377" lon="-77.05515">
				 <ele>6</ele>
			 </trkpt>
			 <trkpt lat="38.91414" lon="-77.05561">
				 <ele>6</ele>
			 </trkpt>
			 <trkpt lat="38.91451" lon="-77.05621">
				 <ele>7</ele>
			 </trkpt>
			 <trkpt lat="38.91488" lon="-77.05696">
				 <ele>7</ele>
			 </trkpt>
			 <trkpt lat="38.91512" lon="-77.05738">
				 <ele>7</ele>
			 </trkpt>
			 <trkpt lat="38.91565" lon="-77.05802">
				 <ele>6</ele>
			 </trkpt>
			 <trkpt lat="38.91584" lon="-77.05817">
				 <ele>8</ele>
			 </trkpt>
			 <trkpt lat="38.91637" lon="-77.05838">
				 <ele>8</ele>
			 </trkpt>
			 <trkpt lat="38.91667" lon="-77.0584">
				 <ele>8</ele>
			 </trkpt>
			 <trkpt lat="38.91711" lon="-77.0583">
				 <ele>7</ele>
			 </trkpt>
			 <trkpt lat="38.91728" lon="-77.05822">
				 <ele>8</ele>
			 </trkpt>
			 <trkpt lat="38.91749" lon="-77.05805">
				 <ele>8</ele>
			 </trkpt>
			 <trkpt lat="38.9179" lon="-77.05755">
				 <ele>7</ele>
			 </trkpt>
			 <trkpt lat="38.91808" lon="-77.05722">
				 <ele>10</ele>
			 </trkpt>
			 <trkpt lat="38.91838" lon="-77.05642">
				 <ele>9</ele>
			 </trkpt>
			 <trkpt lat="38.91862" lon="-77.05573">
				 <ele>8</ele>
			 </trkpt>
			 <trkpt lat="38.91872" lon="-77.05544">
				 <ele>9</ele>
			 </trkpt>
			 <trkpt lat="38.919" lon="-77.05496">
				 <ele>9</ele>
			 </trkpt>
			 <trkpt lat="38.91939" lon="-77.05451">
				 <ele>9</ele>
			 </trkpt>
			 <trkpt lat="38.91956" lon="-77.05428">
				 <ele>9</ele>
			 </trkpt>
			 <trkpt lat="38.91967" lon="-77.05405">
				 <ele>9</ele>
			 </trkpt>
			 <trkpt lat="38.91981" lon="-77.05326">
				 <ele>9</ele>
			 </trkpt>
			 <trkpt lat="38.91999" lon="-77.0526">
				 <ele>9</ele>
			 </trkpt>
			 <trkpt lat="38.92027" lon="-77.05191">
				 <ele>9</ele>
			 </trkpt>
			 <trkpt lat="38.92067" lon="-77.0514">
				 <ele>9</ele>
			 </trkpt>
			 <trkpt lat="38.92082" lon="-77.05128">
				 <ele>9</ele>
			 </trkpt>
			 <trkpt lat="38.92123" lon="-77.05092">
				 <ele>13</ele>
			 </trkpt>
			 <trkpt lat="38.921352" lon="-77.050998">
				 <ele>17</ele>
			 </trkpt>
			 <trkpt lat="38.921437" lon="-77.051163">
				 <ele>19</ele>
			 </trkpt>
			 <trkpt lat="38.92109" lon="-77.05125">
				 <ele>15</ele>
			 </trkpt>
			 <trkpt lat="38.921" lon="-77.05127">
				 <ele>11</ele>
			 </trkpt>
			 <trkpt lat="38.92069" lon="-77.05152">
				 <ele>10</ele>
			 </trkpt>
			 <trkpt lat="38.92032" lon="-77.05195">
				 <ele>9</ele>
			 </trkpt>
			 <trkpt lat="38.92008" lon="-77.05236">
				 <ele>9</ele>
			 </trkpt>
			 <trkpt lat="38.91987" lon="-77.05297">
				 <ele>9</ele>
			 </trkpt>
			 <trkpt lat="38.91981" lon="-77.05326">
				 <ele>9</ele>
			 </trkpt>
			 <trkpt lat="38.91974" lon="-77.05372">
				 <ele>9</ele>
			 </trkpt>
			 <trkpt lat="38.9197" lon="-77.05393">
				 <ele>9</ele>
			 </trkpt>
			 <trkpt lat="38.91949" lon="-77.05438">
				 <ele>9</ele>
			 </trkpt>
			 <trkpt lat="38.91882" lon="-77.05524">
				 <ele>9</ele>
			 </trkpt>
			 <trkpt lat="38.91872" lon="-77.05544">
				 <ele>7</ele>
			 </trkpt>
			 <trkpt lat="38.91848" lon="-77.0562">
				 <ele>7</ele>
			 </trkpt>
			 <trkpt lat="38.91835" lon="-77.05673">
				 <ele>7</ele>
			 </trkpt>
			 <trkpt lat="38.91804" lon="-77.05747">
				 <ele>7</ele>
			 </trkpt>
			 <trkpt lat="38.91776" lon="-77.0579">
				 <ele>6</ele>
			 </trkpt>
			 <trkpt lat="38.91752" lon="-77.05815">
				 <ele>6</ele>
			 </trkpt>
			 <trkpt lat="38.91722" lon="-77.05835">
				 <ele>6</ele>
			 </trkpt>
			 <trkpt lat="38.91703" lon="-77.05843">
				 <ele>7</ele>
			 </trkpt>
			 <trkpt lat="38.91635" lon="-77.05848">
				 <ele>8</ele>
			 </trkpt>
			 <trkpt lat="38.91591" lon="-77.05834">
				 <ele>8</ele>
			 </trkpt>
			 <trkpt lat="38.9157" lon="-77.05823">
				 <ele>8</ele>
			 </trkpt>
			 <trkpt lat="38.91534" lon="-77.05796">
				 <ele>3</ele>
			 </trkpt>
			 <trkpt lat="38.91517" lon="-77.05778">
				 <ele>7</ele>
			 </trkpt>
			 <trkpt lat="38.91485" lon="-77.05731">
				 <ele>7</ele>
			 </trkpt>
			 <trkpt lat="38.91485" lon="-77.05731">
				 <ele>7</ele>
			 </trkpt>
			 <trkpt lat="38.9144" lon="-77.05639">
				 <ele>7</ele>
			 </trkpt>
			 <trkpt lat="38.91394" lon="-77.05574">
				 <ele>6</ele>
			 </trkpt>
			 <trkpt lat="38.91348" lon="-77.05534">
				 <ele>6</ele>
			 </trkpt>
			 <trkpt lat="38.91307" lon="-77.05487">
				 <ele>6</ele>
			 </trkpt>
			 <trkpt lat="38.9129" lon="-77.05453">
				 <ele>6</ele>
			 </trkpt>
			 <trkpt lat="38.91263" lon="-77.05369">
				 <ele>5</ele>
			 </trkpt>
			 <trkpt lat="38.9125" lon="-77.05336">
				 <ele>5</ele>
			 </trkpt>
			 <trkpt lat="38.9122" lon="-77.05267">
				 <ele>6</ele>
			 </trkpt>
			 <trkpt lat="38.9118" lon="-77.05201">
				 <ele>6</ele>
			 </trkpt>
			 <trkpt lat="38.91139" lon="-77.05159">
				 <ele>6</ele>
			 </trkpt>
			 <trkpt lat="38.91031" lon="-77.05056">
				 <ele>6</ele>
			 </trkpt>
			 <trkpt lat="38.91005" lon="-77.05044">
				 <ele>6</ele>
			 </trkpt>
			 <trkpt lat="38.90986" lon="-77.05043">
				 <ele>5</ele>
			 </trkpt>
			 <trkpt lat="38.90969" lon="-77.05044">
				 <ele>5</ele>
			 </trkpt>
			 <trkpt lat="38.9095" lon="-77.05054">
				 <ele>4</ele>
			 </trkpt>
			 <trkpt lat="38.90928" lon="-77.05076">
				 <ele>4</ele>
			 </trkpt>
			 <trkpt lat="38.90913" lon="-77.05103">
				 <ele>3</ele>
			 </trkpt>
			 <trkpt lat="38.90904" lon="-77.0514">
				 <ele>4</ele>
			 </trkpt>
			 <trkpt lat="38.90909" lon="-77.05248">
				 <ele>4</ele>
			 </trkpt>
			 <trkpt lat="38.90908" lon="-77.05277">
				 <ele>4</ele>
			 </trkpt>
			 <trkpt lat="38.90888" lon="-77.05337">
				 <ele>3</ele>
			 </trkpt>
			 <trkpt lat="38.90875" lon="-77.05362">
				 <ele>4</ele>
			 </trkpt>
			 <trkpt lat="38.90812" lon="-77.05431">
				 <ele>4</ele>
			 </trkpt>
			 <trkpt lat="38.90756" lon="-77.05465">
				 <ele>4</ele>
			 </trkpt>
			 <trkpt lat="38.90756" lon="-77.05465">
				 <ele>4</ele>
			 </trkpt>
			 <trkpt lat="38.90542" lon="-77.05566">
				 <ele>4</ele>
			 </trkpt>
			 <trkpt lat="38.90519" lon="-77.05581">
				 <ele>5</ele>
			 </trkpt>
			 <trkpt lat="38.90442" lon="-77.05638">
				 <ele>3</ele>
			 </trkpt>
			 <trkpt lat="38.90411" lon="-77.05655">
				 <ele>3</ele>
			 </trkpt>
			 <trkpt lat="38.904" lon="-77.0566">
				 <ele>2</ele>
			 </trkpt>
			 <trkpt lat="38.90365" lon="-77.05666">
				 <ele>2</ele>
			 </trkpt>
			 <trkpt lat="38.9032" lon="-77.05674">
				 <ele>2</ele>
			 </trkpt>
			 <trkpt lat="38.90212" lon="-77.05712">
				 <ele>3</ele>
			 </trkpt>
			 <trkpt lat="38.90181" lon="-77.05723">
				 <ele>3</ele>
			 </trkpt>
			 <trkpt lat="38.90126" lon="-77.05729">
				 <ele>3</ele>
			 </trkpt>
			 <trkpt lat="38.90046" lon="-77.05705">
				 <ele>3</ele>
			 </trkpt>
			 <trkpt lat="38.89893" lon="-77.05652">
				 <ele>3</ele>
			 </trkpt>
			 <trkpt lat="38.89861" lon="-77.05643">
				 <ele>3</ele>
			 </trkpt>
			 <trkpt lat="38.89831" lon="-77.0564">
				 <ele>3</ele>
			 </trkpt>
			 <trkpt lat="38.89707" lon="-77.05651">
				 <ele>3</ele>
			 </trkpt>
			 <trkpt lat="38.89467" lon="-77.0565">
				 <ele>3</ele>
			 </trkpt>
			 <trkpt lat="38.8945" lon="-77.05646">
				 <ele>3</ele>
			 </trkpt>
			 <trkpt lat="38.89309" lon="-77.05564">
				 <ele>3</ele>
			 </trkpt>
			 <trkpt lat="38.89238" lon="-77.05518">
				 <ele>3</ele>
			 </trkpt>
			 <trkpt lat="38.89223" lon="-77.055">
				 <ele>3</ele>
			 </trkpt>
			 <trkpt lat="38.89223" lon="-77.05499">
				 <ele>3</ele>
			 </trkpt>
			 <trkpt lat="38.89218" lon="-77.05484">
				 <ele>3</ele>
			 </trkpt>
			 <trkpt lat="38.89206" lon="-77.0542">
				 <ele>0</ele>
			 </trkpt>
			 <trkpt lat="38.89197" lon="-77.05397">
				 <ele>3</ele>
			 </trkpt>
			 <trkpt lat="38.89139" lon="-77.05301">
				 <ele>2</ele>
			 </trkpt>
			 <trkpt lat="38.89124" lon="-77.05261">
				 <ele>1</ele>
			 </trkpt>
			 <trkpt lat="38.89098" lon="-77.05216">
				 <ele>2</ele>
			 </trkpt>
			 <trkpt lat="38.8907" lon="-77.05211">
				 <ele>2</ele>
			 </trkpt>
			 <trkpt lat="38.89049" lon="-77.05216">
				 <ele>2</ele>
			 </trkpt>
			 <trkpt lat="38.89024" lon="-77.05227">
				 <ele>2</ele>
			 </trkpt>
			 <trkpt lat="38.89024" lon="-77.05226">
				 <ele>2</ele>
			 </trkpt>
			 <trkpt lat="38.88959" lon="-77.05258">
				 <ele>2</ele>
			 </trkpt>
			 <trkpt lat="38.88922" lon="-77.05262">
				 <ele>2</ele>
			 </trkpt>
			 <trkpt lat="38.88898" lon="-77.05259">
				 <ele>2</ele>
			 </trkpt>
			 <trkpt lat="38.88862" lon="-77.05243">
				 <ele>3</ele>
			 </trkpt>
			 <trkpt lat="38.88817" lon="-77.05215">
				 <ele>2</ele>
			 </trkpt>
			 <trkpt lat="38.88764" lon="-77.05169">
				 <ele>2</ele>
			 </trkpt>
			 <trkpt lat="38.88743" lon="-77.05139">
				 <ele>2</ele>
			 </trkpt>
			 <trkpt lat="38.88736" lon="-77.05132">
				 <ele>2</ele>
			 </trkpt>
			 <trkpt lat="38.88683" lon="-77.05054">
				 <ele>2</ele>
			 </trkpt>
			 <trkpt lat="38.88664" lon="-77.05044">
				 <ele>2</ele>
			 </trkpt>
			 <trkpt lat="38.8865" lon="-77.05019">
				 <ele>2</ele>
			 </trkpt>
			 <trkpt lat="38.88643" lon="-77.04974">
				 <ele>2</ele>
			 </trkpt>
			 <trkpt lat="38.88606" lon="-77.04928">
				 <ele>2</ele>
			 </trkpt>
			 <trkpt lat="38.88526" lon="-77.04823">
				 <ele>2</ele>
			 </trkpt>
			 <trkpt lat="38.88377" lon="-77.04648">
				 <ele>1</ele>
			 </trkpt>
			 <trkpt lat="38.88213" lon="-77.04439">
				 <ele>2</ele>
			 </trkpt>
			 <trkpt lat="38.88127" lon="-77.04318">
				 <ele>1</ele>
			 </trkpt>
			 <trkpt lat="38.88039" lon="-77.04186">
				 <ele>2</ele>
			 </trkpt>
			 <trkpt lat="38.88028" lon="-77.04149">
				 <ele>2</ele>
			 </trkpt>
			 <trkpt lat="38.88027" lon="-77.04133">
				 <ele>1</ele>
			 </trkpt>
			 <trkpt lat="38.88034" lon="-77.04085">
				 <ele>1</ele>
			 </trkpt>
			 <trkpt lat="38.88033" lon="-77.04068">
				 <ele>1</ele>
			 </trkpt>
			 <trkpt lat="38.88015" lon="-77.04033">
				 <ele>1</ele>
			 </trkpt>
			 <trkpt lat="38.87986" lon="-77.03988">
				 <ele>1</ele>
			 </trkpt>
			 <trkpt lat="38.87956" lon="-77.03989">
				 <ele>1</ele>
			 </trkpt>
			 <trkpt lat="38.87932" lon="-77.03983">
				 <ele>1</ele>
			 </trkpt>
			 <trkpt lat="38.87917" lon="-77.03966">
				 <ele>2</ele>
			 </trkpt>
			 <trkpt lat="38.8786" lon="-77.03868">
				 <ele>1</ele>
			 </trkpt>
			 <trkpt lat="38.87856" lon="-77.03857">
				 <ele>1</ele>
			 </trkpt>
			 <trkpt lat="38.87773" lon="-77.03724">
				 <ele>1</ele>
			 </trkpt>
			 <trkpt lat="38.87702" lon="-77.03622">
				 <ele>1</ele>
			 </trkpt>
			 <trkpt lat="38.87683" lon="-77.03595">
				 <ele>1</ele>
			 </trkpt>
			 <trkpt lat="38.87614" lon="-77.0351">
				 <ele>1</ele>
			 </trkpt>
			 <trkpt lat="38.87556" lon="-77.03445">
				 <ele>1</ele>
			 </trkpt>
			 <trkpt lat="38.87522" lon="-77.03406">
				 <ele>2</ele>
			 </trkpt>
			 <trkpt lat="38.87522" lon="-77.03395">
				 <ele>2</ele>
			 </trkpt>
			 <trkpt lat="38.87518" lon="-77.03387">
				 <ele>2</ele>
			 </trkpt>
			 <trkpt lat="38.87499" lon="-77.03371">
				 <ele>2</ele>
			 </trkpt>
			 <trkpt lat="38.87376" lon="-77.03248">
				 <ele>2</ele>
			 </trkpt>
			 <trkpt lat="38.87241" lon="-77.03128">
				 <ele>2</ele>
			 </trkpt>
			 <trkpt lat="38.87134" lon="-77.03042">
				 <ele>2</ele>
			 </trkpt>
			 <trkpt lat="38.87034" lon="-77.02971">
				 <ele>2</ele>
			 </trkpt>
			 <trkpt lat="38.86843" lon="-77.02856">
				 <ele>2</ele>
			 </trkpt>
			 <trkpt lat="38.86843" lon="-77.02856">
				 <ele>2</ele>
			 </trkpt>
			 <trkpt lat="38.86596" lon="-77.02712">
				 <ele>2</ele>
			 </trkpt>
			 <trkpt lat="38.86573" lon="-77.02699">
				 <ele>2</ele>
			 </trkpt>
			 <trkpt lat="38.86352" lon="-77.0258">
				 <ele>2</ele>
			 </trkpt>
			 <trkpt lat="38.86196" lon="-77.02496">
				 <ele>2</ele>
			 </trkpt>
			 <trkpt lat="38.86129" lon="-77.02461">
				 <ele>2</ele>
			 </trkpt>
			 <trkpt lat="38.86065" lon="-77.02428">
				 <ele>2</ele>
			 </trkpt>
			 <trkpt lat="38.85972" lon="-77.02378">
				 <ele>2</ele>
			 </trkpt>
			 <trkpt lat="38.858467" lon="-77.023046">
				 <ele>2</ele>
			 </trkpt>
			 <trkpt lat="38.858354" lon="-77.022638">
				 <ele>2</ele>
			 </trkpt>
			 <trkpt lat="38.858371" lon="-77.022461">
				 <ele>2</ele>
			 </trkpt>
			 <trkpt lat="38.858538" lon="-77.022161">
				 <ele>2</ele>
			 </trkpt>
			 <trkpt lat="38.858709" lon="-77.02207">
				 <ele>2</ele>
			 </trkpt>
			 <trkpt lat="38.863086" lon="-77.022266">
				 <ele>1</ele>
			 </trkpt>
			 <trkpt lat="38.868285" lon="-77.022447">
				 <ele>2</ele>
			 </trkpt>
			 <trkpt lat="38.868976" lon="-77.022548">
				 <ele>2</ele>
			 </trkpt>
			 <trkpt lat="38.872105" lon="-77.023574">
				 <ele>2</ele>
			 </trkpt>
			 <trkpt lat="38.872924" lon="-77.023895">
				 <ele>2</ele>
			 </trkpt>
			 <trkpt lat="38.874822" lon="-77.025014">
				 <ele>3</ele>
			 </trkpt>
			 <trkpt lat="38.876075" lon="-77.026102">
				 <ele>3</ele>
			 </trkpt>
			 <trkpt lat="38.879985" lon="-77.031136">
				 <ele>4</ele>
			 </trkpt>
			 <trkpt lat="38.88131" lon="-77.03296">
				 <ele>3</ele>
			 </trkpt>
			 <trkpt lat="38.88159" lon="-77.03333">
				 <ele>4</ele>
			 </trkpt>
			 <trkpt lat="38.88192" lon="-77.03361">
				 <ele>2</ele>
			 </trkpt>
			 <trkpt lat="38.88202" lon="-77.0336">
				 <ele>4</ele>
			 </trkpt>
			 <trkpt lat="38.88266" lon="-77.03306">
				 <ele>5</ele>
			 </trkpt>
			 <trkpt lat="38.88299" lon="-77.03285">
				 <ele>6</ele>
			 </trkpt>
			 <trkpt lat="38.88325" lon="-77.03277">
				 <ele>5</ele>
			 </trkpt>
			 <trkpt lat="38.883798" lon="-77.032895">
				 <ele>2</ele>
			 </trkpt>
			 <trkpt lat="38.884194" lon="-77.033549">
				 <ele>0</ele>
			 </trkpt>
			 <trkpt lat="38.884975" lon="-77.034383">
				 <ele>0</ele>
			 </trkpt>
			 <trkpt lat="38.885993" lon="-77.035037">
				 <ele>0</ele>
			 </trkpt>
			 <trkpt lat="38.886378" lon="-77.035338">
				 <ele>2</ele>
			 </trkpt>
			 <trkpt lat="38.886804" lon="-77.036121">
				 <ele>3</ele>
			 </trkpt>
			 <trkpt lat="38.886912" lon="-77.036614">
				 <ele>3</ele>
			 </trkpt>
			 <trkpt lat="38.886862" lon="-77.042294">
				 <ele>3</ele>
			 </trkpt>
			 <trkpt lat="38.886787" lon="-77.043474">
				 <ele>4</ele>
			 </trkpt>
			 <trkpt lat="38.887013" lon="-77.050158">
				 <ele>3</ele>
			 </trkpt>
			 <trkpt lat="38.887201" lon="-77.049134">
				 <ele>4</ele>
			 </trkpt>
			 <trkpt lat="38.887" lon="-77.044085">
				 <ele>4</ele>
			 </trkpt>
			 <trkpt lat="38.887211" lon="-77.042202">
				 <ele>3</ele>
			 </trkpt>
			 <trkpt lat="38.88752" lon="-77.041472">
				 <ele>4</ele>
			 </trkpt>
			 <trkpt lat="38.88798" lon="-77.040131">
				 <ele>4</ele>
			 </trkpt>
			 <trkpt lat="38.887764" lon="-77.037847">
				 <ele>4</ele>
			 </trkpt>
			 <trkpt lat="38.887706" lon="-77.037182">
				 <ele>4</ele>
			 </trkpt>
			 <trkpt lat="38.887547" lon="-77.036013">
				 <ele>4</ele>
			 </trkpt>
			 <trkpt lat="38.887539" lon="-77.035337">
				 <ele>3</ele>
			 </trkpt>
			 <trkpt lat="38.887747" lon="-77.034071">
				 <ele>3</ele>
			 </trkpt>
			 <trkpt lat="38.888017" lon="-77.033655">
				 <ele>3</ele>
			 </trkpt>
			 <trkpt lat="38.888223" lon="-77.033537">
				 <ele>2</ele>
			 </trkpt>
			 <trkpt lat="38.888665" lon="-77.033122">
				 <ele>2</ele>
			 </trkpt>
			 <trkpt lat="38.888856" lon="-77.03301">
				 <ele>2</ele>
			 </trkpt>
			 <trkpt lat="38.889414" lon="-77.032897">
				 <ele>1</ele>
			 </trkpt>
			 <trkpt lat="38.889733" lon="-77.032897">
				 <ele>2</ele>
			 </trkpt>
			 <trkpt lat="38.890145" lon="-77.033032">
				 <ele>3</ele>
			 </trkpt>
			 <trkpt lat="38.890412" lon="-77.032151">
				 <ele>5</ele>
			 </trkpt>
			 <trkpt lat="38.890444" lon="-77.031802">
				 <ele>5</ele>
			 </trkpt>
			 <trkpt lat="38.890537" lon="-77.02394">
				 <ele>6</ele>
			 </trkpt>
			 <trkpt lat="38.890573" lon="-77.021912">
				 <ele>8</ele>
			 </trkpt>
			 <trkpt lat="38.890575" lon="-77.017603">
				 <ele>8</ele>
			 </trkpt>
			 <trkpt lat="38.89065" lon="-77.015232">
				 <ele>7</ele>
			 </trkpt>
			 <trkpt lat="38.891408" lon="-77.015136">
				 <ele>6</ele>
			 </trkpt>
			 <trkpt lat="38.890827" lon="-77.012328">
				 <ele>6</ele>
			 </trkpt>
			 <trkpt lat="38.890794" lon="-77.012226">
				 <ele>7</ele>
			 </trkpt>
			 <trkpt lat="38.890622" lon="-77.012128">
				 <ele>8</ele>
			 </trkpt>
			 <trkpt lat="38.890374" lon="-77.01232">
				 <ele>8</ele>
			 </trkpt>
			 <trkpt lat="38.89009" lon="-77.012445">
				 <ele>8</ele>
			 </trkpt>
			 <trkpt lat="38.889404" lon="-77.012408">
				 <ele>7</ele>
			 </trkpt>
			 <trkpt lat="38.889248" lon="-77.012314">
				 <ele>7</ele>
			 </trkpt>
			 <trkpt lat="38.889037" lon="-77.012108">
				 <ele>7</ele>
			 </trkpt>
			 <trkpt lat="38.888955" lon="-77.012113">
				 <ele>6</ele>
			 </trkpt>
			 <trkpt lat="38.888823" lon="-77.012287">
				 <ele>5</ele>
			 </trkpt>
			 <trkpt lat="38.88888" lon="-77.012599">
				 <ele>4</ele>
			 </trkpt>
			 <trkpt lat="38.888841" lon="-77.012933">
				 <ele>3</ele>
			 </trkpt>
			 <trkpt lat="38.888194" lon="-77.01521">
				 <ele>3</ele>
			 </trkpt>
			 <trkpt lat="38.888837" lon="-77.015221">
				 <ele>2</ele>
			 </trkpt>
			 <trkpt lat="38.888756" lon="-77.020038">
				 <ele>3</ele>
			 </trkpt>
			 <trkpt lat="38.888723" lon="-77.024">
				 <ele>3</ele>
			 </trkpt>
			 <trkpt lat="38.888874" lon="-77.024761">
				 <ele>3</ele>
			 </trkpt>
			 <trkpt lat="38.889087" lon="-77.025979">
				 <ele>3</ele>
			 </trkpt>
			 <trkpt lat="38.889049" lon="-77.026392">
				 <ele>3</ele>
			 </trkpt>
			 <trkpt lat="38.888868" lon="-77.027023">
				 <ele>3</ele>
			 </trkpt>
			 <trkpt lat="38.888664" lon="-77.027881">
				 <ele>3</ele>
			 </trkpt>
			 <trkpt lat="38.888654" lon="-77.029769">
				 <ele>3</ele>
			 </trkpt>
			 <trkpt lat="38.88455" lon="-77.032042">
				 <ele>4</ele>
			 </trkpt>
			 <trkpt lat="38.883705" lon="-77.032164">
				 <ele>3</ele>
			 </trkpt>
			 <trkpt lat="38.882555" lon="-77.032837">
				 <ele>4</ele>
			 </trkpt>
			 <trkpt lat="38.880953" lon="-77.033999">
				 <ele>4</ele>
			 </trkpt>
			 <trkpt lat="38.880011" lon="-77.034805">
				 <ele>4</ele>
			 </trkpt>
			 <trkpt lat="38.879409" lon="-77.035953">
				 <ele>3</ele>
			 </trkpt>
			 <trkpt lat="38.879242" lon="-77.036651">
				 <ele>3</ele>
			 </trkpt>
			 <trkpt lat="38.879093" lon="-77.038019">
				 <ele>3</ele>
			 </trkpt>
			 <trkpt lat="38.87884" lon="-77.038692">
				 <ele>2</ele>
			 </trkpt>
			 <trkpt lat="38.874261" lon="-77.04333">
				 <ele>2</ele>
			 </trkpt>
			 <trkpt lat="38.872066" lon="-77.045354">
				 <ele>3</ele>
			 </trkpt>
			 <trkpt lat="38.870529" lon="-77.046276">
				 <ele>4</ele>
			 </trkpt>
			 <trkpt lat="38.868451" lon="-77.047465">
				 <ele>4</ele>
			 </trkpt>
			 <trkpt lat="38.867975" lon="-77.047905">
				 <ele>5</ele>
			 </trkpt>
			 <trkpt lat="38.867039" lon="-77.049122">
				 <ele>6</ele>
			 </trkpt>
			 <trkpt lat="38.866305" lon="-77.050577">
				 <ele>7</ele>
			 </trkpt>
			 <trkpt lat="38.866024" lon="-77.051502">
				 <ele>8</ele>
			 </trkpt>
			 <trkpt lat="38.865677" lon="-77.053184">
				 <ele>9</ele>
			 </trkpt>
			 <trkpt lat="38.865634" lon="-77.054062">
				 <ele>9</ele>
			 </trkpt>
			 <trkpt lat="38.864809" lon="-77.054258">
				 <ele>9</ele>
			 </trkpt>
			 <trkpt lat="38.86481" lon="-77.05426">
				 <ele>9</ele>
			 </trkpt>
			 <trkpt lat="38.8646" lon="-77.05282">
				 <ele>9</ele>
			 </trkpt>
			 <trkpt lat="38.86449" lon="-77.05247">
				 <ele>10</ele>
			 </trkpt>
			 <trkpt lat="38.86437" lon="-77.05229">
				 <ele>10</ele>
			 </trkpt>
			 <trkpt lat="38.86421" lon="-77.05211">
				 <ele>9</ele>
			 </trkpt>
			 <trkpt lat="38.86395" lon="-77.05197">
				 <ele>9</ele>
			 </trkpt>
			 <trkpt lat="38.86324" lon="-77.05195">
				 <ele>9</ele>
			 </trkpt>
			 <trkpt lat="38.86304" lon="-77.05197">
				 <ele>7</ele>
			 </trkpt>
			 <trkpt lat="38.86289" lon="-77.05198">
				 <ele>6</ele>
			 </trkpt>
			 <trkpt lat="38.86292" lon="-77.05175">
				 <ele>2</ele>
			 </trkpt>
			 <trkpt lat="38.86291" lon="-77.05149">
				 <ele>4</ele>
			 </trkpt>
			 <trkpt lat="38.86288" lon="-77.05085">
				 <ele>4</ele>
			 </trkpt>
			 <trkpt lat="38.86275" lon="-77.04997">
				 <ele>3</ele>
			 </trkpt>
			 <trkpt lat="38.86253" lon="-77.04915">
				 <ele>3</ele>
			 </trkpt>
			 <trkpt lat="38.86236" lon="-77.04875">
				 <ele>3</ele>
			 </trkpt>
			 <trkpt lat="38.86229" lon="-77.04873">
				 <ele>4</ele>
			 </trkpt>
			 <trkpt lat="38.86187" lon="-77.04891">
				 <ele>2</ele>
			 </trkpt>
			 <trkpt lat="38.86187" lon="-77.04891">
				 <ele>3</ele>
			 </trkpt>
			 <trkpt lat="38.86118" lon="-77.04929">
				 <ele>6</ele>
			 </trkpt>
			 <trkpt lat="38.86084" lon="-77.04939">
				 <ele>1</ele>
			 </trkpt>
			 <trkpt lat="38.86065" lon="-77.04941">
				 <ele>0</ele>
			 </trkpt>
			 <trkpt lat="38.86025" lon="-77.04937">
				 <ele>0</ele>
			 </trkpt>
			 <trkpt lat="38.86025" lon="-77.04937">
				 <ele>0</ele>
			 </trkpt>
			 <trkpt lat="38.86007" lon="-77.04937">
				 <ele>0</ele>
			 </trkpt>
			 <trkpt lat="38.85996" lon="-77.04928">
				 <ele>0</ele>
			 </trkpt>
			 <trkpt lat="38.85976" lon="-77.04923">
				 <ele>0</ele>
			 </trkpt>
			 <trkpt lat="38.85937" lon="-77.04914">
				 <ele>0</ele>
			 </trkpt>
			 <trkpt lat="38.85919" lon="-77.04913">
				 <ele>3</ele>
			 </trkpt>
			 <trkpt lat="38.85771" lon="-77.04924">
				 <ele>8</ele>
			 </trkpt>
			 <trkpt lat="38.85754" lon="-77.0493">
				 <ele>8</ele>
			 </trkpt>
			 <trkpt lat="38.85747" lon="-77.04926">
				 <ele>7</ele>
			 </trkpt>
			 <trkpt lat="38.85653" lon="-77.04929">
				 <ele>8</ele>
			 </trkpt>
			 <trkpt lat="38.85653" lon="-77.04929">
				 <ele>9</ele>
			 </trkpt>
			 <trkpt lat="38.8559" lon="-77.04933">
				 <ele>4</ele>
			 </trkpt>
			 <trkpt lat="38.8553" lon="-77.04937">
				 <ele>12</ele>
			 </trkpt>
			 <trkpt lat="38.85431" lon="-77.04942">
				 <ele>3</ele>
			 </trkpt>
			 <trkpt lat="38.85418" lon="-77.04934">
				 <ele>11</ele>
			 </trkpt>
			 <trkpt lat="38.85418" lon="-77.04934">
				 <ele>8</ele>
			 </trkpt>
			 <trkpt lat="38.85419" lon="-77.04879">
				 <ele>7</ele>
			 </trkpt>
			 <trkpt lat="38.85426" lon="-77.04877">
				 <ele>8</ele>
			 </trkpt>
			 <trkpt lat="38.85453" lon="-77.04875">
				 <ele>8</ele>
			 </trkpt>
			 <trkpt lat="38.8552" lon="-77.04873">
				 <ele>13</ele>
			 </trkpt>
			 <trkpt lat="38.85528" lon="-77.04883">
				 <ele>16</ele>
			 </trkpt>
			 <trkpt lat="38.8553" lon="-77.04917">
				 <ele>15</ele>
			 </trkpt>
			 <trkpt lat="38.8553" lon="-77.04917">
				 <ele>12</ele>
			 </trkpt>
			 <trkpt lat="38.8557" lon="-77.04934">
				 <ele>12</ele>
			 </trkpt>
			 <trkpt lat="38.85637" lon="-77.0493">
				 <ele>11</ele>
			 </trkpt>
			 <trkpt lat="38.85637" lon="-77.0493">
				 <ele>11</ele>
			 </trkpt>
			 <trkpt lat="38.85747" lon="-77.04926">
				 <ele>9</ele>
			 </trkpt>
			 <trkpt lat="38.85754" lon="-77.0492">
				 <ele>9</ele>
			 </trkpt>
			 <trkpt lat="38.85771" lon="-77.04924">
				 <ele>9</ele>
			 </trkpt>
			 <trkpt lat="38.85804" lon="-77.04922">
				 <ele>9</ele>
			 </trkpt>
			 <trkpt lat="38.85829" lon="-77.04919">
				 <ele>9</ele>
			 </trkpt>
			 <trkpt lat="38.85937" lon="-77.04914">
				 <ele>9</ele>
			 </trkpt>
			 <trkpt lat="38.85957" lon="-77.04917">
				 <ele>10</ele>
			 </trkpt>
			 <trkpt lat="38.85996" lon="-77.04928">
				 <ele>11</ele>
			 </trkpt>
			 <trkpt lat="38.86004" lon="-77.04926">
				 <ele>11</ele>
			 </trkpt>
			 <trkpt lat="38.86012" lon="-77.0493">
				 <ele>11</ele>
			 </trkpt>
			 <trkpt lat="38.86025" lon="-77.04937">
				 <ele>11</ele>
			 </trkpt>
			 <trkpt lat="38.86043" lon="-77.0494">
				 <ele>11</ele>
			 </trkpt>
			 <trkpt lat="38.86084" lon="-77.04939">
				 <ele>11</ele>
			 </trkpt>
			 <trkpt lat="38.861" lon="-77.04935">
				 <ele>11</ele>
			 </trkpt>
			 <trkpt lat="38.86162" lon="-77.04905">
				 <ele>10</ele>
			 </trkpt>
			 <trkpt lat="38.86187" lon="-77.04891">
				 <ele>11</ele>
			 </trkpt>
			 <trkpt lat="38.86218" lon="-77.04875">
				 <ele>11</ele>
			 </trkpt>
			 <trkpt lat="38.86234" lon="-77.04873">
				 <ele>11</ele>
			 </trkpt>
			 <trkpt lat="38.8624" lon="-77.04878">
				 <ele>11</ele>
			 </trkpt>
			 <trkpt lat="38.86279" lon="-77.05013">
				 <ele>11</ele>
			 </trkpt>
			 <trkpt lat="38.86285" lon="-77.05045">
				 <ele>11</ele>
			 </trkpt>
			 <trkpt lat="38.86291" lon="-77.05121">
				 <ele>11</ele>
			 </trkpt>
			 <trkpt lat="38.86312" lon="-77.05121">
				 <ele>11</ele>
			 </trkpt>
			 <trkpt lat="38.86312" lon="-77.05121">
				 <ele>11</ele>
			 </trkpt>
			 <trkpt lat="38.86387" lon="-77.05106">
				 <ele>11</ele>
			 </trkpt>
			 <trkpt lat="38.86409" lon="-77.05098">
				 <ele>11</ele>
			 </trkpt>
			 <trkpt lat="38.86426" lon="-77.05078">
				 <ele>9</ele>
			 </trkpt>
			 <trkpt lat="38.86422" lon="-77.05064">
				 <ele>8</ele>
			 </trkpt>
			 <trkpt lat="38.86388" lon="-77.05013">
				 <ele>9</ele>
			 </trkpt>
			 <trkpt lat="38.86446" lon="-77.04885">
				 <ele>9</ele>
			 </trkpt>
			 <trkpt lat="38.86446" lon="-77.04884">
				 <ele>9</ele>
			 </trkpt>
			 <trkpt lat="38.86507" lon="-77.04893">
				 <ele>8</ele>
			 </trkpt>
			 <trkpt lat="38.86544" lon="-77.04948">
				 <ele>6</ele>
			 </trkpt>
			 <trkpt lat="38.86565" lon="-77.04979">
				 <ele>5</ele>
			 </trkpt>
			 <trkpt lat="38.86614" lon="-77.04899">
				 <ele>5</ele>
			 </trkpt>
			 <trkpt lat="38.8667" lon="-77.04806">
				 <ele>5</ele>
			 </trkpt>
			 <trkpt lat="38.86679" lon="-77.04791">
				 <ele>5</ele>
			 </trkpt>
			 <trkpt lat="38.86745" lon="-77.04676">
				 <ele>4</ele>
			 </trkpt>
			 <trkpt lat="38.86812" lon="-77.04568">
				 <ele>2</ele>
			 </trkpt>
			 <trkpt lat="38.86838" lon="-77.04541">
				 <ele>3</ele>
			 </trkpt>
			 <trkpt lat="38.86855" lon="-77.0453">
				 <ele>3</ele>
			 </trkpt>
			 <trkpt lat="38.86883" lon="-77.04514">
				 <ele>4</ele>
			 </trkpt>
			 <trkpt lat="38.86908" lon="-77.04507">
				 <ele>6</ele>
			 </trkpt>
			 <trkpt lat="38.86937" lon="-77.04511">
				 <ele>6</ele>
			 </trkpt>
			 <trkpt lat="38.86946" lon="-77.04514">
				 <ele>5</ele>
			 </trkpt>
			 <trkpt lat="38.86952" lon="-77.04517">
				 <ele>4</ele>
			 </trkpt>
			 <trkpt lat="38.86976" lon="-77.04509">
				 <ele>4</ele>
			 </trkpt>
			 <trkpt lat="38.8698" lon="-77.04508">
				 <ele>5</ele>
			 </trkpt>
			 <trkpt lat="38.86987" lon="-77.04543">
				 <ele>6</ele>
			 </trkpt>
			 <trkpt lat="38.870566" lon="-77.049">
				 <ele>5</ele>
			 </trkpt>
			 <trkpt lat="38.870867" lon="-77.049751">
				 <ele>4</ele>
			 </trkpt>
			 <trkpt lat="38.8721" lon="-77.05102">
				 <ele>5</ele>
			 </trkpt>
			 <trkpt lat="38.87366" lon="-77.05199">
				 <ele>5</ele>
			 </trkpt>
			 <trkpt lat="38.87415" lon="-77.05219">
				 <ele>5</ele>
			 </trkpt>
			 <trkpt lat="38.87439" lon="-77.05221">
				 <ele>5</ele>
			 </trkpt>
			 <trkpt lat="38.87473" lon="-77.05217">
				 <ele>5</ele>
			 </trkpt>
			 <trkpt lat="38.87557" lon="-77.05195">
				 <ele>5</ele>
			 </trkpt>
			 <trkpt lat="38.87578" lon="-77.05194">
				 <ele>5</ele>
			 </trkpt>
			 <trkpt lat="38.8762" lon="-77.05199">
				 <ele>5</ele>
			 </trkpt>
			 <trkpt lat="38.87641" lon="-77.05209">
				 <ele>5</ele>
			 </trkpt>
			 <trkpt lat="38.87686" lon="-77.05233">
				 <ele>5</ele>
			 </trkpt>
			 <trkpt lat="38.87721" lon="-77.05258">
				 <ele>4</ele>
			 </trkpt>
			 <trkpt lat="38.87752" lon="-77.05285">
				 <ele>4</ele>
			 </trkpt>
			 <trkpt lat="38.87809" lon="-77.0534">
				 <ele>3</ele>
			 </trkpt>
			 <trkpt lat="38.87817" lon="-77.05352">
				 <ele>4</ele>
			 </trkpt>
			 <trkpt lat="38.8783" lon="-77.05395">
				 <ele>6</ele>
			 </trkpt>
			 <trkpt lat="38.8783" lon="-77.05415">
				 <ele>7</ele>
			 </trkpt>
			 <trkpt lat="38.87828" lon="-77.05438">
				 <ele>9</ele>
			 </trkpt>
			 <trkpt lat="38.87814" lon="-77.05484">
				 <ele>10</ele>
			 </trkpt>
			 <trkpt lat="38.8781" lon="-77.05492">
				 <ele>11</ele>
			 </trkpt>
			 <trkpt lat="38.87744" lon="-77.056174">
				 <ele>11</ele>
			 </trkpt>
			 <trkpt lat="38.877156" lon="-77.056732">
				 <ele>11</ele>
			 </trkpt>
			 <trkpt lat="38.877506" lon="-77.057355">
				 <ele>9</ele>
			 </trkpt>
			 <trkpt lat="38.880497" lon="-77.06076">
				 <ele>8</ele>
			 </trkpt>
			 <trkpt lat="38.88233" lon="-77.062305">
				 <ele>6</ele>
			 </trkpt>
			 <trkpt lat="38.883483" lon="-77.063232">
				 <ele>5</ele>
			 </trkpt>
			 <trkpt lat="38.884307" lon="-77.063793">
				 <ele>6</ele>
			 </trkpt>
			 <trkpt lat="38.888111" lon="-77.066214">
				 <ele>7</ele>
			 </trkpt>
			 <trkpt lat="38.887973" lon="-77.067545">
				 <ele>8</ele>
			 </trkpt>
			 <trkpt lat="38.88798" lon="-77.06755">
				 <ele>9</ele>
			 </trkpt>
			 <trkpt lat="38.88796" lon="-77.06771">
				 <ele>10</ele>
			 </trkpt>
			 <trkpt lat="38.88814" lon="-77.06772">
				 <ele>11</ele>
			 </trkpt>
			 <trkpt lat="38.88872" lon="-77.06779">
				 <ele>17</ele>
			 </trkpt>
			 <trkpt lat="38.88906" lon="-77.06793">
				 <ele>20</ele>
			 </trkpt>
			 <trkpt lat="38.8891" lon="-77.06795">
				 <ele>23</ele>
			 </trkpt>
		 </trkseg>
	 </trk>
</gpx>