<?xml version="1.0" encoding="UTF-8"?>
 <gpx creator="Garmin Connect" version="1.1"
	 xsi:schemaLocation="http://www.topografix.com/GPX/1/1 http://www.topografix.com/GPX/11.xsd"
	 xmlns:ns3="http://www.garmin.com/xmlschemas/TrackPointExtension/v1"
	 xmlns="http://www.topografix.com/GPX/1/1"
	 xmlns:xsi="http://www.w3.org/2001/XMLSchema-instance" xmlns:ns2="http://www.garmin.com/xmlschemas/GpxExtensions/v3">
	 <metadata>
		<name>International Marathon of Marrakech 2025 - 42.195 km</name>
		 <link href="https://www.goandrace.com">
		 <text>Garmin Connect</text>
		 </link>
	 <time>2026-08-09T21:29:51</time>
	 </metadata>
	 <trk>
		 <name>International Marathon of Marrakech 2025 - 42.195 km</name>
		 <trkseg>
			 <trkpt lat="31.62094" lon="-8.000798">
				 <ele>461.7</ele>
			 </trkpt>
			 <trkpt lat="31.62093" lon="-8.00079">
				 <ele>461.9</ele>
			 </trkpt>
			 <trkpt lat="31.62056" lon="-8.00168">
				 <ele>462</ele>
			 </trkpt>
			 <trkpt lat="31.62056" lon="-8.00168">
				 <ele>462.1</ele>
			 </trkpt>
			 <trkpt lat="31.61939" lon="-8.00455">
				 <ele>462.2</ele>
			 </trkpt>
			 <trkpt lat="31.61861" lon="-8.00632">
				 <ele>462.3</ele>
			 </trkpt>
			 <trkpt lat="31.61809" lon="-8.00757">
				 <ele>462.5</ele>
			 </trkpt>
			 <trkpt lat="31.61808" lon="-8.0077">
				 <ele>462.6</ele>
			 </trkpt>
			 <trkpt lat="31.61797" lon="-8.00801">
				 <ele>462.6</ele>
			 </trkpt>
			 <trkpt lat="31.61799" lon="-8.00805">
				 <ele>462.5</ele>
			 </trkpt>
			 <trkpt lat="31.618" lon="-8.00806">
				 <ele>462.4</ele>
			 </trkpt>
			 <trkpt lat="31.61812" lon="-8.00804">
				 <ele>462.2</ele>
			 </trkpt>
			 <trkpt lat="31.61817" lon="-8.00806">
				 <ele>461.7</ele>
			 </trkpt>
			 <trkpt lat="31.61866" lon="-8.0084">
				 <ele>461.3</ele>
			 </trkpt>
			 <trkpt lat="31.62012" lon="-8.00935">
				 <ele>460.8</ele>
			 </trkpt>
			 <trkpt lat="31.62081" lon="-8.00981">
				 <ele>460.3</ele>
			 </trkpt>
			 <trkpt lat="31.62142" lon="-8.01019">
				 <ele>459.7</ele>
			 </trkpt>
			 <trkpt lat="31.62268" lon="-8.01102">
				 <ele>459.1</ele>
			 </trkpt>
			 <trkpt lat="31.62281" lon="-8.01111">
				 <ele>458.4</ele>
			 </trkpt>
			 <trkpt lat="31.62281" lon="-8.01111">
				 <ele>457.7</ele>
			 </trkpt>
			 <trkpt lat="31.624" lon="-8.01189">
				 <ele>457.1</ele>
			 </trkpt>
			 <trkpt lat="31.62459" lon="-8.01227">
				 <ele>456.5</ele>
			 </trkpt>
			 <trkpt lat="31.62498" lon="-8.01253">
				 <ele>456</ele>
			 </trkpt>
			 <trkpt lat="31.62618" lon="-8.0133">
				 <ele>455.6</ele>
			 </trkpt>
			 <trkpt lat="31.62696" lon="-8.01382">
				 <ele>455.3</ele>
			 </trkpt>
			 <trkpt lat="31.6271" lon="-8.01389">
				 <ele>454.8</ele>
			 </trkpt>
			 <trkpt lat="31.62724" lon="-8.01405">
				 <ele>454.5</ele>
			 </trkpt>
			 <trkpt lat="31.62726" lon="-8.01406">
				 <ele>454.1</ele>
			 </trkpt>
			 <trkpt lat="31.62736" lon="-8.0141">
				 <ele>453.8</ele>
			 </trkpt>
			 <trkpt lat="31.62759" lon="-8.01425">
				 <ele>453.5</ele>
			 </trkpt>
			 <trkpt lat="31.62846" lon="-8.01481">
				 <ele>453.3</ele>
			 </trkpt>
			 <trkpt lat="31.62873" lon="-8.01501">
				 <ele>453.1</ele>
			 </trkpt>
			 <trkpt lat="31.62891" lon="-8.01519">
				 <ele>452.9</ele>
			 </trkpt>
			 <trkpt lat="31.62903" lon="-8.01531">
				 <ele>452.7</ele>
			 </trkpt>
			 <trkpt lat="31.62951" lon="-8.01565">
				 <ele>452.5</ele>
			 </trkpt>
			 <trkpt lat="31.62986" lon="-8.01585">
				 <ele>452.4</ele>
			 </trkpt>
			 <trkpt lat="31.62997" lon="-8.01589">
				 <ele>452.3</ele>
			 </trkpt>
			 <trkpt lat="31.63" lon="-8.01586">
				 <ele>452.2</ele>
			 </trkpt>
			 <trkpt lat="31.63003" lon="-8.01585">
				 <ele>452.1</ele>
			 </trkpt>
			 <trkpt lat="31.63009" lon="-8.01585">
				 <ele>452</ele>
			 </trkpt>
			 <trkpt lat="31.63017" lon="-8.01587">
				 <ele>451.9</ele>
			 </trkpt>
			 <trkpt lat="31.63025" lon="-8.01597">
				 <ele>451.8</ele>
			 </trkpt>
			 <trkpt lat="31.63025" lon="-8.016">
				 <ele>451.5</ele>
			 </trkpt>
			 <trkpt lat="31.63026" lon="-8.01602">
				 <ele>451.1</ele>
			 </trkpt>
			 <trkpt lat="31.63067" lon="-8.01611">
				 <ele>450.5</ele>
			 </trkpt>
			 <trkpt lat="31.63096" lon="-8.01615">
				 <ele>450</ele>
			 </trkpt>
			 <trkpt lat="31.63173" lon="-8.01632">
				 <ele>449.3</ele>
			 </trkpt>
			 <trkpt lat="31.63379" lon="-8.01682">
				 <ele>448.5</ele>
			 </trkpt>
			 <trkpt lat="31.63588" lon="-8.01734">
				 <ele>447.5</ele>
			 </trkpt>
			 <trkpt lat="31.6368" lon="-8.01757">
				 <ele>446.3</ele>
			 </trkpt>
			 <trkpt lat="31.63765" lon="-8.01778">
				 <ele>444.7</ele>
			 </trkpt>
			 <trkpt lat="31.6394" lon="-8.01822">
				 <ele>443.2</ele>
			 </trkpt>
			 <trkpt lat="31.6394" lon="-8.01822">
				 <ele>441.6</ele>
			 </trkpt>
			 <trkpt lat="31.64479" lon="-8.0195">
				 <ele>440.3</ele>
			 </trkpt>
			 <trkpt lat="31.64809" lon="-8.02011">
				 <ele>439.1</ele>
			 </trkpt>
			 <trkpt lat="31.64976" lon="-8.02046">
				 <ele>438</ele>
			 </trkpt>
			 <trkpt lat="31.65001" lon="-8.02051">
				 <ele>436.9</ele>
			 </trkpt>
			 <trkpt lat="31.65002" lon="-8.02049">
				 <ele>436</ele>
			 </trkpt>
			 <trkpt lat="31.65004" lon="-8.02047">
				 <ele>435</ele>
			 </trkpt>
			 <trkpt lat="31.65007" lon="-8.02045">
				 <ele>434.3</ele>
			 </trkpt>
			 <trkpt lat="31.65012" lon="-8.02042">
				 <ele>433.7</ele>
			 </trkpt>
			 <trkpt lat="31.65023" lon="-8.02044">
				 <ele>433.5</ele>
			 </trkpt>
			 <trkpt lat="31.65041" lon="-8.02045">
				 <ele>433.3</ele>
			 </trkpt>
			 <trkpt lat="31.65057" lon="-8.02042">
				 <ele>433.2</ele>
			 </trkpt>
			 <trkpt lat="31.65081" lon="-8.02034">
				 <ele>433.1</ele>
			 </trkpt>
			 <trkpt lat="31.65253" lon="-8.01965">
				 <ele>433</ele>
			 </trkpt>
			 <trkpt lat="31.65288" lon="-8.0195">
				 <ele>432.9</ele>
			 </trkpt>
			 <trkpt lat="31.65288" lon="-8.0195">
				 <ele>432.8</ele>
			 </trkpt>
			 <trkpt lat="31.65373" lon="-8.01916">
				 <ele>432.7</ele>
			 </trkpt>
			 <trkpt lat="31.65402" lon="-8.019">
				 <ele>432.7</ele>
			 </trkpt>
			 <trkpt lat="31.65403" lon="-8.01894">
				 <ele>432.7</ele>
			 </trkpt>
			 <trkpt lat="31.6541" lon="-8.01885">
				 <ele>432.8</ele>
			 </trkpt>
			 <trkpt lat="31.6542" lon="-8.01881">
				 <ele>432.7</ele>
			 </trkpt>
			 <trkpt lat="31.65429" lon="-8.01883">
				 <ele>432.6</ele>
			 </trkpt>
			 <trkpt lat="31.65431" lon="-8.01884">
				 <ele>432.4</ele>
			 </trkpt>
			 <trkpt lat="31.65452" lon="-8.01883">
				 <ele>432.1</ele>
			 </trkpt>
			 <trkpt lat="31.65476" lon="-8.01877">
				 <ele>431.7</ele>
			 </trkpt>
			 <trkpt lat="31.65667" lon="-8.01803">
				 <ele>431.3</ele>
			 </trkpt>
			 <trkpt lat="31.65706" lon="-8.01784">
				 <ele>430.8</ele>
			 </trkpt>
			 <trkpt lat="31.65792" lon="-8.01734">
				 <ele>430.3</ele>
			 </trkpt>
			 <trkpt lat="31.65825" lon="-8.01712">
				 <ele>429.4</ele>
			 </trkpt>
			 <trkpt lat="31.65888" lon="-8.01672">
				 <ele>428.3</ele>
			 </trkpt>
			 <trkpt lat="31.66059" lon="-8.01556">
				 <ele>427.2</ele>
			 </trkpt>
			 <trkpt lat="31.66227" lon="-8.01441">
				 <ele>426.3</ele>
			 </trkpt>
			 <trkpt lat="31.66372" lon="-8.01346">
				 <ele>425.4</ele>
			 </trkpt>
			 <trkpt lat="31.66563" lon="-8.01218">
				 <ele>424.5</ele>
			 </trkpt>
			 <trkpt lat="31.66704" lon="-8.01121">
				 <ele>423.6</ele>
			 </trkpt>
			 <trkpt lat="31.66706" lon="-8.01111">
				 <ele>422.8</ele>
			 </trkpt>
			 <trkpt lat="31.66714" lon="-8.01102">
				 <ele>422</ele>
			 </trkpt>
			 <trkpt lat="31.66721" lon="-8.01101">
				 <ele>421</ele>
			 </trkpt>
			 <trkpt lat="31.66725" lon="-8.01102">
				 <ele>420</ele>
			 </trkpt>
			 <trkpt lat="31.66759" lon="-8.01086">
				 <ele>419.1</ele>
			 </trkpt>
			 <trkpt lat="31.66836" lon="-8.01031">
				 <ele>418.2</ele>
			 </trkpt>
			 <trkpt lat="31.66861" lon="-8.01009">
				 <ele>417.2</ele>
			 </trkpt>
			 <trkpt lat="31.67228" lon="-8.00615">
				 <ele>416.2</ele>
			 </trkpt>
			 <trkpt lat="31.67361" lon="-8.00472">
				 <ele>415.2</ele>
			 </trkpt>
			 <trkpt lat="31.67481" lon="-8.00342">
				 <ele>414.2</ele>
			 </trkpt>
			 <trkpt lat="31.67588" lon="-8.00231">
				 <ele>413.3</ele>
			 </trkpt>
			 <trkpt lat="31.67681" lon="-8.00133">
				 <ele>412.3</ele>
			 </trkpt>
			 <trkpt lat="31.67681" lon="-8.00132">
				 <ele>411.3</ele>
			 </trkpt>
			 <trkpt lat="31.67682" lon="-8.00129">
				 <ele>410.5</ele>
			 </trkpt>
			 <trkpt lat="31.67683" lon="-8.00127">
				 <ele>409.7</ele>
			 </trkpt>
			 <trkpt lat="31.67688" lon="-8.00125">
				 <ele>409.3</ele>
			 </trkpt>
			 <trkpt lat="31.678" lon="-8.00004">
				 <ele>409</ele>
			 </trkpt>
			 <trkpt lat="31.67989" lon="-7.99802">
				 <ele>408.8</ele>
			 </trkpt>
			 <trkpt lat="31.68008" lon="-7.99779">
				 <ele>408.6</ele>
			 </trkpt>
			 <trkpt lat="31.68019" lon="-7.99764">
				 <ele>408.5</ele>
			 </trkpt>
			 <trkpt lat="31.68017" lon="-7.99753">
				 <ele>408.3</ele>
			 </trkpt>
			 <trkpt lat="31.68018" lon="-7.99747">
				 <ele>408</ele>
			 </trkpt>
			 <trkpt lat="31.68022" lon="-7.99737">
				 <ele>407.7</ele>
			 </trkpt>
			 <trkpt lat="31.6803" lon="-7.99729">
				 <ele>407.5</ele>
			 </trkpt>
			 <trkpt lat="31.68039" lon="-7.99726">
				 <ele>407.4</ele>
			 </trkpt>
			 <trkpt lat="31.68052" lon="-7.99729">
				 <ele>407.1</ele>
			 </trkpt>
			 <trkpt lat="31.68138" lon="-7.99639">
				 <ele>406.8</ele>
			 </trkpt>
			 <trkpt lat="31.68228" lon="-7.99543">
				 <ele>406.5</ele>
			 </trkpt>
			 <trkpt lat="31.68297" lon="-7.99475">
				 <ele>406.2</ele>
			 </trkpt>
			 <trkpt lat="31.68357" lon="-7.99427">
				 <ele>405.8</ele>
			 </trkpt>
			 <trkpt lat="31.68434" lon="-7.99373">
				 <ele>405.5</ele>
			 </trkpt>
			 <trkpt lat="31.68475" lon="-7.99343">
				 <ele>405.1</ele>
			 </trkpt>
			 <trkpt lat="31.68475" lon="-7.99343">
				 <ele>404.8</ele>
			 </trkpt>
			 <trkpt lat="31.68583" lon="-7.99266">
				 <ele>404.7</ele>
			 </trkpt>
			 <trkpt lat="31.68607" lon="-7.99247">
				 <ele>404.6</ele>
			 </trkpt>
			 <trkpt lat="31.68606" lon="-7.99242">
				 <ele>404.5</ele>
			 </trkpt>
			 <trkpt lat="31.68606" lon="-7.99233">
				 <ele>404.5</ele>
			 </trkpt>
			 <trkpt lat="31.68579" lon="-7.99207">
				 <ele>404.5</ele>
			 </trkpt>
			 <trkpt lat="31.68551" lon="-7.99182">
				 <ele>404.5</ele>
			 </trkpt>
			 <trkpt lat="31.68538" lon="-7.99168">
				 <ele>404.6</ele>
			 </trkpt>
			 <trkpt lat="31.68517" lon="-7.99153">
				 <ele>404.7</ele>
			 </trkpt>
			 <trkpt lat="31.68511" lon="-7.9915">
				 <ele>404.8</ele>
			 </trkpt>
			 <trkpt lat="31.68511" lon="-7.9915">
				 <ele>405</ele>
			 </trkpt>
			 <trkpt lat="31.68487" lon="-7.99139">
				 <ele>405.2</ele>
			 </trkpt>
			 <trkpt lat="31.68471" lon="-7.99135">
				 <ele>405.3</ele>
			 </trkpt>
			 <trkpt lat="31.68458" lon="-7.99135">
				 <ele>405.4</ele>
			 </trkpt>
			 <trkpt lat="31.68444" lon="-7.99137">
				 <ele>405.5</ele>
			 </trkpt>
			 <trkpt lat="31.68405" lon="-7.99149">
				 <ele>405.6</ele>
			 </trkpt>
			 <trkpt lat="31.68382" lon="-7.99157">
				 <ele>405.8</ele>
			 </trkpt>
			 <trkpt lat="31.68354" lon="-7.99163">
				 <ele>406</ele>
			 </trkpt>
			 <trkpt lat="31.68322" lon="-7.99164">
				 <ele>406.3</ele>
			 </trkpt>
			 <trkpt lat="31.68306" lon="-7.99163">
				 <ele>406.5</ele>
			 </trkpt>
			 <trkpt lat="31.68186" lon="-7.99141">
				 <ele>406.9</ele>
			 </trkpt>
			 <trkpt lat="31.6813" lon="-7.99131">
				 <ele>407.4</ele>
			 </trkpt>
			 <trkpt lat="31.68102" lon="-7.99128">
				 <ele>407.9</ele>
			 </trkpt>
			 <trkpt lat="31.68076" lon="-7.99128">
				 <ele>408.5</ele>
			 </trkpt>
			 <trkpt lat="31.67989" lon="-7.99131">
				 <ele>409</ele>
			 </trkpt>
			 <trkpt lat="31.67827" lon="-7.99134">
				 <ele>409.6</ele>
			 </trkpt>
			 <trkpt lat="31.67674" lon="-7.99136">
				 <ele>410.3</ele>
			 </trkpt>
			 <trkpt lat="31.67647" lon="-7.99133">
				 <ele>411</ele>
			 </trkpt>
			 <trkpt lat="31.67618" lon="-7.99127">
				 <ele>411.7</ele>
			 </trkpt>
			 <trkpt lat="31.67588" lon="-7.99115">
				 <ele>412.5</ele>
			 </trkpt>
			 <trkpt lat="31.67515" lon="-7.99073">
				 <ele>413.3</ele>
			 </trkpt>
			 <trkpt lat="31.67464" lon="-7.99044">
				 <ele>414.1</ele>
			 </trkpt>
			 <trkpt lat="31.67438" lon="-7.99037">
				 <ele>414.8</ele>
			 </trkpt>
			 <trkpt lat="31.67413" lon="-7.99034">
				 <ele>415.7</ele>
			 </trkpt>
			 <trkpt lat="31.67324" lon="-7.99045">
				 <ele>416.7</ele>
			 </trkpt>
			 <trkpt lat="31.67263" lon="-7.99049">
				 <ele>417.7</ele>
			 </trkpt>
			 <trkpt lat="31.67227" lon="-7.99049">
				 <ele>418.6</ele>
			 </trkpt>
			 <trkpt lat="31.67119" lon="-7.99049">
				 <ele>420.1</ele>
			 </trkpt>
			 <trkpt lat="31.66867" lon="-7.99047">
				 <ele>421.5</ele>
			 </trkpt>
			 <trkpt lat="31.66797" lon="-7.99037">
				 <ele>423</ele>
			 </trkpt>
			 <trkpt lat="31.66754" lon="-7.9903">
				 <ele>424.4</ele>
			 </trkpt>
			 <trkpt lat="31.66754" lon="-7.99029">
				 <ele>425.6</ele>
			 </trkpt>
			 <trkpt lat="31.66509" lon="-7.98982">
				 <ele>426.7</ele>
			 </trkpt>
			 <trkpt lat="31.66428" lon="-7.98963">
				 <ele>427.7</ele>
			 </trkpt>
			 <trkpt lat="31.66404" lon="-7.98952">
				 <ele>428.5</ele>
			 </trkpt>
			 <trkpt lat="31.66374" lon="-7.98929">
				 <ele>429.1</ele>
			 </trkpt>
			 <trkpt lat="31.66352" lon="-7.98904">
				 <ele>429.7</ele>
			 </trkpt>
			 <trkpt lat="31.66309" lon="-7.98835">
				 <ele>430.5</ele>
			 </trkpt>
			 <trkpt lat="31.66292" lon="-7.98804">
				 <ele>430.7</ele>
			 </trkpt>
			 <trkpt lat="31.6625" lon="-7.98728">
				 <ele>430.8</ele>
			 </trkpt>
			 <trkpt lat="31.66246" lon="-7.98724">
				 <ele>430.9</ele>
			 </trkpt>
			 <trkpt lat="31.66233" lon="-7.98704">
				 <ele>431</ele>
			 </trkpt>
			 <trkpt lat="31.66154" lon="-7.98592">
				 <ele>431.1</ele>
			 </trkpt>
			 <trkpt lat="31.66122" lon="-7.98548">
				 <ele>431.3</ele>
			 </trkpt>
			 <trkpt lat="31.66105" lon="-7.9853">
				 <ele>431.5</ele>
			 </trkpt>
			 <trkpt lat="31.66056" lon="-7.98491">
				 <ele>431.7</ele>
			 </trkpt>
			 <trkpt lat="31.66021" lon="-7.98472">
				 <ele>432</ele>
			 </trkpt>
			 <trkpt lat="31.65989" lon="-7.98459">
				 <ele>432.5</ele>
			 </trkpt>
			 <trkpt lat="31.65965" lon="-7.98453">
				 <ele>433</ele>
			 </trkpt>
			 <trkpt lat="31.65933" lon="-7.9845">
				 <ele>433.7</ele>
			 </trkpt>
			 <trkpt lat="31.65884" lon="-7.98448">
				 <ele>434.5</ele>
			 </trkpt>
			 <trkpt lat="31.65849" lon="-7.98452">
				 <ele>435.4</ele>
			 </trkpt>
			 <trkpt lat="31.65743" lon="-7.98473">
				 <ele>436.5</ele>
			 </trkpt>
			 <trkpt lat="31.65546" lon="-7.98512">
				 <ele>437.8</ele>
			 </trkpt>
			 <trkpt lat="31.6547" lon="-7.98527">
				 <ele>439.2</ele>
			 </trkpt>
			 <trkpt lat="31.65246" lon="-7.98577">
				 <ele>440.5</ele>
			 </trkpt>
			 <trkpt lat="31.65175" lon="-7.98591">
				 <ele>441.6</ele>
			 </trkpt>
			 <trkpt lat="31.65009" lon="-7.98628">
				 <ele>442.9</ele>
			 </trkpt>
			 <trkpt lat="31.64711" lon="-7.98697">
				 <ele>443.9</ele>
			 </trkpt>
			 <trkpt lat="31.64652" lon="-7.98705">
				 <ele>444.7</ele>
			 </trkpt>
			 <trkpt lat="31.64624" lon="-7.98711">
				 <ele>445.5</ele>
			 </trkpt>
			 <trkpt lat="31.64555" lon="-7.98733">
				 <ele>445.9</ele>
			 </trkpt>
			 <trkpt lat="31.645" lon="-7.98751">
				 <ele>446.6</ele>
			 </trkpt>
			 <trkpt lat="31.64472" lon="-7.98755">
				 <ele>447.1</ele>
			 </trkpt>
			 <trkpt lat="31.64457" lon="-7.98754">
				 <ele>447.3</ele>
			 </trkpt>
			 <trkpt lat="31.64434" lon="-7.98749">
				 <ele>447.5</ele>
			 </trkpt>
			 <trkpt lat="31.64411" lon="-7.98739">
				 <ele>447.8</ele>
			 </trkpt>
			 <trkpt lat="31.64315" lon="-7.98682">
				 <ele>448.3</ele>
			 </trkpt>
			 <trkpt lat="31.64299" lon="-7.98665">
				 <ele>448.6</ele>
			 </trkpt>
			 <trkpt lat="31.64283" lon="-7.98641">
				 <ele>449.1</ele>
			 </trkpt>
			 <trkpt lat="31.64251" lon="-7.98582">
				 <ele>449.5</ele>
			 </trkpt>
			 <trkpt lat="31.64229" lon="-7.98536">
				 <ele>449.8</ele>
			 </trkpt>
			 <trkpt lat="31.64212" lon="-7.98507">
				 <ele>450.3</ele>
			 </trkpt>
			 <trkpt lat="31.64198" lon="-7.98491">
				 <ele>450.5</ele>
			 </trkpt>
			 <trkpt lat="31.64175" lon="-7.98472">
				 <ele>450.8</ele>
			 </trkpt>
			 <trkpt lat="31.64166" lon="-7.98458">
				 <ele>451.1</ele>
			 </trkpt>
			 <trkpt lat="31.64093" lon="-7.98398">
				 <ele>451.3</ele>
			 </trkpt>
			 <trkpt lat="31.64034" lon="-7.9834">
				 <ele>451.5</ele>
			 </trkpt>
			 <trkpt lat="31.64017" lon="-7.98315">
				 <ele>451.8</ele>
			 </trkpt>
			 <trkpt lat="31.64017" lon="-7.98315">
				 <ele>452</ele>
			 </trkpt>
			 <trkpt lat="31.64002" lon="-7.98294">
				 <ele>452.2</ele>
			 </trkpt>
			 <trkpt lat="31.63987" lon="-7.98278">
				 <ele>452.4</ele>
			 </trkpt>
			 <trkpt lat="31.63967" lon="-7.98259">
				 <ele>452.5</ele>
			 </trkpt>
			 <trkpt lat="31.63953" lon="-7.98242">
				 <ele>452.8</ele>
			 </trkpt>
			 <trkpt lat="31.63889" lon="-7.98134">
				 <ele>453.1</ele>
			 </trkpt>
			 <trkpt lat="31.63869" lon="-7.98104">
				 <ele>453.4</ele>
			 </trkpt>
			 <trkpt lat="31.63849" lon="-7.9808">
				 <ele>453.6</ele>
			 </trkpt>
			 <trkpt lat="31.63834" lon="-7.98067">
				 <ele>453.9</ele>
			 </trkpt>
			 <trkpt lat="31.63808" lon="-7.9805">
				 <ele>454.2</ele>
			 </trkpt>
			 <trkpt lat="31.63755" lon="-7.98029">
				 <ele>454.5</ele>
			 </trkpt>
			 <trkpt lat="31.63728" lon="-7.98014">
				 <ele>454.7</ele>
			 </trkpt>
			 <trkpt lat="31.63713" lon="-7.98002">
				 <ele>455.1</ele>
			 </trkpt>
			 <trkpt lat="31.63686" lon="-7.97975">
				 <ele>455.5</ele>
			 </trkpt>
			 <trkpt lat="31.63617" lon="-7.97905">
				 <ele>455.8</ele>
			 </trkpt>
			 <trkpt lat="31.63602" lon="-7.97893">
				 <ele>456.2</ele>
			 </trkpt>
			 <trkpt lat="31.63586" lon="-7.97885">
				 <ele>456.5</ele>
			 </trkpt>
			 <trkpt lat="31.63568" lon="-7.97882">
				 <ele>456.9</ele>
			 </trkpt>
			 <trkpt lat="31.63514" lon="-7.97884">
				 <ele>457.3</ele>
			 </trkpt>
			 <trkpt lat="31.63498" lon="-7.97884">
				 <ele>457.6</ele>
			 </trkpt>
			 <trkpt lat="31.63477" lon="-7.97879">
				 <ele>457.9</ele>
			 </trkpt>
			 <trkpt lat="31.63444" lon="-7.97866">
				 <ele>458.2</ele>
			 </trkpt>
			 <trkpt lat="31.63423" lon="-7.97853">
				 <ele>458.5</ele>
			 </trkpt>
			 <trkpt lat="31.63419" lon="-7.97841">
				 <ele>458.6</ele>
			 </trkpt>
			 <trkpt lat="31.63418" lon="-7.97839">
				 <ele>458.8</ele>
			 </trkpt>
			 <trkpt lat="31.63392" lon="-7.97815">
				 <ele>458.9</ele>
			 </trkpt>
			 <trkpt lat="31.63384" lon="-7.97812">
				 <ele>459</ele>
			 </trkpt>
			 <trkpt lat="31.63374" lon="-7.978">
				 <ele>459</ele>
			 </trkpt>
			 <trkpt lat="31.63358" lon="-7.97781">
				 <ele>459</ele>
			 </trkpt>
			 <trkpt lat="31.63318" lon="-7.97718">
				 <ele>459</ele>
			 </trkpt>
			 <trkpt lat="31.6327" lon="-7.97637">
				 <ele>459</ele>
			 </trkpt>
			 <trkpt lat="31.63255" lon="-7.97608">
				 <ele>459</ele>
			 </trkpt>
			 <trkpt lat="31.63244" lon="-7.97581">
				 <ele>459</ele>
			 </trkpt>
			 <trkpt lat="31.6323" lon="-7.97545">
				 <ele>459</ele>
			 </trkpt>
			 <trkpt lat="31.63211" lon="-7.97486">
				 <ele>459.1</ele>
			 </trkpt>
			 <trkpt lat="31.63193" lon="-7.97437">
				 <ele>459.2</ele>
			 </trkpt>
			 <trkpt lat="31.63173" lon="-7.97406">
				 <ele>459.3</ele>
			 </trkpt>
			 <trkpt lat="31.63152" lon="-7.97385">
				 <ele>459.4</ele>
			 </trkpt>
			 <trkpt lat="31.6313" lon="-7.97368">
				 <ele>459.5</ele>
			 </trkpt>
			 <trkpt lat="31.63088" lon="-7.97341">
				 <ele>459.7</ele>
			 </trkpt>
			 <trkpt lat="31.63063" lon="-7.97323">
				 <ele>460</ele>
			 </trkpt>
			 <trkpt lat="31.63029" lon="-7.97303">
				 <ele>460.3</ele>
			 </trkpt>
			 <trkpt lat="31.62957" lon="-7.97272">
				 <ele>460.5</ele>
			 </trkpt>
			 <trkpt lat="31.62865" lon="-7.97233">
				 <ele>460.8</ele>
			 </trkpt>
			 <trkpt lat="31.62849" lon="-7.97225">
				 <ele>461.2</ele>
			 </trkpt>
			 <trkpt lat="31.6273" lon="-7.97146">
				 <ele>461.5</ele>
			 </trkpt>
			 <trkpt lat="31.62691" lon="-7.97119">
				 <ele>461.7</ele>
			 </trkpt>
			 <trkpt lat="31.62691" lon="-7.97119">
				 <ele>462.1</ele>
			 </trkpt>
			 <trkpt lat="31.62663" lon="-7.97101">
				 <ele>462.5</ele>
			 </trkpt>
			 <trkpt lat="31.62617" lon="-7.97082">
				 <ele>462.9</ele>
			 </trkpt>
			 <trkpt lat="31.62582" lon="-7.97077">
				 <ele>463.3</ele>
			 </trkpt>
			 <trkpt lat="31.62544" lon="-7.97076">
				 <ele>463.5</ele>
			 </trkpt>
			 <trkpt lat="31.62516" lon="-7.97079">
				 <ele>463.9</ele>
			 </trkpt>
			 <trkpt lat="31.6249" lon="-7.97135">
				 <ele>464.2</ele>
			 </trkpt>
			 <trkpt lat="31.6241" lon="-7.973">
				 <ele>464.5</ele>
			 </trkpt>
			 <trkpt lat="31.62361" lon="-7.97397">
				 <ele>464.6</ele>
			 </trkpt>
			 <trkpt lat="31.62365" lon="-7.97416">
				 <ele>464.9</ele>
			 </trkpt>
			 <trkpt lat="31.62367" lon="-7.97427">
				 <ele>465.2</ele>
			 </trkpt>
			 <trkpt lat="31.62366" lon="-7.97442">
				 <ele>465.3</ele>
			 </trkpt>
			 <trkpt lat="31.62358" lon="-7.97448">
				 <ele>465.4</ele>
			 </trkpt>
			 <trkpt lat="31.62347" lon="-7.97449">
				 <ele>465.5</ele>
			 </trkpt>
			 <trkpt lat="31.62341" lon="-7.97447">
				 <ele>465.5</ele>
			 </trkpt>
			 <trkpt lat="31.62341" lon="-7.97447">
				 <ele>465.6</ele>
			 </trkpt>
			 <trkpt lat="31.62334" lon="-7.97441">
				 <ele>465.6</ele>
			 </trkpt>
			 <trkpt lat="31.62286" lon="-7.97389">
				 <ele>465.7</ele>
			 </trkpt>
			 <trkpt lat="31.62257" lon="-7.97355">
				 <ele>465.8</ele>
			 </trkpt>
			 <trkpt lat="31.62231" lon="-7.9733">
				 <ele>465.9</ele>
			 </trkpt>
			 <trkpt lat="31.62201" lon="-7.97308">
				 <ele>466</ele>
			 </trkpt>
			 <trkpt lat="31.62179" lon="-7.97295">
				 <ele>466.1</ele>
			 </trkpt>
			 <trkpt lat="31.62153" lon="-7.97279">
				 <ele>466.3</ele>
			 </trkpt>
			 <trkpt lat="31.62153" lon="-7.97279">
				 <ele>466.4</ele>
			 </trkpt>
			 <trkpt lat="31.62081" lon="-7.97233">
				 <ele>466.5</ele>
			 </trkpt>
			 <trkpt lat="31.62016" lon="-7.97189">
				 <ele>466.5</ele>
			 </trkpt>
			 <trkpt lat="31.61996" lon="-7.9717">
				 <ele>466.6</ele>
			 </trkpt>
			 <trkpt lat="31.61995" lon="-7.97171">
				 <ele>466.7</ele>
			 </trkpt>
			 <trkpt lat="31.61994" lon="-7.97171">
				 <ele>466.9</ele>
			 </trkpt>
			 <trkpt lat="31.61992" lon="-7.97172">
				 <ele>467.1</ele>
			 </trkpt>
			 <trkpt lat="31.61991" lon="-7.97172">
				 <ele>467.3</ele>
			 </trkpt>
			 <trkpt lat="31.61989" lon="-7.97171">
				 <ele>467.5</ele>
			 </trkpt>
			 <trkpt lat="31.61948" lon="-7.97188">
				 <ele>467.7</ele>
			 </trkpt>
			 <trkpt lat="31.61867" lon="-7.97233">
				 <ele>468</ele>
			 </trkpt>
			 <trkpt lat="31.61787" lon="-7.97281">
				 <ele>468.3</ele>
			 </trkpt>
			 <trkpt lat="31.61756" lon="-7.97303">
				 <ele>468.5</ele>
			 </trkpt>
			 <trkpt lat="31.61682" lon="-7.97362">
				 <ele>468.8</ele>
			 </trkpt>
			 <trkpt lat="31.6162" lon="-7.97417">
				 <ele>469.2</ele>
			 </trkpt>
			 <trkpt lat="31.6159" lon="-7.97447">
				 <ele>469.5</ele>
			 </trkpt>
			 <trkpt lat="31.61534" lon="-7.97505">
				 <ele>469.8</ele>
			 </trkpt>
			 <trkpt lat="31.61521" lon="-7.97518">
				 <ele>470.1</ele>
			 </trkpt>
			 <trkpt lat="31.61511" lon="-7.97526">
				 <ele>470.4</ele>
			 </trkpt>
			 <trkpt lat="31.61485" lon="-7.97535">
				 <ele>470.5</ele>
			 </trkpt>
			 <trkpt lat="31.61471" lon="-7.97534">
				 <ele>470.6</ele>
			 </trkpt>
			 <trkpt lat="31.61464" lon="-7.97532">
				 <ele>470.7</ele>
			 </trkpt>
			 <trkpt lat="31.61462" lon="-7.97536">
				 <ele>470.9</ele>
			 </trkpt>
			 <trkpt lat="31.61453" lon="-7.97543">
				 <ele>471.1</ele>
			 </trkpt>
			 <trkpt lat="31.61442" lon="-7.97542">
				 <ele>471.3</ele>
			 </trkpt>
			 <trkpt lat="31.61436" lon="-7.97538">
				 <ele>471.4</ele>
			 </trkpt>
			 <trkpt lat="31.61434" lon="-7.97535">
				 <ele>471.5</ele>
			 </trkpt>
			 <trkpt lat="31.61418" lon="-7.97531">
				 <ele>471.5</ele>
			 </trkpt>
			 <trkpt lat="31.61361" lon="-7.97504">
				 <ele>471.8</ele>
			 </trkpt>
			 <trkpt lat="31.61342" lon="-7.97496">
				 <ele>472.3</ele>
			 </trkpt>
			 <trkpt lat="31.6133" lon="-7.97487">
				 <ele>472.7</ele>
			 </trkpt>
			 <trkpt lat="31.61295" lon="-7.97475">
				 <ele>473.2</ele>
			 </trkpt>
			 <trkpt lat="31.61259" lon="-7.97463">
				 <ele>473.7</ele>
			 </trkpt>
			 <trkpt lat="31.61098" lon="-7.9741">
				 <ele>474.3</ele>
			 </trkpt>
			 <trkpt lat="31.60892" lon="-7.97344">
				 <ele>475</ele>
			 </trkpt>
			 <trkpt lat="31.60858" lon="-7.97333">
				 <ele>475.7</ele>
			 </trkpt>
			 <trkpt lat="31.60858" lon="-7.97333">
				 <ele>476.5</ele>
			 </trkpt>
			 <trkpt lat="31.60747" lon="-7.97299">
				 <ele>477.2</ele>
			 </trkpt>
			 <trkpt lat="31.60558" lon="-7.97236">
				 <ele>477.9</ele>
			 </trkpt>
			 <trkpt lat="31.60432" lon="-7.97194">
				 <ele>478.5</ele>
			 </trkpt>
			 <trkpt lat="31.6041" lon="-7.97199">
				 <ele>478.7</ele>
			 </trkpt>
			 <trkpt lat="31.60405" lon="-7.97201">
				 <ele>479.1</ele>
			 </trkpt>
			 <trkpt lat="31.6039" lon="-7.97219">
				 <ele>479.5</ele>
			 </trkpt>
			 <trkpt lat="31.60383" lon="-7.97232">
				 <ele>479.8</ele>
			 </trkpt>
			 <trkpt lat="31.60357" lon="-7.97355">
				 <ele>480</ele>
			 </trkpt>
			 <trkpt lat="31.60308" lon="-7.97593">
				 <ele>480</ele>
			 </trkpt>
			 <trkpt lat="31.60278" lon="-7.97739">
				 <ele>480</ele>
			 </trkpt>
			 <trkpt lat="31.60278" lon="-7.97739">
				 <ele>480</ele>
			 </trkpt>
			 <trkpt lat="31.60126" lon="-7.9848">
				 <ele>480</ele>
			 </trkpt>
			 <trkpt lat="31.601" lon="-7.98609">
				 <ele>480</ele>
			 </trkpt>
			 <trkpt lat="31.60078" lon="-7.98716">
				 <ele>480</ele>
			 </trkpt>
			 <trkpt lat="31.60079" lon="-7.98746">
				 <ele>480.1</ele>
			 </trkpt>
			 <trkpt lat="31.60081" lon="-7.98748">
				 <ele>480.1</ele>
			 </trkpt>
			 <trkpt lat="31.60083" lon="-7.98751">
				 <ele>480.2</ele>
			 </trkpt>
			 <trkpt lat="31.60085" lon="-7.98755">
				 <ele>480.1</ele>
			 </trkpt>
			 <trkpt lat="31.60086" lon="-7.98762">
				 <ele>480.1</ele>
			 </trkpt>
			 <trkpt lat="31.60083" lon="-7.9877">
				 <ele>480.2</ele>
			 </trkpt>
			 <trkpt lat="31.60079" lon="-7.98774">
				 <ele>480.3</ele>
			 </trkpt>
			 <trkpt lat="31.6008" lon="-7.98821">
				 <ele>480.5</ele>
			 </trkpt>
			 <trkpt lat="31.60102" lon="-7.99026">
				 <ele>480.6</ele>
			 </trkpt>
			 <trkpt lat="31.60104" lon="-7.99036">
				 <ele>480.8</ele>
			 </trkpt>
			 <trkpt lat="31.6001" lon="-7.99078">
				 <ele>481</ele>
			 </trkpt>
			 <trkpt lat="31.59937" lon="-7.99112">
				 <ele>481.2</ele>
			 </trkpt>
			 <trkpt lat="31.59829" lon="-7.99161">
				 <ele>481.5</ele>
			 </trkpt>
			 <trkpt lat="31.59825" lon="-7.99152">
				 <ele>482</ele>
			 </trkpt>
			 <trkpt lat="31.59755" lon="-7.99106">
				 <ele>482.6</ele>
			 </trkpt>
			 <trkpt lat="31.59731" lon="-7.9909">
				 <ele>483.4</ele>
			 </trkpt>
			 <trkpt lat="31.59731" lon="-7.9909">
				 <ele>484.1</ele>
			 </trkpt>
			 <trkpt lat="31.59613" lon="-7.99014">
				 <ele>485</ele>
			 </trkpt>
			 <trkpt lat="31.5946" lon="-7.98914">
				 <ele>485.8</ele>
			 </trkpt>
			 <trkpt lat="31.59366" lon="-7.98852">
				 <ele>486.7</ele>
			 </trkpt>
			 <trkpt lat="31.59196" lon="-7.98743">
				 <ele>487.6</ele>
			 </trkpt>
			 <trkpt lat="31.5907" lon="-7.98661">
				 <ele>488.5</ele>
			 </trkpt>
			 <trkpt lat="31.58943" lon="-7.98578">
				 <ele>489.5</ele>
			 </trkpt>
			 <trkpt lat="31.58943" lon="-7.98578">
				 <ele>490.2</ele>
			 </trkpt>
			 <trkpt lat="31.58848" lon="-7.98516">
				 <ele>490.8</ele>
			 </trkpt>
			 <trkpt lat="31.58828" lon="-7.98507">
				 <ele>491.4</ele>
			 </trkpt>
			 <trkpt lat="31.58811" lon="-7.98503">
				 <ele>491.8</ele>
			 </trkpt>
			 <trkpt lat="31.58799" lon="-7.98502">
				 <ele>492.2</ele>
			 </trkpt>
			 <trkpt lat="31.58775" lon="-7.98503">
				 <ele>492.5</ele>
			 </trkpt>
			 <trkpt lat="31.58753" lon="-7.98507">
				 <ele>492.7</ele>
			 </trkpt>
			 <trkpt lat="31.58731" lon="-7.98514">
				 <ele>492.9</ele>
			 </trkpt>
			 <trkpt lat="31.5872" lon="-7.98523">
				 <ele>493.1</ele>
			 </trkpt>
			 <trkpt lat="31.58707" lon="-7.98534">
				 <ele>493.3</ele>
			 </trkpt>
			 <trkpt lat="31.58693" lon="-7.98548">
				 <ele>493.5</ele>
			 </trkpt>
			 <trkpt lat="31.58681" lon="-7.98563">
				 <ele>493.6</ele>
			 </trkpt>
			 <trkpt lat="31.58668" lon="-7.98585">
				 <ele>493.7</ele>
			 </trkpt>
			 <trkpt lat="31.58655" lon="-7.98626">
				 <ele>493.8</ele>
			 </trkpt>
			 <trkpt lat="31.58651" lon="-7.98661">
				 <ele>493.6</ele>
			 </trkpt>
			 <trkpt lat="31.58653" lon="-7.98689">
				 <ele>493.5</ele>
			 </trkpt>
			 <trkpt lat="31.58656" lon="-7.98709">
				 <ele>493</ele>
			 </trkpt>
			 <trkpt lat="31.58664" lon="-7.98732">
				 <ele>492.5</ele>
			 </trkpt>
			 <trkpt lat="31.58666" lon="-7.98754">
				 <ele>492.1</ele>
			 </trkpt>
			 <trkpt lat="31.58976" lon="-7.98957">
				 <ele>491.6</ele>
			 </trkpt>
			 <trkpt lat="31.58976" lon="-7.98957">
				 <ele>491.2</ele>
			 </trkpt>
			 <trkpt lat="31.59195" lon="-7.99099">
				 <ele>490.7</ele>
			 </trkpt>
			 <trkpt lat="31.59153" lon="-7.99201">
				 <ele>490.3</ele>
			 </trkpt>
			 <trkpt lat="31.59141" lon="-7.99225">
				 <ele>489.9</ele>
			 </trkpt>
			 <trkpt lat="31.59119" lon="-7.9926">
				 <ele>489.5</ele>
			 </trkpt>
			 <trkpt lat="31.59112" lon="-7.99269">
				 <ele>489.5</ele>
			 </trkpt>
			 <trkpt lat="31.59112" lon="-7.99269">
				 <ele>489.4</ele>
			 </trkpt>
			 <trkpt lat="31.59089" lon="-7.99298">
				 <ele>489.5</ele>
			 </trkpt>
			 <trkpt lat="31.5898" lon="-7.99413">
				 <ele>489.7</ele>
			 </trkpt>
			 <trkpt lat="31.58915" lon="-7.99483">
				 <ele>490</ele>
			 </trkpt>
			 <trkpt lat="31.58885" lon="-7.99527">
				 <ele>490.3</ele>
			 </trkpt>
			 <trkpt lat="31.58859" lon="-7.99572">
				 <ele>490.5</ele>
			 </trkpt>
			 <trkpt lat="31.58748" lon="-7.99802">
				 <ele>490.9</ele>
			 </trkpt>
			 <trkpt lat="31.58651" lon="-8.00005">
				 <ele>491.3</ele>
			 </trkpt>
			 <trkpt lat="31.5858" lon="-8.00152">
				 <ele>491.5</ele>
			 </trkpt>
			 <trkpt lat="31.58541" lon="-8.00235">
				 <ele>491.8</ele>
			 </trkpt>
			 <trkpt lat="31.58541" lon="-8.00235">
				 <ele>492.1</ele>
			 </trkpt>
			 <trkpt lat="31.58493" lon="-8.00334">
				 <ele>492.3</ele>
			 </trkpt>
			 <trkpt lat="31.58469" lon="-8.00384">
				 <ele>492.1</ele>
			 </trkpt>
			 <trkpt lat="31.58425" lon="-8.00476">
				 <ele>491.8</ele>
			 </trkpt>
			 <trkpt lat="31.58471" lon="-8.00493">
				 <ele>491.5</ele>
			 </trkpt>
			 <trkpt lat="31.58507" lon="-8.00508">
				 <ele>491</ele>
			 </trkpt>
			 <trkpt lat="31.58591" lon="-8.00542">
				 <ele>490.5</ele>
			 </trkpt>
			 <trkpt lat="31.58889" lon="-8.00657">
				 <ele>490</ele>
			 </trkpt>
			 <trkpt lat="31.58941" lon="-8.00677">
				 <ele>489.4</ele>
			 </trkpt>
			 <trkpt lat="31.58941" lon="-8.00677">
				 <ele>488.8</ele>
			 </trkpt>
			 <trkpt lat="31.59051" lon="-8.00722">
				 <ele>488.3</ele>
			 </trkpt>
			 <trkpt lat="31.59054" lon="-8.00725">
				 <ele>487.6</ele>
			 </trkpt>
			 <trkpt lat="31.59057" lon="-8.00733">
				 <ele>487.1</ele>
			 </trkpt>
			 <trkpt lat="31.59063" lon="-8.00752">
				 <ele>486.8</ele>
			 </trkpt>
			 <trkpt lat="31.59078" lon="-8.00795">
				 <ele>486.6</ele>
			 </trkpt>
			 <trkpt lat="31.591" lon="-8.00845">
				 <ele>486.4</ele>
			 </trkpt>
			 <trkpt lat="31.59135" lon="-8.00922">
				 <ele>486.2</ele>
			 </trkpt>
			 <trkpt lat="31.59136" lon="-8.00924">
				 <ele>486</ele>
			 </trkpt>
			 <trkpt lat="31.59136" lon="-8.00924">
				 <ele>485.9</ele>
			 </trkpt>
			 <trkpt lat="31.59168" lon="-8.00996">
				 <ele>486</ele>
			 </trkpt>
			 <trkpt lat="31.59155" lon="-8.01003">
				 <ele>486.2</ele>
			 </trkpt>
			 <trkpt lat="31.59156" lon="-8.01006">
				 <ele>486.4</ele>
			 </trkpt>
			 <trkpt lat="31.59155" lon="-8.01013">
				 <ele>486.7</ele>
			 </trkpt>
			 <trkpt lat="31.59148" lon="-8.01021">
				 <ele>487.1</ele>
			 </trkpt>
			 <trkpt lat="31.59016" lon="-8.01105">
				 <ele>487.5</ele>
			 </trkpt>
			 <trkpt lat="31.58858" lon="-8.01206">
				 <ele>487.8</ele>
			 </trkpt>
			 <trkpt lat="31.58777" lon="-8.01256">
				 <ele>488.3</ele>
			 </trkpt>
			 <trkpt lat="31.5871" lon="-8.01302">
				 <ele>488.7</ele>
			 </trkpt>
			 <trkpt lat="31.58693" lon="-8.01315">
				 <ele>489.2</ele>
			 </trkpt>
			 <trkpt lat="31.58677" lon="-8.01329">
				 <ele>489.5</ele>
			 </trkpt>
			 <trkpt lat="31.58649" lon="-8.01369">
				 <ele>489.5</ele>
			 </trkpt>
			 <trkpt lat="31.58633" lon="-8.01391">
				 <ele>489.5</ele>
			 </trkpt>
			 <trkpt lat="31.58633" lon="-8.01391">
				 <ele>489.4</ele>
			 </trkpt>
			 <trkpt lat="31.58612" lon="-8.01422">
				 <ele>489.2</ele>
			 </trkpt>
			 <trkpt lat="31.58627" lon="-8.01453">
				 <ele>489</ele>
			 </trkpt>
			 <trkpt lat="31.58704" lon="-8.01624">
				 <ele>488.8</ele>
			 </trkpt>
			 <trkpt lat="31.58704" lon="-8.01624">
				 <ele>488.6</ele>
			 </trkpt>
			 <trkpt lat="31.58716" lon="-8.01646">
				 <ele>488.5</ele>
			 </trkpt>
			 <trkpt lat="31.58719" lon="-8.01643">
				 <ele>488.3</ele>
			 </trkpt>
			 <trkpt lat="31.58728" lon="-8.01641">
				 <ele>488</ele>
			 </trkpt>
			 <trkpt lat="31.58736" lon="-8.01643">
				 <ele>487.8</ele>
			 </trkpt>
			 <trkpt lat="31.58743" lon="-8.01649">
				 <ele>487.7</ele>
			 </trkpt>
			 <trkpt lat="31.58748" lon="-8.01657">
				 <ele>487.5</ele>
			 </trkpt>
			 <trkpt lat="31.58749" lon="-8.01663">
				 <ele>487.4</ele>
			 </trkpt>
			 <trkpt lat="31.58799" lon="-8.0164">
				 <ele>487.2</ele>
			 </trkpt>
			 <trkpt lat="31.58882" lon="-8.01592">
				 <ele>487</ele>
			 </trkpt>
			 <trkpt lat="31.58949" lon="-8.0155">
				 <ele>486.7</ele>
			 </trkpt>
			 <trkpt lat="31.5901" lon="-8.01502">
				 <ele>486.5</ele>
			 </trkpt>
			 <trkpt lat="31.59053" lon="-8.01461">
				 <ele>486.1</ele>
			 </trkpt>
			 <trkpt lat="31.59053" lon="-8.01461">
				 <ele>485.7</ele>
			 </trkpt>
			 <trkpt lat="31.59094" lon="-8.01416">
				 <ele>485.5</ele>
			 </trkpt>
			 <trkpt lat="31.59145" lon="-8.01352">
				 <ele>485.2</ele>
			 </trkpt>
			 <trkpt lat="31.59181" lon="-8.01298">
				 <ele>484.9</ele>
			 </trkpt>
			 <trkpt lat="31.59229" lon="-8.01206">
				 <ele>484.6</ele>
			 </trkpt>
			 <trkpt lat="31.59245" lon="-8.01171">
				 <ele>484.3</ele>
			 </trkpt>
			 <trkpt lat="31.59257" lon="-8.01198">
				 <ele>483.8</ele>
			 </trkpt>
			 <trkpt lat="31.59269" lon="-8.01225">
				 <ele>483.4</ele>
			 </trkpt>
			 <trkpt lat="31.59269" lon="-8.01225">
				 <ele>483</ele>
			 </trkpt>
			 <trkpt lat="31.5936" lon="-8.0142">
				 <ele>482.6</ele>
			 </trkpt>
			 <trkpt lat="31.59405" lon="-8.01524">
				 <ele>482.3</ele>
			 </trkpt>
			 <trkpt lat="31.59433" lon="-8.01589">
				 <ele>481.7</ele>
			 </trkpt>
			 <trkpt lat="31.59466" lon="-8.01666">
				 <ele>481.1</ele>
			 </trkpt>
			 <trkpt lat="31.59473" lon="-8.01674">
				 <ele>480.5</ele>
			 </trkpt>
			 <trkpt lat="31.59485" lon="-8.01684">
				 <ele>479.8</ele>
			 </trkpt>
			 <trkpt lat="31.5954" lon="-8.01721">
				 <ele>479.1</ele>
			 </trkpt>
			 <trkpt lat="31.5971" lon="-8.01837">
				 <ele>478.5</ele>
			 </trkpt>
			 <trkpt lat="31.59755" lon="-8.01869">
				 <ele>477.9</ele>
			 </trkpt>
			 <trkpt lat="31.59755" lon="-8.01869">
				 <ele>477.3</ele>
			 </trkpt>
			 <trkpt lat="31.5981" lon="-8.01905">
				 <ele>476.6</ele>
			 </trkpt>
			 <trkpt lat="31.59924" lon="-8.01988">
				 <ele>476</ele>
			 </trkpt>
			 <trkpt lat="31.59943" lon="-8.02001">
				 <ele>475.5</ele>
			 </trkpt>
			 <trkpt lat="31.59952" lon="-8.02007">
				 <ele>475</ele>
			 </trkpt>
			 <trkpt lat="31.60005" lon="-8.01922">
				 <ele>474.6</ele>
			 </trkpt>
			 <trkpt lat="31.60049" lon="-8.01851">
				 <ele>474.2</ele>
			 </trkpt>
			 <trkpt lat="31.60091" lon="-8.01783">
				 <ele>473.7</ele>
			 </trkpt>
			 <trkpt lat="31.60194" lon="-8.01614">
				 <ele>473.5</ele>
			 </trkpt>
			 <trkpt lat="31.60395" lon="-8.01289">
				 <ele>473.4</ele>
			 </trkpt>
			 <trkpt lat="31.60395" lon="-8.01289">
				 <ele>473.3</ele>
			 </trkpt>
			 <trkpt lat="31.60485" lon="-8.01143">
				 <ele>473.3</ele>
			 </trkpt>
			 <trkpt lat="31.60514" lon="-8.01096">
				 <ele>473.3</ele>
			 </trkpt>
			 <trkpt lat="31.60505" lon="-8.01091">
				 <ele>473.3</ele>
			 </trkpt>
			 <trkpt lat="31.60405" lon="-8.01034">
				 <ele>473.3</ele>
			 </trkpt>
			 <trkpt lat="31.60396" lon="-8.01029">
				 <ele>473.4</ele>
			 </trkpt>
			 <trkpt lat="31.60396" lon="-8.01029">
				 <ele>473.5</ele>
			 </trkpt>
			 <trkpt lat="31.60373" lon="-8.01013">
				 <ele>473.6</ele>
			 </trkpt>
			 <trkpt lat="31.60346" lon="-8.00984">
				 <ele>473.8</ele>
			 </trkpt>
			 <trkpt lat="31.60329" lon="-8.00964">
				 <ele>474</ele>
			 </trkpt>
			 <trkpt lat="31.60324" lon="-8.0096">
				 <ele>474</ele>
			 </trkpt>
			 <trkpt lat="31.6032" lon="-8.00958">
				 <ele>474</ele>
			 </trkpt>
			 <trkpt lat="31.60316" lon="-8.00954">
				 <ele>474.1</ele>
			 </trkpt>
			 <trkpt lat="31.60316" lon="-8.00952">
				 <ele>474.2</ele>
			 </trkpt>
			 <trkpt lat="31.60316" lon="-8.00948">
				 <ele>474.3</ele>
			 </trkpt>
			 <trkpt lat="31.60316" lon="-8.00946">
				 <ele>474.5</ele>
			 </trkpt>
			 <trkpt lat="31.60288" lon="-8.00903">
				 <ele>474.6</ele>
			 </trkpt>
			 <trkpt lat="31.60242" lon="-8.00815">
				 <ele>474.9</ele>
			 </trkpt>
			 <trkpt lat="31.6023" lon="-8.00791">
				 <ele>475.2</ele>
			 </trkpt>
			 <trkpt lat="31.60202" lon="-8.00751">
				 <ele>475.5</ele>
			 </trkpt>
			 <trkpt lat="31.60144" lon="-8.00672">
				 <ele>475.7</ele>
			 </trkpt>
			 <trkpt lat="31.60119" lon="-8.00642">
				 <ele>476</ele>
			 </trkpt>
			 <trkpt lat="31.60093" lon="-8.00619">
				 <ele>476.4</ele>
			 </trkpt>
			 <trkpt lat="31.60067" lon="-8.00603">
				 <ele>476.6</ele>
			 </trkpt>
			 <trkpt lat="31.60049" lon="-8.00593">
				 <ele>476.9</ele>
			 </trkpt>
			 <trkpt lat="31.60026" lon="-8.00586">
				 <ele>477.2</ele>
			 </trkpt>
			 <trkpt lat="31.59994" lon="-8.00578">
				 <ele>477.4</ele>
			 </trkpt>
			 <trkpt lat="31.59961" lon="-8.00581">
				 <ele>477.5</ele>
			 </trkpt>
			 <trkpt lat="31.5996" lon="-8.00582">
				 <ele>477.7</ele>
			 </trkpt>
			 <trkpt lat="31.59958" lon="-8.00583">
				 <ele>477.9</ele>
			 </trkpt>
			 <trkpt lat="31.59955" lon="-8.00584">
				 <ele>478.2</ele>
			 </trkpt>
			 <trkpt lat="31.59947" lon="-8.00582">
				 <ele>478.5</ele>
			 </trkpt>
			 <trkpt lat="31.59924" lon="-8.00584">
				 <ele>478.7</ele>
			 </trkpt>
			 <trkpt lat="31.59894" lon="-8.00592">
				 <ele>478.9</ele>
			 </trkpt>
			 <trkpt lat="31.59852" lon="-8.00601">
				 <ele>479.1</ele>
			 </trkpt>
			 <trkpt lat="31.59792" lon="-8.00606">
				 <ele>479.3</ele>
			 </trkpt>
			 <trkpt lat="31.59735" lon="-8.00605">
				 <ele>479.5</ele>
			 </trkpt>
			 <trkpt lat="31.59734" lon="-8.00606">
				 <ele>479.8</ele>
			 </trkpt>
			 <trkpt lat="31.5973" lon="-8.00608">
				 <ele>480.2</ele>
			 </trkpt>
			 <trkpt lat="31.59725" lon="-8.00608">
				 <ele>480.5</ele>
			 </trkpt>
			 <trkpt lat="31.59718" lon="-8.00602">
				 <ele>480.7</ele>
			 </trkpt>
			 <trkpt lat="31.59693" lon="-8.00596">
				 <ele>480.9</ele>
			 </trkpt>
			 <trkpt lat="31.59646" lon="-8.00583">
				 <ele>481.1</ele>
			 </trkpt>
			 <trkpt lat="31.59618" lon="-8.00573">
				 <ele>481.3</ele>
			 </trkpt>
			 <trkpt lat="31.59594" lon="-8.00562">
				 <ele>481.5</ele>
			 </trkpt>
			 <trkpt lat="31.59563" lon="-8.00547">
				 <ele>481.9</ele>
			 </trkpt>
			 <trkpt lat="31.59537" lon="-8.0053">
				 <ele>482.4</ele>
			 </trkpt>
			 <trkpt lat="31.59537" lon="-8.0053">
				 <ele>482.7</ele>
			 </trkpt>
			 <trkpt lat="31.59519" lon="-8.00515">
				 <ele>483.1</ele>
			 </trkpt>
			 <trkpt lat="31.59493" lon="-8.0048">
				 <ele>483.4</ele>
			 </trkpt>
			 <trkpt lat="31.59353" lon="-8.00384">
				 <ele>483.6</ele>
			 </trkpt>
			 <trkpt lat="31.59304" lon="-8.0035">
				 <ele>484</ele>
			 </trkpt>
			 <trkpt lat="31.59304" lon="-8.0035">
				 <ele>484.4</ele>
			 </trkpt>
			 <trkpt lat="31.59278" lon="-8.00333">
				 <ele>484.7</ele>
			 </trkpt>
			 <trkpt lat="31.59285" lon="-8.00317">
				 <ele>485.2</ele>
			 </trkpt>
			 <trkpt lat="31.59282" lon="-8.00306">
				 <ele>485.5</ele>
			 </trkpt>
			 <trkpt lat="31.59195" lon="-8.00087">
				 <ele>485.7</ele>
			 </trkpt>
			 <trkpt lat="31.59189" lon="-8.00072">
				 <ele>485.8</ele>
			 </trkpt>
			 <trkpt lat="31.59189" lon="-8.00072">
				 <ele>485.9</ele>
			 </trkpt>
			 <trkpt lat="31.59173" lon="-8.0003">
				 <ele>485.9</ele>
			 </trkpt>
			 <trkpt lat="31.59165" lon="-8.00018">
				 <ele>485.9</ele>
			 </trkpt>
			 <trkpt lat="31.59236" lon="-7.99889">
				 <ele>486</ele>
			 </trkpt>
			 <trkpt lat="31.59236" lon="-7.99889">
				 <ele>485.9</ele>
			 </trkpt>
			 <trkpt lat="31.59408" lon="-7.99573">
				 <ele>485.6</ele>
			 </trkpt>
			 <trkpt lat="31.59441" lon="-7.99512">
				 <ele>484.9</ele>
			 </trkpt>
			 <trkpt lat="31.59467" lon="-7.99465">
				 <ele>484</ele>
			 </trkpt>
			 <trkpt lat="31.595167" lon="-7.993647">
				 <ele>483.1</ele>
			 </trkpt>
			 <trkpt lat="31.595276" lon="-7.993554">
				 <ele>482.2</ele>
			 </trkpt>
			 <trkpt lat="31.597646" lon="-7.995056">
				 <ele>481.3</ele>
			 </trkpt>
			 <trkpt lat="31.602711" lon="-7.998344">
				 <ele>480.4</ele>
			 </trkpt>
			 <trkpt lat="31.603455" lon="-7.998844">
				 <ele>479.5</ele>
			 </trkpt>
			 <trkpt lat="31.603551" lon="-7.999067">
				 <ele>478.7</ele>
			 </trkpt>
			 <trkpt lat="31.603647" lon="-7.999346">
				 <ele>477.8</ele>
			 </trkpt>
			 <trkpt lat="31.603807" lon="-7.999496">
				 <ele>476.7</ele>
			 </trkpt>
			 <trkpt lat="31.604029" lon="-7.999598">
				 <ele>475.5</ele>
			 </trkpt>
			 <trkpt lat="31.604194" lon="-7.999564">
				 <ele>474.8</ele>
			 </trkpt>
			 <trkpt lat="31.604354" lon="-7.99954">
				 <ele>474.4</ele>
			 </trkpt>
			 <trkpt lat="31.604504" lon="-7.999572">
				 <ele>473.9</ele>
			 </trkpt>
			 <trkpt lat="31.606771" lon="-8.001071">
				 <ele>473.5</ele>
			 </trkpt>
			 <trkpt lat="31.609953" lon="-8.003195">
				 <ele>473.2</ele>
			 </trkpt>
			 <trkpt lat="31.60996" lon="-8.00321">
				 <ele>472.8</ele>
			 </trkpt>
			 <trkpt lat="31.60693" lon="-8.00817">
				 <ele>472.5</ele>
			 </trkpt>
			 <trkpt lat="31.60693" lon="-8.00817">
				 <ele>472.1</ele>
			 </trkpt>
			 <trkpt lat="31.60556" lon="-8.0104">
				 <ele>471.7</ele>
			 </trkpt>
			 <trkpt lat="31.60553" lon="-8.01058">
				 <ele>471.5</ele>
			 </trkpt>
			 <trkpt lat="31.60555" lon="-8.01078">
				 <ele>471.4</ele>
			 </trkpt>
			 <trkpt lat="31.60562" lon="-8.01108">
				 <ele>471.1</ele>
			 </trkpt>
			 <trkpt lat="31.60565" lon="-8.01116">
				 <ele>470.6</ele>
			 </trkpt>
			 <trkpt lat="31.60579" lon="-8.01129">
				 <ele>470.2</ele>
			 </trkpt>
			 <trkpt lat="31.6065" lon="-8.01184">
				 <ele>469.7</ele>
			 </trkpt>
			 <trkpt lat="31.60922" lon="-8.01363">
				 <ele>469.3</ele>
			 </trkpt>
			 <trkpt lat="31.60967" lon="-8.01393">
				 <ele>468.8</ele>
			 </trkpt>
			 <trkpt lat="31.60993" lon="-8.01407">
				 <ele>468.4</ele>
			 </trkpt>
			 <trkpt lat="31.60995" lon="-8.01406">
				 <ele>467.8</ele>
			 </trkpt>
			 <trkpt lat="31.60999" lon="-8.01406">
				 <ele>467.3</ele>
			 </trkpt>
			 <trkpt lat="31.61003" lon="-8.01407">
				 <ele>466.6</ele>
			 </trkpt>
			 <trkpt lat="31.6101" lon="-8.01416">
				 <ele>466.3</ele>
			 </trkpt>
			 <trkpt lat="31.6101" lon="-8.01419">
				 <ele>465.8</ele>
			 </trkpt>
			 <trkpt lat="31.61055" lon="-8.01452">
				 <ele>465.3</ele>
			 </trkpt>
			 <trkpt lat="31.61134" lon="-8.01503">
				 <ele>464.6</ele>
			 </trkpt>
			 <trkpt lat="31.61265" lon="-8.01589">
				 <ele>463.7</ele>
			 </trkpt>
			 <trkpt lat="31.61265" lon="-8.01589">
				 <ele>462.8</ele>
			 </trkpt>
			 <trkpt lat="31.61411" lon="-8.01684">
				 <ele>461.9</ele>
			 </trkpt>
			 <trkpt lat="31.61556" lon="-8.01784">
				 <ele>461</ele>
			 </trkpt>
			 <trkpt lat="31.61714" lon="-8.01889">
				 <ele>460.2</ele>
			 </trkpt>
			 <trkpt lat="31.6197" lon="-8.02053">
				 <ele>459.4</ele>
			 </trkpt>
			 <trkpt lat="31.61991" lon="-8.02064">
				 <ele>458.7</ele>
			 </trkpt>
			 <trkpt lat="31.61994" lon="-8.02062">
				 <ele>458.1</ele>
			 </trkpt>
			 <trkpt lat="31.61998" lon="-8.02062">
				 <ele>457.6</ele>
			 </trkpt>
			 <trkpt lat="31.62005" lon="-8.02064">
				 <ele>457.3</ele>
			 </trkpt>
			 <trkpt lat="31.62011" lon="-8.0207">
				 <ele>457</ele>
			 </trkpt>
			 <trkpt lat="31.62012" lon="-8.02074">
				 <ele>456.9</ele>
			 </trkpt>
			 <trkpt lat="31.62012" lon="-8.02075">
				 <ele>456.8</ele>
			 </trkpt>
			 <trkpt lat="31.62028" lon="-8.02079">
				 <ele>456.6</ele>
			 </trkpt>
			 <trkpt lat="31.62051" lon="-8.02096">
				 <ele>456.3</ele>
			 </trkpt>
			 <trkpt lat="31.62058" lon="-8.02101">
				 <ele>455.8</ele>
			 </trkpt>
			 <trkpt lat="31.62066" lon="-8.0211">
				 <ele>455.5</ele>
			 </trkpt>
			 <trkpt lat="31.62085" lon="-8.02129">
				 <ele>455.1</ele>
			 </trkpt>
			 <trkpt lat="31.62161" lon="-8.0218">
				 <ele>454.7</ele>
			 </trkpt>
			 <trkpt lat="31.6231" lon="-8.02278">
				 <ele>454.4</ele>
			 </trkpt>
			 <trkpt lat="31.62376" lon="-8.02319">
				 <ele>454</ele>
			 </trkpt>
			 <trkpt lat="31.62379" lon="-8.02318">
				 <ele>453.5</ele>
			 </trkpt>
			 <trkpt lat="31.62385" lon="-8.02317">
				 <ele>453.3</ele>
			 </trkpt>
			 <trkpt lat="31.62391" lon="-8.02319">
				 <ele>453</ele>
			 </trkpt>
			 <trkpt lat="31.62393" lon="-8.02321">
				 <ele>452.7</ele>
			 </trkpt>
			 <trkpt lat="31.62397" lon="-8.0233">
				 <ele>452.6</ele>
			 </trkpt>
			 <trkpt lat="31.62397" lon="-8.02335">
				 <ele>452.6</ele>
			 </trkpt>
			 <trkpt lat="31.62422" lon="-8.02351">
				 <ele>452.5</ele>
			 </trkpt>
			 <trkpt lat="31.62425" lon="-8.02357">
				 <ele>452.4</ele>
			 </trkpt>
			 <trkpt lat="31.62491" lon="-8.02398">
				 <ele>452.2</ele>
			 </trkpt>
			 <trkpt lat="31.62541" lon="-8.02432">
				 <ele>452</ele>
			 </trkpt>
			 <trkpt lat="31.62565" lon="-8.0245">
				 <ele>451.8</ele>
			 </trkpt>
			 <trkpt lat="31.62614" lon="-8.0248">
				 <ele>451.7</ele>
			 </trkpt>
			 <trkpt lat="31.62689" lon="-8.02532">
				 <ele>451.5</ele>
			 </trkpt>
			 <trkpt lat="31.62699" lon="-8.02535">
				 <ele>451.4</ele>
			 </trkpt>
			 <trkpt lat="31.62724" lon="-8.02545">
				 <ele>451.3</ele>
			 </trkpt>
			 <trkpt lat="31.62744" lon="-8.02477">
				 <ele>451.2</ele>
			 </trkpt>
			 <trkpt lat="31.62744" lon="-8.02477">
				 <ele>451.1</ele>
			 </trkpt>
			 <trkpt lat="31.6279" lon="-8.02307">
				 <ele>451.1</ele>
			 </trkpt>
			 <trkpt lat="31.62822" lon="-8.02208">
				 <ele>451.2</ele>
			 </trkpt>
			 <trkpt lat="31.62868" lon="-8.02052">
				 <ele>451.3</ele>
			 </trkpt>
			 <trkpt lat="31.62904" lon="-8.0192">
				 <ele>451.5</ele>
			 </trkpt>
			 <trkpt lat="31.6294" lon="-8.018">
				 <ele>451.6</ele>
			 </trkpt>
			 <trkpt lat="31.62991" lon="-8.01637">
				 <ele>451.7</ele>
			 </trkpt>
			 <trkpt lat="31.62994" lon="-8.01618">
				 <ele>451.9</ele>
			 </trkpt>
			 <trkpt lat="31.62992" lon="-8.01616">
				 <ele>452.1</ele>
			 </trkpt>
			 <trkpt lat="31.62991" lon="-8.01611">
				 <ele>452.3</ele>
			 </trkpt>
			 <trkpt lat="31.6299" lon="-8.01607">
				 <ele>452.5</ele>
			 </trkpt>
			 <trkpt lat="31.62941" lon="-8.01574">
				 <ele>452.6</ele>
			 </trkpt>
			 <trkpt lat="31.62916" lon="-8.01558">
				 <ele>452.8</ele>
			 </trkpt>
			 <trkpt lat="31.62916" lon="-8.01558">
				 <ele>453</ele>
			 </trkpt>
			 <trkpt lat="31.62896" lon="-8.01544">
				 <ele>453.2</ele>
			 </trkpt>
			 <trkpt lat="31.62871" lon="-8.01534">
				 <ele>453.3</ele>
			 </trkpt>
			 <trkpt lat="31.62855" lon="-8.01528">
				 <ele>453.4</ele>
			 </trkpt>
			 <trkpt lat="31.62777" lon="-8.01478">
				 <ele>453.5</ele>
			 </trkpt>
			 <trkpt lat="31.62727" lon="-8.01445">
				 <ele>453.6</ele>
			 </trkpt>
			 <trkpt lat="31.62722" lon="-8.01437">
				 <ele>453.7</ele>
			 </trkpt>
			 <trkpt lat="31.6272" lon="-8.01432">
				 <ele>453.8</ele>
			 </trkpt>
			 <trkpt lat="31.62718" lon="-8.01432">
				 <ele>454</ele>
			 </trkpt>
			 <trkpt lat="31.62716" lon="-8.01431">
				 <ele>454.2</ele>
			 </trkpt>
			 <trkpt lat="31.62711" lon="-8.01429">
				 <ele>454.4</ele>
			 </trkpt>
			 <trkpt lat="31.62709" lon="-8.01427">
				 <ele>454.5</ele>
			 </trkpt>
			 <trkpt lat="31.62693" lon="-8.0142">
				 <ele>454.8</ele>
			 </trkpt>
			 <trkpt lat="31.62641" lon="-8.0139">
				 <ele>455.1</ele>
			 </trkpt>
			 <trkpt lat="31.62567" lon="-8.01342">
				 <ele>455.4</ele>
			 </trkpt>
			 <trkpt lat="31.62529" lon="-8.01319">
				 <ele>455.7</ele>
			 </trkpt>
			 <trkpt lat="31.62482" lon="-8.01287">
				 <ele>456.1</ele>
			 </trkpt>
			 <trkpt lat="31.62431" lon="-8.01252">
				 <ele>456.5</ele>
			 </trkpt>
			 <trkpt lat="31.62431" lon="-8.01252">
				 <ele>457.1</ele>
			 </trkpt>
			 <trkpt lat="31.62345" lon="-8.01196">
				 <ele>457.6</ele>
			 </trkpt>
			 <trkpt lat="31.62305" lon="-8.01172">
				 <ele>458.3</ele>
			 </trkpt>
			 <trkpt lat="31.62254" lon="-8.01138">
				 <ele>458.9</ele>
			 </trkpt>
			 <trkpt lat="31.62184" lon="-8.0109">
				 <ele>459.5</ele>
			 </trkpt>
			 <trkpt lat="31.62132" lon="-8.01057">
				 <ele>460.1</ele>
			 </trkpt>
			 <trkpt lat="31.62025" lon="-8.00988">
				 <ele>460.6</ele>
			 </trkpt>
			 <trkpt lat="31.6193" lon="-8.00925">
				 <ele>461.2</ele>
			 </trkpt>
			 <trkpt lat="31.61797" lon="-8.00839">
				 <ele>461.6</ele>
			 </trkpt>
			 <trkpt lat="31.6179" lon="-8.0083">
				 <ele>462.1</ele>
			 </trkpt>
			 <trkpt lat="31.61784" lon="-8.0083">
				 <ele>462.5</ele>
			 </trkpt>
			 <trkpt lat="31.61778" lon="-8.00827">
				 <ele>462.7</ele>
			 </trkpt>
			 <trkpt lat="31.61776" lon="-8.00824">
				 <ele>462.9</ele>
			 </trkpt>
			 <trkpt lat="31.61773" lon="-8.00819">
				 <ele>463</ele>
			 </trkpt>
			 <trkpt lat="31.61772" lon="-8.0081">
				 <ele>463</ele>
			 </trkpt>
			 <trkpt lat="31.61777" lon="-8.00801">
				 <ele>463</ele>
			 </trkpt>
			 <trkpt lat="31.61783" lon="-8.00797">
				 <ele>463</ele>
			 </trkpt>
			 <trkpt lat="31.61786" lon="-8.00796">
				 <ele>463</ele>
			 </trkpt>
			 <trkpt lat="31.61788" lon="-8.00796">
				 <ele>462.9</ele>
			 </trkpt>
			 <trkpt lat="31.618" lon="-8.00766">
				 <ele>462.8</ele>
			 </trkpt>
			 <trkpt lat="31.618" lon="-8.00766">
				 <ele>462.7</ele>
			 </trkpt>
			 <trkpt lat="31.61807" lon="-8.00762">
				 <ele>462.5</ele>
			 </trkpt>
			 <trkpt lat="31.61809" lon="-8.00757">
				 <ele>462.4</ele>
			 </trkpt>
			 <trkpt lat="31.61861" lon="-8.00632">
				 <ele>462.3</ele>
			 </trkpt>
			 <trkpt lat="31.61939" lon="-8.00455">
				 <ele>462.2</ele>
			 </trkpt>
			 <trkpt lat="31.62012" lon="-8.00273">
				 <ele>462.1</ele>
			 </trkpt>
			 <trkpt lat="31.62071" lon="-8.00132">
				 <ele>462</ele>
			 </trkpt>
			 <trkpt lat="31.62094" lon="-8.00077">
				 <ele>461.8</ele>
			 </trkpt>
		 </trkseg>
	 </trk>
</gpx>