<?xml version="1.0" encoding="UTF-8"?>
 <gpx creator="Garmin Connect" version="1.1"
	 xsi:schemaLocation="http://www.topografix.com/GPX/1/1 http://www.topografix.com/GPX/11.xsd"
	 xmlns:ns3="http://www.garmin.com/xmlschemas/TrackPointExtension/v1"
	 xmlns="http://www.topografix.com/GPX/1/1"
	 xmlns:xsi="http://www.w3.org/2001/XMLSchema-instance" xmlns:ns2="http://www.garmin.com/xmlschemas/GpxExtensions/v3">
	 <metadata>
		<name>Myrtle Beach Marathon 2024 - 42.195 km</name>
		 <link href="https://www.goandrace.com">
		 <text>Garmin Connect</text>
		 </link>
	 <time>2026-08-09T17:14:23</time>
	 </metadata>
	 <trk>
		 <name>Myrtle Beach Marathon 2024 - 42.195 km</name>
		 <trkseg>
			 <trkpt lat="33.70511" lon="-78.88814">
				 <ele>7</ele>
			 </trkpt>
			 <trkpt lat="33.70489" lon="-78.88857">
				 <ele>7</ele>
			 </trkpt>
			 <trkpt lat="33.70468" lon="-78.88909">
				 <ele>7</ele>
			 </trkpt>
			 <trkpt lat="33.70423" lon="-78.89037">
				 <ele>6</ele>
			 </trkpt>
			 <trkpt lat="33.704168" lon="-78.890558">
				 <ele>6</ele>
			 </trkpt>
			 <trkpt lat="33.704049" lon="-78.890432">
				 <ele>6</ele>
			 </trkpt>
			 <trkpt lat="33.703126" lon="-78.889499">
				 <ele>7</ele>
			 </trkpt>
			 <trkpt lat="33.70215" lon="-78.888568">
				 <ele>7</ele>
			 </trkpt>
			 <trkpt lat="33.70147" lon="-78.887941">
				 <ele>7</ele>
			 </trkpt>
			 <trkpt lat="33.70129" lon="-78.88777">
				 <ele>7</ele>
			 </trkpt>
			 <trkpt lat="33.70113" lon="-78.88762">
				 <ele>7</ele>
			 </trkpt>
			 <trkpt lat="33.70083" lon="-78.88733">
				 <ele>7</ele>
			 </trkpt>
			 <trkpt lat="33.70027" lon="-78.88679">
				 <ele>7</ele>
			 </trkpt>
			 <trkpt lat="33.69941" lon="-78.88584">
				 <ele>8</ele>
			 </trkpt>
			 <trkpt lat="33.69883" lon="-78.88519">
				 <ele>8</ele>
			 </trkpt>
			 <trkpt lat="33.69829" lon="-78.88453">
				 <ele>8</ele>
			 </trkpt>
			 <trkpt lat="33.69812" lon="-78.88413">
				 <ele>8</ele>
			 </trkpt>
			 <trkpt lat="33.69794" lon="-78.88369">
				 <ele>8</ele>
			 </trkpt>
			 <trkpt lat="33.69773" lon="-78.88321">
				 <ele>8</ele>
			 </trkpt>
			 <trkpt lat="33.69762" lon="-78.88302">
				 <ele>9</ele>
			 </trkpt>
			 <trkpt lat="33.69685" lon="-78.88205">
				 <ele>9</ele>
			 </trkpt>
			 <trkpt lat="33.69614" lon="-78.88119">
				 <ele>10</ele>
			 </trkpt>
			 <trkpt lat="33.69564" lon="-78.88054">
				 <ele>10</ele>
			 </trkpt>
			 <trkpt lat="33.69562" lon="-78.88051">
				 <ele>9</ele>
			 </trkpt>
			 <trkpt lat="33.69552" lon="-78.88039">
				 <ele>9</ele>
			 </trkpt>
			 <trkpt lat="33.6949" lon="-78.88106">
				 <ele>9</ele>
			 </trkpt>
			 <trkpt lat="33.69473" lon="-78.88124">
				 <ele>9</ele>
			 </trkpt>
			 <trkpt lat="33.69387" lon="-78.88226">
				 <ele>9</ele>
			 </trkpt>
			 <trkpt lat="33.69379" lon="-78.88237">
				 <ele>9</ele>
			 </trkpt>
			 <trkpt lat="33.69368" lon="-78.88256">
				 <ele>10</ele>
			 </trkpt>
			 <trkpt lat="33.69353" lon="-78.88295">
				 <ele>10</ele>
			 </trkpt>
			 <trkpt lat="33.69342" lon="-78.8833">
				 <ele>10</ele>
			 </trkpt>
			 <trkpt lat="33.69335" lon="-78.88346">
				 <ele>10</ele>
			 </trkpt>
			 <trkpt lat="33.69298" lon="-78.88384">
				 <ele>10</ele>
			 </trkpt>
			 <trkpt lat="33.6928" lon="-78.88401">
				 <ele>10</ele>
			 </trkpt>
			 <trkpt lat="33.69277" lon="-78.88396">
				 <ele>10</ele>
			 </trkpt>
			 <trkpt lat="33.69086" lon="-78.88578">
				 <ele>7</ele>
			 </trkpt>
			 <trkpt lat="33.68878" lon="-78.88776">
				 <ele>8</ele>
			 </trkpt>
			 <trkpt lat="33.68667" lon="-78.88977">
				 <ele>5</ele>
			 </trkpt>
			 <trkpt lat="33.68529" lon="-78.89109">
				 <ele>5</ele>
			 </trkpt>
			 <trkpt lat="33.6849" lon="-78.89146">
				 <ele>5</ele>
			 </trkpt>
			 <trkpt lat="33.6845" lon="-78.89189">
				 <ele>4</ele>
			 </trkpt>
			 <trkpt lat="33.68358" lon="-78.89312">
				 <ele>2</ele>
			 </trkpt>
			 <trkpt lat="33.6829" lon="-78.89408">
				 <ele>3</ele>
			 </trkpt>
			 <trkpt lat="33.6816" lon="-78.89589">
				 <ele>5</ele>
			 </trkpt>
			 <trkpt lat="33.68034" lon="-78.89763">
				 <ele>7</ele>
			 </trkpt>
			 <trkpt lat="33.67771" lon="-78.90127">
				 <ele>7</ele>
			 </trkpt>
			 <trkpt lat="33.67585" lon="-78.90386">
				 <ele>8</ele>
			 </trkpt>
			 <trkpt lat="33.67504" lon="-78.90497">
				 <ele>7</ele>
			 </trkpt>
			 <trkpt lat="33.67389" lon="-78.90656">
				 <ele>7</ele>
			 </trkpt>
			 <trkpt lat="33.67357" lon="-78.90705">
				 <ele>6</ele>
			 </trkpt>
			 <trkpt lat="33.67328" lon="-78.90751">
				 <ele>7</ele>
			 </trkpt>
			 <trkpt lat="33.67268" lon="-78.9084">
				 <ele>8</ele>
			 </trkpt>
			 <trkpt lat="33.67177" lon="-78.9097">
				 <ele>8</ele>
			 </trkpt>
			 <trkpt lat="33.67089" lon="-78.91097">
				 <ele>8</ele>
			 </trkpt>
			 <trkpt lat="33.67057" lon="-78.91137">
				 <ele>8</ele>
			 </trkpt>
			 <trkpt lat="33.67001" lon="-78.91216">
				 <ele>8</ele>
			 </trkpt>
			 <trkpt lat="33.66985" lon="-78.91237">
				 <ele>8</ele>
			 </trkpt>
			 <trkpt lat="33.66874" lon="-78.91391">
				 <ele>7</ele>
			 </trkpt>
			 <trkpt lat="33.66728" lon="-78.91595">
				 <ele>6</ele>
			 </trkpt>
			 <trkpt lat="33.66553" lon="-78.91837">
				 <ele>6</ele>
			 </trkpt>
			 <trkpt lat="33.66491" lon="-78.91922">
				 <ele>6</ele>
			 </trkpt>
			 <trkpt lat="33.66397" lon="-78.92056">
				 <ele>6</ele>
			 </trkpt>
			 <trkpt lat="33.66217" lon="-78.92302">
				 <ele>4</ele>
			 </trkpt>
			 <trkpt lat="33.66038" lon="-78.92548">
				 <ele>6</ele>
			 </trkpt>
			 <trkpt lat="33.65995" lon="-78.92604">
				 <ele>6</ele>
			 </trkpt>
			 <trkpt lat="33.65955" lon="-78.92654">
				 <ele>6</ele>
			 </trkpt>
			 <trkpt lat="33.65954" lon="-78.92663">
				 <ele>6</ele>
			 </trkpt>
			 <trkpt lat="33.65944" lon="-78.92681">
				 <ele>6</ele>
			 </trkpt>
			 <trkpt lat="33.65941" lon="-78.92695">
				 <ele>6</ele>
			 </trkpt>
			 <trkpt lat="33.6594" lon="-78.92705">
				 <ele>6</ele>
			 </trkpt>
			 <trkpt lat="33.65943" lon="-78.92717">
				 <ele>6</ele>
			 </trkpt>
			 <trkpt lat="33.65947" lon="-78.92726">
				 <ele>6</ele>
			 </trkpt>
			 <trkpt lat="33.66006" lon="-78.92794">
				 <ele>6</ele>
			 </trkpt>
			 <trkpt lat="33.66177" lon="-78.92982">
				 <ele>6</ele>
			 </trkpt>
			 <trkpt lat="33.66385" lon="-78.93211">
				 <ele>6</ele>
			 </trkpt>
			 <trkpt lat="33.66441" lon="-78.93273">
				 <ele>6</ele>
			 </trkpt>
			 <trkpt lat="33.66454" lon="-78.93292">
				 <ele>6</ele>
			 </trkpt>
			 <trkpt lat="33.66473" lon="-78.93325">
				 <ele>6</ele>
			 </trkpt>
			 <trkpt lat="33.66484" lon="-78.93352">
				 <ele>6</ele>
			 </trkpt>
			 <trkpt lat="33.66492" lon="-78.93382">
				 <ele>6</ele>
			 </trkpt>
			 <trkpt lat="33.66499" lon="-78.93426">
				 <ele>6</ele>
			 </trkpt>
			 <trkpt lat="33.66499" lon="-78.93462">
				 <ele>6</ele>
			 </trkpt>
			 <trkpt lat="33.66492" lon="-78.9352">
				 <ele>6</ele>
			 </trkpt>
			 <trkpt lat="33.66476" lon="-78.9361">
				 <ele>6</ele>
			 </trkpt>
			 <trkpt lat="33.66433" lon="-78.93844">
				 <ele>6</ele>
			 </trkpt>
			 <trkpt lat="33.6643" lon="-78.93875">
				 <ele>6</ele>
			 </trkpt>
			 <trkpt lat="33.66429" lon="-78.93896">
				 <ele>6</ele>
			 </trkpt>
			 <trkpt lat="33.66434" lon="-78.93931">
				 <ele>6</ele>
			 </trkpt>
			 <trkpt lat="33.66445" lon="-78.93962">
				 <ele>6</ele>
			 </trkpt>
			 <trkpt lat="33.66468" lon="-78.93999">
				 <ele>6</ele>
			 </trkpt>
			 <trkpt lat="33.6649" lon="-78.9402">
				 <ele>6</ele>
			 </trkpt>
			 <trkpt lat="33.66515" lon="-78.94036">
				 <ele>6</ele>
			 </trkpt>
			 <trkpt lat="33.66544" lon="-78.94045">
				 <ele>6</ele>
			 </trkpt>
			 <trkpt lat="33.66573" lon="-78.94047">
				 <ele>6</ele>
			 </trkpt>
			 <trkpt lat="33.66702" lon="-78.94044">
				 <ele>6</ele>
			 </trkpt>
			 <trkpt lat="33.66738" lon="-78.94045">
				 <ele>6</ele>
			 </trkpt>
			 <trkpt lat="33.66791" lon="-78.94054">
				 <ele>6</ele>
			 </trkpt>
			 <trkpt lat="33.66869" lon="-78.94073">
				 <ele>6</ele>
			 </trkpt>
			 <trkpt lat="33.66901" lon="-78.94081">
				 <ele>6</ele>
			 </trkpt>
			 <trkpt lat="33.66926" lon="-78.94091">
				 <ele>6</ele>
			 </trkpt>
			 <trkpt lat="33.66949" lon="-78.94102">
				 <ele>6</ele>
			 </trkpt>
			 <trkpt lat="33.6697" lon="-78.94115">
				 <ele>6</ele>
			 </trkpt>
			 <trkpt lat="33.66985" lon="-78.94127">
				 <ele>6</ele>
			 </trkpt>
			 <trkpt lat="33.67013" lon="-78.94155">
				 <ele>6</ele>
			 </trkpt>
			 <trkpt lat="33.6703" lon="-78.94176">
				 <ele>6</ele>
			 </trkpt>
			 <trkpt lat="33.67058" lon="-78.94224">
				 <ele>6</ele>
			 </trkpt>
			 <trkpt lat="33.67069" lon="-78.94247">
				 <ele>6</ele>
			 </trkpt>
			 <trkpt lat="33.67078" lon="-78.94277">
				 <ele>6</ele>
			 </trkpt>
			 <trkpt lat="33.67084" lon="-78.94299">
				 <ele>6</ele>
			 </trkpt>
			 <trkpt lat="33.67091" lon="-78.94346">
				 <ele>6</ele>
			 </trkpt>
			 <trkpt lat="33.67092" lon="-78.9439">
				 <ele>6</ele>
			 </trkpt>
			 <trkpt lat="33.67088" lon="-78.94431">
				 <ele>6</ele>
			 </trkpt>
			 <trkpt lat="33.67079" lon="-78.94471">
				 <ele>6</ele>
			 </trkpt>
			 <trkpt lat="33.67069" lon="-78.94503">
				 <ele>6</ele>
			 </trkpt>
			 <trkpt lat="33.67067" lon="-78.94507">
				 <ele>6</ele>
			 </trkpt>
			 <trkpt lat="33.67055" lon="-78.94504">
				 <ele>6</ele>
			 </trkpt>
			 <trkpt lat="33.67064" lon="-78.94479">
				 <ele>6</ele>
			 </trkpt>
			 <trkpt lat="33.67072" lon="-78.94451">
				 <ele>6</ele>
			 </trkpt>
			 <trkpt lat="33.67077" lon="-78.94421">
				 <ele>6</ele>
			 </trkpt>
			 <trkpt lat="33.6708" lon="-78.94379">
				 <ele>6</ele>
			 </trkpt>
			 <trkpt lat="33.6708" lon="-78.94349">
				 <ele>6</ele>
			 </trkpt>
			 <trkpt lat="33.67072" lon="-78.94294">
				 <ele>6</ele>
			 </trkpt>
			 <trkpt lat="33.67058" lon="-78.94254">
				 <ele>6</ele>
			 </trkpt>
			 <trkpt lat="33.67041" lon="-78.94216">
				 <ele>6</ele>
			 </trkpt>
			 <trkpt lat="33.67027" lon="-78.94192">
				 <ele>6</ele>
			 </trkpt>
			 <trkpt lat="33.67006" lon="-78.94165">
				 <ele>6</ele>
			 </trkpt>
			 <trkpt lat="33.6698" lon="-78.94138">
				 <ele>6</ele>
			 </trkpt>
			 <trkpt lat="33.66954" lon="-78.94121">
				 <ele>6</ele>
			 </trkpt>
			 <trkpt lat="33.66912" lon="-78.941">
				 <ele>6</ele>
			 </trkpt>
			 <trkpt lat="33.66894" lon="-78.94093">
				 <ele>6</ele>
			 </trkpt>
			 <trkpt lat="33.66815" lon="-78.94073">
				 <ele>6</ele>
			 </trkpt>
			 <trkpt lat="33.66781" lon="-78.94065">
				 <ele>6</ele>
			 </trkpt>
			 <trkpt lat="33.66738" lon="-78.94059">
				 <ele>6</ele>
			 </trkpt>
			 <trkpt lat="33.66674" lon="-78.94058">
				 <ele>6</ele>
			 </trkpt>
			 <trkpt lat="33.66572" lon="-78.94059">
				 <ele>6</ele>
			 </trkpt>
			 <trkpt lat="33.66545" lon="-78.94058">
				 <ele>6</ele>
			 </trkpt>
			 <trkpt lat="33.66522" lon="-78.94053">
				 <ele>6</ele>
			 </trkpt>
			 <trkpt lat="33.66499" lon="-78.94043">
				 <ele>6</ele>
			 </trkpt>
			 <trkpt lat="33.6647" lon="-78.94021">
				 <ele>6</ele>
			 </trkpt>
			 <trkpt lat="33.66446" lon="-78.9399">
				 <ele>6</ele>
			 </trkpt>
			 <trkpt lat="33.66435" lon="-78.93969">
				 <ele>6</ele>
			 </trkpt>
			 <trkpt lat="33.66425" lon="-78.93938">
				 <ele>6</ele>
			 </trkpt>
			 <trkpt lat="33.66419" lon="-78.9391">
				 <ele>6</ele>
			 </trkpt>
			 <trkpt lat="33.66418" lon="-78.93889">
				 <ele>6</ele>
			 </trkpt>
			 <trkpt lat="33.66422" lon="-78.93841">
				 <ele>6</ele>
			 </trkpt>
			 <trkpt lat="33.66457" lon="-78.93645">
				 <ele>6</ele>
			 </trkpt>
			 <trkpt lat="33.66486" lon="-78.93481">
				 <ele>6</ele>
			 </trkpt>
			 <trkpt lat="33.66488" lon="-78.93454">
				 <ele>6</ele>
			 </trkpt>
			 <trkpt lat="33.66487" lon="-78.93428">
				 <ele>6</ele>
			 </trkpt>
			 <trkpt lat="33.66483" lon="-78.93399">
				 <ele>6</ele>
			 </trkpt>
			 <trkpt lat="33.66473" lon="-78.93359">
				 <ele>6</ele>
			 </trkpt>
			 <trkpt lat="33.66458" lon="-78.93324">
				 <ele>6</ele>
			 </trkpt>
			 <trkpt lat="33.66437" lon="-78.9329">
				 <ele>6</ele>
			 </trkpt>
			 <trkpt lat="33.66284" lon="-78.93119">
				 <ele>6</ele>
			 </trkpt>
			 <trkpt lat="33.65987" lon="-78.92792">
				 <ele>6</ele>
			 </trkpt>
			 <trkpt lat="33.65934" lon="-78.92733">
				 <ele>6</ele>
			 </trkpt>
			 <trkpt lat="33.65916" lon="-78.92713">
				 <ele>6</ele>
			 </trkpt>
			 <trkpt lat="33.65908" lon="-78.92709">
				 <ele>6</ele>
			 </trkpt>
			 <trkpt lat="33.65894" lon="-78.92699">
				 <ele>6</ele>
			 </trkpt>
			 <trkpt lat="33.65888" lon="-78.92691">
				 <ele>6</ele>
			 </trkpt>
			 <trkpt lat="33.65868" lon="-78.92666">
				 <ele>6</ele>
			 </trkpt>
			 <trkpt lat="33.65862" lon="-78.92658">
				 <ele>6</ele>
			 </trkpt>
			 <trkpt lat="33.6585" lon="-78.92635">
				 <ele>6</ele>
			 </trkpt>
			 <trkpt lat="33.65842" lon="-78.92602">
				 <ele>6</ele>
			 </trkpt>
			 <trkpt lat="33.65841" lon="-78.92577">
				 <ele>6</ele>
			 </trkpt>
			 <trkpt lat="33.65852" lon="-78.92486">
				 <ele>5</ele>
			 </trkpt>
			 <trkpt lat="33.65919" lon="-78.9192">
				 <ele>3</ele>
			 </trkpt>
			 <trkpt lat="33.65941" lon="-78.9185">
				 <ele>3</ele>
			 </trkpt>
			 <trkpt lat="33.65952" lon="-78.91822">
				 <ele>3</ele>
			 </trkpt>
			 <trkpt lat="33.65992" lon="-78.91748">
				 <ele>4</ele>
			 </trkpt>
			 <trkpt lat="33.66014" lon="-78.91718">
				 <ele>4</ele>
			 </trkpt>
			 <trkpt lat="33.66022" lon="-78.91714">
				 <ele>4</ele>
			 </trkpt>
			 <trkpt lat="33.66032" lon="-78.91698">
				 <ele>4</ele>
			 </trkpt>
			 <trkpt lat="33.66132" lon="-78.9158">
				 <ele>4</ele>
			 </trkpt>
			 <trkpt lat="33.66354" lon="-78.91315">
				 <ele>3</ele>
			 </trkpt>
			 <trkpt lat="33.66586" lon="-78.91037">
				 <ele>4</ele>
			 </trkpt>
			 <trkpt lat="33.66837" lon="-78.90737">
				 <ele>5</ele>
			 </trkpt>
			 <trkpt lat="33.6695" lon="-78.90604">
				 <ele>5</ele>
			 </trkpt>
			 <trkpt lat="33.66994" lon="-78.9055">
				 <ele>5</ele>
			 </trkpt>
			 <trkpt lat="33.67056" lon="-78.90475">
				 <ele>6</ele>
			 </trkpt>
			 <trkpt lat="33.67088" lon="-78.90436">
				 <ele>6</ele>
			 </trkpt>
			 <trkpt lat="33.67183" lon="-78.90327">
				 <ele>6</ele>
			 </trkpt>
			 <trkpt lat="33.67289" lon="-78.90201">
				 <ele>6</ele>
			 </trkpt>
			 <trkpt lat="33.67322" lon="-78.90161">
				 <ele>6</ele>
			 </trkpt>
			 <trkpt lat="33.67377" lon="-78.90104">
				 <ele>6</ele>
			 </trkpt>
			 <trkpt lat="33.6742" lon="-78.90058">
				 <ele>6</ele>
			 </trkpt>
			 <trkpt lat="33.67469" lon="-78.90007">
				 <ele>6</ele>
			 </trkpt>
			 <trkpt lat="33.67537" lon="-78.89934">
				 <ele>5</ele>
			 </trkpt>
			 <trkpt lat="33.67748" lon="-78.89685">
				 <ele>6</ele>
			 </trkpt>
			 <trkpt lat="33.67798" lon="-78.89629">
				 <ele>6</ele>
			 </trkpt>
			 <trkpt lat="33.67865" lon="-78.89547">
				 <ele>6</ele>
			 </trkpt>
			 <trkpt lat="33.67944" lon="-78.89445">
				 <ele>5</ele>
			 </trkpt>
			 <trkpt lat="33.67994" lon="-78.89373">
				 <ele>4</ele>
			 </trkpt>
			 <trkpt lat="33.68005" lon="-78.89355">
				 <ele>4</ele>
			 </trkpt>
			 <trkpt lat="33.68027" lon="-78.89309">
				 <ele>4</ele>
			 </trkpt>
			 <trkpt lat="33.68069" lon="-78.89214">
				 <ele>3</ele>
			 </trkpt>
			 <trkpt lat="33.68106" lon="-78.89129">
				 <ele>2</ele>
			 </trkpt>
			 <trkpt lat="33.68125" lon="-78.89089">
				 <ele>2</ele>
			 </trkpt>
			 <trkpt lat="33.68141" lon="-78.89058">
				 <ele>2</ele>
			 </trkpt>
			 <trkpt lat="33.68176" lon="-78.89">
				 <ele>3</ele>
			 </trkpt>
			 <trkpt lat="33.68199" lon="-78.88965">
				 <ele>3</ele>
			 </trkpt>
			 <trkpt lat="33.68261" lon="-78.88881">
				 <ele>4</ele>
			 </trkpt>
			 <trkpt lat="33.68319" lon="-78.88828">
				 <ele>4</ele>
			 </trkpt>
			 <trkpt lat="33.68366" lon="-78.88786">
				 <ele>4</ele>
			 </trkpt>
			 <trkpt lat="33.684031" lon="-78.887497">
				 <ele>4</ele>
			 </trkpt>
			 <trkpt lat="33.684384" lon="-78.887136">
				 <ele>4</ele>
			 </trkpt>
			 <trkpt lat="33.684614" lon="-78.886876">
				 <ele>4</ele>
			 </trkpt>
			 <trkpt lat="33.684655" lon="-78.886834">
				 <ele>4</ele>
			 </trkpt>
			 <trkpt lat="33.684648" lon="-78.886767">
				 <ele>4</ele>
			 </trkpt>
			 <trkpt lat="33.684562" lon="-78.88661">
				 <ele>4</ele>
			 </trkpt>
			 <trkpt lat="33.684434" lon="-78.886425">
				 <ele>4</ele>
			 </trkpt>
			 <trkpt lat="33.684319" lon="-78.886238">
				 <ele>3</ele>
			 </trkpt>
			 <trkpt lat="33.684308" lon="-78.886191">
				 <ele>3</ele>
			 </trkpt>
			 <trkpt lat="33.684357" lon="-78.886128">
				 <ele>3</ele>
			 </trkpt>
			 <trkpt lat="33.68445" lon="-78.886047">
				 <ele>3</ele>
			 </trkpt>
			 <trkpt lat="33.684551" lon="-78.885985">
				 <ele>3</ele>
			 </trkpt>
			 <trkpt lat="33.684623" lon="-78.885971">
				 <ele>3</ele>
			 </trkpt>
			 <trkpt lat="33.684682" lon="-78.885904">
				 <ele>3</ele>
			 </trkpt>
			 <trkpt lat="33.684733" lon="-78.885813">
				 <ele>3</ele>
			 </trkpt>
			 <trkpt lat="33.684782" lon="-78.885747">
				 <ele>3</ele>
			 </trkpt>
			 <trkpt lat="33.68488" lon="-78.885726">
				 <ele>3</ele>
			 </trkpt>
			 <trkpt lat="33.684961" lon="-78.885699">
				 <ele>4</ele>
			 </trkpt>
			 <trkpt lat="33.685014" lon="-78.885624">
				 <ele>3</ele>
			 </trkpt>
			 <trkpt lat="33.685041" lon="-78.885527">
				 <ele>3</ele>
			 </trkpt>
			 <trkpt lat="33.685077" lon="-78.885415">
				 <ele>3</ele>
			 </trkpt>
			 <trkpt lat="33.685136" lon="-78.885353">
				 <ele>3</ele>
			 </trkpt>
			 <trkpt lat="33.685213" lon="-78.88531">
				 <ele>3</ele>
			 </trkpt>
			 <trkpt lat="33.685282" lon="-78.885235">
				 <ele>3</ele>
			 </trkpt>
			 <trkpt lat="33.685409" lon="-78.885116">
				 <ele>3</ele>
			 </trkpt>
			 <trkpt lat="33.685499" lon="-78.885086">
				 <ele>3</ele>
			 </trkpt>
			 <trkpt lat="33.685554" lon="-78.885005">
				 <ele>3</ele>
			 </trkpt>
			 <trkpt lat="33.68561" lon="-78.884926">
				 <ele>3</ele>
			 </trkpt>
			 <trkpt lat="33.685738" lon="-78.884866">
				 <ele>4</ele>
			 </trkpt>
			 <trkpt lat="33.685784" lon="-78.884804">
				 <ele>4</ele>
			 </trkpt>
			 <trkpt lat="33.685824" lon="-78.884718">
				 <ele>4</ele>
			 </trkpt>
			 <trkpt lat="33.685904" lon="-78.884673">
				 <ele>4</ele>
			 </trkpt>
			 <trkpt lat="33.685988" lon="-78.884642">
				 <ele>4</ele>
			 </trkpt>
			 <trkpt lat="33.686058" lon="-78.884595">
				 <ele>4</ele>
			 </trkpt>
			 <trkpt lat="33.686104" lon="-78.884559">
				 <ele>4</ele>
			 </trkpt>
			 <trkpt lat="33.686153" lon="-78.884455">
				 <ele>4</ele>
			 </trkpt>
			 <trkpt lat="33.686244" lon="-78.884391">
				 <ele>4</ele>
			 </trkpt>
			 <trkpt lat="33.686299" lon="-78.884323">
				 <ele>4</ele>
			 </trkpt>
			 <trkpt lat="33.686362" lon="-78.884252">
				 <ele>4</ele>
			 </trkpt>
			 <trkpt lat="33.686472" lon="-78.884138">
				 <ele>4</ele>
			 </trkpt>
			 <trkpt lat="33.686606" lon="-78.884098">
				 <ele>4</ele>
			 </trkpt>
			 <trkpt lat="33.686723" lon="-78.884083">
				 <ele>4</ele>
			 </trkpt>
			 <trkpt lat="33.686818" lon="-78.88403">
				 <ele>4</ele>
			 </trkpt>
			 <trkpt lat="33.686857" lon="-78.883962">
				 <ele>4</ele>
			 </trkpt>
			 <trkpt lat="33.686879" lon="-78.883862">
				 <ele>4</ele>
			 </trkpt>
			 <trkpt lat="33.686903" lon="-78.883778">
				 <ele>4</ele>
			 </trkpt>
			 <trkpt lat="33.686945" lon="-78.883728">
				 <ele>4</ele>
			 </trkpt>
			 <trkpt lat="33.687013" lon="-78.883708">
				 <ele>4</ele>
			 </trkpt>
			 <trkpt lat="33.687032" lon="-78.883638">
				 <ele>4</ele>
			 </trkpt>
			 <trkpt lat="33.687076" lon="-78.883555">
				 <ele>3</ele>
			 </trkpt>
			 <trkpt lat="33.687163" lon="-78.883502">
				 <ele>4</ele>
			 </trkpt>
			 <trkpt lat="33.68722" lon="-78.883474">
				 <ele>4</ele>
			 </trkpt>
			 <trkpt lat="33.687294" lon="-78.883396">
				 <ele>4</ele>
			 </trkpt>
			 <trkpt lat="33.687371" lon="-78.883334">
				 <ele>4</ele>
			 </trkpt>
			 <trkpt lat="33.68743" lon="-78.883251">
				 <ele>3</ele>
			 </trkpt>
			 <trkpt lat="33.687522" lon="-78.883156">
				 <ele>3</ele>
			 </trkpt>
			 <trkpt lat="33.687602" lon="-78.88312">
				 <ele>4</ele>
			 </trkpt>
			 <trkpt lat="33.687659" lon="-78.88308">
				 <ele>4</ele>
			 </trkpt>
			 <trkpt lat="33.687714" lon="-78.88299">
				 <ele>4</ele>
			 </trkpt>
			 <trkpt lat="33.687764" lon="-78.882947">
				 <ele>4</ele>
			 </trkpt>
			 <trkpt lat="33.687875" lon="-78.882929">
				 <ele>4</ele>
			 </trkpt>
			 <trkpt lat="33.687924" lon="-78.882848">
				 <ele>4</ele>
			 </trkpt>
			 <trkpt lat="33.687976" lon="-78.882731">
				 <ele>3</ele>
			 </trkpt>
			 <trkpt lat="33.688071" lon="-78.882673">
				 <ele>4</ele>
			 </trkpt>
			 <trkpt lat="33.68818" lon="-78.882546">
				 <ele>3</ele>
			 </trkpt>
			 <trkpt lat="33.688259" lon="-78.882515">
				 <ele>4</ele>
			 </trkpt>
			 <trkpt lat="33.688319" lon="-78.882435">
				 <ele>4</ele>
			 </trkpt>
			 <trkpt lat="33.688401" lon="-78.882412">
				 <ele>4</ele>
			 </trkpt>
			 <trkpt lat="33.688483" lon="-78.882295">
				 <ele>4</ele>
			 </trkpt>
			 <trkpt lat="33.688551" lon="-78.882218">
				 <ele>3</ele>
			 </trkpt>
			 <trkpt lat="33.688615" lon="-78.882189">
				 <ele>4</ele>
			 </trkpt>
			 <trkpt lat="33.688685" lon="-78.882162">
				 <ele>4</ele>
			 </trkpt>
			 <trkpt lat="33.688719" lon="-78.882095">
				 <ele>4</ele>
			 </trkpt>
			 <trkpt lat="33.688772" lon="-78.882016">
				 <ele>3</ele>
			 </trkpt>
			 <trkpt lat="33.688875" lon="-78.881948">
				 <ele>4</ele>
			 </trkpt>
			 <trkpt lat="33.68893" lon="-78.881855">
				 <ele>3</ele>
			 </trkpt>
			 <trkpt lat="33.689107" lon="-78.881762">
				 <ele>4</ele>
			 </trkpt>
			 <trkpt lat="33.689156" lon="-78.881709">
				 <ele>4</ele>
			 </trkpt>
			 <trkpt lat="33.689217" lon="-78.881628">
				 <ele>3</ele>
			 </trkpt>
			 <trkpt lat="33.68936" lon="-78.881568">
				 <ele>4</ele>
			 </trkpt>
			 <trkpt lat="33.689445" lon="-78.881511">
				 <ele>4</ele>
			 </trkpt>
			 <trkpt lat="33.689548" lon="-78.881394">
				 <ele>4</ele>
			 </trkpt>
			 <trkpt lat="33.689627" lon="-78.881323">
				 <ele>4</ele>
			 </trkpt>
			 <trkpt lat="33.689685" lon="-78.881256">
				 <ele>4</ele>
			 </trkpt>
			 <trkpt lat="33.689709" lon="-78.881165">
				 <ele>3</ele>
			 </trkpt>
			 <trkpt lat="33.689724" lon="-78.881105">
				 <ele>3</ele>
			 </trkpt>
			 <trkpt lat="33.689821" lon="-78.881083">
				 <ele>3</ele>
			 </trkpt>
			 <trkpt lat="33.689878" lon="-78.880984">
				 <ele>3</ele>
			 </trkpt>
			 <trkpt lat="33.689974" lon="-78.881007">
				 <ele>4</ele>
			 </trkpt>
			 <trkpt lat="33.690021" lon="-78.880953">
				 <ele>4</ele>
			 </trkpt>
			 <trkpt lat="33.690069" lon="-78.88078">
				 <ele>3</ele>
			 </trkpt>
			 <trkpt lat="33.690138" lon="-78.880749">
				 <ele>3</ele>
			 </trkpt>
			 <trkpt lat="33.690233" lon="-78.88074">
				 <ele>4</ele>
			 </trkpt>
			 <trkpt lat="33.690323" lon="-78.880689">
				 <ele>4</ele>
			 </trkpt>
			 <trkpt lat="33.69037" lon="-78.880634">
				 <ele>4</ele>
			 </trkpt>
			 <trkpt lat="33.69042" lon="-78.880556">
				 <ele>4</ele>
			 </trkpt>
			 <trkpt lat="33.690475" lon="-78.88044">
				 <ele>4</ele>
			 </trkpt>
			 <trkpt lat="33.690546" lon="-78.880335">
				 <ele>3</ele>
			 </trkpt>
			 <trkpt lat="33.690612" lon="-78.880271">
				 <ele>4</ele>
			 </trkpt>
			 <trkpt lat="33.690907" lon="-78.880738">
				 <ele>6</ele>
			 </trkpt>
			 <trkpt lat="33.691039" lon="-78.880746">
				 <ele>6</ele>
			 </trkpt>
			 <trkpt lat="33.691191" lon="-78.880593">
				 <ele>6</ele>
			 </trkpt>
			 <trkpt lat="33.69149" lon="-78.88032">
				 <ele>6</ele>
			 </trkpt>
			 <trkpt lat="33.69199" lon="-78.87985">
				 <ele>6</ele>
			 </trkpt>
			 <trkpt lat="33.69251" lon="-78.8793">
				 <ele>6</ele>
			 </trkpt>
			 <trkpt lat="33.69291" lon="-78.87886">
				 <ele>6</ele>
			 </trkpt>
			 <trkpt lat="33.69308" lon="-78.87868">
				 <ele>6</ele>
			 </trkpt>
			 <trkpt lat="33.6934" lon="-78.87832">
				 <ele>6</ele>
			 </trkpt>
			 <trkpt lat="33.69366" lon="-78.87804">
				 <ele>6</ele>
			 </trkpt>
			 <trkpt lat="33.69375" lon="-78.87794">
				 <ele>6</ele>
			 </trkpt>
			 <trkpt lat="33.69419" lon="-78.87747">
				 <ele>6</ele>
			 </trkpt>
			 <trkpt lat="33.69475" lon="-78.87685">
				 <ele>5</ele>
			 </trkpt>
			 <trkpt lat="33.69541" lon="-78.87615">
				 <ele>4</ele>
			 </trkpt>
			 <trkpt lat="33.69662" lon="-78.87487">
				 <ele>6</ele>
			 </trkpt>
			 <trkpt lat="33.69838" lon="-78.87297">
				 <ele>5</ele>
			 </trkpt>
			 <trkpt lat="33.69906" lon="-78.87223">
				 <ele>5</ele>
			 </trkpt>
			 <trkpt lat="33.70033" lon="-78.87087">
				 <ele>5</ele>
			 </trkpt>
			 <trkpt lat="33.70095" lon="-78.8702">
				 <ele>5</ele>
			 </trkpt>
			 <trkpt lat="33.7016" lon="-78.86949">
				 <ele>5</ele>
			 </trkpt>
			 <trkpt lat="33.70244" lon="-78.86856">
				 <ele>5</ele>
			 </trkpt>
			 <trkpt lat="33.7036" lon="-78.8673">
				 <ele>3</ele>
			 </trkpt>
			 <trkpt lat="33.70379" lon="-78.86708">
				 <ele>4</ele>
			 </trkpt>
			 <trkpt lat="33.70418" lon="-78.8663">
				 <ele>5</ele>
			 </trkpt>
			 <trkpt lat="33.70461" lon="-78.8655">
				 <ele>5</ele>
			 </trkpt>
			 <trkpt lat="33.705" lon="-78.86501">
				 <ele>5</ele>
			 </trkpt>
			 <trkpt lat="33.70687" lon="-78.86268">
				 <ele>4</ele>
			 </trkpt>
			 <trkpt lat="33.70812" lon="-78.86114">
				 <ele>5</ele>
			 </trkpt>
			 <trkpt lat="33.70881" lon="-78.86028">
				 <ele>4</ele>
			 </trkpt>
			 <trkpt lat="33.70921" lon="-78.85997">
				 <ele>5</ele>
			 </trkpt>
			 <trkpt lat="33.71057" lon="-78.85903">
				 <ele>7</ele>
			 </trkpt>
			 <trkpt lat="33.71096" lon="-78.85865">
				 <ele>7</ele>
			 </trkpt>
			 <trkpt lat="33.71108" lon="-78.85847">
				 <ele>7</ele>
			 </trkpt>
			 <trkpt lat="33.71143" lon="-78.85776">
				 <ele>6</ele>
			 </trkpt>
			 <trkpt lat="33.71168" lon="-78.85733">
				 <ele>6</ele>
			 </trkpt>
			 <trkpt lat="33.71177" lon="-78.85721">
				 <ele>6</ele>
			 </trkpt>
			 <trkpt lat="33.71243" lon="-78.85627">
				 <ele>4</ele>
			 </trkpt>
			 <trkpt lat="33.71301" lon="-78.85524">
				 <ele>5</ele>
			 </trkpt>
			 <trkpt lat="33.71321" lon="-78.85499">
				 <ele>5</ele>
			 </trkpt>
			 <trkpt lat="33.71464" lon="-78.85312">
				 <ele>4</ele>
			 </trkpt>
			 <trkpt lat="33.71509" lon="-78.85256">
				 <ele>4</ele>
			 </trkpt>
			 <trkpt lat="33.7154" lon="-78.85219">
				 <ele>4</ele>
			 </trkpt>
			 <trkpt lat="33.71578" lon="-78.85186">
				 <ele>5</ele>
			 </trkpt>
			 <trkpt lat="33.71619" lon="-78.85149">
				 <ele>5</ele>
			 </trkpt>
			 <trkpt lat="33.7167" lon="-78.85091">
				 <ele>5</ele>
			 </trkpt>
			 <trkpt lat="33.7169" lon="-78.85066">
				 <ele>5</ele>
			 </trkpt>
			 <trkpt lat="33.71891" lon="-78.84827">
				 <ele>4</ele>
			 </trkpt>
			 <trkpt lat="33.72059" lon="-78.84626">
				 <ele>6</ele>
			 </trkpt>
			 <trkpt lat="33.72214" lon="-78.84441">
				 <ele>4</ele>
			 </trkpt>
			 <trkpt lat="33.72388" lon="-78.84233">
				 <ele>4</ele>
			 </trkpt>
			 <trkpt lat="33.72493" lon="-78.84107">
				 <ele>3</ele>
			 </trkpt>
			 <trkpt lat="33.72643" lon="-78.83928">
				 <ele>4</ele>
			 </trkpt>
			 <trkpt lat="33.72645" lon="-78.83925">
				 <ele>4</ele>
			 </trkpt>
			 <trkpt lat="33.72626" lon="-78.8391">
				 <ele>4</ele>
			 </trkpt>
			 <trkpt lat="33.72611" lon="-78.83897">
				 <ele>4</ele>
			 </trkpt>
			 <trkpt lat="33.72598" lon="-78.8388">
				 <ele>4</ele>
			 </trkpt>
			 <trkpt lat="33.72591" lon="-78.83861">
				 <ele>4</ele>
			 </trkpt>
			 <trkpt lat="33.72589" lon="-78.8384">
				 <ele>4</ele>
			 </trkpt>
			 <trkpt lat="33.72592" lon="-78.83818">
				 <ele>4</ele>
			 </trkpt>
			 <trkpt lat="33.72597" lon="-78.83807">
				 <ele>4</ele>
			 </trkpt>
			 <trkpt lat="33.7267" lon="-78.83704">
				 <ele>4</ele>
			 </trkpt>
			 <trkpt lat="33.72832" lon="-78.83474">
				 <ele>4</ele>
			 </trkpt>
			 <trkpt lat="33.72907" lon="-78.83377">
				 <ele>4</ele>
			 </trkpt>
			 <trkpt lat="33.72945" lon="-78.83331">
				 <ele>4</ele>
			 </trkpt>
			 <trkpt lat="33.73072" lon="-78.83182">
				 <ele>4</ele>
			 </trkpt>
			 <trkpt lat="33.73212" lon="-78.83017">
				 <ele>4</ele>
			 </trkpt>
			 <trkpt lat="33.73355" lon="-78.82848">
				 <ele>5</ele>
			 </trkpt>
			 <trkpt lat="33.73402" lon="-78.82794">
				 <ele>5</ele>
			 </trkpt>
			 <trkpt lat="33.734473" lon="-78.827474">
				 <ele>5</ele>
			 </trkpt>
			 <trkpt lat="33.73481" lon="-78.827058">
				 <ele>5</ele>
			 </trkpt>
			 <trkpt lat="33.735201" lon="-78.826609">
				 <ele>5</ele>
			 </trkpt>
			 <trkpt lat="33.735681" lon="-78.826025">
				 <ele>5</ele>
			 </trkpt>
			 <trkpt lat="33.735858" lon="-78.825789">
				 <ele>5</ele>
			 </trkpt>
			 <trkpt lat="33.736379" lon="-78.825182">
				 <ele>5</ele>
			 </trkpt>
			 <trkpt lat="33.736751" lon="-78.824742">
				 <ele>5</ele>
			 </trkpt>
			 <trkpt lat="33.737374" lon="-78.824004">
				 <ele>3</ele>
			 </trkpt>
			 <trkpt lat="33.737799" lon="-78.823472">
				 <ele>2</ele>
			 </trkpt>
			 <trkpt lat="33.738039" lon="-78.823139">
				 <ele>2</ele>
			 </trkpt>
			 <trkpt lat="33.738269" lon="-78.822755">
				 <ele>3</ele>
			 </trkpt>
			 <trkpt lat="33.738566" lon="-78.822206">
				 <ele>3</ele>
			 </trkpt>
			 <trkpt lat="33.738692" lon="-78.821972">
				 <ele>3</ele>
			 </trkpt>
			 <trkpt lat="33.738993" lon="-78.821543">
				 <ele>4</ele>
			 </trkpt>
			 <trkpt lat="33.73971" lon="-78.82049">
				 <ele>4</ele>
			 </trkpt>
			 <trkpt lat="33.74018" lon="-78.81977">
				 <ele>4</ele>
			 </trkpt>
			 <trkpt lat="33.74051" lon="-78.8193">
				 <ele>4</ele>
			 </trkpt>
			 <trkpt lat="33.74082" lon="-78.81895">
				 <ele>4</ele>
			 </trkpt>
			 <trkpt lat="33.74091" lon="-78.81887">
				 <ele>4</ele>
			 </trkpt>
			 <trkpt lat="33.74137" lon="-78.8185">
				 <ele>4</ele>
			 </trkpt>
			 <trkpt lat="33.74213" lon="-78.81803">
				 <ele>5</ele>
			 </trkpt>
			 <trkpt lat="33.7429" lon="-78.81754">
				 <ele>5</ele>
			 </trkpt>
			 <trkpt lat="33.74326" lon="-78.8173">
				 <ele>5</ele>
			 </trkpt>
			 <trkpt lat="33.74367" lon="-78.81694">
				 <ele>5</ele>
			 </trkpt>
			 <trkpt lat="33.74394" lon="-78.81668">
				 <ele>6</ele>
			 </trkpt>
			 <trkpt lat="33.74413" lon="-78.81649">
				 <ele>7</ele>
			 </trkpt>
			 <trkpt lat="33.74485" lon="-78.81564">
				 <ele>8</ele>
			 </trkpt>
			 <trkpt lat="33.74557" lon="-78.81476">
				 <ele>10</ele>
			 </trkpt>
			 <trkpt lat="33.74598" lon="-78.81428">
				 <ele>10</ele>
			 </trkpt>
			 <trkpt lat="33.74652" lon="-78.81364">
				 <ele>10</ele>
			 </trkpt>
			 <trkpt lat="33.74693" lon="-78.81314">
				 <ele>12</ele>
			 </trkpt>
			 <trkpt lat="33.74764" lon="-78.81231">
				 <ele>12</ele>
			 </trkpt>
			 <trkpt lat="33.74833" lon="-78.81148">
				 <ele>10</ele>
			 </trkpt>
			 <trkpt lat="33.74883" lon="-78.81087">
				 <ele>8</ele>
			 </trkpt>
			 <trkpt lat="33.74911" lon="-78.81057">
				 <ele>7</ele>
			 </trkpt>
			 <trkpt lat="33.7492" lon="-78.8105">
				 <ele>7</ele>
			 </trkpt>
			 <trkpt lat="33.7493" lon="-78.81046">
				 <ele>7</ele>
			 </trkpt>
			 <trkpt lat="33.74944" lon="-78.81044">
				 <ele>7</ele>
			 </trkpt>
			 <trkpt lat="33.74952" lon="-78.81044">
				 <ele>7</ele>
			 </trkpt>
			 <trkpt lat="33.749682" lon="-78.81044">
				 <ele>7</ele>
			 </trkpt>
			 <trkpt lat="33.749764" lon="-78.810163">
				 <ele>7</ele>
			 </trkpt>
			 <trkpt lat="33.749938" lon="-78.809726">
				 <ele>7</ele>
			 </trkpt>
			 <trkpt lat="33.75013" lon="-78.809441">
				 <ele>6</ele>
			 </trkpt>
			 <trkpt lat="33.750272" lon="-78.809276">
				 <ele>6</ele>
			 </trkpt>
			 <trkpt lat="33.750473" lon="-78.809037">
				 <ele>6</ele>
			 </trkpt>
			 <trkpt lat="33.750672" lon="-78.808797">
				 <ele>6</ele>
			 </trkpt>
			 <trkpt lat="33.750904" lon="-78.808504">
				 <ele>5</ele>
			 </trkpt>
			 <trkpt lat="33.751015" lon="-78.808367">
				 <ele>5</ele>
			 </trkpt>
			 <trkpt lat="33.751156" lon="-78.808306">
				 <ele>5</ele>
			 </trkpt>
			 <trkpt lat="33.751421" lon="-78.808655">
				 <ele>5</ele>
			 </trkpt>
			 <trkpt lat="33.751825" lon="-78.809127">
				 <ele>5</ele>
			 </trkpt>
			 <trkpt lat="33.752178" lon="-78.809443">
				 <ele>5</ele>
			 </trkpt>
			 <trkpt lat="33.752645" lon="-78.809642">
				 <ele>5</ele>
			 </trkpt>
			 <trkpt lat="33.753024" lon="-78.809776">
				 <ele>5</ele>
			 </trkpt>
			 <trkpt lat="33.753314" lon="-78.809915">
				 <ele>5</ele>
			 </trkpt>
			 <trkpt lat="33.753566" lon="-78.810152">
				 <ele>5</ele>
			 </trkpt>
			 <trkpt lat="33.753812" lon="-78.810388">
				 <ele>5</ele>
			 </trkpt>
			 <trkpt lat="33.754111" lon="-78.810667">
				 <ele>4</ele>
			 </trkpt>
			 <trkpt lat="33.754303" lon="-78.810911">
				 <ele>4</ele>
			 </trkpt>
			 <trkpt lat="33.754588" lon="-78.811254">
				 <ele>5</ele>
			 </trkpt>
			 <trkpt lat="33.754841" lon="-78.81156">
				 <ele>7</ele>
			 </trkpt>
			 <trkpt lat="33.755326" lon="-78.812194">
				 <ele>8</ele>
			 </trkpt>
			 <trkpt lat="33.755743" lon="-78.812643">
				 <ele>8</ele>
			 </trkpt>
			 <trkpt lat="33.756188" lon="-78.812847">
				 <ele>8</ele>
			 </trkpt>
			 <trkpt lat="33.756522" lon="-78.81286">
				 <ele>8</ele>
			 </trkpt>
			 <trkpt lat="33.756771" lon="-78.812804">
				 <ele>8</ele>
			 </trkpt>
			 <trkpt lat="33.757076" lon="-78.812655">
				 <ele>8</ele>
			 </trkpt>
			 <trkpt lat="33.757366" lon="-78.812486">
				 <ele>8</ele>
			 </trkpt>
			 <trkpt lat="33.757624" lon="-78.812284">
				 <ele>8</ele>
			 </trkpt>
			 <trkpt lat="33.757874" lon="-78.8121">
				 <ele>8</ele>
			 </trkpt>
			 <trkpt lat="33.758095" lon="-78.811942">
				 <ele>9</ele>
			 </trkpt>
			 <trkpt lat="33.758319" lon="-78.811775">
				 <ele>9</ele>
			 </trkpt>
			 <trkpt lat="33.758597" lon="-78.811622">
				 <ele>10</ele>
			 </trkpt>
			 <trkpt lat="33.758871" lon="-78.811534">
				 <ele>10</ele>
			 </trkpt>
			 <trkpt lat="33.759329" lon="-78.811358">
				 <ele>10</ele>
			 </trkpt>
			 <trkpt lat="33.759697" lon="-78.811253">
				 <ele>10</ele>
			 </trkpt>
			 <trkpt lat="33.759858" lon="-78.811216">
				 <ele>11</ele>
			 </trkpt>
			 <trkpt lat="33.759981" lon="-78.811159">
				 <ele>11</ele>
			 </trkpt>
			 <trkpt lat="33.760192" lon="-78.810993">
				 <ele>11</ele>
			 </trkpt>
			 <trkpt lat="33.760591" lon="-78.810695">
				 <ele>11</ele>
			 </trkpt>
			 <trkpt lat="33.760884" lon="-78.810483">
				 <ele>12</ele>
			 </trkpt>
			 <trkpt lat="33.761343" lon="-78.810148">
				 <ele>10</ele>
			 </trkpt>
			 <trkpt lat="33.761708" lon="-78.810001">
				 <ele>9</ele>
			 </trkpt>
			 <trkpt lat="33.762026" lon="-78.810004">
				 <ele>9</ele>
			 </trkpt>
			 <trkpt lat="33.762421" lon="-78.810095">
				 <ele>9</ele>
			 </trkpt>
			 <trkpt lat="33.762679" lon="-78.8103">
				 <ele>9</ele>
			 </trkpt>
			 <trkpt lat="33.762994" lon="-78.81064">
				 <ele>9</ele>
			 </trkpt>
			 <trkpt lat="33.763184" lon="-78.810804">
				 <ele>10</ele>
			 </trkpt>
			 <trkpt lat="33.763243" lon="-78.810879">
				 <ele>10</ele>
			 </trkpt>
			 <trkpt lat="33.763294" lon="-78.81097">
				 <ele>10</ele>
			 </trkpt>
			 <trkpt lat="33.763253" lon="-78.811027">
				 <ele>10</ele>
			 </trkpt>
			 <trkpt lat="33.763205" lon="-78.810997">
				 <ele>10</ele>
			 </trkpt>
			 <trkpt lat="33.763171" lon="-78.81093">
				 <ele>10</ele>
			 </trkpt>
			 <trkpt lat="33.763051" lon="-78.810791">
				 <ele>10</ele>
			 </trkpt>
			 <trkpt lat="33.76253" lon="-78.8103">
				 <ele>9</ele>
			 </trkpt>
			 <trkpt lat="33.76232" lon="-78.81017">
				 <ele>9</ele>
			 </trkpt>
			 <trkpt lat="33.76218" lon="-78.81011">
				 <ele>9</ele>
			 </trkpt>
			 <trkpt lat="33.76196" lon="-78.81008">
				 <ele>9</ele>
			 </trkpt>
			 <trkpt lat="33.76183" lon="-78.81007">
				 <ele>9</ele>
			 </trkpt>
			 <trkpt lat="33.76154" lon="-78.81014">
				 <ele>9</ele>
			 </trkpt>
			 <trkpt lat="33.76113" lon="-78.81039">
				 <ele>12</ele>
			 </trkpt>
			 <trkpt lat="33.76004" lon="-78.81119">
				 <ele>11</ele>
			 </trkpt>
			 <trkpt lat="33.75992" lon="-78.81126">
				 <ele>11</ele>
			 </trkpt>
			 <trkpt lat="33.75974" lon="-78.81133">
				 <ele>10</ele>
			 </trkpt>
			 <trkpt lat="33.75949" lon="-78.81141">
				 <ele>10</ele>
			 </trkpt>
			 <trkpt lat="33.7592" lon="-78.81149">
				 <ele>10</ele>
			 </trkpt>
			 <trkpt lat="33.75913" lon="-78.81151">
				 <ele>10</ele>
			 </trkpt>
			 <trkpt lat="33.75878" lon="-78.81162">
				 <ele>10</ele>
			 </trkpt>
			 <trkpt lat="33.75871" lon="-78.81164">
				 <ele>10</ele>
			 </trkpt>
			 <trkpt lat="33.75846" lon="-78.81174">
				 <ele>9</ele>
			 </trkpt>
			 <trkpt lat="33.75819" lon="-78.81193">
				 <ele>9</ele>
			 </trkpt>
			 <trkpt lat="33.75802" lon="-78.81206">
				 <ele>8</ele>
			 </trkpt>
			 <trkpt lat="33.7576" lon="-78.81238">
				 <ele>8</ele>
			 </trkpt>
			 <trkpt lat="33.7571" lon="-78.81271">
				 <ele>8</ele>
			 </trkpt>
			 <trkpt lat="33.75689" lon="-78.81281">
				 <ele>8</ele>
			 </trkpt>
			 <trkpt lat="33.75664" lon="-78.81289">
				 <ele>8</ele>
			 </trkpt>
			 <trkpt lat="33.75635" lon="-78.81294">
				 <ele>8</ele>
			 </trkpt>
			 <trkpt lat="33.75609" lon="-78.81288">
				 <ele>8</ele>
			 </trkpt>
			 <trkpt lat="33.75586" lon="-78.81279">
				 <ele>8</ele>
			 </trkpt>
			 <trkpt lat="33.75566" lon="-78.81265">
				 <ele>8</ele>
			 </trkpt>
			 <trkpt lat="33.75557" lon="-78.81257">
				 <ele>8</ele>
			 </trkpt>
			 <trkpt lat="33.75538" lon="-78.81236">
				 <ele>8</ele>
			 </trkpt>
			 <trkpt lat="33.75509" lon="-78.81202">
				 <ele>8</ele>
			 </trkpt>
			 <trkpt lat="33.75501" lon="-78.81192">
				 <ele>8</ele>
			 </trkpt>
			 <trkpt lat="33.75464" lon="-78.81146">
				 <ele>6</ele>
			 </trkpt>
			 <trkpt lat="33.75443" lon="-78.81121">
				 <ele>4</ele>
			 </trkpt>
			 <trkpt lat="33.754" lon="-78.81068">
				 <ele>4</ele>
			 </trkpt>
			 <trkpt lat="33.75396" lon="-78.81063">
				 <ele>4</ele>
			 </trkpt>
			 <trkpt lat="33.75382" lon="-78.8108">
				 <ele>5</ele>
			 </trkpt>
			 <trkpt lat="33.75299" lon="-78.81177">
				 <ele>6</ele>
			 </trkpt>
			 <trkpt lat="33.75197" lon="-78.81292">
				 <ele>8</ele>
			 </trkpt>
			 <trkpt lat="33.75034" lon="-78.81487">
				 <ele>10</ele>
			 </trkpt>
			 <trkpt lat="33.74921" lon="-78.81622">
				 <ele>10</ele>
			 </trkpt>
			 <trkpt lat="33.74738" lon="-78.81841">
				 <ele>8</ele>
			 </trkpt>
			 <trkpt lat="33.74656" lon="-78.81939">
				 <ele>7</ele>
			 </trkpt>
			 <trkpt lat="33.74496" lon="-78.82129">
				 <ele>6</ele>
			 </trkpt>
			 <trkpt lat="33.74344" lon="-78.82312">
				 <ele>7</ele>
			 </trkpt>
			 <trkpt lat="33.74317" lon="-78.82344">
				 <ele>7</ele>
			 </trkpt>
			 <trkpt lat="33.74275" lon="-78.82395">
				 <ele>6</ele>
			 </trkpt>
			 <trkpt lat="33.7424" lon="-78.82436">
				 <ele>5</ele>
			 </trkpt>
			 <trkpt lat="33.741819" lon="-78.825091">
				 <ele>3</ele>
			 </trkpt>
			 <trkpt lat="33.74127" lon="-78.825718">
				 <ele>4</ele>
			 </trkpt>
			 <trkpt lat="33.740357" lon="-78.826805">
				 <ele>6</ele>
			 </trkpt>
			 <trkpt lat="33.739776" lon="-78.827475">
				 <ele>7</ele>
			 </trkpt>
			 <trkpt lat="33.738864" lon="-78.828564">
				 <ele>7</ele>
			 </trkpt>
			 <trkpt lat="33.738463" lon="-78.829086">
				 <ele>7</ele>
			 </trkpt>
			 <trkpt lat="33.738507" lon="-78.829247">
				 <ele>7</ele>
			 </trkpt>
			 <trkpt lat="33.738784" lon="-78.829601">
				 <ele>8</ele>
			 </trkpt>
			 <trkpt lat="33.73929" lon="-78.83028">
				 <ele>7</ele>
			 </trkpt>
			 <trkpt lat="33.74006" lon="-78.83118">
				 <ele>7</ele>
			 </trkpt>
			 <trkpt lat="33.74035" lon="-78.83153">
				 <ele>6</ele>
			 </trkpt>
			 <trkpt lat="33.74128" lon="-78.83264">
				 <ele>7</ele>
			 </trkpt>
			 <trkpt lat="33.74174" lon="-78.8332">
				 <ele>8</ele>
			 </trkpt>
			 <trkpt lat="33.74224" lon="-78.83376">
				 <ele>8</ele>
			 </trkpt>
			 <trkpt lat="33.74256" lon="-78.83416">
				 <ele>8</ele>
			 </trkpt>
			 <trkpt lat="33.74262" lon="-78.83419">
				 <ele>8</ele>
			 </trkpt>
			 <trkpt lat="33.74271" lon="-78.83422">
				 <ele>8</ele>
			 </trkpt>
			 <trkpt lat="33.74276" lon="-78.83426">
				 <ele>8</ele>
			 </trkpt>
			 <trkpt lat="33.74402" lon="-78.83579">
				 <ele>8</ele>
			 </trkpt>
			 <trkpt lat="33.74495" lon="-78.83691">
				 <ele>9</ele>
			 </trkpt>
			 <trkpt lat="33.74538" lon="-78.83741">
				 <ele>10</ele>
			 </trkpt>
			 <trkpt lat="33.74551" lon="-78.83753">
				 <ele>10</ele>
			 </trkpt>
			 <trkpt lat="33.74553" lon="-78.83758">
				 <ele>10</ele>
			 </trkpt>
			 <trkpt lat="33.74544" lon="-78.83777">
				 <ele>10</ele>
			 </trkpt>
			 <trkpt lat="33.74483" lon="-78.83851">
				 <ele>10</ele>
			 </trkpt>
			 <trkpt lat="33.74447" lon="-78.83894">
				 <ele>10</ele>
			 </trkpt>
			 <trkpt lat="33.74353" lon="-78.84006">
				 <ele>10</ele>
			 </trkpt>
			 <trkpt lat="33.743087" lon="-78.840655">
				 <ele>10</ele>
			 </trkpt>
			 <trkpt lat="33.742945" lon="-78.840894">
				 <ele>10</ele>
			 </trkpt>
			 <trkpt lat="33.74265" lon="-78.84137">
				 <ele>10</ele>
			 </trkpt>
			 <trkpt lat="33.74242" lon="-78.841757">
				 <ele>10</ele>
			 </trkpt>
			 <trkpt lat="33.742138" lon="-78.842294">
				 <ele>10</ele>
			 </trkpt>
			 <trkpt lat="33.741838" lon="-78.842908">
				 <ele>10</ele>
			 </trkpt>
			 <trkpt lat="33.741652" lon="-78.843281">
				 <ele>10</ele>
			 </trkpt>
			 <trkpt lat="33.741438" lon="-78.843649">
				 <ele>10</ele>
			 </trkpt>
			 <trkpt lat="33.741311" lon="-78.84392">
				 <ele>10</ele>
			 </trkpt>
			 <trkpt lat="33.740879" lon="-78.844808">
				 <ele>10</ele>
			 </trkpt>
			 <trkpt lat="33.740674" lon="-78.845384">
				 <ele>10</ele>
			 </trkpt>
			 <trkpt lat="33.740519" lon="-78.845835">
				 <ele>10</ele>
			 </trkpt>
			 <trkpt lat="33.740135" lon="-78.846714">
				 <ele>10</ele>
			 </trkpt>
			 <trkpt lat="33.73999" lon="-78.847066">
				 <ele>10</ele>
			 </trkpt>
			 <trkpt lat="33.739678" lon="-78.847347">
				 <ele>10</ele>
			 </trkpt>
			 <trkpt lat="33.739457" lon="-78.84748">
				 <ele>10</ele>
			 </trkpt>
			 <trkpt lat="33.739091" lon="-78.847579">
				 <ele>10</ele>
			 </trkpt>
			 <trkpt lat="33.738795" lon="-78.847691">
				 <ele>10</ele>
			 </trkpt>
			 <trkpt lat="33.738565" lon="-78.847782">
				 <ele>10</ele>
			 </trkpt>
			 <trkpt lat="33.738274" lon="-78.847946">
				 <ele>10</ele>
			 </trkpt>
			 <trkpt lat="33.738016" lon="-78.848187">
				 <ele>10</ele>
			 </trkpt>
			 <trkpt lat="33.73778" lon="-78.848533">
				 <ele>10</ele>
			 </trkpt>
			 <trkpt lat="33.737592" lon="-78.848854">
				 <ele>10</ele>
			 </trkpt>
			 <trkpt lat="33.737419" lon="-78.849267">
				 <ele>10</ele>
			 </trkpt>
			 <trkpt lat="33.73728" lon="-78.849586">
				 <ele>10</ele>
			 </trkpt>
			 <trkpt lat="33.737053" lon="-78.849992">
				 <ele>10</ele>
			 </trkpt>
			 <trkpt lat="33.736826" lon="-78.850096">
				 <ele>10</ele>
			 </trkpt>
			 <trkpt lat="33.736374" lon="-78.850391">
				 <ele>10</ele>
			 </trkpt>
			 <trkpt lat="33.735996" lon="-78.850729">
				 <ele>10</ele>
			 </trkpt>
			 <trkpt lat="33.735579" lon="-78.851251">
				 <ele>10</ele>
			 </trkpt>
			 <trkpt lat="33.735356" lon="-78.85153">
				 <ele>10</ele>
			 </trkpt>
			 <trkpt lat="33.734939" lon="-78.851916">
				 <ele>9</ele>
			 </trkpt>
			 <trkpt lat="33.734699" lon="-78.852109">
				 <ele>9</ele>
			 </trkpt>
			 <trkpt lat="33.734485" lon="-78.852292">
				 <ele>10</ele>
			 </trkpt>
			 <trkpt lat="33.734397" lon="-78.85242">
				 <ele>10</ele>
			 </trkpt>
			 <trkpt lat="33.734176" lon="-78.852554">
				 <ele>10</ele>
			 </trkpt>
			 <trkpt lat="33.734145" lon="-78.8526">
				 <ele>10</ele>
			 </trkpt>
			 <trkpt lat="33.73392" lon="-78.8528">
				 <ele>10</ele>
			 </trkpt>
			 <trkpt lat="33.73387" lon="-78.85287">
				 <ele>10</ele>
			 </trkpt>
			 <trkpt lat="33.73379" lon="-78.85296">
				 <ele>10</ele>
			 </trkpt>
			 <trkpt lat="33.73371" lon="-78.853">
				 <ele>10</ele>
			 </trkpt>
			 <trkpt lat="33.73356" lon="-78.85311">
				 <ele>10</ele>
			 </trkpt>
			 <trkpt lat="33.7333" lon="-78.85335">
				 <ele>10</ele>
			 </trkpt>
			 <trkpt lat="33.73214" lon="-78.85443">
				 <ele>9</ele>
			 </trkpt>
			 <trkpt lat="33.73139" lon="-78.85525">
				 <ele>8</ele>
			 </trkpt>
			 <trkpt lat="33.73122" lon="-78.85546">
				 <ele>8</ele>
			 </trkpt>
			 <trkpt lat="33.7312" lon="-78.85552">
				 <ele>8</ele>
			 </trkpt>
			 <trkpt lat="33.7312" lon="-78.85557">
				 <ele>8</ele>
			 </trkpt>
			 <trkpt lat="33.73124" lon="-78.85572">
				 <ele>8</ele>
			 </trkpt>
			 <trkpt lat="33.73124" lon="-78.8558">
				 <ele>7</ele>
			 </trkpt>
			 <trkpt lat="33.73116" lon="-78.85591">
				 <ele>7</ele>
			 </trkpt>
			 <trkpt lat="33.73065" lon="-78.8566">
				 <ele>7</ele>
			 </trkpt>
			 <trkpt lat="33.730551" lon="-78.856865">
				 <ele>7</ele>
			 </trkpt>
			 <trkpt lat="33.730415" lon="-78.857088">
				 <ele>7</ele>
			 </trkpt>
			 <trkpt lat="33.730093" lon="-78.857547">
				 <ele>7</ele>
			 </trkpt>
			 <trkpt lat="33.729798" lon="-78.857959">
				 <ele>8</ele>
			 </trkpt>
			 <trkpt lat="33.729322" lon="-78.858557">
				 <ele>8</ele>
			 </trkpt>
			 <trkpt lat="33.728622" lon="-78.859364">
				 <ele>8</ele>
			 </trkpt>
			 <trkpt lat="33.728151" lon="-78.859888">
				 <ele>7</ele>
			 </trkpt>
			 <trkpt lat="33.727603" lon="-78.860544">
				 <ele>7</ele>
			 </trkpt>
			 <trkpt lat="33.72712" lon="-78.861075">
				 <ele>8</ele>
			 </trkpt>
			 <trkpt lat="33.726634" lon="-78.86167">
				 <ele>7</ele>
			 </trkpt>
			 <trkpt lat="33.726356" lon="-78.862032">
				 <ele>7</ele>
			 </trkpt>
			 <trkpt lat="33.726036" lon="-78.862524">
				 <ele>7</ele>
			 </trkpt>
			 <trkpt lat="33.725831" lon="-78.862856">
				 <ele>7</ele>
			 </trkpt>
			 <trkpt lat="33.725482" lon="-78.863468">
				 <ele>7</ele>
			 </trkpt>
			 <trkpt lat="33.725359" lon="-78.863726">
				 <ele>7</ele>
			 </trkpt>
			 <trkpt lat="33.725044" lon="-78.864354">
				 <ele>7</ele>
			 </trkpt>
			 <trkpt lat="33.724889" lon="-78.864684">
				 <ele>7</ele>
			 </trkpt>
			 <trkpt lat="33.724664" lon="-78.865075">
				 <ele>7</ele>
			 </trkpt>
			 <trkpt lat="33.724459" lon="-78.865405">
				 <ele>7</ele>
			 </trkpt>
			 <trkpt lat="33.724219" lon="-78.865757">
				 <ele>7</ele>
			 </trkpt>
			 <trkpt lat="33.724017" lon="-78.866001">
				 <ele>7</ele>
			 </trkpt>
			 <trkpt lat="33.723615" lon="-78.866489">
				 <ele>7</ele>
			 </trkpt>
			 <trkpt lat="33.723315" lon="-78.866794">
				 <ele>7</ele>
			 </trkpt>
			 <trkpt lat="33.72293" lon="-78.867089">
				 <ele>7</ele>
			 </trkpt>
			 <trkpt lat="33.722629" lon="-78.867202">
				 <ele>7</ele>
			 </trkpt>
			 <trkpt lat="33.722342" lon="-78.867288">
				 <ele>7</ele>
			 </trkpt>
			 <trkpt lat="33.722071" lon="-78.867358">
				 <ele>7</ele>
			 </trkpt>
			 <trkpt lat="33.721722" lon="-78.867519">
				 <ele>7</ele>
			 </trkpt>
			 <trkpt lat="33.721413" lon="-78.867685">
				 <ele>7</ele>
			 </trkpt>
			 <trkpt lat="33.72111" lon="-78.8679">
				 <ele>7</ele>
			 </trkpt>
			 <trkpt lat="33.720609" lon="-78.868375">
				 <ele>7</ele>
			 </trkpt>
			 <trkpt lat="33.720209" lon="-78.868744">
				 <ele>7</ele>
			 </trkpt>
			 <trkpt lat="33.71989" lon="-78.869059">
				 <ele>7</ele>
			 </trkpt>
			 <trkpt lat="33.71958" lon="-78.869344">
				 <ele>7</ele>
			 </trkpt>
			 <trkpt lat="33.719322" lon="-78.869542">
				 <ele>7</ele>
			 </trkpt>
			 <trkpt lat="33.718926" lon="-78.869714">
				 <ele>7</ele>
			 </trkpt>
			 <trkpt lat="33.718657" lon="-78.869837">
				 <ele>8</ele>
			 </trkpt>
			 <trkpt lat="33.718301" lon="-78.870081">
				 <ele>8</ele>
			 </trkpt>
			 <trkpt lat="33.718077" lon="-78.870289">
				 <ele>8</ele>
			 </trkpt>
			 <trkpt lat="33.717841" lon="-78.870531">
				 <ele>8</ele>
			 </trkpt>
			 <trkpt lat="33.717654" lon="-78.870788">
				 <ele>8</ele>
			 </trkpt>
			 <trkpt lat="33.717416" lon="-78.871127">
				 <ele>8</ele>
			 </trkpt>
			 <trkpt lat="33.71704" lon="-78.871613">
				 <ele>8</ele>
			 </trkpt>
			 <trkpt lat="33.716744" lon="-78.871928">
				 <ele>8</ele>
			 </trkpt>
			 <trkpt lat="33.71652" lon="-78.872129">
				 <ele>8</ele>
			 </trkpt>
			 <trkpt lat="33.71615" lon="-78.872473">
				 <ele>8</ele>
			 </trkpt>
			 <trkpt lat="33.715791" lon="-78.872801">
				 <ele>8</ele>
			 </trkpt>
			 <trkpt lat="33.715568" lon="-78.873021">
				 <ele>8</ele>
			 </trkpt>
			 <trkpt lat="33.715208" lon="-78.873382">
				 <ele>8</ele>
			 </trkpt>
			 <trkpt lat="33.714855" lon="-78.873707">
				 <ele>8</ele>
			 </trkpt>
			 <trkpt lat="33.714349" lon="-78.874189">
				 <ele>8</ele>
			 </trkpt>
			 <trkpt lat="33.714097" lon="-78.874458">
				 <ele>8</ele>
			 </trkpt>
			 <trkpt lat="33.713728" lon="-78.874899">
				 <ele>8</ele>
			 </trkpt>
			 <trkpt lat="33.713413" lon="-78.875463">
				 <ele>8</ele>
			 </trkpt>
			 <trkpt lat="33.713306" lon="-78.87567">
				 <ele>8</ele>
			 </trkpt>
			 <trkpt lat="33.713177" lon="-78.876037">
				 <ele>8</ele>
			 </trkpt>
			 <trkpt lat="33.713119" lon="-78.876195">
				 <ele>8</ele>
			 </trkpt>
			 <trkpt lat="33.713059" lon="-78.876216">
				 <ele>8</ele>
			 </trkpt>
			 <trkpt lat="33.712996" lon="-78.8762">
				 <ele>8</ele>
			 </trkpt>
			 <trkpt lat="33.712879" lon="-78.876157">
				 <ele>8</ele>
			 </trkpt>
			 <trkpt lat="33.712662" lon="-78.876026">
				 <ele>8</ele>
			 </trkpt>
			 <trkpt lat="33.71245" lon="-78.8759">
				 <ele>8</ele>
			 </trkpt>
			 <trkpt lat="33.71234" lon="-78.875803">
				 <ele>8</ele>
			 </trkpt>
			 <trkpt lat="33.712204" lon="-78.875674">
				 <ele>8</ele>
			 </trkpt>
			 <trkpt lat="33.712037" lon="-78.87546">
				 <ele>8</ele>
			 </trkpt>
			 <trkpt lat="33.711958" lon="-78.875329">
				 <ele>8</ele>
			 </trkpt>
			 <trkpt lat="33.711851" lon="-78.875158">
				 <ele>8</ele>
			 </trkpt>
			 <trkpt lat="33.711762" lon="-78.874999">
				 <ele>8</ele>
			 </trkpt>
			 <trkpt lat="33.711668" lon="-78.874854">
				 <ele>8</ele>
			 </trkpt>
			 <trkpt lat="33.711494" lon="-78.874562">
				 <ele>8</ele>
			 </trkpt>
			 <trkpt lat="33.711396" lon="-78.874439">
				 <ele>8</ele>
			 </trkpt>
			 <trkpt lat="33.711256" lon="-78.874241">
				 <ele>8</ele>
			 </trkpt>
			 <trkpt lat="33.711136" lon="-78.874048">
				 <ele>8</ele>
			 </trkpt>
			 <trkpt lat="33.710972" lon="-78.873799">
				 <ele>8</ele>
			 </trkpt>
			 <trkpt lat="33.710845" lon="-78.873633">
				 <ele>8</ele>
			 </trkpt>
			 <trkpt lat="33.710731" lon="-78.873459">
				 <ele>8</ele>
			 </trkpt>
			 <trkpt lat="33.710583" lon="-78.873225">
				 <ele>8</ele>
			 </trkpt>
			 <trkpt lat="33.710518" lon="-78.873131">
				 <ele>8</ele>
			 </trkpt>
			 <trkpt lat="33.710439" lon="-78.872989">
				 <ele>8</ele>
			 </trkpt>
			 <trkpt lat="33.710332" lon="-78.872846">
				 <ele>8</ele>
			 </trkpt>
			 <trkpt lat="33.710231" lon="-78.872704">
				 <ele>8</ele>
			 </trkpt>
			 <trkpt lat="33.710124" lon="-78.872573">
				 <ele>8</ele>
			 </trkpt>
			 <trkpt lat="33.710041" lon="-78.872482">
				 <ele>8</ele>
			 </trkpt>
			 <trkpt lat="33.709925" lon="-78.872364">
				 <ele>8</ele>
			 </trkpt>
			 <trkpt lat="33.709818" lon="-78.872293">
				 <ele>8</ele>
			 </trkpt>
			 <trkpt lat="33.70972" lon="-78.872229">
				 <ele>9</ele>
			 </trkpt>
			 <trkpt lat="33.709648" lon="-78.872215">
				 <ele>9</ele>
			 </trkpt>
			 <trkpt lat="33.709673" lon="-78.87228">
				 <ele>9</ele>
			 </trkpt>
			 <trkpt lat="33.709821" lon="-78.872374">
				 <ele>8</ele>
			 </trkpt>
			 <trkpt lat="33.709973" lon="-78.8725">
				 <ele>8</ele>
			 </trkpt>
			 <trkpt lat="33.710099" lon="-78.872637">
				 <ele>8</ele>
			 </trkpt>
			 <trkpt lat="33.710298" lon="-78.872899">
				 <ele>8</ele>
			 </trkpt>
			 <trkpt lat="33.710607" lon="-78.87337">
				 <ele>8</ele>
			 </trkpt>
			 <trkpt lat="33.710935" lon="-78.873869">
				 <ele>8</ele>
			 </trkpt>
			 <trkpt lat="33.711234" lon="-78.874318">
				 <ele>8</ele>
			 </trkpt>
			 <trkpt lat="33.711511" lon="-78.874742">
				 <ele>8</ele>
			 </trkpt>
			 <trkpt lat="33.711698" lon="-78.875015">
				 <ele>8</ele>
			 </trkpt>
			 <trkpt lat="33.711906" lon="-78.875364">
				 <ele>8</ele>
			 </trkpt>
			 <trkpt lat="33.712067" lon="-78.875621">
				 <ele>8</ele>
			 </trkpt>
			 <trkpt lat="33.712203" lon="-78.875782">
				 <ele>8</ele>
			 </trkpt>
			 <trkpt lat="33.712382" lon="-78.875962">
				 <ele>8</ele>
			 </trkpt>
			 <trkpt lat="33.712666" lon="-78.876126">
				 <ele>8</ele>
			 </trkpt>
			 <trkpt lat="33.713017" lon="-78.876289">
				 <ele>8</ele>
			 </trkpt>
			 <trkpt lat="33.713058" lon="-78.876375">
				 <ele>8</ele>
			 </trkpt>
			 <trkpt lat="33.713014" lon="-78.876643">
				 <ele>8</ele>
			 </trkpt>
			 <trkpt lat="33.712902" lon="-78.877122">
				 <ele>8</ele>
			 </trkpt>
			 <trkpt lat="33.712776" lon="-78.877556">
				 <ele>8</ele>
			 </trkpt>
			 <trkpt lat="33.712706" lon="-78.8779">
				 <ele>8</ele>
			 </trkpt>
			 <trkpt lat="33.712545" lon="-78.878614">
				 <ele>8</ele>
			 </trkpt>
			 <trkpt lat="33.712447" lon="-78.879048">
				 <ele>8</ele>
			 </trkpt>
			 <trkpt lat="33.71224" lon="-78.879819">
				 <ele>8</ele>
			 </trkpt>
			 <trkpt lat="33.712088" lon="-78.880363">
				 <ele>8</ele>
			 </trkpt>
			 <trkpt lat="33.711921" lon="-78.881018">
				 <ele>8</ele>
			 </trkpt>
			 <trkpt lat="33.711766" lon="-78.881399">
				 <ele>8</ele>
			 </trkpt>
			 <trkpt lat="33.711514" lon="-78.881684">
				 <ele>8</ele>
			 </trkpt>
			 <trkpt lat="33.711212" lon="-78.882002">
				 <ele>8</ele>
			 </trkpt>
			 <trkpt lat="33.710982" lon="-78.882281">
				 <ele>8</ele>
			 </trkpt>
			 <trkpt lat="33.710742" lon="-78.882589">
				 <ele>8</ele>
			 </trkpt>
			 <trkpt lat="33.710496" lon="-78.882852">
				 <ele>8</ele>
			 </trkpt>
			 <trkpt lat="33.710237" lon="-78.883072">
				 <ele>8</ele>
			 </trkpt>
			 <trkpt lat="33.710045" lon="-78.883207">
				 <ele>8</ele>
			 </trkpt>
			 <trkpt lat="33.709761" lon="-78.88341">
				 <ele>8</ele>
			 </trkpt>
			 <trkpt lat="33.709471" lon="-78.88355">
				 <ele>8</ele>
			 </trkpt>
			 <trkpt lat="33.709065" lon="-78.8838">
				 <ele>8</ele>
			 </trkpt>
			 <trkpt lat="33.708598" lon="-78.884087">
				 <ele>8</ele>
			 </trkpt>
			 <trkpt lat="33.708277" lon="-78.884288">
				 <ele>8</ele>
			 </trkpt>
			 <trkpt lat="33.70797" lon="-78.884516">
				 <ele>8</ele>
			 </trkpt>
			 <trkpt lat="33.707697" lon="-78.884743">
				 <ele>8</ele>
			 </trkpt>
			 <trkpt lat="33.707517" lon="-78.884922">
				 <ele>7</ele>
			 </trkpt>
			 <trkpt lat="33.707483" lon="-78.885099">
				 <ele>7</ele>
			 </trkpt>
			 <trkpt lat="33.707628" lon="-78.885309">
				 <ele>7</ele>
			 </trkpt>
			 <trkpt lat="33.707887" lon="-78.885762">
				 <ele>7</ele>
			 </trkpt>
			 <trkpt lat="33.708223" lon="-78.886281">
				 <ele>7</ele>
			 </trkpt>
			 <trkpt lat="33.708472" lon="-78.886669">
				 <ele>7</ele>
			 </trkpt>
			 <trkpt lat="33.708564" lon="-78.886798">
				 <ele>7</ele>
			 </trkpt>
			 <trkpt lat="33.708605" lon="-78.886857">
				 <ele>7</ele>
			 </trkpt>
			 <trkpt lat="33.708677" lon="-78.886795">
				 <ele>7</ele>
			 </trkpt>
			 <trkpt lat="33.708785" lon="-78.886701">
				 <ele>7</ele>
			 </trkpt>
			 <trkpt lat="33.708961" lon="-78.886535">
				 <ele>7</ele>
			 </trkpt>
			 <trkpt lat="33.70911" lon="-78.886414">
				 <ele>7</ele>
			 </trkpt>
		 </trkseg>
	 </trk>
</gpx>