<?xml version="1.0" encoding="UTF-8"?>
 <gpx creator="Garmin Connect" version="1.1"
	 xsi:schemaLocation="http://www.topografix.com/GPX/1/1 http://www.topografix.com/GPX/11.xsd"
	 xmlns:ns3="http://www.garmin.com/xmlschemas/TrackPointExtension/v1"
	 xmlns="http://www.topografix.com/GPX/1/1"
	 xmlns:xsi="http://www.w3.org/2001/XMLSchema-instance" xmlns:ns2="http://www.garmin.com/xmlschemas/GpxExtensions/v3">
	 <metadata>
		<name>TRAC N4 Elands Marathon 2025 - 42.195 km</name>
		 <link href="https://www.goandrace.com">
		 <text>Garmin Connect</text>
		 </link>
	 <time>2026-08-09T18:03:41</time>
	 </metadata>
	 <trk>
		 <name>TRAC N4 Elands Marathon 2025 - 42.195 km</name>
		 <trkseg>
			 <trkpt lat="-25.643705" lon="30.330372">
				 <ele>1442</ele>
			 </trkpt>
			 <trkpt lat="-25.643999" lon="30.329543">
				 <ele>1442</ele>
			 </trkpt>
			 <trkpt lat="-25.644338" lon="30.328625">
				 <ele>1441.6</ele>
			 </trkpt>
			 <trkpt lat="-25.643779" lon="30.328408">
				 <ele>1441.1</ele>
			 </trkpt>
			 <trkpt lat="-25.64372" lon="30.328347">
				 <ele>1440.6</ele>
			 </trkpt>
			 <trkpt lat="-25.643675" lon="30.328323">
				 <ele>1440.1</ele>
			 </trkpt>
			 <trkpt lat="-25.644372" lon="30.326257">
				 <ele>1438.5</ele>
			 </trkpt>
			 <trkpt lat="-25.644808" lon="30.325051">
				 <ele>1437.1</ele>
			 </trkpt>
			 <trkpt lat="-25.644862" lon="30.324744">
				 <ele>1435.8</ele>
			 </trkpt>
			 <trkpt lat="-25.64486" lon="30.324462">
				 <ele>1434.7</ele>
			 </trkpt>
			 <trkpt lat="-25.644834" lon="30.324324">
				 <ele>1433.5</ele>
			 </trkpt>
			 <trkpt lat="-25.644357" lon="30.323257">
				 <ele>1432.3</ele>
			 </trkpt>
			 <trkpt lat="-25.64389" lon="30.32231">
				 <ele>1430.3</ele>
			 </trkpt>
			 <trkpt lat="-25.643778" lon="30.322128">
				 <ele>1428.5</ele>
			 </trkpt>
			 <trkpt lat="-25.643676" lon="30.321995">
				 <ele>1426.1</ele>
			 </trkpt>
			 <trkpt lat="-25.643515" lon="30.321841">
				 <ele>1423.7</ele>
			 </trkpt>
			 <trkpt lat="-25.643309" lon="30.321708">
				 <ele>1421.7</ele>
			 </trkpt>
			 <trkpt lat="-25.643011" lon="30.321597">
				 <ele>1420.1</ele>
			 </trkpt>
			 <trkpt lat="-25.642834" lon="30.321569">
				 <ele>1418.7</ele>
			 </trkpt>
			 <trkpt lat="-25.641858" lon="30.32151">
				 <ele>1417.5</ele>
			 </trkpt>
			 <trkpt lat="-25.641469" lon="30.321481">
				 <ele>1416.7</ele>
			 </trkpt>
			 <trkpt lat="-25.640378" lon="30.321414">
				 <ele>1417.5</ele>
			 </trkpt>
			 <trkpt lat="-25.640102" lon="30.321405">
				 <ele>1418.7</ele>
			 </trkpt>
			 <trkpt lat="-25.639833" lon="30.321425">
				 <ele>1420.7</ele>
			 </trkpt>
			 <trkpt lat="-25.639216" lon="30.321513">
				 <ele>1422.9</ele>
			 </trkpt>
			 <trkpt lat="-25.638889" lon="30.32158">
				 <ele>1426</ele>
			 </trkpt>
			 <trkpt lat="-25.637205" lon="30.322066">
				 <ele>1429.3</ele>
			 </trkpt>
			 <trkpt lat="-25.637071" lon="30.322106">
				 <ele>1432.3</ele>
			 </trkpt>
			 <trkpt lat="-25.636428" lon="30.322287">
				 <ele>1435.2</ele>
			 </trkpt>
			 <trkpt lat="-25.636179" lon="30.32233">
				 <ele>1438</ele>
			 </trkpt>
			 <trkpt lat="-25.635888" lon="30.322349">
				 <ele>1440.7</ele>
			 </trkpt>
			 <trkpt lat="-25.6357" lon="30.322343">
				 <ele>1443.3</ele>
			 </trkpt>
			 <trkpt lat="-25.635349" lon="30.322285">
				 <ele>1444.3</ele>
			 </trkpt>
			 <trkpt lat="-25.634971" lon="30.322168">
				 <ele>1445.2</ele>
			 </trkpt>
			 <trkpt lat="-25.634612" lon="30.321987">
				 <ele>1445.5</ele>
			 </trkpt>
			 <trkpt lat="-25.634307" lon="30.321778">
				 <ele>1446</ele>
			 </trkpt>
			 <trkpt lat="-25.634153" lon="30.321644">
				 <ele>1446.5</ele>
			 </trkpt>
			 <trkpt lat="-25.63384" lon="30.321328">
				 <ele>1447.3</ele>
			 </trkpt>
			 <trkpt lat="-25.632922" lon="30.320347">
				 <ele>1448.5</ele>
			 </trkpt>
			 <trkpt lat="-25.632704" lon="30.320137">
				 <ele>1449.9</ele>
			 </trkpt>
			 <trkpt lat="-25.632401" lon="30.319878">
				 <ele>1451.4</ele>
			 </trkpt>
			 <trkpt lat="-25.63213" lon="30.319679">
				 <ele>1452.9</ele>
			 </trkpt>
			 <trkpt lat="-25.631723" lon="30.319423">
				 <ele>1454.6</ele>
			 </trkpt>
			 <trkpt lat="-25.631272" lon="30.319199">
				 <ele>1456.5</ele>
			 </trkpt>
			 <trkpt lat="-25.63103" lon="30.319125">
				 <ele>1458.5</ele>
			 </trkpt>
			 <trkpt lat="-25.630868" lon="30.319102">
				 <ele>1460.6</ele>
			 </trkpt>
			 <trkpt lat="-25.630722" lon="30.319103">
				 <ele>1462.5</ele>
			 </trkpt>
			 <trkpt lat="-25.630451" lon="30.319154">
				 <ele>1464.4</ele>
			 </trkpt>
			 <trkpt lat="-25.630287" lon="30.319222">
				 <ele>1465.5</ele>
			 </trkpt>
			 <trkpt lat="-25.630064" lon="30.319346">
				 <ele>1465.8</ele>
			 </trkpt>
			 <trkpt lat="-25.629952" lon="30.319513">
				 <ele>1465</ele>
			 </trkpt>
			 <trkpt lat="-25.629917" lon="30.319599">
				 <ele>1463.9</ele>
			 </trkpt>
			 <trkpt lat="-25.629898" lon="30.319756">
				 <ele>1462.5</ele>
			 </trkpt>
			 <trkpt lat="-25.629908" lon="30.320008">
				 <ele>1461</ele>
			 </trkpt>
			 <trkpt lat="-25.630022" lon="30.320239">
				 <ele>1459.5</ele>
			 </trkpt>
			 <trkpt lat="-25.630256" lon="30.320788">
				 <ele>1457.9</ele>
			 </trkpt>
			 <trkpt lat="-25.630413" lon="30.321328">
				 <ele>1456.3</ele>
			 </trkpt>
			 <trkpt lat="-25.630506" lon="30.32179">
				 <ele>1454.3</ele>
			 </trkpt>
			 <trkpt lat="-25.63055" lon="30.322268">
				 <ele>1452.1</ele>
			 </trkpt>
			 <trkpt lat="-25.630553" lon="30.322722">
				 <ele>1450.6</ele>
			 </trkpt>
			 <trkpt lat="-25.630527" lon="30.323145">
				 <ele>1449.7</ele>
			 </trkpt>
			 <trkpt lat="-25.630496" lon="30.323406">
				 <ele>1449.8</ele>
			 </trkpt>
			 <trkpt lat="-25.630383" lon="30.324025">
				 <ele>1449.9</ele>
			 </trkpt>
			 <trkpt lat="-25.630177" lon="30.324675">
				 <ele>1450.1</ele>
			 </trkpt>
			 <trkpt lat="-25.629903" lon="30.325257">
				 <ele>1450</ele>
			 </trkpt>
			 <trkpt lat="-25.62975" lon="30.32553">
				 <ele>1449.8</ele>
			 </trkpt>
			 <trkpt lat="-25.629552" lon="30.325827">
				 <ele>1447.9</ele>
			 </trkpt>
			 <trkpt lat="-25.629341" lon="30.326102">
				 <ele>1445.5</ele>
			 </trkpt>
			 <trkpt lat="-25.629125" lon="30.326349">
				 <ele>1443.1</ele>
			 </trkpt>
			 <trkpt lat="-25.628765" lon="30.326699">
				 <ele>1440.5</ele>
			 </trkpt>
			 <trkpt lat="-25.62834" lon="30.327031">
				 <ele>1437.1</ele>
			 </trkpt>
			 <trkpt lat="-25.626891" lon="30.328013">
				 <ele>1433.5</ele>
			 </trkpt>
			 <trkpt lat="-25.626483" lon="30.328326">
				 <ele>1430.1</ele>
			 </trkpt>
			 <trkpt lat="-25.626307" lon="30.328506">
				 <ele>1426.9</ele>
			 </trkpt>
			 <trkpt lat="-25.626183" lon="30.328669">
				 <ele>1423.9</ele>
			 </trkpt>
			 <trkpt lat="-25.625949" lon="30.329032">
				 <ele>1421.2</ele>
			 </trkpt>
			 <trkpt lat="-25.625682" lon="30.329576">
				 <ele>1418.5</ele>
			 </trkpt>
			 <trkpt lat="-25.625589" lon="30.329799">
				 <ele>1415.6</ele>
			 </trkpt>
			 <trkpt lat="-25.625525" lon="30.330007">
				 <ele>1414.5</ele>
			 </trkpt>
			 <trkpt lat="-25.625448" lon="30.330417">
				 <ele>1412.6</ele>
			 </trkpt>
			 <trkpt lat="-25.625431" lon="30.330674">
				 <ele>1411.1</ele>
			 </trkpt>
			 <trkpt lat="-25.625438" lon="30.330958">
				 <ele>1409.8</ele>
			 </trkpt>
			 <trkpt lat="-25.625868" lon="30.334236">
				 <ele>1408.5</ele>
			 </trkpt>
			 <trkpt lat="-25.62619" lon="30.336345">
				 <ele>1407.3</ele>
			 </trkpt>
			 <trkpt lat="-25.626325" lon="30.337519">
				 <ele>1406</ele>
			 </trkpt>
			 <trkpt lat="-25.626401" lon="30.337839">
				 <ele>1404.6</ele>
			 </trkpt>
			 <trkpt lat="-25.626522" lon="30.338181">
				 <ele>1403</ele>
			 </trkpt>
			 <trkpt lat="-25.626614" lon="30.338399">
				 <ele>1401.1</ele>
			 </trkpt>
			 <trkpt lat="-25.626765" lon="30.338674">
				 <ele>1401</ele>
			 </trkpt>
			 <trkpt lat="-25.626981" lon="30.338969">
				 <ele>1399.8</ele>
			 </trkpt>
			 <trkpt lat="-25.62719" lon="30.339223">
				 <ele>1399.7</ele>
			 </trkpt>
			 <trkpt lat="-25.627428" lon="30.339455">
				 <ele>1399.8</ele>
			 </trkpt>
			 <trkpt lat="-25.627649" lon="30.339637">
				 <ele>1400.2</ele>
			 </trkpt>
			 <trkpt lat="-25.627897" lon="30.339794">
				 <ele>1400.5</ele>
			 </trkpt>
			 <trkpt lat="-25.628116" lon="30.339914">
				 <ele>1400.4</ele>
			 </trkpt>
			 <trkpt lat="-25.628414" lon="30.34003">
				 <ele>1399.6</ele>
			 </trkpt>
			 <trkpt lat="-25.628743" lon="30.340117">
				 <ele>1398.5</ele>
			 </trkpt>
			 <trkpt lat="-25.629077" lon="30.340165">
				 <ele>1397.5</ele>
			 </trkpt>
			 <trkpt lat="-25.629775" lon="30.340156">
				 <ele>1396.5</ele>
			 </trkpt>
			 <trkpt lat="-25.630508" lon="30.340123">
				 <ele>1395.5</ele>
			 </trkpt>
			 <trkpt lat="-25.631001" lon="30.340149">
				 <ele>1394.2</ele>
			 </trkpt>
			 <trkpt lat="-25.63131" lon="30.340197">
				 <ele>1392.7</ele>
			 </trkpt>
			 <trkpt lat="-25.631512" lon="30.340246">
				 <ele>1391</ele>
			 </trkpt>
			 <trkpt lat="-25.631769" lon="30.340317">
				 <ele>1388.9</ele>
			 </trkpt>
			 <trkpt lat="-25.6321" lon="30.34045">
				 <ele>1385.5</ele>
			 </trkpt>
			 <trkpt lat="-25.632592" lon="30.340711">
				 <ele>1381.4</ele>
			 </trkpt>
			 <trkpt lat="-25.633058" lon="30.341048">
				 <ele>1377.2</ele>
			 </trkpt>
			 <trkpt lat="-25.633501" lon="30.34148">
				 <ele>1373.4</ele>
			 </trkpt>
			 <trkpt lat="-25.633702" lon="30.341724">
				 <ele>1369.8</ele>
			 </trkpt>
			 <trkpt lat="-25.634128" lon="30.342344">
				 <ele>1366.5</ele>
			 </trkpt>
			 <trkpt lat="-25.634844" lon="30.343482">
				 <ele>1363.6</ele>
			 </trkpt>
			 <trkpt lat="-25.63508" lon="30.343831">
				 <ele>1361.1</ele>
			 </trkpt>
			 <trkpt lat="-25.635312" lon="30.344107">
				 <ele>1359.5</ele>
			 </trkpt>
			 <trkpt lat="-25.635439" lon="30.344237">
				 <ele>1358.3</ele>
			 </trkpt>
			 <trkpt lat="-25.635722" lon="30.344469">
				 <ele>1356.2</ele>
			 </trkpt>
			 <trkpt lat="-25.635997" lon="30.344637">
				 <ele>1354.8</ele>
			 </trkpt>
			 <trkpt lat="-25.636185" lon="30.344731">
				 <ele>1353.7</ele>
			 </trkpt>
			 <trkpt lat="-25.636576" lon="30.344873">
				 <ele>1352.5</ele>
			 </trkpt>
			 <trkpt lat="-25.639176" lon="30.345714">
				 <ele>1351</ele>
			 </trkpt>
			 <trkpt lat="-25.639562" lon="30.345845">
				 <ele>1349.1</ele>
			 </trkpt>
			 <trkpt lat="-25.63978" lon="30.34588">
				 <ele>1346.7</ele>
			 </trkpt>
			 <trkpt lat="-25.640201" lon="30.345923">
				 <ele>1343.4</ele>
			 </trkpt>
			 <trkpt lat="-25.641338" lon="30.345893">
				 <ele>1339.4</ele>
			 </trkpt>
			 <trkpt lat="-25.641843" lon="30.345923">
				 <ele>1334</ele>
			 </trkpt>
			 <trkpt lat="-25.642236" lon="30.346023">
				 <ele>1328</ele>
			 </trkpt>
			 <trkpt lat="-25.642491" lon="30.346108">
				 <ele>1323.1</ele>
			 </trkpt>
			 <trkpt lat="-25.642957" lon="30.346336">
				 <ele>1319.1</ele>
			 </trkpt>
			 <trkpt lat="-25.643157" lon="30.346471">
				 <ele>1315.9</ele>
			 </trkpt>
			 <trkpt lat="-25.643427" lon="30.346689">
				 <ele>1313.4</ele>
			 </trkpt>
			 <trkpt lat="-25.643861" lon="30.34711">
				 <ele>1310.7</ele>
			 </trkpt>
			 <trkpt lat="-25.64407" lon="30.347411">
				 <ele>1308</ele>
			 </trkpt>
			 <trkpt lat="-25.64432" lon="30.347885">
				 <ele>1303.7</ele>
			 </trkpt>
			 <trkpt lat="-25.644519" lon="30.34846">
				 <ele>1299.7</ele>
			 </trkpt>
			 <trkpt lat="-25.644604" lon="30.348895">
				 <ele>1296.5</ele>
			 </trkpt>
			 <trkpt lat="-25.644631" lon="30.349164">
				 <ele>1293.5</ele>
			 </trkpt>
			 <trkpt lat="-25.644667" lon="30.350245">
				 <ele>1291</ele>
			 </trkpt>
			 <trkpt lat="-25.644815" lon="30.353365">
				 <ele>1288.4</ele>
			 </trkpt>
			 <trkpt lat="-25.644817" lon="30.354015">
				 <ele>1285.5</ele>
			 </trkpt>
			 <trkpt lat="-25.644677" lon="30.355978">
				 <ele>1282.7</ele>
			 </trkpt>
			 <trkpt lat="-25.644689" lon="30.356338">
				 <ele>1279.6</ele>
			 </trkpt>
			 <trkpt lat="-25.644733" lon="30.356678">
				 <ele>1275.9</ele>
			 </trkpt>
			 <trkpt lat="-25.644764" lon="30.356842">
				 <ele>1272.1</ele>
			 </trkpt>
			 <trkpt lat="-25.644873" lon="30.357218">
				 <ele>1270</ele>
			 </trkpt>
			 <trkpt lat="-25.644989" lon="30.357521">
				 <ele>1267.9</ele>
			 </trkpt>
			 <trkpt lat="-25.645139" lon="30.357789">
				 <ele>1265.7</ele>
			 </trkpt>
			 <trkpt lat="-25.645412" lon="30.358172">
				 <ele>1263.7</ele>
			 </trkpt>
			 <trkpt lat="-25.645553" lon="30.358339">
				 <ele>1261.4</ele>
			 </trkpt>
			 <trkpt lat="-25.645701" lon="30.358503">
				 <ele>1258.9</ele>
			 </trkpt>
			 <trkpt lat="-25.64613" lon="30.358884">
				 <ele>1256.2</ele>
			 </trkpt>
			 <trkpt lat="-25.646672" lon="30.359357">
				 <ele>1253.4</ele>
			 </trkpt>
			 <trkpt lat="-25.646931" lon="30.359609">
				 <ele>1250.9</ele>
			 </trkpt>
			 <trkpt lat="-25.647259" lon="30.360074">
				 <ele>1249.3</ele>
			 </trkpt>
			 <trkpt lat="-25.647366" lon="30.360261">
				 <ele>1248.1</ele>
			 </trkpt>
			 <trkpt lat="-25.64747" lon="30.360501">
				 <ele>1247</ele>
			 </trkpt>
			 <trkpt lat="-25.647597" lon="30.360869">
				 <ele>1246.3</ele>
			 </trkpt>
			 <trkpt lat="-25.647661" lon="30.361126">
				 <ele>1245.1</ele>
			 </trkpt>
			 <trkpt lat="-25.647714" lon="30.361472">
				 <ele>1244.1</ele>
			 </trkpt>
			 <trkpt lat="-25.647736" lon="30.362011">
				 <ele>1243.5</ele>
			 </trkpt>
			 <trkpt lat="-25.647719" lon="30.362256">
				 <ele>1243</ele>
			 </trkpt>
			 <trkpt lat="-25.647646" lon="30.362807">
				 <ele>1242.6</ele>
			 </trkpt>
			 <trkpt lat="-25.647539" lon="30.363601">
				 <ele>1242.5</ele>
			 </trkpt>
			 <trkpt lat="-25.64739" lon="30.364524">
				 <ele>1242.7</ele>
			 </trkpt>
			 <trkpt lat="-25.647285" lon="30.364999">
				 <ele>1243</ele>
			 </trkpt>
			 <trkpt lat="-25.64713" lon="30.36552">
				 <ele>1243</ele>
			 </trkpt>
			 <trkpt lat="-25.647047" lon="30.36575">
				 <ele>1242.8</ele>
			 </trkpt>
			 <trkpt lat="-25.646885" lon="30.366076">
				 <ele>1242.3</ele>
			 </trkpt>
			 <trkpt lat="-25.646453" lon="30.366816">
				 <ele>1241.8</ele>
			 </trkpt>
			 <trkpt lat="-25.645601" lon="30.368205">
				 <ele>1240.9</ele>
			 </trkpt>
			 <trkpt lat="-25.645365" lon="30.368632">
				 <ele>1239.8</ele>
			 </trkpt>
			 <trkpt lat="-25.64518" lon="30.369073">
				 <ele>1238.6</ele>
			 </trkpt>
			 <trkpt lat="-25.645023" lon="30.369597">
				 <ele>1237.4</ele>
			 </trkpt>
			 <trkpt lat="-25.644939" lon="30.369931">
				 <ele>1235.8</ele>
			 </trkpt>
			 <trkpt lat="-25.644878" lon="30.370423">
				 <ele>1233.7</ele>
			 </trkpt>
			 <trkpt lat="-25.644863" lon="30.370651">
				 <ele>1231.6</ele>
			 </trkpt>
			 <trkpt lat="-25.644864" lon="30.371021">
				 <ele>1229.7</ele>
			 </trkpt>
			 <trkpt lat="-25.644933" lon="30.371946">
				 <ele>1227.9</ele>
			 </trkpt>
			 <trkpt lat="-25.644996" lon="30.372306">
				 <ele>1226.4</ele>
			 </trkpt>
			 <trkpt lat="-25.645184" lon="30.373102">
				 <ele>1224.8</ele>
			 </trkpt>
			 <trkpt lat="-25.645369" lon="30.373689">
				 <ele>1223.3</ele>
			 </trkpt>
			 <trkpt lat="-25.645585" lon="30.374225">
				 <ele>1221.9</ele>
			 </trkpt>
			 <trkpt lat="-25.645961" lon="30.375027">
				 <ele>1220.6</ele>
			 </trkpt>
			 <trkpt lat="-25.647187" lon="30.377466">
				 <ele>1219.5</ele>
			 </trkpt>
			 <trkpt lat="-25.647357" lon="30.37783">
				 <ele>1218.5</ele>
			 </trkpt>
			 <trkpt lat="-25.647491" lon="30.378246">
				 <ele>1217.5</ele>
			 </trkpt>
			 <trkpt lat="-25.647567" lon="30.378611">
				 <ele>1216.6</ele>
			 </trkpt>
			 <trkpt lat="-25.647602" lon="30.37898">
				 <ele>1216.1</ele>
			 </trkpt>
			 <trkpt lat="-25.647605" lon="30.379347">
				 <ele>1215.5</ele>
			 </trkpt>
			 <trkpt lat="-25.647556" lon="30.379732">
				 <ele>1214.8</ele>
			 </trkpt>
			 <trkpt lat="-25.647494" lon="30.38001">
				 <ele>1214.1</ele>
			 </trkpt>
			 <trkpt lat="-25.647408" lon="30.380275">
				 <ele>1213.4</ele>
			 </trkpt>
			 <trkpt lat="-25.647258" lon="30.380696">
				 <ele>1212.4</ele>
			 </trkpt>
			 <trkpt lat="-25.646529" lon="30.382648">
				 <ele>1211.4</ele>
			 </trkpt>
			 <trkpt lat="-25.646125" lon="30.383833">
				 <ele>1210.5</ele>
			 </trkpt>
			 <trkpt lat="-25.64605" lon="30.384125">
				 <ele>1209.7</ele>
			 </trkpt>
			 <trkpt lat="-25.645985" lon="30.384589">
				 <ele>1208.8</ele>
			 </trkpt>
			 <trkpt lat="-25.64595" lon="30.385231">
				 <ele>1207.5</ele>
			 </trkpt>
			 <trkpt lat="-25.645975" lon="30.385523">
				 <ele>1206.1</ele>
			 </trkpt>
			 <trkpt lat="-25.64607" lon="30.386041">
				 <ele>1204.8</ele>
			 </trkpt>
			 <trkpt lat="-25.646322" lon="30.386876">
				 <ele>1203.9</ele>
			 </trkpt>
			 <trkpt lat="-25.646561" lon="30.387553">
				 <ele>1203</ele>
			 </trkpt>
			 <trkpt lat="-25.646775" lon="30.388201">
				 <ele>1202.6</ele>
			 </trkpt>
			 <trkpt lat="-25.646924" lon="30.38877">
				 <ele>1202.5</ele>
			 </trkpt>
			 <trkpt lat="-25.646967" lon="30.389073">
				 <ele>1202.3</ele>
			 </trkpt>
			 <trkpt lat="-25.646993" lon="30.38942">
				 <ele>1202</ele>
			 </trkpt>
			 <trkpt lat="-25.646966" lon="30.389959">
				 <ele>1201.4</ele>
			 </trkpt>
			 <trkpt lat="-25.646852" lon="30.390555">
				 <ele>1201</ele>
			 </trkpt>
			 <trkpt lat="-25.646636" lon="30.391133">
				 <ele>1200.9</ele>
			 </trkpt>
			 <trkpt lat="-25.646389" lon="30.391585">
				 <ele>1200.8</ele>
			 </trkpt>
			 <trkpt lat="-25.64626" lon="30.391779">
				 <ele>1200.7</ele>
			 </trkpt>
			 <trkpt lat="-25.645864" lon="30.392235">
				 <ele>1200.6</ele>
			 </trkpt>
			 <trkpt lat="-25.645595" lon="30.392464">
				 <ele>1200.6</ele>
			 </trkpt>
			 <trkpt lat="-25.645323" lon="30.392659">
				 <ele>1200.2</ele>
			 </trkpt>
			 <trkpt lat="-25.644967" lon="30.392849">
				 <ele>1198.6</ele>
			 </trkpt>
			 <trkpt lat="-25.644806" lon="30.392915">
				 <ele>1197.4</ele>
			 </trkpt>
			 <trkpt lat="-25.644562" lon="30.393">
				 <ele>1196.1</ele>
			 </trkpt>
			 <trkpt lat="-25.644227" lon="30.393083">
				 <ele>1194.7</ele>
			 </trkpt>
			 <trkpt lat="-25.643657" lon="30.393156">
				 <ele>1193.2</ele>
			 </trkpt>
			 <trkpt lat="-25.639101" lon="30.393667">
				 <ele>1191.5</ele>
			 </trkpt>
			 <trkpt lat="-25.638558" lon="30.393684">
				 <ele>1190</ele>
			 </trkpt>
			 <trkpt lat="-25.638316" lon="30.393675">
				 <ele>1188.5</ele>
			 </trkpt>
			 <trkpt lat="-25.636543" lon="30.393501">
				 <ele>1186.9</ele>
			 </trkpt>
			 <trkpt lat="-25.636209" lon="30.393498">
				 <ele>1185.4</ele>
			 </trkpt>
			 <trkpt lat="-25.635641" lon="30.393537">
				 <ele>1183.9</ele>
			 </trkpt>
			 <trkpt lat="-25.635355" lon="30.393583">
				 <ele>1183.5</ele>
			 </trkpt>
			 <trkpt lat="-25.634872" lon="30.393696">
				 <ele>1182.9</ele>
			 </trkpt>
			 <trkpt lat="-25.634378" lon="30.393867">
				 <ele>1182.5</ele>
			 </trkpt>
			 <trkpt lat="-25.633883" lon="30.394102">
				 <ele>1182.3</ele>
			 </trkpt>
			 <trkpt lat="-25.633482" lon="30.394347">
				 <ele>1182.1</ele>
			 </trkpt>
			 <trkpt lat="-25.633196" lon="30.394549">
				 <ele>1182</ele>
			 </trkpt>
			 <trkpt lat="-25.632739" lon="30.394924">
				 <ele>1181.8</ele>
			 </trkpt>
			 <trkpt lat="-25.632248" lon="30.395393">
				 <ele>1181.4</ele>
			 </trkpt>
			 <trkpt lat="-25.631808" lon="30.395742">
				 <ele>1180.7</ele>
			 </trkpt>
			 <trkpt lat="-25.631468" lon="30.395959">
				 <ele>1180</ele>
			 </trkpt>
			 <trkpt lat="-25.631036" lon="30.396167">
				 <ele>1178.9</ele>
			 </trkpt>
			 <trkpt lat="-25.63054" lon="30.396328">
				 <ele>1177.7</ele>
			 </trkpt>
			 <trkpt lat="-25.629619" lon="30.396568">
				 <ele>1176.6</ele>
			 </trkpt>
			 <trkpt lat="-25.628966" lon="30.396767">
				 <ele>1175.3</ele>
			 </trkpt>
			 <trkpt lat="-25.628392" lon="30.396993">
				 <ele>1174.2</ele>
			 </trkpt>
			 <trkpt lat="-25.62693" lon="30.397668">
				 <ele>1173</ele>
			 </trkpt>
			 <trkpt lat="-25.626618" lon="30.397789">
				 <ele>1171.7</ele>
			 </trkpt>
			 <trkpt lat="-25.625733" lon="30.398041">
				 <ele>1170.8</ele>
			 </trkpt>
			 <trkpt lat="-25.624485" lon="30.398341">
				 <ele>1170</ele>
			 </trkpt>
			 <trkpt lat="-25.62382" lon="30.398564">
				 <ele>1169.1</ele>
			 </trkpt>
			 <trkpt lat="-25.623082" lon="30.398896">
				 <ele>1168.1</ele>
			 </trkpt>
			 <trkpt lat="-25.622766" lon="30.399068">
				 <ele>1167.2</ele>
			 </trkpt>
			 <trkpt lat="-25.622093" lon="30.399489">
				 <ele>1166.3</ele>
			 </trkpt>
			 <trkpt lat="-25.621324" lon="30.400079">
				 <ele>1165.2</ele>
			 </trkpt>
			 <trkpt lat="-25.620862" lon="30.40053">
				 <ele>1164</ele>
			 </trkpt>
			 <trkpt lat="-25.620299" lon="30.401176">
				 <ele>1162.7</ele>
			 </trkpt>
			 <trkpt lat="-25.619994" lon="30.401587">
				 <ele>1162.5</ele>
			 </trkpt>
			 <trkpt lat="-25.619725" lon="30.402">
				 <ele>1161.5</ele>
			 </trkpt>
			 <trkpt lat="-25.619501" lon="30.402397">
				 <ele>1159.6</ele>
			 </trkpt>
			 <trkpt lat="-25.619225" lon="30.402938">
				 <ele>1157.8</ele>
			 </trkpt>
			 <trkpt lat="-25.619019" lon="30.4034">
				 <ele>1156.3</ele>
			 </trkpt>
			 <trkpt lat="-25.618473" lon="30.40491">
				 <ele>1155</ele>
			 </trkpt>
			 <trkpt lat="-25.616376" lon="30.411176">
				 <ele>1153.8</ele>
			 </trkpt>
			 <trkpt lat="-25.61594" lon="30.412514">
				 <ele>1152.7</ele>
			 </trkpt>
			 <trkpt lat="-25.615836" lon="30.412965">
				 <ele>1151.6</ele>
			 </trkpt>
			 <trkpt lat="-25.615747" lon="30.413477">
				 <ele>1150.9</ele>
			 </trkpt>
			 <trkpt lat="-25.615621" lon="30.414475">
				 <ele>1150.4</ele>
			 </trkpt>
			 <trkpt lat="-25.615532" lon="30.414987">
				 <ele>1148.9</ele>
			 </trkpt>
			 <trkpt lat="-25.615401" lon="30.415486">
				 <ele>1147.9</ele>
			 </trkpt>
			 <trkpt lat="-25.615234" lon="30.415966">
				 <ele>1146.8</ele>
			 </trkpt>
			 <trkpt lat="-25.615017" lon="30.416451">
				 <ele>1145.9</ele>
			 </trkpt>
			 <trkpt lat="-25.614758" lon="30.416934">
				 <ele>1144.9</ele>
			 </trkpt>
			 <trkpt lat="-25.61401" lon="30.418087">
				 <ele>1143.9</ele>
			 </trkpt>
			 <trkpt lat="-25.613597" lon="30.418753">
				 <ele>1143</ele>
			 </trkpt>
			 <trkpt lat="-25.612993" lon="30.419934">
				 <ele>1141.6</ele>
			 </trkpt>
			 <trkpt lat="-25.612685" lon="30.42063">
				 <ele>1140.1</ele>
			 </trkpt>
			 <trkpt lat="-25.612446" lon="30.421237">
				 <ele>1138.4</ele>
			 </trkpt>
			 <trkpt lat="-25.612146" lon="30.422148">
				 <ele>1136.5</ele>
			 </trkpt>
			 <trkpt lat="-25.612022" lon="30.422578">
				 <ele>1134.8</ele>
			 </trkpt>
			 <trkpt lat="-25.61157" lon="30.424557">
				 <ele>1133.5</ele>
			 </trkpt>
			 <trkpt lat="-25.611193" lon="30.426309">
				 <ele>1132.6</ele>
			 </trkpt>
			 <trkpt lat="-25.611021" lon="30.426928">
				 <ele>1131.4</ele>
			 </trkpt>
			 <trkpt lat="-25.610825" lon="30.427489">
				 <ele>1130.1</ele>
			 </trkpt>
			 <trkpt lat="-25.610578" lon="30.428055">
				 <ele>1128.5</ele>
			 </trkpt>
			 <trkpt lat="-25.610332" lon="30.428586">
				 <ele>1127.2</ele>
			 </trkpt>
			 <trkpt lat="-25.60987" lon="30.42948">
				 <ele>1126.5</ele>
			 </trkpt>
			 <trkpt lat="-25.608864" lon="30.431493">
				 <ele>1126</ele>
			 </trkpt>
			 <trkpt lat="-25.607341" lon="30.434448">
				 <ele>1125.4</ele>
			 </trkpt>
			 <trkpt lat="-25.607124" lon="30.434866">
				 <ele>1124.3</ele>
			 </trkpt>
			 <trkpt lat="-25.60682" lon="30.435381">
				 <ele>1122.5</ele>
			 </trkpt>
			 <trkpt lat="-25.606289" lon="30.43618">
				 <ele>1120.5</ele>
			 </trkpt>
			 <trkpt lat="-25.605857" lon="30.436777">
				 <ele>1118.7</ele>
			 </trkpt>
			 <trkpt lat="-25.604859" lon="30.437936">
				 <ele>1117.3</ele>
			 </trkpt>
			 <trkpt lat="-25.603324" lon="30.439631">
				 <ele>1115.8</ele>
			 </trkpt>
			 <trkpt lat="-25.602171" lon="30.440967">
				 <ele>1114.2</ele>
			 </trkpt>
			 <trkpt lat="-25.599868" lon="30.443413">
				 <ele>1112.5</ele>
			 </trkpt>
			 <trkpt lat="-25.599263" lon="30.444076">
				 <ele>1110.7</ele>
			 </trkpt>
			 <trkpt lat="-25.599014" lon="30.4444">
				 <ele>1108.6</ele>
			 </trkpt>
			 <trkpt lat="-25.598523" lon="30.445148">
				 <ele>1106.5</ele>
			 </trkpt>
			 <trkpt lat="-25.597396" lon="30.447157">
				 <ele>1104.8</ele>
			 </trkpt>
			 <trkpt lat="-25.597144" lon="30.447688">
				 <ele>1103.6</ele>
			 </trkpt>
			 <trkpt lat="-25.596994" lon="30.448042">
				 <ele>1102.7</ele>
			 </trkpt>
			 <trkpt lat="-25.596802" lon="30.448684">
				 <ele>1101.6</ele>
			 </trkpt>
			 <trkpt lat="-25.596692" lon="30.449204">
				 <ele>1100.5</ele>
			 </trkpt>
			 <trkpt lat="-25.596629" lon="30.449829">
				 <ele>1099.3</ele>
			 </trkpt>
			 <trkpt lat="-25.596607" lon="30.450261">
				 <ele>1098.4</ele>
			 </trkpt>
			 <trkpt lat="-25.596616" lon="30.450591">
				 <ele>1097.5</ele>
			 </trkpt>
			 <trkpt lat="-25.596659" lon="30.451059">
				 <ele>1096.5</ele>
			 </trkpt>
			 <trkpt lat="-25.596723" lon="30.451545">
				 <ele>1095.8</ele>
			 </trkpt>
			 <trkpt lat="-25.596842" lon="30.452034">
				 <ele>1095.4</ele>
			 </trkpt>
			 <trkpt lat="-25.597026" lon="30.452634">
				 <ele>1095</ele>
			 </trkpt>
			 <trkpt lat="-25.597222" lon="30.453093">
				 <ele>1094.9</ele>
			 </trkpt>
			 <trkpt lat="-25.597432" lon="30.453509">
				 <ele>1095.1</ele>
			 </trkpt>
			 <trkpt lat="-25.597568" lon="30.453731">
				 <ele>1095.5</ele>
			 </trkpt>
			 <trkpt lat="-25.597713" lon="30.453959">
				 <ele>1096.1</ele>
			 </trkpt>
			 <trkpt lat="-25.598042" lon="30.454391">
				 <ele>1096.7</ele>
			 </trkpt>
			 <trkpt lat="-25.599073" lon="30.455577">
				 <ele>1097.5</ele>
			 </trkpt>
			 <trkpt lat="-25.599665" lon="30.456277">
				 <ele>1098.2</ele>
			 </trkpt>
			 <trkpt lat="-25.600536" lon="30.457446">
				 <ele>1098.9</ele>
			 </trkpt>
			 <trkpt lat="-25.601005" lon="30.458149">
				 <ele>1099.8</ele>
			 </trkpt>
			 <trkpt lat="-25.601705" lon="30.459305">
				 <ele>1100.7</ele>
			 </trkpt>
			 <trkpt lat="-25.602165" lon="30.460146">
				 <ele>1101.5</ele>
			 </trkpt>
			 <trkpt lat="-25.602792" lon="30.461432">
				 <ele>1102.1</ele>
			 </trkpt>
			 <trkpt lat="-25.603205" lon="30.462399">
				 <ele>1102</ele>
			 </trkpt>
			 <trkpt lat="-25.603491" lon="30.463125">
				 <ele>1101.7</ele>
			 </trkpt>
			 <trkpt lat="-25.60391" lon="30.464388">
				 <ele>1101.2</ele>
			 </trkpt>
			 <trkpt lat="-25.604222" lon="30.465469">
				 <ele>1100.6</ele>
			 </trkpt>
			 <trkpt lat="-25.604449" lon="30.466402">
				 <ele>1100.2</ele>
			 </trkpt>
			 <trkpt lat="-25.604715" lon="30.467767">
				 <ele>1099.6</ele>
			 </trkpt>
			 <trkpt lat="-25.604836" lon="30.46854">
				 <ele>1099.1</ele>
			 </trkpt>
			 <trkpt lat="-25.605003" lon="30.469916">
				 <ele>1098</ele>
			 </trkpt>
			 <trkpt lat="-25.605139" lon="30.472622">
				 <ele>1096.9</ele>
			 </trkpt>
			 <trkpt lat="-25.60517" lon="30.473038">
				 <ele>1095.7</ele>
			 </trkpt>
			 <trkpt lat="-25.60523" lon="30.473519">
				 <ele>1094.4</ele>
			 </trkpt>
			 <trkpt lat="-25.60538" lon="30.474207">
				 <ele>1093.2</ele>
			 </trkpt>
			 <trkpt lat="-25.605562" lon="30.47487">
				 <ele>1091.8</ele>
			 </trkpt>
			 <trkpt lat="-25.605819" lon="30.475623">
				 <ele>1090.6</ele>
			 </trkpt>
			 <trkpt lat="-25.606266" lon="30.476525">
				 <ele>1089.5</ele>
			 </trkpt>
			 <trkpt lat="-25.606491" lon="30.476908">
				 <ele>1088.6</ele>
			 </trkpt>
			 <trkpt lat="-25.606936" lon="30.477595">
				 <ele>1087.8</ele>
			 </trkpt>
			 <trkpt lat="-25.607711" lon="30.478724">
				 <ele>1087</ele>
			 </trkpt>
			 <trkpt lat="-25.607897" lon="30.479025">
				 <ele>1086.5</ele>
			 </trkpt>
			 <trkpt lat="-25.608232" lon="30.479636">
				 <ele>1086.3</ele>
			 </trkpt>
			 <trkpt lat="-25.608394" lon="30.479972">
				 <ele>1086</ele>
			 </trkpt>
			 <trkpt lat="-25.608608" lon="30.48048">
				 <ele>1085.8</ele>
			 </trkpt>
			 <trkpt lat="-25.608743" lon="30.48087">
				 <ele>1085.7</ele>
			 </trkpt>
			 <trkpt lat="-25.609028" lon="30.48186">
				 <ele>1085.7</ele>
			 </trkpt>
			 <trkpt lat="-25.609397" lon="30.484479">
				 <ele>1085.8</ele>
			 </trkpt>
			 <trkpt lat="-25.609509" lon="30.485009">
				 <ele>1085.8</ele>
			 </trkpt>
			 <trkpt lat="-25.609594" lon="30.485335">
				 <ele>1085.3</ele>
			 </trkpt>
			 <trkpt lat="-25.609808" lon="30.486006">
				 <ele>1084.2</ele>
			 </trkpt>
			 <trkpt lat="-25.609968" lon="30.48642">
				 <ele>1082.9</ele>
			 </trkpt>
			 <trkpt lat="-25.610142" lon="30.486808">
				 <ele>1080.9</ele>
			 </trkpt>
			 <trkpt lat="-25.610586" lon="30.487678">
				 <ele>1078.5</ele>
			 </trkpt>
			 <trkpt lat="-25.613217" lon="30.492564">
				 <ele>1075.8</ele>
			 </trkpt>
			 <trkpt lat="-25.614753" lon="30.495416">
				 <ele>1073.1</ele>
			 </trkpt>
			 <trkpt lat="-25.615346" lon="30.496505">
				 <ele>1070.5</ele>
			 </trkpt>
			 <trkpt lat="-25.616809" lon="30.499271">
				 <ele>1067.9</ele>
			 </trkpt>
			 <trkpt lat="-25.616926" lon="30.499493">
				 <ele>1065.5</ele>
			 </trkpt>
			 <trkpt lat="-25.619897" lon="30.505026">
				 <ele>1063.2</ele>
			 </trkpt>
			 <trkpt lat="-25.620353" lon="30.505899">
				 <ele>1061.1</ele>
			 </trkpt>
			 <trkpt lat="-25.620617" lon="30.506476">
				 <ele>1059.3</ele>
			 </trkpt>
			 <trkpt lat="-25.620746" lon="30.506826">
				 <ele>1057.5</ele>
			 </trkpt>
			 <trkpt lat="-25.620879" lon="30.507299">
				 <ele>1056.5</ele>
			 </trkpt>
			 <trkpt lat="-25.620895" lon="30.507369">
				 <ele>1056</ele>
			 </trkpt>
			 <trkpt lat="-25.620988" lon="30.507752">
				 <ele>1055.8</ele>
			 </trkpt>
			 <trkpt lat="-25.621065" lon="30.508514">
				 <ele>1055.7</ele>
			 </trkpt>
			 <trkpt lat="-25.621079" lon="30.509013">
				 <ele>1055.6</ele>
			 </trkpt>
			 <trkpt lat="-25.62105" lon="30.509544">
				 <ele>1055.5</ele>
			 </trkpt>
			 <trkpt lat="-25.620608" lon="30.514596">
				 <ele>1055.5</ele>
			 </trkpt>
			 <trkpt lat="-25.62041" lon="30.516385">
				 <ele>1055.5</ele>
			 </trkpt>
			 <trkpt lat="-25.620296" lon="30.517085">
				 <ele>1055.6</ele>
			 </trkpt>
			 <trkpt lat="-25.620226" lon="30.517418">
				 <ele>1055.9</ele>
			 </trkpt>
			 <trkpt lat="-25.619936" lon="30.518369">
				 <ele>1056.4</ele>
			 </trkpt>
			 <trkpt lat="-25.619574" lon="30.519199">
				 <ele>1056.5</ele>
			 </trkpt>
			 <trkpt lat="-25.619388" lon="30.519585">
				 <ele>1056.1</ele>
			 </trkpt>
			 <trkpt lat="-25.619185" lon="30.519927">
				 <ele>1055.5</ele>
			 </trkpt>
			 <trkpt lat="-25.618935" lon="30.520324">
				 <ele>1054.7</ele>
			 </trkpt>
			 <trkpt lat="-25.61855" lon="30.520882">
				 <ele>1053.9</ele>
			 </trkpt>
			 <trkpt lat="-25.618214" lon="30.5213">
				 <ele>1053.3</ele>
			 </trkpt>
			 <trkpt lat="-25.617834" lon="30.521717">
				 <ele>1052.5</ele>
			 </trkpt>
			 <trkpt lat="-25.617476" lon="30.522059">
				 <ele>1051.9</ele>
			 </trkpt>
			 <trkpt lat="-25.617164" lon="30.52233">
				 <ele>1051.4</ele>
			 </trkpt>
			 <trkpt lat="-25.616641" lon="30.52272">
				 <ele>1050.7</ele>
			 </trkpt>
			 <trkpt lat="-25.61624" lon="30.522978">
				 <ele>1050.1</ele>
			 </trkpt>
			 <trkpt lat="-25.615766" lon="30.523252">
				 <ele>1050.2</ele>
			 </trkpt>
			 <trkpt lat="-25.615224" lon="30.523533">
				 <ele>1050.7</ele>
			 </trkpt>
			 <trkpt lat="-25.61455" lon="30.52391">
				 <ele>1051.5</ele>
			 </trkpt>
			 <trkpt lat="-25.614139" lon="30.524161">
				 <ele>1052.6</ele>
			 </trkpt>
			 <trkpt lat="-25.61409" lon="30.524199">
				 <ele>1054.1</ele>
			 </trkpt>
			 <trkpt lat="-25.613608" lon="30.524574">
				 <ele>1055.5</ele>
			 </trkpt>
			 <trkpt lat="-25.613003" lon="30.525207">
				 <ele>1056.7</ele>
			 </trkpt>
			 <trkpt lat="-25.612768" lon="30.525502">
				 <ele>1058.1</ele>
			 </trkpt>
			 <trkpt lat="-25.612564" lon="30.5258">
				 <ele>1059.5</ele>
			 </trkpt>
			 <trkpt lat="-25.611553" lon="30.527358">
				 <ele>1060.9</ele>
			 </trkpt>
			 <trkpt lat="-25.611053" lon="30.528021">
				 <ele>1061.8</ele>
			 </trkpt>
			 <trkpt lat="-25.610632" lon="30.528495">
				 <ele>1062.3</ele>
			 </trkpt>
			 <trkpt lat="-25.610063" lon="30.528966">
				 <ele>1062.5</ele>
			 </trkpt>
			 <trkpt lat="-25.609715" lon="30.529183">
				 <ele>1062.5</ele>
			 </trkpt>
			 <trkpt lat="-25.609494" lon="30.529315">
				 <ele>1062.3</ele>
			 </trkpt>
			 <trkpt lat="-25.608331" lon="30.529871">
				 <ele>1061.9</ele>
			 </trkpt>
			 <trkpt lat="-25.607511" lon="30.530357">
				 <ele>1061.4</ele>
			 </trkpt>
			 <trkpt lat="-25.606927" lon="30.53079">
				 <ele>1060.5</ele>
			 </trkpt>
			 <trkpt lat="-25.606468" lon="30.531175">
				 <ele>1059.5</ele>
			 </trkpt>
			 <trkpt lat="-25.606259" lon="30.531373">
				 <ele>1058</ele>
			 </trkpt>
			 <trkpt lat="-25.606039" lon="30.531615">
				 <ele>1056.3</ele>
			 </trkpt>
			 <trkpt lat="-25.605642" lon="30.532111">
				 <ele>1054.8</ele>
			 </trkpt>
			 <trkpt lat="-25.605271" lon="30.532645">
				 <ele>1053.5</ele>
			 </trkpt>
			 <trkpt lat="-25.604943" lon="30.533264">
				 <ele>1052.4</ele>
			 </trkpt>
			 <trkpt lat="-25.604684" lon="30.533895">
				 <ele>1050.1</ele>
			 </trkpt>
			 <trkpt lat="-25.604515" lon="30.534418">
				 <ele>1046.4</ele>
			 </trkpt>
			 <trkpt lat="-25.604323" lon="30.53512">
				 <ele>1042.8</ele>
			 </trkpt>
			 <trkpt lat="-25.604205" lon="30.535812">
				 <ele>1039.9</ele>
			 </trkpt>
			 <trkpt lat="-25.604142" lon="30.536738">
				 <ele>1037.4</ele>
			 </trkpt>
			 <trkpt lat="-25.604316" lon="30.543304">
				 <ele>1035</ele>
			 </trkpt>
			 <trkpt lat="-25.604643" lon="30.55462">
				 <ele>1033</ele>
			 </trkpt>
			 <trkpt lat="-25.604679" lon="30.555038">
				 <ele>1031.2</ele>
			 </trkpt>
			 <trkpt lat="-25.604775" lon="30.555694">
				 <ele>1030.1</ele>
			 </trkpt>
			 <trkpt lat="-25.60488" lon="30.5562">
				 <ele>1029.2</ele>
			 </trkpt>
			 <trkpt lat="-25.605044" lon="30.556723">
				 <ele>1028.2</ele>
			 </trkpt>
			 <trkpt lat="-25.605434" lon="30.557737">
				 <ele>1028.5</ele>
			 </trkpt>
			 <trkpt lat="-25.605908" lon="30.559073">
				 <ele>1030.3</ele>
			 </trkpt>
			 <trkpt lat="-25.60613" lon="30.55999">
				 <ele>1031.7</ele>
			 </trkpt>
			 <trkpt lat="-25.606282" lon="30.561005">
				 <ele>1032.6</ele>
			 </trkpt>
			 <trkpt lat="-25.606358" lon="30.562136">
				 <ele>1033.1</ele>
			 </trkpt>
			 <trkpt lat="-25.606348" lon="30.562726">
				 <ele>1033.1</ele>
			 </trkpt>
			 <trkpt lat="-25.606341" lon="30.563005">
				 <ele>1032.9</ele>
			 </trkpt>
			 <trkpt lat="-25.606263" lon="30.56389">
				 <ele>1032.9</ele>
			 </trkpt>
			 <trkpt lat="-25.606145" lon="30.564635">
				 <ele>1032.5</ele>
			 </trkpt>
			 <trkpt lat="-25.605811" lon="30.565952">
				 <ele>1031.7</ele>
			 </trkpt>
			 <trkpt lat="-25.605422" lon="30.56699">
				 <ele>1030.5</ele>
			 </trkpt>
			 <trkpt lat="-25.605097" lon="30.567674">
				 <ele>1028.9</ele>
			 </trkpt>
			 <trkpt lat="-25.604544" lon="30.568613">
				 <ele>1027.3</ele>
			 </trkpt>
			 <trkpt lat="-25.603895" lon="30.569635">
				 <ele>1026.4</ele>
			 </trkpt>
			 <trkpt lat="-25.603317" lon="30.570724">
				 <ele>1025.7</ele>
			 </trkpt>
			 <trkpt lat="-25.603068" lon="30.571336">
				 <ele>1025.2</ele>
			 </trkpt>
			 <trkpt lat="-25.602862" lon="30.572006">
				 <ele>1024.4</ele>
			 </trkpt>
			 <trkpt lat="-25.602696" lon="30.572626">
				 <ele>1023.1</ele>
			 </trkpt>
			 <trkpt lat="-25.602565" lon="30.573261">
				 <ele>1022</ele>
			 </trkpt>
			 <trkpt lat="-25.602478" lon="30.573905">
				 <ele>1020.6</ele>
			 </trkpt>
			 <trkpt lat="-25.602451" lon="30.574707">
				 <ele>1019</ele>
			 </trkpt>
			 <trkpt lat="-25.602463" lon="30.575382">
				 <ele>1017.3</ele>
			 </trkpt>
			 <trkpt lat="-25.602529" lon="30.576064">
				 <ele>1015.5</ele>
			 </trkpt>
			 <trkpt lat="-25.602954" lon="30.578226">
				 <ele>1013.5</ele>
			 </trkpt>
			 <trkpt lat="-25.603419" lon="30.580482">
				 <ele>1010.7</ele>
			 </trkpt>
			 <trkpt lat="-25.603499" lon="30.580973">
				 <ele>1007.5</ele>
			 </trkpt>
			 <trkpt lat="-25.603576" lon="30.581582">
				 <ele>1003.7</ele>
			 </trkpt>
			 <trkpt lat="-25.603617" lon="30.582062">
				 <ele>1000.7</ele>
			 </trkpt>
			 <trkpt lat="-25.603593" lon="30.583231">
				 <ele>998.2</ele>
			 </trkpt>
			 <trkpt lat="-25.60352" lon="30.583827">
				 <ele>994.5</ele>
			 </trkpt>
			 <trkpt lat="-25.603317" lon="30.584924">
				 <ele>990.3</ele>
			 </trkpt>
			 <trkpt lat="-25.603027" lon="30.585946">
				 <ele>986.6</ele>
			 </trkpt>
			 <trkpt lat="-25.600919" lon="30.592855">
				 <ele>983</ele>
			 </trkpt>
			 <trkpt lat="-25.600719" lon="30.593394">
				 <ele>979.5</ele>
			 </trkpt>
			 <trkpt lat="-25.60009" lon="30.595242">
				 <ele>976.4</ele>
			 </trkpt>
			 <trkpt lat="-25.598974" lon="30.598333">
				 <ele>973.4</ele>
			 </trkpt>
			 <trkpt lat="-25.598496" lon="30.59956">
				 <ele>969.4</ele>
			 </trkpt>
			 <trkpt lat="-25.59713" lon="30.603337">
				 <ele>965.5</ele>
			 </trkpt>
			 <trkpt lat="-25.596404" lon="30.605571">
				 <ele>961.1</ele>
			 </trkpt>
			 <trkpt lat="-25.596034" lon="30.60678">
				 <ele>956.5</ele>
			 </trkpt>
			 <trkpt lat="-25.595861" lon="30.607343">
				 <ele>952.9</ele>
			 </trkpt>
			 <trkpt lat="-25.592374" lon="30.618683">
				 <ele>949.7</ele>
			 </trkpt>
			 <trkpt lat="-25.590864" lon="30.623448">
				 <ele>946.4</ele>
			 </trkpt>
			 <trkpt lat="-25.589952" lon="30.626439">
				 <ele>943.5</ele>
			 </trkpt>
			 <trkpt lat="-25.589703" lon="30.627328">
				 <ele>940.8</ele>
			 </trkpt>
			 <trkpt lat="-25.588806" lon="30.630135">
				 <ele>938.3</ele>
			 </trkpt>
			 <trkpt lat="-25.586324" lon="30.638246">
				 <ele>936.1</ele>
			 </trkpt>
			 <trkpt lat="-25.58588" lon="30.639772">
				 <ele>935.5</ele>
			 </trkpt>
			 <trkpt lat="-25.586154" lon="30.63992">
				 <ele>935.5</ele>
			 </trkpt>
			 <trkpt lat="-25.586302" lon="30.640038">
				 <ele>936.1</ele>
			 </trkpt>
			 <trkpt lat="-25.586382" lon="30.64013">
				 <ele>937</ele>
			 </trkpt>
			 <trkpt lat="-25.586801" lon="30.640995">
				 <ele>937.9</ele>
			 </trkpt>
			 <trkpt lat="-25.587271" lon="30.641843">
				 <ele>939.2</ele>
			 </trkpt>
			 <trkpt lat="-25.587407" lon="30.642051">
				 <ele>940.5</ele>
			 </trkpt>
			 <trkpt lat="-25.587518" lon="30.642175">
				 <ele>941.7</ele>
			 </trkpt>
			 <trkpt lat="-25.587738" lon="30.642343">
				 <ele>942.7</ele>
			 </trkpt>
			 <trkpt lat="-25.587635" lon="30.642688">
				 <ele>943.6</ele>
			 </trkpt>
			 <trkpt lat="-25.587557" lon="30.642859">
				 <ele>944.2</ele>
			 </trkpt>
			 <trkpt lat="-25.587268" lon="30.643223">
				 <ele>944.6</ele>
			 </trkpt>
			 <trkpt lat="-25.587069" lon="30.643543">
				 <ele>945</ele>
			 </trkpt>
			 <trkpt lat="-25.586992" lon="30.643642">
				 <ele>945.3</ele>
			 </trkpt>
		 </trkseg>
	 </trk>
</gpx>