<?xml version="1.0" encoding="UTF-8"?>
 <gpx creator="Garmin Connect" version="1.1"
	 xsi:schemaLocation="http://www.topografix.com/GPX/1/1 http://www.topografix.com/GPX/11.xsd"
	 xmlns:ns3="http://www.garmin.com/xmlschemas/TrackPointExtension/v1"
	 xmlns="http://www.topografix.com/GPX/1/1"
	 xmlns:xsi="http://www.w3.org/2001/XMLSchema-instance" xmlns:ns2="http://www.garmin.com/xmlschemas/GpxExtensions/v3">
	 <metadata>
		<name>2023 Niagara Falls International Marathon - 42.195 km</name>
		 <link href="https://www.goandrace.com">
		 <text>Garmin Connect</text>
		 </link>
	 <time>2026-08-09T18:13:44</time>
	 </metadata>
	 <trk>
		 <name>2023 Niagara Falls International Marathon - 42.195 km</name>
		 <trkseg>
			 <trkpt lat="43.070116" lon="-79.07196">
				 <ele>163</ele>
			 </trkpt>
			 <trkpt lat="43.07012" lon="-79.071965">
				 <ele>164</ele>
			 </trkpt>
			 <trkpt lat="43.07011" lon="-79.071976">
				 <ele>164</ele>
			 </trkpt>
			 <trkpt lat="43.069792" lon="-79.071318">
				 <ele>164</ele>
			 </trkpt>
			 <trkpt lat="43.069696" lon="-79.071058">
				 <ele>167</ele>
			 </trkpt>
			 <trkpt lat="43.069527" lon="-79.070464">
				 <ele>170</ele>
			 </trkpt>
			 <trkpt lat="43.069527" lon="-79.070464">
				 <ele>170</ele>
			 </trkpt>
			 <trkpt lat="43.069392" lon="-79.069929">
				 <ele>167</ele>
			 </trkpt>
			 <trkpt lat="43.069271" lon="-79.069356">
				 <ele>162</ele>
			 </trkpt>
			 <trkpt lat="43.069233" lon="-79.069102">
				 <ele>163</ele>
			 </trkpt>
			 <trkpt lat="43.069221" lon="-79.068685">
				 <ele>164</ele>
			 </trkpt>
			 <trkpt lat="43.06931" lon="-79.067847">
				 <ele>165</ele>
			 </trkpt>
			 <trkpt lat="43.069459" lon="-79.066833">
				 <ele>164</ele>
			 </trkpt>
			 <trkpt lat="43.069459" lon="-79.066833">
				 <ele>164</ele>
			 </trkpt>
			 <trkpt lat="43.069475" lon="-79.06635">
				 <ele>165</ele>
			 </trkpt>
			 <trkpt lat="43.069475" lon="-79.065435">
				 <ele>170</ele>
			 </trkpt>
			 <trkpt lat="43.069615" lon="-79.063861">
				 <ele>169</ele>
			 </trkpt>
			 <trkpt lat="43.069633" lon="-79.063429">
				 <ele>169</ele>
			 </trkpt>
			 <trkpt lat="43.069628" lon="-79.063206">
				 <ele>169</ele>
			 </trkpt>
			 <trkpt lat="43.06959" lon="-79.062818">
				 <ele>169</ele>
			 </trkpt>
			 <trkpt lat="43.069255" lon="-79.061277">
				 <ele>171</ele>
			 </trkpt>
			 <trkpt lat="43.069255" lon="-79.061277">
				 <ele>171</ele>
			 </trkpt>
			 <trkpt lat="43.069165" lon="-79.060881">
				 <ele>172</ele>
			 </trkpt>
			 <trkpt lat="43.068869" lon="-79.059512">
				 <ele>170</ele>
			 </trkpt>
			 <trkpt lat="43.068682" lon="-79.058876">
				 <ele>170</ele>
			 </trkpt>
			 <trkpt lat="43.067087" lon="-79.055175">
				 <ele>170</ele>
			 </trkpt>
			 <trkpt lat="43.066974" lon="-79.054943">
				 <ele>170</ele>
			 </trkpt>
			 <trkpt lat="43.066888" lon="-79.054796">
				 <ele>170</ele>
			 </trkpt>
			 <trkpt lat="43.066746" lon="-79.054603">
				 <ele>170</ele>
			 </trkpt>
			 <trkpt lat="43.066361" lon="-79.054167">
				 <ele>170</ele>
			 </trkpt>
			 <trkpt lat="43.066361" lon="-79.054167">
				 <ele>170</ele>
			 </trkpt>
			 <trkpt lat="43.064136" lon="-79.051649">
				 <ele>171</ele>
			 </trkpt>
			 <trkpt lat="43.06375" lon="-79.051234">
				 <ele>171</ele>
			 </trkpt>
			 <trkpt lat="43.063458" lon="-79.051032">
				 <ele>171</ele>
			 </trkpt>
			 <trkpt lat="43.063195" lon="-79.050925">
				 <ele>171</ele>
			 </trkpt>
			 <trkpt lat="43.062932" lon="-79.050879">
				 <ele>171</ele>
			 </trkpt>
			 <trkpt lat="43.06266" lon="-79.050892">
				 <ele>170</ele>
			 </trkpt>
			 <trkpt lat="43.062373" lon="-79.050977">
				 <ele>170</ele>
			 </trkpt>
			 <trkpt lat="43.062141" lon="-79.051105">
				 <ele>170</ele>
			 </trkpt>
			 <trkpt lat="43.061461" lon="-79.051694">
				 <ele>170</ele>
			 </trkpt>
			 <trkpt lat="43.06061" lon="-79.052452">
				 <ele>170</ele>
			 </trkpt>
			 <trkpt lat="43.060351" lon="-79.0526">
				 <ele>170</ele>
			 </trkpt>
			 <trkpt lat="43.060227" lon="-79.052636">
				 <ele>169</ele>
			 </trkpt>
			 <trkpt lat="43.060026" lon="-79.052544">
				 <ele>159</ele>
			 </trkpt>
			 <trkpt lat="43.059958" lon="-79.052377">
				 <ele>155</ele>
			 </trkpt>
			 <trkpt lat="43.05948" lon="-79.051612">
				 <ele>164</ele>
			 </trkpt>
			 <trkpt lat="43.059398" lon="-79.051506">
				 <ele>167</ele>
			 </trkpt>
			 <trkpt lat="43.059418" lon="-79.051314">
				 <ele>168</ele>
			 </trkpt>
			 <trkpt lat="43.059453" lon="-79.051189">
				 <ele>168</ele>
			 </trkpt>
			 <trkpt lat="43.060488" lon="-79.050253">
				 <ele>166</ele>
			 </trkpt>
			 <trkpt lat="43.060488" lon="-79.050253">
				 <ele>166</ele>
			 </trkpt>
			 <trkpt lat="43.061245" lon="-79.049445">
				 <ele>167</ele>
			 </trkpt>
			 <trkpt lat="43.061473" lon="-79.049163">
				 <ele>164</ele>
			 </trkpt>
			 <trkpt lat="43.061536" lon="-79.049036">
				 <ele>164</ele>
			 </trkpt>
			 <trkpt lat="43.062069" lon="-79.047583">
				 <ele>167</ele>
			 </trkpt>
			 <trkpt lat="43.062178" lon="-79.047179">
				 <ele>168</ele>
			 </trkpt>
			 <trkpt lat="43.062205" lon="-79.04697">
				 <ele>168</ele>
			 </trkpt>
			 <trkpt lat="43.062209" lon="-79.046706">
				 <ele>168</ele>
			 </trkpt>
			 <trkpt lat="43.062192" lon="-79.046465">
				 <ele>168</ele>
			 </trkpt>
			 <trkpt lat="43.06212" lon="-79.046043">
				 <ele>163</ele>
			 </trkpt>
			 <trkpt lat="43.06198" lon="-79.045387">
				 <ele>163</ele>
			 </trkpt>
			 <trkpt lat="43.061653" lon="-79.044113">
				 <ele>167</ele>
			 </trkpt>
			 <trkpt lat="43.0612" lon="-79.042231">
				 <ele>162</ele>
			 </trkpt>
			 <trkpt lat="43.061075" lon="-79.041495">
				 <ele>162</ele>
			 </trkpt>
			 <trkpt lat="43.060881" lon="-79.039942">
				 <ele>162</ele>
			 </trkpt>
			 <trkpt lat="43.060713" lon="-79.038138">
				 <ele>157</ele>
			 </trkpt>
			 <trkpt lat="43.060713" lon="-79.038138">
				 <ele>157</ele>
			 </trkpt>
			 <trkpt lat="43.060599" lon="-79.036757">
				 <ele>157</ele>
			 </trkpt>
			 <trkpt lat="43.060524" lon="-79.035367">
				 <ele>158</ele>
			 </trkpt>
			 <trkpt lat="43.06048" lon="-79.033839">
				 <ele>158</ele>
			 </trkpt>
			 <trkpt lat="43.060329" lon="-79.03244">
				 <ele>162</ele>
			 </trkpt>
			 <trkpt lat="43.060191" lon="-79.031728">
				 <ele>163</ele>
			 </trkpt>
			 <trkpt lat="43.060016" lon="-79.031093">
				 <ele>164</ele>
			 </trkpt>
			 <trkpt lat="43.059784" lon="-79.030518">
				 <ele>163</ele>
			 </trkpt>
			 <trkpt lat="43.059552" lon="-79.030028">
				 <ele>163</ele>
			 </trkpt>
			 <trkpt lat="43.059251" lon="-79.029505">
				 <ele>163</ele>
			 </trkpt>
			 <trkpt lat="43.058856" lon="-79.028938">
				 <ele>163</ele>
			 </trkpt>
			 <trkpt lat="43.058542" lon="-79.028561">
				 <ele>164</ele>
			 </trkpt>
			 <trkpt lat="43.057745" lon="-79.027934">
				 <ele>163</ele>
			 </trkpt>
			 <trkpt lat="43.057225" lon="-79.027582">
				 <ele>168</ele>
			 </trkpt>
			 <trkpt lat="43.055757" lon="-79.026509">
				 <ele>167</ele>
			 </trkpt>
			 <trkpt lat="43.05303" lon="-79.024004">
				 <ele>169</ele>
			 </trkpt>
			 <trkpt lat="43.052496" lon="-79.023548">
				 <ele>170</ele>
			 </trkpt>
			 <trkpt lat="43.052139" lon="-79.023368">
				 <ele>170</ele>
			 </trkpt>
			 <trkpt lat="43.05178" lon="-79.02315">
				 <ele>170</ele>
			 </trkpt>
			 <trkpt lat="43.05178" lon="-79.02315">
				 <ele>170</ele>
			 </trkpt>
			 <trkpt lat="43.051523" lon="-79.022994">
				 <ele>170</ele>
			 </trkpt>
			 <trkpt lat="43.051204" lon="-79.022686">
				 <ele>170</ele>
			 </trkpt>
			 <trkpt lat="43.050508" lon="-79.021634">
				 <ele>171</ele>
			 </trkpt>
			 <trkpt lat="43.049857" lon="-79.021046">
				 <ele>171</ele>
			 </trkpt>
			 <trkpt lat="43.048758" lon="-79.020158">
				 <ele>171</ele>
			 </trkpt>
			 <trkpt lat="43.047921" lon="-79.019614">
				 <ele>171</ele>
			 </trkpt>
			 <trkpt lat="43.046595" lon="-79.018873">
				 <ele>171</ele>
			 </trkpt>
			 <trkpt lat="43.044098" lon="-79.017626">
				 <ele>170</ele>
			 </trkpt>
			 <trkpt lat="43.043307" lon="-79.01742">
				 <ele>171</ele>
			 </trkpt>
			 <trkpt lat="43.042241" lon="-79.017197">
				 <ele>171</ele>
			 </trkpt>
			 <trkpt lat="43.040133" lon="-79.016999">
				 <ele>170</ele>
			 </trkpt>
			 <trkpt lat="43.039078" lon="-79.017087">
				 <ele>171</ele>
			 </trkpt>
			 <trkpt lat="43.038833" lon="-79.017129">
				 <ele>171</ele>
			 </trkpt>
			 <trkpt lat="43.038178" lon="-79.017287">
				 <ele>171</ele>
			 </trkpt>
			 <trkpt lat="43.038178" lon="-79.017287">
				 <ele>171</ele>
			 </trkpt>
			 <trkpt lat="43.037796" lon="-79.017379">
				 <ele>171</ele>
			 </trkpt>
			 <trkpt lat="43.036387" lon="-79.017788">
				 <ele>171</ele>
			 </trkpt>
			 <trkpt lat="43.035526" lon="-79.018064">
				 <ele>171</ele>
			 </trkpt>
			 <trkpt lat="43.034251" lon="-79.01874">
				 <ele>172</ele>
			 </trkpt>
			 <trkpt lat="43.031358" lon="-79.020651">
				 <ele>172</ele>
			 </trkpt>
			 <trkpt lat="43.03049" lon="-79.021248">
				 <ele>172</ele>
			 </trkpt>
			 <trkpt lat="43.029192" lon="-79.022432">
				 <ele>172</ele>
			 </trkpt>
			 <trkpt lat="43.028457" lon="-79.023232">
				 <ele>172</ele>
			 </trkpt>
			 <trkpt lat="43.027636" lon="-79.024235">
				 <ele>172</ele>
			 </trkpt>
			 <trkpt lat="43.026864" lon="-79.025244">
				 <ele>172</ele>
			 </trkpt>
			 <trkpt lat="43.026076" lon="-79.02618">
				 <ele>172</ele>
			 </trkpt>
			 <trkpt lat="43.025722" lon="-79.026573">
				 <ele>172</ele>
			 </trkpt>
			 <trkpt lat="43.02496" lon="-79.027247">
				 <ele>172</ele>
			 </trkpt>
			 <trkpt lat="43.023335" lon="-79.028551">
				 <ele>172</ele>
			 </trkpt>
			 <trkpt lat="43.02239" lon="-79.02929">
				 <ele>172</ele>
			 </trkpt>
			 <trkpt lat="43.02132" lon="-79.030067">
				 <ele>172</ele>
			 </trkpt>
			 <trkpt lat="43.020884" lon="-79.030329">
				 <ele>172</ele>
			 </trkpt>
			 <trkpt lat="43.020307" lon="-79.030586">
				 <ele>172</ele>
			 </trkpt>
			 <trkpt lat="43.018979" lon="-79.030986">
				 <ele>171</ele>
			 </trkpt>
			 <trkpt lat="43.018229" lon="-79.031147">
				 <ele>172</ele>
			 </trkpt>
			 <trkpt lat="43.017358" lon="-79.031209">
				 <ele>171</ele>
			 </trkpt>
			 <trkpt lat="43.016151" lon="-79.031242">
				 <ele>171</ele>
			 </trkpt>
			 <trkpt lat="43.016151" lon="-79.031242">
				 <ele>171</ele>
			 </trkpt>
			 <trkpt lat="43.014809" lon="-79.031239">
				 <ele>171</ele>
			 </trkpt>
			 <trkpt lat="43.013422" lon="-79.030952">
				 <ele>172</ele>
			 </trkpt>
			 <trkpt lat="43.012072" lon="-79.030634">
				 <ele>171</ele>
			 </trkpt>
			 <trkpt lat="43.011316" lon="-79.030431">
				 <ele>172</ele>
			 </trkpt>
			 <trkpt lat="43.010855" lon="-79.030345">
				 <ele>171</ele>
			 </trkpt>
			 <trkpt lat="43.010209" lon="-79.030258">
				 <ele>172</ele>
			 </trkpt>
			 <trkpt lat="43.009305" lon="-79.03008">
				 <ele>171</ele>
			 </trkpt>
			 <trkpt lat="43.008615" lon="-79.029994">
				 <ele>172</ele>
			 </trkpt>
			 <trkpt lat="43.00781" lon="-79.030014">
				 <ele>172</ele>
			 </trkpt>
			 <trkpt lat="43.006431" lon="-79.030155">
				 <ele>172</ele>
			 </trkpt>
			 <trkpt lat="43.00587" lon="-79.030192">
				 <ele>172</ele>
			 </trkpt>
			 <trkpt lat="43.005439" lon="-79.030149">
				 <ele>172</ele>
			 </trkpt>
			 <trkpt lat="43.004676" lon="-79.030031">
				 <ele>173</ele>
			 </trkpt>
			 <trkpt lat="43.002752" lon="-79.029688">
				 <ele>172</ele>
			 </trkpt>
			 <trkpt lat="43.002001" lon="-79.029503">
				 <ele>171</ele>
			 </trkpt>
			 <trkpt lat="43" lon="-79.02876">
				 <ele>172</ele>
			 </trkpt>
			 <trkpt lat="42.997407" lon="-79.027847">
				 <ele>174</ele>
			 </trkpt>
			 <trkpt lat="42.995077" lon="-79.027443">
				 <ele>173</ele>
			 </trkpt>
			 <trkpt lat="42.993849" lon="-79.027771">
				 <ele>173</ele>
			 </trkpt>
			 <trkpt lat="42.992409" lon="-79.027945">
				 <ele>173</ele>
			 </trkpt>
			 <trkpt lat="42.991207" lon="-79.028019">
				 <ele>173</ele>
			 </trkpt>
			 <trkpt lat="42.990482" lon="-79.028132">
				 <ele>173</ele>
			 </trkpt>
			 <trkpt lat="42.989994" lon="-79.028131">
				 <ele>173</ele>
			 </trkpt>
			 <trkpt lat="42.98943" lon="-79.027982">
				 <ele>174</ele>
			 </trkpt>
			 <trkpt lat="42.988603" lon="-79.027727">
				 <ele>174</ele>
			 </trkpt>
			 <trkpt lat="42.988164" lon="-79.02757">
				 <ele>175</ele>
			 </trkpt>
			 <trkpt lat="42.988164" lon="-79.02757">
				 <ele>175</ele>
			 </trkpt>
			 <trkpt lat="42.987607" lon="-79.027372">
				 <ele>174</ele>
			 </trkpt>
			 <trkpt lat="42.98628" lon="-79.026951">
				 <ele>174</ele>
			 </trkpt>
			 <trkpt lat="42.98487" lon="-79.02593">
				 <ele>174</ele>
			 </trkpt>
			 <trkpt lat="42.984138" lon="-79.025475">
				 <ele>174</ele>
			 </trkpt>
			 <trkpt lat="42.982433" lon="-79.024769">
				 <ele>174</ele>
			 </trkpt>
			 <trkpt lat="42.981777" lon="-79.024437">
				 <ele>172</ele>
			 </trkpt>
			 <trkpt lat="42.981406" lon="-79.024201">
				 <ele>171</ele>
			 </trkpt>
			 <trkpt lat="42.981293" lon="-79.024107">
				 <ele>171</ele>
			 </trkpt>
			 <trkpt lat="42.981017" lon="-79.023798">
				 <ele>172</ele>
			 </trkpt>
			 <trkpt lat="42.980695" lon="-79.023116">
				 <ele>175</ele>
			 </trkpt>
			 <trkpt lat="42.980534" lon="-79.022915">
				 <ele>175</ele>
			 </trkpt>
			 <trkpt lat="42.979864" lon="-79.022181">
				 <ele>174</ele>
			 </trkpt>
			 <trkpt lat="42.979057" lon="-79.021253">
				 <ele>174</ele>
			 </trkpt>
			 <trkpt lat="42.977487" lon="-79.018994">
				 <ele>174</ele>
			 </trkpt>
			 <trkpt lat="42.977115" lon="-79.018322">
				 <ele>175</ele>
			 </trkpt>
			 <trkpt lat="42.976673" lon="-79.017396">
				 <ele>174</ele>
			 </trkpt>
			 <trkpt lat="42.976673" lon="-79.017396">
				 <ele>174</ele>
			 </trkpt>
			 <trkpt lat="42.976211" lon="-79.016458">
				 <ele>175</ele>
			 </trkpt>
			 <trkpt lat="42.975986" lon="-79.015937">
				 <ele>175</ele>
			 </trkpt>
			 <trkpt lat="42.975184" lon="-79.013829">
				 <ele>175</ele>
			 </trkpt>
			 <trkpt lat="42.975044" lon="-79.013552">
				 <ele>175</ele>
			 </trkpt>
			 <trkpt lat="42.974773" lon="-79.013077">
				 <ele>174</ele>
			 </trkpt>
			 <trkpt lat="42.974398" lon="-79.012113">
				 <ele>175</ele>
			 </trkpt>
			 <trkpt lat="42.974085" lon="-79.011186">
				 <ele>176</ele>
			 </trkpt>
			 <trkpt lat="42.973688" lon="-79.009868">
				 <ele>175</ele>
			 </trkpt>
			 <trkpt lat="42.973406" lon="-79.009205">
				 <ele>175</ele>
			 </trkpt>
			 <trkpt lat="42.972781" lon="-79.008194">
				 <ele>176</ele>
			 </trkpt>
			 <trkpt lat="42.972673" lon="-79.007955">
				 <ele>176</ele>
			 </trkpt>
			 <trkpt lat="42.972534" lon="-79.007593">
				 <ele>176</ele>
			 </trkpt>
			 <trkpt lat="42.972422" lon="-79.007201">
				 <ele>176</ele>
			 </trkpt>
			 <trkpt lat="42.972115" lon="-79.0054">
				 <ele>176</ele>
			 </trkpt>
			 <trkpt lat="42.971833" lon="-79.003908">
				 <ele>176</ele>
			 </trkpt>
			 <trkpt lat="42.971706" lon="-79.002857">
				 <ele>178</ele>
			 </trkpt>
			 <trkpt lat="42.971597" lon="-79.000945">
				 <ele>180</ele>
			 </trkpt>
			 <trkpt lat="42.971495" lon="-79.000371">
				 <ele>179</ele>
			 </trkpt>
			 <trkpt lat="42.97113" lon="-78.99873">
				 <ele>180</ele>
			 </trkpt>
			 <trkpt lat="42.970705" lon="-78.996177">
				 <ele>177</ele>
			 </trkpt>
			 <trkpt lat="42.970365" lon="-78.994318">
				 <ele>178</ele>
			 </trkpt>
			 <trkpt lat="42.970072" lon="-78.992841">
				 <ele>178</ele>
			 </trkpt>
			 <trkpt lat="42.969143" lon="-78.988352">
				 <ele>180</ele>
			 </trkpt>
			 <trkpt lat="42.969019" lon="-78.987909">
				 <ele>178</ele>
			 </trkpt>
			 <trkpt lat="42.969019" lon="-78.987909">
				 <ele>178</ele>
			 </trkpt>
			 <trkpt lat="42.968871" lon="-78.98751">
				 <ele>180</ele>
			 </trkpt>
			 <trkpt lat="42.967951" lon="-78.985357">
				 <ele>180</ele>
			 </trkpt>
			 <trkpt lat="42.967419" lon="-78.98432">
				 <ele>180</ele>
			 </trkpt>
			 <trkpt lat="42.966123" lon="-78.982278">
				 <ele>180</ele>
			 </trkpt>
			 <trkpt lat="42.964915" lon="-78.980674">
				 <ele>179</ele>
			 </trkpt>
			 <trkpt lat="42.964015" lon="-78.979558">
				 <ele>179</ele>
			 </trkpt>
			 <trkpt lat="42.963556" lon="-78.979085">
				 <ele>179</ele>
			 </trkpt>
			 <trkpt lat="42.963023" lon="-78.978578">
				 <ele>179</ele>
			 </trkpt>
			 <trkpt lat="42.962695" lon="-78.978381">
				 <ele>179</ele>
			 </trkpt>
			 <trkpt lat="42.962558" lon="-78.978275">
				 <ele>179</ele>
			 </trkpt>
			 <trkpt lat="42.961677" lon="-78.977825">
				 <ele>179</ele>
			 </trkpt>
			 <trkpt lat="42.96136" lon="-78.977738">
				 <ele>178</ele>
			 </trkpt>
			 <trkpt lat="42.957855" lon="-78.977595">
				 <ele>177</ele>
			 </trkpt>
			 <trkpt lat="42.957456" lon="-78.977449">
				 <ele>178</ele>
			 </trkpt>
			 <trkpt lat="42.957" lon="-78.977108">
				 <ele>177</ele>
			 </trkpt>
			 <trkpt lat="42.955817" lon="-78.975909">
				 <ele>175</ele>
			 </trkpt>
			 <trkpt lat="42.954971" lon="-78.974956">
				 <ele>178</ele>
			 </trkpt>
			 <trkpt lat="42.952291" lon="-78.97258">
				 <ele>179</ele>
			 </trkpt>
			 <trkpt lat="42.952139" lon="-78.972412">
				 <ele>179</ele>
			 </trkpt>
			 <trkpt lat="42.951922" lon="-78.972089">
				 <ele>179</ele>
			 </trkpt>
			 <trkpt lat="42.951694" lon="-78.971629">
				 <ele>179</ele>
			 </trkpt>
			 <trkpt lat="42.951423" lon="-78.970993">
				 <ele>180</ele>
			 </trkpt>
			 <trkpt lat="42.951075" lon="-78.970094">
				 <ele>178</ele>
			 </trkpt>
			 <trkpt lat="42.950897" lon="-78.969622">
				 <ele>179</ele>
			 </trkpt>
			 <trkpt lat="42.950755" lon="-78.969177">
				 <ele>179</ele>
			 </trkpt>
			 <trkpt lat="42.950755" lon="-78.969177">
				 <ele>179</ele>
			 </trkpt>
			 <trkpt lat="42.950716" lon="-78.969052">
				 <ele>178</ele>
			 </trkpt>
			 <trkpt lat="42.950091" lon="-78.966351">
				 <ele>177</ele>
			 </trkpt>
			 <trkpt lat="42.949856" lon="-78.965256">
				 <ele>176</ele>
			 </trkpt>
			 <trkpt lat="42.949381" lon="-78.963193">
				 <ele>178</ele>
			 </trkpt>
			 <trkpt lat="42.949077" lon="-78.961996">
				 <ele>177</ele>
			 </trkpt>
			 <trkpt lat="42.948829" lon="-78.960215">
				 <ele>177</ele>
			 </trkpt>
			 <trkpt lat="42.94864" lon="-78.958652">
				 <ele>177</ele>
			 </trkpt>
			 <trkpt lat="42.948232" lon="-78.955013">
				 <ele>176</ele>
			 </trkpt>
			 <trkpt lat="42.948226" lon="-78.955014">
				 <ele>176</ele>
			 </trkpt>
			 <trkpt lat="42.948226" lon="-78.955014">
				 <ele>176</ele>
			 </trkpt>
			 <trkpt lat="42.948232" lon="-78.955013">
				 <ele>176</ele>
			 </trkpt>
			 <trkpt lat="42.94864" lon="-78.958652">
				 <ele>177</ele>
			 </trkpt>
			 <trkpt lat="42.948829" lon="-78.960215">
				 <ele>177</ele>
			 </trkpt>
			 <trkpt lat="42.949077" lon="-78.961996">
				 <ele>177</ele>
			 </trkpt>
			 <trkpt lat="42.949381" lon="-78.963193">
				 <ele>178</ele>
			 </trkpt>
			 <trkpt lat="42.950716" lon="-78.969052">
				 <ele>178</ele>
			 </trkpt>
			 <trkpt lat="42.950897" lon="-78.969622">
				 <ele>179</ele>
			 </trkpt>
			 <trkpt lat="42.951423" lon="-78.970993">
				 <ele>180</ele>
			 </trkpt>
			 <trkpt lat="42.951694" lon="-78.971629">
				 <ele>179</ele>
			 </trkpt>
			 <trkpt lat="42.951922" lon="-78.972089">
				 <ele>179</ele>
			 </trkpt>
			 <trkpt lat="42.952139" lon="-78.972412">
				 <ele>179</ele>
			 </trkpt>
			 <trkpt lat="42.952291" lon="-78.97258">
				 <ele>179</ele>
			 </trkpt>
			 <trkpt lat="42.954971" lon="-78.974956">
				 <ele>178</ele>
			 </trkpt>
			 <trkpt lat="42.955817" lon="-78.975909">
				 <ele>175</ele>
			 </trkpt>
			 <trkpt lat="42.956748" lon="-78.976853">
				 <ele>178</ele>
			 </trkpt>
			 <trkpt lat="42.956748" lon="-78.976853">
				 <ele>178</ele>
			 </trkpt>
			 <trkpt lat="42.957" lon="-78.977108">
				 <ele>177</ele>
			 </trkpt>
			 <trkpt lat="42.957456" lon="-78.977449">
				 <ele>178</ele>
			 </trkpt>
			 <trkpt lat="42.957855" lon="-78.977595">
				 <ele>177</ele>
			 </trkpt>
			 <trkpt lat="42.96136" lon="-78.977738">
				 <ele>178</ele>
			 </trkpt>
			 <trkpt lat="42.961677" lon="-78.977825">
				 <ele>179</ele>
			 </trkpt>
			 <trkpt lat="42.962558" lon="-78.978275">
				 <ele>179</ele>
			 </trkpt>
			 <trkpt lat="42.962695" lon="-78.978381">
				 <ele>179</ele>
			 </trkpt>
			 <trkpt lat="42.963023" lon="-78.978578">
				 <ele>179</ele>
			 </trkpt>
			 <trkpt lat="42.963556" lon="-78.979085">
				 <ele>179</ele>
			 </trkpt>
			 <trkpt lat="42.964015" lon="-78.979558">
				 <ele>179</ele>
			 </trkpt>
			 <trkpt lat="42.964915" lon="-78.980674">
				 <ele>179</ele>
			 </trkpt>
			 <trkpt lat="42.966123" lon="-78.982278">
				 <ele>180</ele>
			 </trkpt>
			 <trkpt lat="42.967419" lon="-78.98432">
				 <ele>180</ele>
			 </trkpt>
			 <trkpt lat="42.967951" lon="-78.985357">
				 <ele>180</ele>
			 </trkpt>
			 <trkpt lat="42.968871" lon="-78.98751">
				 <ele>180</ele>
			 </trkpt>
			 <trkpt lat="42.96904" lon="-78.987966">
				 <ele>178</ele>
			 </trkpt>
			 <trkpt lat="42.969143" lon="-78.988352">
				 <ele>180</ele>
			 </trkpt>
			 <trkpt lat="42.970072" lon="-78.992841">
				 <ele>178</ele>
			 </trkpt>
			 <trkpt lat="42.970365" lon="-78.994318">
				 <ele>178</ele>
			 </trkpt>
			 <trkpt lat="42.970705" lon="-78.996177">
				 <ele>177</ele>
			 </trkpt>
			 <trkpt lat="42.97113" lon="-78.99873">
				 <ele>180</ele>
			 </trkpt>
			 <trkpt lat="42.971495" lon="-79.000371">
				 <ele>179</ele>
			 </trkpt>
			 <trkpt lat="42.971597" lon="-79.000945">
				 <ele>180</ele>
			 </trkpt>
			 <trkpt lat="42.971706" lon="-79.002857">
				 <ele>178</ele>
			 </trkpt>
			 <trkpt lat="42.971833" lon="-79.003908">
				 <ele>176</ele>
			 </trkpt>
			 <trkpt lat="42.972115" lon="-79.0054">
				 <ele>176</ele>
			 </trkpt>
			 <trkpt lat="42.972422" lon="-79.007201">
				 <ele>176</ele>
			 </trkpt>
			 <trkpt lat="42.972534" lon="-79.007593">
				 <ele>176</ele>
			 </trkpt>
			 <trkpt lat="42.972673" lon="-79.007955">
				 <ele>176</ele>
			 </trkpt>
			 <trkpt lat="42.972781" lon="-79.008194">
				 <ele>176</ele>
			 </trkpt>
			 <trkpt lat="42.973406" lon="-79.009205">
				 <ele>175</ele>
			 </trkpt>
			 <trkpt lat="42.973688" lon="-79.009868">
				 <ele>175</ele>
			 </trkpt>
			 <trkpt lat="42.974085" lon="-79.011186">
				 <ele>176</ele>
			 </trkpt>
			 <trkpt lat="42.974398" lon="-79.012113">
				 <ele>175</ele>
			 </trkpt>
			 <trkpt lat="42.974773" lon="-79.013077">
				 <ele>174</ele>
			 </trkpt>
			 <trkpt lat="42.975044" lon="-79.013552">
				 <ele>175</ele>
			 </trkpt>
			 <trkpt lat="42.975184" lon="-79.013829">
				 <ele>175</ele>
			 </trkpt>
			 <trkpt lat="42.975986" lon="-79.015937">
				 <ele>175</ele>
			 </trkpt>
			 <trkpt lat="42.976211" lon="-79.016458">
				 <ele>175</ele>
			 </trkpt>
			 <trkpt lat="42.977115" lon="-79.018322">
				 <ele>175</ele>
			 </trkpt>
			 <trkpt lat="42.977487" lon="-79.018994">
				 <ele>174</ele>
			 </trkpt>
			 <trkpt lat="42.979057" lon="-79.021253">
				 <ele>174</ele>
			 </trkpt>
			 <trkpt lat="42.979864" lon="-79.022181">
				 <ele>174</ele>
			 </trkpt>
			 <trkpt lat="42.980534" lon="-79.022915">
				 <ele>175</ele>
			 </trkpt>
			 <trkpt lat="42.980695" lon="-79.023116">
				 <ele>175</ele>
			 </trkpt>
			 <trkpt lat="42.981017" lon="-79.023798">
				 <ele>172</ele>
			 </trkpt>
			 <trkpt lat="42.981294" lon="-79.024108">
				 <ele>171</ele>
			 </trkpt>
			 <trkpt lat="42.981294" lon="-79.024108">
				 <ele>171</ele>
			 </trkpt>
			 <trkpt lat="42.981406" lon="-79.024201">
				 <ele>171</ele>
			 </trkpt>
			 <trkpt lat="42.981777" lon="-79.024437">
				 <ele>172</ele>
			 </trkpt>
			 <trkpt lat="42.982433" lon="-79.024769">
				 <ele>174</ele>
			 </trkpt>
			 <trkpt lat="42.984138" lon="-79.025475">
				 <ele>174</ele>
			 </trkpt>
			 <trkpt lat="42.98487" lon="-79.02593">
				 <ele>174</ele>
			 </trkpt>
			 <trkpt lat="42.98628" lon="-79.026951">
				 <ele>174</ele>
			 </trkpt>
			 <trkpt lat="42.987607" lon="-79.027372">
				 <ele>174</ele>
			 </trkpt>
			 <trkpt lat="42.988603" lon="-79.027727">
				 <ele>174</ele>
			 </trkpt>
			 <trkpt lat="42.98943" lon="-79.027982">
				 <ele>174</ele>
			 </trkpt>
			 <trkpt lat="42.989994" lon="-79.028131">
				 <ele>173</ele>
			 </trkpt>
			 <trkpt lat="42.990482" lon="-79.028132">
				 <ele>173</ele>
			 </trkpt>
			 <trkpt lat="42.991207" lon="-79.028019">
				 <ele>173</ele>
			 </trkpt>
			 <trkpt lat="42.992409" lon="-79.027945">
				 <ele>173</ele>
			 </trkpt>
			 <trkpt lat="42.993849" lon="-79.027771">
				 <ele>173</ele>
			 </trkpt>
			 <trkpt lat="42.995077" lon="-79.027443">
				 <ele>173</ele>
			 </trkpt>
			 <trkpt lat="42.997407" lon="-79.027847">
				 <ele>174</ele>
			 </trkpt>
			 <trkpt lat="43" lon="-79.02876">
				 <ele>172</ele>
			 </trkpt>
			 <trkpt lat="43.002001" lon="-79.029503">
				 <ele>171</ele>
			 </trkpt>
			 <trkpt lat="43.002752" lon="-79.029688">
				 <ele>172</ele>
			 </trkpt>
			 <trkpt lat="43.003734" lon="-79.029863">
				 <ele>171</ele>
			 </trkpt>
			 <trkpt lat="43.003734" lon="-79.029863">
				 <ele>171</ele>
			 </trkpt>
			 <trkpt lat="43.004676" lon="-79.030031">
				 <ele>173</ele>
			 </trkpt>
			 <trkpt lat="43.005439" lon="-79.030149">
				 <ele>172</ele>
			 </trkpt>
			 <trkpt lat="43.00587" lon="-79.030192">
				 <ele>172</ele>
			 </trkpt>
			 <trkpt lat="43.006431" lon="-79.030155">
				 <ele>172</ele>
			 </trkpt>
			 <trkpt lat="43.00781" lon="-79.030014">
				 <ele>172</ele>
			 </trkpt>
			 <trkpt lat="43.008615" lon="-79.029994">
				 <ele>172</ele>
			 </trkpt>
			 <trkpt lat="43.009305" lon="-79.03008">
				 <ele>171</ele>
			 </trkpt>
			 <trkpt lat="43.010209" lon="-79.030258">
				 <ele>172</ele>
			 </trkpt>
			 <trkpt lat="43.010855" lon="-79.030345">
				 <ele>171</ele>
			 </trkpt>
			 <trkpt lat="43.011316" lon="-79.030431">
				 <ele>172</ele>
			 </trkpt>
			 <trkpt lat="43.012072" lon="-79.030634">
				 <ele>171</ele>
			 </trkpt>
			 <trkpt lat="43.013422" lon="-79.030952">
				 <ele>172</ele>
			 </trkpt>
			 <trkpt lat="43.014809" lon="-79.031239">
				 <ele>171</ele>
			 </trkpt>
			 <trkpt lat="43.015935" lon="-79.031248">
				 <ele>171</ele>
			 </trkpt>
			 <trkpt lat="43.017358" lon="-79.031209">
				 <ele>171</ele>
			 </trkpt>
			 <trkpt lat="43.018229" lon="-79.031147">
				 <ele>172</ele>
			 </trkpt>
			 <trkpt lat="43.018979" lon="-79.030986">
				 <ele>171</ele>
			 </trkpt>
			 <trkpt lat="43.020307" lon="-79.030586">
				 <ele>172</ele>
			 </trkpt>
			 <trkpt lat="43.020884" lon="-79.030329">
				 <ele>172</ele>
			 </trkpt>
			 <trkpt lat="43.02132" lon="-79.030067">
				 <ele>172</ele>
			 </trkpt>
			 <trkpt lat="43.02239" lon="-79.02929">
				 <ele>172</ele>
			 </trkpt>
			 <trkpt lat="43.02496" lon="-79.027247">
				 <ele>172</ele>
			 </trkpt>
			 <trkpt lat="43.025722" lon="-79.026573">
				 <ele>172</ele>
			 </trkpt>
			 <trkpt lat="43.026076" lon="-79.02618">
				 <ele>172</ele>
			 </trkpt>
			 <trkpt lat="43.026864" lon="-79.025244">
				 <ele>172</ele>
			 </trkpt>
			 <trkpt lat="43.027636" lon="-79.024235">
				 <ele>172</ele>
			 </trkpt>
			 <trkpt lat="43.028457" lon="-79.023232">
				 <ele>172</ele>
			 </trkpt>
			 <trkpt lat="43.029192" lon="-79.022432">
				 <ele>172</ele>
			 </trkpt>
			 <trkpt lat="43.03049" lon="-79.021248">
				 <ele>172</ele>
			 </trkpt>
			 <trkpt lat="43.031031" lon="-79.020876">
				 <ele>172</ele>
			 </trkpt>
			 <trkpt lat="43.031031" lon="-79.020876">
				 <ele>172</ele>
			 </trkpt>
			 <trkpt lat="43.034251" lon="-79.01874">
				 <ele>172</ele>
			 </trkpt>
			 <trkpt lat="43.035526" lon="-79.018064">
				 <ele>171</ele>
			 </trkpt>
			 <trkpt lat="43.036387" lon="-79.017788">
				 <ele>171</ele>
			 </trkpt>
			 <trkpt lat="43.037796" lon="-79.017379">
				 <ele>171</ele>
			 </trkpt>
			 <trkpt lat="43.038833" lon="-79.017129">
				 <ele>171</ele>
			 </trkpt>
			 <trkpt lat="43.039078" lon="-79.017087">
				 <ele>171</ele>
			 </trkpt>
			 <trkpt lat="43.040133" lon="-79.016999">
				 <ele>170</ele>
			 </trkpt>
			 <trkpt lat="43.041864" lon="-79.017154">
				 <ele>171</ele>
			 </trkpt>
			 <trkpt lat="43.042241" lon="-79.017197">
				 <ele>171</ele>
			 </trkpt>
			 <trkpt lat="43.043307" lon="-79.01742">
				 <ele>171</ele>
			 </trkpt>
			 <trkpt lat="43.044098" lon="-79.017626">
				 <ele>170</ele>
			 </trkpt>
			 <trkpt lat="43.046595" lon="-79.018873">
				 <ele>171</ele>
			 </trkpt>
			 <trkpt lat="43.047921" lon="-79.019614">
				 <ele>171</ele>
			 </trkpt>
			 <trkpt lat="43.048758" lon="-79.020158">
				 <ele>171</ele>
			 </trkpt>
			 <trkpt lat="43.0496" lon="-79.020831">
				 <ele>171</ele>
			 </trkpt>
			 <trkpt lat="43.050313" lon="-79.021445">
				 <ele>171</ele>
			 </trkpt>
			 <trkpt lat="43.050508" lon="-79.021634">
				 <ele>171</ele>
			 </trkpt>
			 <trkpt lat="43.051204" lon="-79.022686">
				 <ele>170</ele>
			 </trkpt>
			 <trkpt lat="43.051523" lon="-79.022994">
				 <ele>170</ele>
			 </trkpt>
			 <trkpt lat="43.052139" lon="-79.023368">
				 <ele>170</ele>
			 </trkpt>
			 <trkpt lat="43.052496" lon="-79.023548">
				 <ele>170</ele>
			 </trkpt>
			 <trkpt lat="43.052544" lon="-79.023589">
				 <ele>170</ele>
			 </trkpt>
			 <trkpt lat="43.052544" lon="-79.023589">
				 <ele>170</ele>
			 </trkpt>
			 <trkpt lat="43.05303" lon="-79.024004">
				 <ele>169</ele>
			 </trkpt>
			 <trkpt lat="43.055757" lon="-79.026509">
				 <ele>167</ele>
			 </trkpt>
			 <trkpt lat="43.057225" lon="-79.027582">
				 <ele>168</ele>
			 </trkpt>
			 <trkpt lat="43.057745" lon="-79.027934">
				 <ele>163</ele>
			 </trkpt>
			 <trkpt lat="43.058542" lon="-79.028561">
				 <ele>164</ele>
			 </trkpt>
			 <trkpt lat="43.058856" lon="-79.028938">
				 <ele>163</ele>
			 </trkpt>
			 <trkpt lat="43.059251" lon="-79.029505">
				 <ele>163</ele>
			 </trkpt>
			 <trkpt lat="43.059552" lon="-79.030028">
				 <ele>163</ele>
			 </trkpt>
			 <trkpt lat="43.059784" lon="-79.030518">
				 <ele>163</ele>
			 </trkpt>
			 <trkpt lat="43.060016" lon="-79.031093">
				 <ele>164</ele>
			 </trkpt>
			 <trkpt lat="43.060191" lon="-79.031728">
				 <ele>163</ele>
			 </trkpt>
			 <trkpt lat="43.060329" lon="-79.03244">
				 <ele>162</ele>
			 </trkpt>
			 <trkpt lat="43.06048" lon="-79.033839">
				 <ele>158</ele>
			 </trkpt>
			 <trkpt lat="43.060524" lon="-79.035367">
				 <ele>158</ele>
			 </trkpt>
			 <trkpt lat="43.060599" lon="-79.036757">
				 <ele>157</ele>
			 </trkpt>
			 <trkpt lat="43.060746" lon="-79.038538">
				 <ele>158</ele>
			 </trkpt>
			 <trkpt lat="43.060881" lon="-79.039942">
				 <ele>162</ele>
			 </trkpt>
			 <trkpt lat="43.061075" lon="-79.041495">
				 <ele>162</ele>
			 </trkpt>
			 <trkpt lat="43.0612" lon="-79.042231">
				 <ele>162</ele>
			 </trkpt>
			 <trkpt lat="43.061653" lon="-79.044113">
				 <ele>167</ele>
			 </trkpt>
			 <trkpt lat="43.06198" lon="-79.045387">
				 <ele>163</ele>
			 </trkpt>
			 <trkpt lat="43.06212" lon="-79.046043">
				 <ele>163</ele>
			 </trkpt>
			 <trkpt lat="43.062192" lon="-79.046465">
				 <ele>168</ele>
			 </trkpt>
			 <trkpt lat="43.062209" lon="-79.046706">
				 <ele>168</ele>
			 </trkpt>
			 <trkpt lat="43.062205" lon="-79.04697">
				 <ele>168</ele>
			 </trkpt>
			 <trkpt lat="43.062178" lon="-79.047179">
				 <ele>168</ele>
			 </trkpt>
			 <trkpt lat="43.062069" lon="-79.047583">
				 <ele>167</ele>
			 </trkpt>
			 <trkpt lat="43.061536" lon="-79.049036">
				 <ele>164</ele>
			 </trkpt>
			 <trkpt lat="43.061473" lon="-79.049163">
				 <ele>164</ele>
			 </trkpt>
			 <trkpt lat="43.061245" lon="-79.049445">
				 <ele>167</ele>
			 </trkpt>
			 <trkpt lat="43.060657" lon="-79.050086">
				 <ele>166</ele>
			 </trkpt>
			 <trkpt lat="43.060322" lon="-79.050417">
				 <ele>166</ele>
			 </trkpt>
			 <trkpt lat="43.059453" lon="-79.051189">
				 <ele>168</ele>
			 </trkpt>
			 <trkpt lat="43.059418" lon="-79.051314">
				 <ele>168</ele>
			 </trkpt>
			 <trkpt lat="43.059398" lon="-79.051506">
				 <ele>167</ele>
			 </trkpt>
			 <trkpt lat="43.05948" lon="-79.051612">
				 <ele>164</ele>
			 </trkpt>
			 <trkpt lat="43.059958" lon="-79.052377">
				 <ele>155</ele>
			 </trkpt>
			 <trkpt lat="43.060026" lon="-79.052544">
				 <ele>159</ele>
			 </trkpt>
			 <trkpt lat="43.060227" lon="-79.052636">
				 <ele>169</ele>
			 </trkpt>
			 <trkpt lat="43.060351" lon="-79.0526">
				 <ele>170</ele>
			 </trkpt>
			 <trkpt lat="43.06061" lon="-79.052452">
				 <ele>170</ele>
			 </trkpt>
			 <trkpt lat="43.061461" lon="-79.051694">
				 <ele>170</ele>
			 </trkpt>
			 <trkpt lat="43.061672" lon="-79.051511">
				 <ele>170</ele>
			 </trkpt>
			 <trkpt lat="43.061672" lon="-79.051511">
				 <ele>170</ele>
			 </trkpt>
			 <trkpt lat="43.062141" lon="-79.051105">
				 <ele>170</ele>
			 </trkpt>
			 <trkpt lat="43.062373" lon="-79.050977">
				 <ele>170</ele>
			 </trkpt>
			 <trkpt lat="43.06266" lon="-79.050892">
				 <ele>170</ele>
			 </trkpt>
			 <trkpt lat="43.062932" lon="-79.050879">
				 <ele>171</ele>
			 </trkpt>
			 <trkpt lat="43.063195" lon="-79.050925">
				 <ele>171</ele>
			 </trkpt>
			 <trkpt lat="43.063458" lon="-79.051032">
				 <ele>171</ele>
			 </trkpt>
			 <trkpt lat="43.06375" lon="-79.051234">
				 <ele>171</ele>
			 </trkpt>
			 <trkpt lat="43.064136" lon="-79.051649">
				 <ele>171</ele>
			 </trkpt>
			 <trkpt lat="43.066746" lon="-79.054603">
				 <ele>170</ele>
			 </trkpt>
			 <trkpt lat="43.066888" lon="-79.054796">
				 <ele>170</ele>
			 </trkpt>
			 <trkpt lat="43.067087" lon="-79.055175">
				 <ele>170</ele>
			 </trkpt>
			 <trkpt lat="43.068682" lon="-79.058876">
				 <ele>170</ele>
			 </trkpt>
			 <trkpt lat="43.068807" lon="-79.059172">
				 <ele>170</ele>
			 </trkpt>
			 <trkpt lat="43.068878" lon="-79.059403">
				 <ele>170</ele>
			 </trkpt>
			 <trkpt lat="43.069112" lon="-79.060332">
				 <ele>171</ele>
			 </trkpt>
			 <trkpt lat="43.069247" lon="-79.060945">
				 <ele>171</ele>
			 </trkpt>
			 <trkpt lat="43.069622" lon="-79.062657">
				 <ele>169</ele>
			 </trkpt>
			 <trkpt lat="43.069622" lon="-79.062657">
				 <ele>169</ele>
			 </trkpt>
			 <trkpt lat="43.069774" lon="-79.063359">
				 <ele>169</ele>
			 </trkpt>
			 <trkpt lat="43.069803" lon="-79.063607">
				 <ele>168</ele>
			 </trkpt>
			 <trkpt lat="43.069818" lon="-79.063947">
				 <ele>164</ele>
			 </trkpt>
			 <trkpt lat="43.069788" lon="-79.064218">
				 <ele>166</ele>
			 </trkpt>
			 <trkpt lat="43.069583" lon="-79.065393">
				 <ele>167</ele>
			 </trkpt>
			 <trkpt lat="43.069583" lon="-79.065393">
				 <ele>167</ele>
			 </trkpt>
			 <trkpt lat="43.06955" lon="-79.065748">
				 <ele>166</ele>
			 </trkpt>
			 <trkpt lat="43.069551" lon="-79.066671">
				 <ele>159</ele>
			 </trkpt>
			 <trkpt lat="43.069508" lon="-79.06708">
				 <ele>165</ele>
			 </trkpt>
			 <trkpt lat="43.069387" lon="-79.067851">
				 <ele>165</ele>
			 </trkpt>
			 <trkpt lat="43.069295" lon="-79.068626">
				 <ele>161</ele>
			 </trkpt>
			 <trkpt lat="43.069292" lon="-79.068979">
				 <ele>161</ele>
			 </trkpt>
			 <trkpt lat="43.069328" lon="-79.069275">
				 <ele>160</ele>
			 </trkpt>
			 <trkpt lat="43.069494" lon="-79.070026">
				 <ele>168</ele>
			 </trkpt>
			 <trkpt lat="43.069727" lon="-79.070897">
				 <ele>168</ele>
			 </trkpt>
			 <trkpt lat="43.069861" lon="-79.071266">
				 <ele>163</ele>
			 </trkpt>
			 <trkpt lat="43.07016" lon="-79.071895">
				 <ele>163</ele>
			 </trkpt>
		 </trkseg>
	 </trk>
</gpx>