<?xml version="1.0" encoding="UTF-8"?>
 <gpx creator="Garmin Connect" version="1.1"
	 xsi:schemaLocation="http://www.topografix.com/GPX/1/1 http://www.topografix.com/GPX/11.xsd"
	 xmlns:ns3="http://www.garmin.com/xmlschemas/TrackPointExtension/v1"
	 xmlns="http://www.topografix.com/GPX/1/1"
	 xmlns:xsi="http://www.w3.org/2001/XMLSchema-instance" xmlns:ns2="http://www.garmin.com/xmlschemas/GpxExtensions/v3">
	 <metadata>
		<name>XXIX Maratona di Palermo - 42.195 km</name>
		 <link href="https://www.goandrace.com">
		 <text>Garmin Connect</text>
		 </link>
	 <time>2026-08-08T21:32:11</time>
	 </metadata>
	 <trk>
		 <name>XXIX Maratona di Palermo - 42.195 km</name>
		 <trkseg>
			 <trkpt lat="38.124768" lon="13.355604">
				 <ele>19.3</ele>
			 </trkpt>
			 <trkpt lat="38.12623" lon="13.35463">
				 <ele>20</ele>
			 </trkpt>
			 <trkpt lat="38.12918" lon="13.35273">
				 <ele>20.6</ele>
			 </trkpt>
			 <trkpt lat="38.131712" lon="13.351074">
				 <ele>21.4</ele>
			 </trkpt>
			 <trkpt lat="38.13525" lon="13.348795">
				 <ele>22.2</ele>
			 </trkpt>
			 <trkpt lat="38.138778" lon="13.346506">
				 <ele>22.9</ele>
			 </trkpt>
			 <trkpt lat="38.141529" lon="13.344736">
				 <ele>24.2</ele>
			 </trkpt>
			 <trkpt lat="38.144592" lon="13.342741">
				 <ele>25.5</ele>
			 </trkpt>
			 <trkpt lat="38.1452" lon="13.34235">
				 <ele>26.5</ele>
			 </trkpt>
			 <trkpt lat="38.1453" lon="13.34232">
				 <ele>27.5</ele>
			 </trkpt>
			 <trkpt lat="38.14532" lon="13.34235">
				 <ele>28.5</ele>
			 </trkpt>
			 <trkpt lat="38.14538" lon="13.34241">
				 <ele>29.3</ele>
			 </trkpt>
			 <trkpt lat="38.14544" lon="13.34245">
				 <ele>30</ele>
			 </trkpt>
			 <trkpt lat="38.14558" lon="13.3425">
				 <ele>30.8</ele>
			 </trkpt>
			 <trkpt lat="38.14572" lon="13.34247">
				 <ele>31.5</ele>
			 </trkpt>
			 <trkpt lat="38.14579" lon="13.34244">
				 <ele>32.2</ele>
			 </trkpt>
			 <trkpt lat="38.14582" lon="13.34242">
				 <ele>32.9</ele>
			 </trkpt>
			 <trkpt lat="38.1462" lon="13.34301">
				 <ele>33.7</ele>
			 </trkpt>
			 <trkpt lat="38.14769" lon="13.34522">
				 <ele>34.6</ele>
			 </trkpt>
			 <trkpt lat="38.14967" lon="13.34813">
				 <ele>35.6</ele>
			 </trkpt>
			 <trkpt lat="38.151" lon="13.35006">
				 <ele>36.7</ele>
			 </trkpt>
			 <trkpt lat="38.15127" lon="13.35017">
				 <ele>37.9</ele>
			 </trkpt>
			 <trkpt lat="38.15133" lon="13.35018">
				 <ele>39</ele>
			 </trkpt>
			 <trkpt lat="38.15154" lon="13.35017">
				 <ele>40.3</ele>
			 </trkpt>
			 <trkpt lat="38.15162" lon="13.35015">
				 <ele>41.5</ele>
			 </trkpt>
			 <trkpt lat="38.15188" lon="13.35002">
				 <ele>43.1</ele>
			 </trkpt>
			 <trkpt lat="38.15197" lon="13.34991">
				 <ele>44.7</ele>
			 </trkpt>
			 <trkpt lat="38.15287" lon="13.34897">
				 <ele>46.5</ele>
			 </trkpt>
			 <trkpt lat="38.15385" lon="13.34795">
				 <ele>48.5</ele>
			 </trkpt>
			 <trkpt lat="38.15729" lon="13.34436">
				 <ele>50.6</ele>
			 </trkpt>
			 <trkpt lat="38.15762" lon="13.34405">
				 <ele>53.2</ele>
			 </trkpt>
			 <trkpt lat="38.15942" lon="13.34309">
				 <ele>55.8</ele>
			 </trkpt>
			 <trkpt lat="38.16018" lon="13.34269">
				 <ele>58.5</ele>
			 </trkpt>
			 <trkpt lat="38.16033" lon="13.34261">
				 <ele>61.5</ele>
			 </trkpt>
			 <trkpt lat="38.16425" lon="13.34051">
				 <ele>64.2</ele>
			 </trkpt>
			 <trkpt lat="38.16646" lon="13.33934">
				 <ele>66.7</ele>
			 </trkpt>
			 <trkpt lat="38.16658" lon="13.3393">
				 <ele>68.8</ele>
			 </trkpt>
			 <trkpt lat="38.16917" lon="13.33892">
				 <ele>70.5</ele>
			 </trkpt>
			 <trkpt lat="38.16942" lon="13.33889">
				 <ele>71.8</ele>
			 </trkpt>
			 <trkpt lat="38.16958" lon="13.33886">
				 <ele>72.8</ele>
			 </trkpt>
			 <trkpt lat="38.16988" lon="13.33879">
				 <ele>73.3</ele>
			 </trkpt>
			 <trkpt lat="38.17072" lon="13.33841">
				 <ele>73.3</ele>
			 </trkpt>
			 <trkpt lat="38.17158" lon="13.33804">
				 <ele>73.2</ele>
			 </trkpt>
			 <trkpt lat="38.17219" lon="13.33779">
				 <ele>73</ele>
			 </trkpt>
			 <trkpt lat="38.17364" lon="13.33724">
				 <ele>72.7</ele>
			 </trkpt>
			 <trkpt lat="38.17527" lon="13.33662">
				 <ele>72.5</ele>
			 </trkpt>
			 <trkpt lat="38.175226" lon="13.336538">
				 <ele>72.3</ele>
			 </trkpt>
			 <trkpt lat="38.17448" lon="13.3368">
				 <ele>72.2</ele>
			 </trkpt>
			 <trkpt lat="38.17205" lon="13.33772">
				 <ele>72.2</ele>
			 </trkpt>
			 <trkpt lat="38.17103" lon="13.33818">
				 <ele>72.2</ele>
			 </trkpt>
			 <trkpt lat="38.17026" lon="13.33848">
				 <ele>72.1</ele>
			 </trkpt>
			 <trkpt lat="38.17013" lon="13.33852">
				 <ele>72</ele>
			 </trkpt>
			 <trkpt lat="38.17005" lon="13.33852">
				 <ele>71.5</ele>
			 </trkpt>
			 <trkpt lat="38.16993" lon="13.33847">
				 <ele>70.8</ele>
			 </trkpt>
			 <trkpt lat="38.16983" lon="13.3384">
				 <ele>69.8</ele>
			 </trkpt>
			 <trkpt lat="38.16945" lon="13.3379">
				 <ele>68.5</ele>
			 </trkpt>
			 <trkpt lat="38.16935" lon="13.33766">
				 <ele>67.1</ele>
			 </trkpt>
			 <trkpt lat="38.16759" lon="13.33358">
				 <ele>65.6</ele>
			 </trkpt>
			 <trkpt lat="38.16646" lon="13.33102">
				 <ele>64.2</ele>
			 </trkpt>
			 <trkpt lat="38.16635" lon="13.33075">
				 <ele>62.7</ele>
			 </trkpt>
			 <trkpt lat="38.16637" lon="13.33069">
				 <ele>61.5</ele>
			 </trkpt>
			 <trkpt lat="38.16636" lon="13.3306">
				 <ele>60.4</ele>
			 </trkpt>
			 <trkpt lat="38.1663" lon="13.33056">
				 <ele>59.3</ele>
			 </trkpt>
			 <trkpt lat="38.16627" lon="13.33056">
				 <ele>58.5</ele>
			 </trkpt>
			 <trkpt lat="38.16621" lon="13.33059">
				 <ele>58</ele>
			 </trkpt>
			 <trkpt lat="38.16619" lon="13.33067">
				 <ele>57.6</ele>
			 </trkpt>
			 <trkpt lat="38.16619" lon="13.33071">
				 <ele>57.5</ele>
			 </trkpt>
			 <trkpt lat="38.1662" lon="13.33075">
				 <ele>57.3</ele>
			 </trkpt>
			 <trkpt lat="38.16605" lon="13.33085">
				 <ele>57.1</ele>
			 </trkpt>
			 <trkpt lat="38.16498" lon="13.33155">
				 <ele>56.9</ele>
			 </trkpt>
			 <trkpt lat="38.16435" lon="13.33197">
				 <ele>56.7</ele>
			 </trkpt>
			 <trkpt lat="38.16419" lon="13.33208">
				 <ele>56.7</ele>
			 </trkpt>
			 <trkpt lat="38.16422" lon="13.33215">
				 <ele>56.7</ele>
			 </trkpt>
			 <trkpt lat="38.16431" lon="13.33234">
				 <ele>56.8</ele>
			 </trkpt>
			 <trkpt lat="38.16434" lon="13.33256">
				 <ele>56.9</ele>
			 </trkpt>
			 <trkpt lat="38.1644" lon="13.33328">
				 <ele>57</ele>
			 </trkpt>
			 <trkpt lat="38.16448" lon="13.33396">
				 <ele>56.9</ele>
			 </trkpt>
			 <trkpt lat="38.16453" lon="13.33417">
				 <ele>56.5</ele>
			 </trkpt>
			 <trkpt lat="38.16495" lon="13.335515">
				 <ele>55.7</ele>
			 </trkpt>
			 <trkpt lat="38.16568" lon="13.33738">
				 <ele>54.5</ele>
			 </trkpt>
			 <trkpt lat="38.16491" lon="13.33795">
				 <ele>53</ele>
			 </trkpt>
			 <trkpt lat="38.16168" lon="13.34031">
				 <ele>51.4</ele>
			 </trkpt>
			 <trkpt lat="38.159" lon="13.34229">
				 <ele>49.5</ele>
			 </trkpt>
			 <trkpt lat="38.15605" lon="13.34447">
				 <ele>47.4</ele>
			 </trkpt>
			 <trkpt lat="38.15218" lon="13.34733">
				 <ele>45.2</ele>
			 </trkpt>
			 <trkpt lat="38.15115" lon="13.3481">
				 <ele>43</ele>
			 </trkpt>
			 <trkpt lat="38.15055" lon="13.34856">
				 <ele>40.7</ele>
			 </trkpt>
			 <trkpt lat="38.1504" lon="13.34863">
				 <ele>38.5</ele>
			 </trkpt>
			 <trkpt lat="38.15026" lon="13.34869">
				 <ele>36.6</ele>
			 </trkpt>
			 <trkpt lat="38.14959" lon="13.34771">
				 <ele>35.1</ele>
			 </trkpt>
			 <trkpt lat="38.1488" lon="13.34658">
				 <ele>33.9</ele>
			 </trkpt>
			 <trkpt lat="38.1477" lon="13.34492">
				 <ele>33.1</ele>
			 </trkpt>
			 <trkpt lat="38.14747" lon="13.34453">
				 <ele>32.4</ele>
			 </trkpt>
			 <trkpt lat="38.14731" lon="13.34425">
				 <ele>31.7</ele>
			 </trkpt>
			 <trkpt lat="38.14725" lon="13.3441">
				 <ele>31.3</ele>
			 </trkpt>
			 <trkpt lat="38.14714" lon="13.34387">
				 <ele>30.9</ele>
			 </trkpt>
			 <trkpt lat="38.1471" lon="13.34375">
				 <ele>30.6</ele>
			 </trkpt>
			 <trkpt lat="38.14699" lon="13.34375">
				 <ele>30.5</ele>
			 </trkpt>
			 <trkpt lat="38.14684" lon="13.34376">
				 <ele>30.4</ele>
			 </trkpt>
			 <trkpt lat="38.14677" lon="13.34368">
				 <ele>30.4</ele>
			 </trkpt>
			 <trkpt lat="38.14636" lon="13.34313">
				 <ele>30.5</ele>
			 </trkpt>
			 <trkpt lat="38.14588" lon="13.34235">
				 <ele>30.5</ele>
			 </trkpt>
			 <trkpt lat="38.14586" lon="13.34238">
				 <ele>30.5</ele>
			 </trkpt>
			 <trkpt lat="38.14579" lon="13.34244">
				 <ele>30.5</ele>
			 </trkpt>
			 <trkpt lat="38.14574" lon="13.34247">
				 <ele>30.4</ele>
			 </trkpt>
			 <trkpt lat="38.14562" lon="13.3425">
				 <ele>30.2</ele>
			 </trkpt>
			 <trkpt lat="38.14548" lon="13.34247">
				 <ele>29.9</ele>
			 </trkpt>
			 <trkpt lat="38.14535" lon="13.34238">
				 <ele>29.5</ele>
			 </trkpt>
			 <trkpt lat="38.1453" lon="13.34232">
				 <ele>28.8</ele>
			 </trkpt>
			 <trkpt lat="38.1452" lon="13.34235">
				 <ele>28.1</ele>
			 </trkpt>
			 <trkpt lat="38.14508" lon="13.34243">
				 <ele>27.1</ele>
			 </trkpt>
			 <trkpt lat="38.1436" lon="13.34338">
				 <ele>26</ele>
			 </trkpt>
			 <trkpt lat="38.14338" lon="13.34353">
				 <ele>24.9</ele>
			 </trkpt>
			 <trkpt lat="38.1383" lon="13.34682">
				 <ele>23.8</ele>
			 </trkpt>
			 <trkpt lat="38.13799" lon="13.34699">
				 <ele>22.7</ele>
			 </trkpt>
			 <trkpt lat="38.13684" lon="13.34773">
				 <ele>21.7</ele>
			 </trkpt>
			 <trkpt lat="38.13563" lon="13.34854">
				 <ele>20.8</ele>
			 </trkpt>
			 <trkpt lat="38.1348" lon="13.34909">
				 <ele>20</ele>
			 </trkpt>
			 <trkpt lat="38.13264" lon="13.35048">
				 <ele>19.3</ele>
			 </trkpt>
			 <trkpt lat="38.1298" lon="13.35232">
				 <ele>18.7</ele>
			 </trkpt>
			 <trkpt lat="38.12502" lon="13.35541">
				 <ele>18.3</ele>
			 </trkpt>
			 <trkpt lat="38.12496" lon="13.35526">
				 <ele>18.1</ele>
			 </trkpt>
			 <trkpt lat="38.12493" lon="13.35526">
				 <ele>18</ele>
			 </trkpt>
			 <trkpt lat="38.12486" lon="13.35527">
				 <ele>18</ele>
			 </trkpt>
			 <trkpt lat="38.12482" lon="13.35523">
				 <ele>18.1</ele>
			 </trkpt>
			 <trkpt lat="38.12475" lon="13.35505">
				 <ele>18.2</ele>
			 </trkpt>
			 <trkpt lat="38.124663" lon="13.354833">
				 <ele>18.3</ele>
			 </trkpt>
			 <trkpt lat="38.124164" lon="13.35518">
				 <ele>18.4</ele>
			 </trkpt>
			 <trkpt lat="38.12412" lon="13.3552">
				 <ele>18.5</ele>
			 </trkpt>
			 <trkpt lat="38.12426" lon="13.35547">
				 <ele>18.5</ele>
			 </trkpt>
			 <trkpt lat="38.1244" lon="13.35582">
				 <ele>18.6</ele>
			 </trkpt>
			 <trkpt lat="38.12341" lon="13.35647">
				 <ele>18.7</ele>
			 </trkpt>
			 <trkpt lat="38.1233" lon="13.35654">
				 <ele>18.7</ele>
			 </trkpt>
			 <trkpt lat="38.12234" lon="13.35716">
				 <ele>18.7</ele>
			 </trkpt>
			 <trkpt lat="38.12155" lon="13.35764">
				 <ele>18.6</ele>
			 </trkpt>
			 <trkpt lat="38.12122" lon="13.35787">
				 <ele>18.4</ele>
			 </trkpt>
			 <trkpt lat="38.12134" lon="13.35833">
				 <ele>18</ele>
			 </trkpt>
			 <trkpt lat="38.12158" lon="13.35925">
				 <ele>17.6</ele>
			 </trkpt>
			 <trkpt lat="38.12188" lon="13.36039">
				 <ele>17.2</ele>
			 </trkpt>
			 <trkpt lat="38.12201" lon="13.36081">
				 <ele>16.7</ele>
			 </trkpt>
			 <trkpt lat="38.12172" lon="13.361">
				 <ele>16.2</ele>
			 </trkpt>
			 <trkpt lat="38.12119" lon="13.36135">
				 <ele>15.6</ele>
			 </trkpt>
			 <trkpt lat="38.12018" lon="13.36185">
				 <ele>15.2</ele>
			 </trkpt>
			 <trkpt lat="38.11934" lon="13.36225">
				 <ele>14.8</ele>
			 </trkpt>
			 <trkpt lat="38.11918" lon="13.36233">
				 <ele>14.5</ele>
			 </trkpt>
			 <trkpt lat="38.11854" lon="13.36263">
				 <ele>14.5</ele>
			 </trkpt>
			 <trkpt lat="38.11739" lon="13.3632">
				 <ele>14.6</ele>
			 </trkpt>
			 <trkpt lat="38.11715" lon="13.36332">
				 <ele>15</ele>
			 </trkpt>
			 <trkpt lat="38.11657" lon="13.36364">
				 <ele>15.5</ele>
			 </trkpt>
			 <trkpt lat="38.11647" lon="13.36336">
				 <ele>16.3</ele>
			 </trkpt>
			 <trkpt lat="38.11635" lon="13.36307">
				 <ele>17</ele>
			 </trkpt>
			 <trkpt lat="38.11561" lon="13.36127">
				 <ele>17.9</ele>
			 </trkpt>
			 <trkpt lat="38.1151" lon="13.35999">
				 <ele>18.9</ele>
			 </trkpt>
			 <trkpt lat="38.11471" lon="13.35904">
				 <ele>19.9</ele>
			 </trkpt>
			 <trkpt lat="38.11436" lon="13.35814">
				 <ele>21.1</ele>
			 </trkpt>
			 <trkpt lat="38.11395" lon="13.35714">
				 <ele>22.2</ele>
			 </trkpt>
			 <trkpt lat="38.11388" lon="13.35697">
				 <ele>23.3</ele>
			 </trkpt>
			 <trkpt lat="38.11382" lon="13.35682">
				 <ele>24.3</ele>
			 </trkpt>
			 <trkpt lat="38.11379" lon="13.35683">
				 <ele>25.3</ele>
			 </trkpt>
			 <trkpt lat="38.11382" lon="13.35682">
				 <ele>26.2</ele>
			 </trkpt>
			 <trkpt lat="38.1137" lon="13.35653">
				 <ele>27.1</ele>
			 </trkpt>
			 <trkpt lat="38.11347" lon="13.35597">
				 <ele>28</ele>
			 </trkpt>
			 <trkpt lat="38.1132" lon="13.35531">
				 <ele>28.9</ele>
			 </trkpt>
			 <trkpt lat="38.11227" lon="13.35299">
				 <ele>29.7</ele>
			 </trkpt>
			 <trkpt lat="38.11189" lon="13.3521">
				 <ele>30.5</ele>
			 </trkpt>
			 <trkpt lat="38.11152" lon="13.35118">
				 <ele>31</ele>
			 </trkpt>
			 <trkpt lat="38.11148" lon="13.35108">
				 <ele>31.5</ele>
			 </trkpt>
			 <trkpt lat="38.11121" lon="13.35126">
				 <ele>32</ele>
			 </trkpt>
			 <trkpt lat="38.11103" lon="13.35143">
				 <ele>32.4</ele>
			 </trkpt>
			 <trkpt lat="38.11065" lon="13.35201">
				 <ele>32.5</ele>
			 </trkpt>
			 <trkpt lat="38.11033" lon="13.35254">
				 <ele>32.6</ele>
			 </trkpt>
			 <trkpt lat="38.11019" lon="13.35273">
				 <ele>32.7</ele>
			 </trkpt>
			 <trkpt lat="38.11037" lon="13.35278">
				 <ele>32.8</ele>
			 </trkpt>
			 <trkpt lat="38.11047" lon="13.35265">
				 <ele>32.8</ele>
			 </trkpt>
			 <trkpt lat="38.11057" lon="13.35263">
				 <ele>32.8</ele>
			 </trkpt>
			 <trkpt lat="38.11068" lon="13.35256">
				 <ele>32.8</ele>
			 </trkpt>
			 <trkpt lat="38.11073" lon="13.35257">
				 <ele>32.8</ele>
			 </trkpt>
			 <trkpt lat="38.11077" lon="13.35262">
				 <ele>32.8</ele>
			 </trkpt>
			 <trkpt lat="38.1108" lon="13.35273">
				 <ele>32.8</ele>
			 </trkpt>
			 <trkpt lat="38.11076" lon="13.35282">
				 <ele>32.8</ele>
			 </trkpt>
			 <trkpt lat="38.11066" lon="13.3529">
				 <ele>33</ele>
			 </trkpt>
			 <trkpt lat="38.11066" lon="13.35297">
				 <ele>33.2</ele>
			 </trkpt>
			 <trkpt lat="38.11069" lon="13.35301">
				 <ele>33.3</ele>
			 </trkpt>
			 <trkpt lat="38.11078" lon="13.353">
				 <ele>33.4</ele>
			 </trkpt>
			 <trkpt lat="38.1109" lon="13.35296">
				 <ele>33.5</ele>
			 </trkpt>
			 <trkpt lat="38.11117" lon="13.35285">
				 <ele>33.5</ele>
			 </trkpt>
			 <trkpt lat="38.11133" lon="13.35278">
				 <ele>33.6</ele>
			 </trkpt>
			 <trkpt lat="38.111659" lon="13.353469">
				 <ele>33.6</ele>
			 </trkpt>
			 <trkpt lat="38.112074" lon="13.353327">
				 <ele>33.5</ele>
			 </trkpt>
			 <trkpt lat="38.112131" lon="13.353412">
				 <ele>33.5</ele>
			 </trkpt>
			 <trkpt lat="38.112158" lon="13.353536">
				 <ele>33.3</ele>
			 </trkpt>
			 <trkpt lat="38.111626" lon="13.353919">
				 <ele>32.8</ele>
			 </trkpt>
			 <trkpt lat="38.11179" lon="13.35422">
				 <ele>32.3</ele>
			 </trkpt>
			 <trkpt lat="38.11196" lon="13.35453">
				 <ele>31.5</ele>
			 </trkpt>
			 <trkpt lat="38.112" lon="13.35451">
				 <ele>30.6</ele>
			 </trkpt>
			 <trkpt lat="38.11262" lon="13.354028">
				 <ele>29.6</ele>
			 </trkpt>
			 <trkpt lat="38.11267" lon="13.354">
				 <ele>28.5</ele>
			 </trkpt>
			 <trkpt lat="38.1127" lon="13.35407">
				 <ele>27.2</ele>
			 </trkpt>
			 <trkpt lat="38.11322" lon="13.35537">
				 <ele>25.8</ele>
			 </trkpt>
			 <trkpt lat="38.11458" lon="13.35869">
				 <ele>24.5</ele>
			 </trkpt>
			 <trkpt lat="38.11493" lon="13.35959">
				 <ele>23</ele>
			 </trkpt>
			 <trkpt lat="38.11516" lon="13.36015">
				 <ele>21.6</ele>
			 </trkpt>
			 <trkpt lat="38.11558" lon="13.3612">
				 <ele>20.5</ele>
			 </trkpt>
			 <trkpt lat="38.11569" lon="13.36146">
				 <ele>19.4</ele>
			 </trkpt>
			 <trkpt lat="38.11537" lon="13.36167">
				 <ele>18.5</ele>
			 </trkpt>
			 <trkpt lat="38.11481" lon="13.36204">
				 <ele>17.7</ele>
			 </trkpt>
			 <trkpt lat="38.11459" lon="13.36219">
				 <ele>17.2</ele>
			 </trkpt>
			 <trkpt lat="38.11418" lon="13.36243">
				 <ele>16.8</ele>
			 </trkpt>
			 <trkpt lat="38.11372" lon="13.36273">
				 <ele>16.5</ele>
			 </trkpt>
			 <trkpt lat="38.11339" lon="13.36296">
				 <ele>16.5</ele>
			 </trkpt>
			 <trkpt lat="38.11327" lon="13.36303">
				 <ele>16.6</ele>
			 </trkpt>
			 <trkpt lat="38.11304" lon="13.36318">
				 <ele>16.7</ele>
			 </trkpt>
			 <trkpt lat="38.11255" lon="13.36351">
				 <ele>16.7</ele>
			 </trkpt>
			 <trkpt lat="38.11199" lon="13.36386">
				 <ele>16.6</ele>
			 </trkpt>
			 <trkpt lat="38.11089" lon="13.36458">
				 <ele>16.5</ele>
			 </trkpt>
			 <trkpt lat="38.11066" lon="13.36472">
				 <ele>16.4</ele>
			 </trkpt>
			 <trkpt lat="38.11074" lon="13.36493">
				 <ele>16.1</ele>
			 </trkpt>
			 <trkpt lat="38.11121" lon="13.36626">
				 <ele>15.7</ele>
			 </trkpt>
			 <trkpt lat="38.11226" lon="13.36577">
				 <ele>15.3</ele>
			 </trkpt>
			 <trkpt lat="38.1125" lon="13.36565">
				 <ele>14.8</ele>
			 </trkpt>
			 <trkpt lat="38.11436" lon="13.3647">
				 <ele>14.4</ele>
			 </trkpt>
			 <trkpt lat="38.11508" lon="13.36432">
				 <ele>14</ele>
			 </trkpt>
			 <trkpt lat="38.11556" lon="13.36413">
				 <ele>13.7</ele>
			 </trkpt>
			 <trkpt lat="38.11607" lon="13.36385">
				 <ele>13.5</ele>
			 </trkpt>
			 <trkpt lat="38.11657" lon="13.36364">
				 <ele>13.5</ele>
			 </trkpt>
			 <trkpt lat="38.11726" lon="13.36327">
				 <ele>13.5</ele>
			 </trkpt>
			 <trkpt lat="38.11847" lon="13.36267">
				 <ele>13.6</ele>
			 </trkpt>
			 <trkpt lat="38.11881" lon="13.36251">
				 <ele>14</ele>
			 </trkpt>
			 <trkpt lat="38.11934" lon="13.36225">
				 <ele>14.4</ele>
			 </trkpt>
			 <trkpt lat="38.1205" lon="13.3617">
				 <ele>14.9</ele>
			 </trkpt>
			 <trkpt lat="38.12119" lon="13.36135">
				 <ele>15.5</ele>
			 </trkpt>
			 <trkpt lat="38.12158" lon="13.3611">
				 <ele>15.9</ele>
			 </trkpt>
			 <trkpt lat="38.12201" lon="13.36081">
				 <ele>16.4</ele>
			 </trkpt>
			 <trkpt lat="38.12191" lon="13.36049">
				 <ele>16.8</ele>
			 </trkpt>
			 <trkpt lat="38.12151" lon="13.35905">
				 <ele>17.3</ele>
			 </trkpt>
			 <trkpt lat="38.12122" lon="13.35787">
				 <ele>17.6</ele>
			 </trkpt>
			 <trkpt lat="38.12155" lon="13.35764">
				 <ele>17.8</ele>
			 </trkpt>
			 <trkpt lat="38.12234" lon="13.35716">
				 <ele>17.8</ele>
			 </trkpt>
			 <trkpt lat="38.12341" lon="13.35647">
				 <ele>17.6</ele>
			 </trkpt>
			 <trkpt lat="38.12422" lon="13.35593">
				 <ele>17.5</ele>
			 </trkpt>
			 <trkpt lat="38.1244" lon="13.35582">
				 <ele>17.2</ele>
			 </trkpt>
			 <trkpt lat="38.12459" lon="13.3563">
				 <ele>16.9</ele>
			 </trkpt>
			 <trkpt lat="38.12495" lon="13.3572">
				 <ele>16.6</ele>
			 </trkpt>
			 <trkpt lat="38.12504" lon="13.35742">
				 <ele>16.4</ele>
			 </trkpt>
			 <trkpt lat="38.12528" lon="13.35726">
				 <ele>16.1</ele>
			 </trkpt>
			 <trkpt lat="38.1256" lon="13.35704">
				 <ele>15.8</ele>
			 </trkpt>
			 <trkpt lat="38.12566" lon="13.357">
				 <ele>15.7</ele>
			 </trkpt>
			 <trkpt lat="38.12551" lon="13.3566">
				 <ele>16.9</ele>
			 </trkpt>
			 <trkpt lat="38.1253" lon="13.35605">
				 <ele>18.2</ele>
			 </trkpt>
			 <trkpt lat="38.12515" lon="13.35568">
				 <ele>19.3</ele>
			 </trkpt>
			 <trkpt lat="38.12502" lon="13.35541">
				 <ele>20.2</ele>
			 </trkpt>
			 <trkpt lat="38.128272" lon="13.353343">
				 <ele>20.9</ele>
			 </trkpt>
			 <trkpt lat="38.128671" lon="13.353081">
				 <ele>21.7</ele>
			 </trkpt>
			 <trkpt lat="38.129071" lon="13.352818">
				 <ele>22.5</ele>
			 </trkpt>
			 <trkpt lat="38.12947" lon="13.352556">
				 <ele>23</ele>
			 </trkpt>
			 <trkpt lat="38.12987" lon="13.352293">
				 <ele>23.6</ele>
			 </trkpt>
			 <trkpt lat="38.130269" lon="13.352031">
				 <ele>24.4</ele>
			 </trkpt>
			 <trkpt lat="38.130669" lon="13.351768">
				 <ele>25.3</ele>
			 </trkpt>
			 <trkpt lat="38.131068" lon="13.351506">
				 <ele>24.8</ele>
			 </trkpt>
			 <trkpt lat="38.131468" lon="13.351243">
				 <ele>24.2</ele>
			 </trkpt>
			 <trkpt lat="38.131867" lon="13.350981">
				 <ele>23.7</ele>
			 </trkpt>
			 <trkpt lat="38.132267" lon="13.350718">
				 <ele>23.1</ele>
			 </trkpt>
			 <trkpt lat="38.132666" lon="13.350456">
				 <ele>22.6</ele>
			 </trkpt>
			 <trkpt lat="38.133065" lon="13.350193">
				 <ele>22.2</ele>
			 </trkpt>
			 <trkpt lat="38.133465" lon="13.349931">
				 <ele>21.8</ele>
			 </trkpt>
			 <trkpt lat="38.13371" lon="13.34978">
				 <ele>21.6</ele>
			 </trkpt>
			 <trkpt lat="38.13444" lon="13.34932">
				 <ele>21.5</ele>
			 </trkpt>
			 <trkpt lat="38.1348" lon="13.34909">
				 <ele>21.3</ele>
			 </trkpt>
			 <trkpt lat="38.13563" lon="13.34854">
				 <ele>20.9</ele>
			 </trkpt>
			 <trkpt lat="38.13594" lon="13.34835">
				 <ele>20.8</ele>
			 </trkpt>
			 <trkpt lat="38.13684" lon="13.34773">
				 <ele>21</ele>
			 </trkpt>
			 <trkpt lat="38.13791" lon="13.34703">
				 <ele>21.4</ele>
			 </trkpt>
			 <trkpt lat="38.13815" lon="13.3469">
				 <ele>22.2</ele>
			 </trkpt>
			 <trkpt lat="38.13872" lon="13.34654">
				 <ele>23.1</ele>
			 </trkpt>
			 <trkpt lat="38.13937" lon="13.34612">
				 <ele>24</ele>
			 </trkpt>
			 <trkpt lat="38.14069" lon="13.34527">
				 <ele>25</ele>
			 </trkpt>
			 <trkpt lat="38.14229" lon="13.34423">
				 <ele>26</ele>
			 </trkpt>
			 <trkpt lat="38.1452" lon="13.34235">
				 <ele>27</ele>
			 </trkpt>
			 <trkpt lat="38.1453" lon="13.34232">
				 <ele>28</ele>
			 </trkpt>
			 <trkpt lat="38.14541" lon="13.34243">
				 <ele>29</ele>
			 </trkpt>
			 <trkpt lat="38.14555" lon="13.34249">
				 <ele>30.1</ele>
			 </trkpt>
			 <trkpt lat="38.14569" lon="13.34249">
				 <ele>31.3</ele>
			 </trkpt>
			 <trkpt lat="38.14582" lon="13.34242">
				 <ele>32.5</ele>
			 </trkpt>
			 <trkpt lat="38.14687" lon="13.34401">
				 <ele>33.6</ele>
			 </trkpt>
			 <trkpt lat="38.14761" lon="13.3451">
				 <ele>34.9</ele>
			 </trkpt>
			 <trkpt lat="38.15091" lon="13.34993">
				 <ele>36.2</ele>
			 </trkpt>
			 <trkpt lat="38.151" lon="13.35006">
				 <ele>37.5</ele>
			 </trkpt>
			 <trkpt lat="38.15119" lon="13.35015">
				 <ele>38.7</ele>
			 </trkpt>
			 <trkpt lat="38.15134" lon="13.35018">
				 <ele>40.2</ele>
			 </trkpt>
			 <trkpt lat="38.15155" lon="13.35017">
				 <ele>41.8</ele>
			 </trkpt>
			 <trkpt lat="38.15188" lon="13.35002">
				 <ele>43.5</ele>
			 </trkpt>
			 <trkpt lat="38.15246" lon="13.34941">
				 <ele>45.4</ele>
			 </trkpt>
			 <trkpt lat="38.15346" lon="13.34835">
				 <ele>47.5</ele>
			 </trkpt>
			 <trkpt lat="38.15597" lon="13.34573">
				 <ele>49.8</ele>
			 </trkpt>
			 <trkpt lat="38.15746" lon="13.34418">
				 <ele>52.3</ele>
			 </trkpt>
			 <trkpt lat="38.1577" lon="13.344">
				 <ele>54.7</ele>
			 </trkpt>
			 <trkpt lat="38.15964" lon="13.34298">
				 <ele>57.3</ele>
			 </trkpt>
			 <trkpt lat="38.1625" lon="13.34144">
				 <ele>60</ele>
			 </trkpt>
			 <trkpt lat="38.16368" lon="13.34081">
				 <ele>62.7</ele>
			 </trkpt>
			 <trkpt lat="38.16383" lon="13.34074">
				 <ele>65.3</ele>
			 </trkpt>
			 <trkpt lat="38.16646" lon="13.33934">
				 <ele>67.5</ele>
			 </trkpt>
			 <trkpt lat="38.16658" lon="13.3393">
				 <ele>69.4</ele>
			 </trkpt>
			 <trkpt lat="38.16734" lon="13.33919">
				 <ele>70.9</ele>
			 </trkpt>
			 <trkpt lat="38.16917" lon="13.33892">
				 <ele>71.9</ele>
			 </trkpt>
			 <trkpt lat="38.16958" lon="13.33886">
				 <ele>72.5</ele>
			 </trkpt>
			 <trkpt lat="38.16988" lon="13.33879">
				 <ele>72.9</ele>
			 </trkpt>
			 <trkpt lat="38.17072" lon="13.33841">
				 <ele>73.1</ele>
			 </trkpt>
			 <trkpt lat="38.17107" lon="13.33826">
				 <ele>73.2</ele>
			 </trkpt>
			 <trkpt lat="38.17193" lon="13.33789">
				 <ele>73.1</ele>
			 </trkpt>
			 <trkpt lat="38.17526" lon="13.33662">
				 <ele>73</ele>
			 </trkpt>
			 <trkpt lat="38.175221" lon="13.336529">
				 <ele>72.9</ele>
			 </trkpt>
			 <trkpt lat="38.17414" lon="13.33693">
				 <ele>72.9</ele>
			 </trkpt>
			 <trkpt lat="38.17309" lon="13.33733">
				 <ele>73</ele>
			 </trkpt>
			 <trkpt lat="38.17205" lon="13.33772">
				 <ele>73.2</ele>
			 </trkpt>
			 <trkpt lat="38.1712" lon="13.3381">
				 <ele>73.3</ele>
			 </trkpt>
			 <trkpt lat="38.17036" lon="13.33844">
				 <ele>73.4</ele>
			 </trkpt>
			 <trkpt lat="38.17013" lon="13.33852">
				 <ele>73.3</ele>
			 </trkpt>
			 <trkpt lat="38.17005" lon="13.33852">
				 <ele>73</ele>
			 </trkpt>
			 <trkpt lat="38.16993" lon="13.33847">
				 <ele>72.4</ele>
			 </trkpt>
			 <trkpt lat="38.16983" lon="13.3384">
				 <ele>71.5</ele>
			 </trkpt>
			 <trkpt lat="38.16945" lon="13.3379">
				 <ele>70.4</ele>
			 </trkpt>
			 <trkpt lat="38.16911" lon="13.3371">
				 <ele>69</ele>
			 </trkpt>
			 <trkpt lat="38.16903" lon="13.3369">
				 <ele>67.5</ele>
			 </trkpt>
			 <trkpt lat="38.16812" lon="13.33478">
				 <ele>65.9</ele>
			 </trkpt>
			 <trkpt lat="38.16738" lon="13.33312">
				 <ele>64.4</ele>
			 </trkpt>
			 <trkpt lat="38.16637" lon="13.33081">
				 <ele>62.9</ele>
			 </trkpt>
			 <trkpt lat="38.16635" lon="13.33075">
				 <ele>61.6</ele>
			 </trkpt>
			 <trkpt lat="38.16637" lon="13.33069">
				 <ele>60.5</ele>
			 </trkpt>
			 <trkpt lat="38.16636" lon="13.3306">
				 <ele>59.6</ele>
			 </trkpt>
			 <trkpt lat="38.1663" lon="13.33056">
				 <ele>58.9</ele>
			 </trkpt>
			 <trkpt lat="38.16627" lon="13.33056">
				 <ele>58.4</ele>
			 </trkpt>
			 <trkpt lat="38.16621" lon="13.33059">
				 <ele>57.9</ele>
			 </trkpt>
			 <trkpt lat="38.16619" lon="13.33067">
				 <ele>57.6</ele>
			 </trkpt>
			 <trkpt lat="38.16619" lon="13.33071">
				 <ele>57.5</ele>
			 </trkpt>
			 <trkpt lat="38.1662" lon="13.33075">
				 <ele>57.3</ele>
			 </trkpt>
			 <trkpt lat="38.1653" lon="13.33134">
				 <ele>57.1</ele>
			 </trkpt>
			 <trkpt lat="38.16435" lon="13.33197">
				 <ele>57</ele>
			 </trkpt>
			 <trkpt lat="38.16419" lon="13.33208">
				 <ele>56.9</ele>
			 </trkpt>
			 <trkpt lat="38.16422" lon="13.33215">
				 <ele>56.9</ele>
			 </trkpt>
			 <trkpt lat="38.16426" lon="13.33223">
				 <ele>57</ele>
			 </trkpt>
			 <trkpt lat="38.16431" lon="13.33234">
				 <ele>57.2</ele>
			 </trkpt>
			 <trkpt lat="38.16434" lon="13.33256">
				 <ele>57.2</ele>
			 </trkpt>
			 <trkpt lat="38.16444" lon="13.33375">
				 <ele>57</ele>
			 </trkpt>
			 <trkpt lat="38.16448" lon="13.33396">
				 <ele>56.5</ele>
			 </trkpt>
			 <trkpt lat="38.16455" lon="13.33424">
				 <ele>55.6</ele>
			 </trkpt>
			 <trkpt lat="38.164945" lon="13.335532">
				 <ele>54.5</ele>
			 </trkpt>
			 <trkpt lat="38.16568" lon="13.33738">
				 <ele>53</ele>
			 </trkpt>
			 <trkpt lat="38.165" lon="13.33788">
				 <ele>51.1</ele>
			 </trkpt>
			 <trkpt lat="38.16117" lon="13.34069">
				 <ele>49</ele>
			 </trkpt>
			 <trkpt lat="38.15246" lon="13.34712">
				 <ele>46.7</ele>
			 </trkpt>
			 <trkpt lat="38.1512" lon="13.34806">
				 <ele>44.3</ele>
			 </trkpt>
			 <trkpt lat="38.15066" lon="13.34848">
				 <ele>41.8</ele>
			 </trkpt>
			 <trkpt lat="38.15048" lon="13.34859">
				 <ele>39.5</ele>
			 </trkpt>
			 <trkpt lat="38.15026" lon="13.34869">
				 <ele>37.3</ele>
			 </trkpt>
			 <trkpt lat="38.14923" lon="13.3472">
				 <ele>35.5</ele>
			 </trkpt>
			 <trkpt lat="38.14791" lon="13.34525">
				 <ele>34</ele>
			 </trkpt>
			 <trkpt lat="38.14731" lon="13.34425">
				 <ele>32.8</ele>
			 </trkpt>
			 <trkpt lat="38.1472" lon="13.34398">
				 <ele>32.1</ele>
			 </trkpt>
			 <trkpt lat="38.1471" lon="13.34375">
				 <ele>31.6</ele>
			 </trkpt>
			 <trkpt lat="38.14684" lon="13.34376">
				 <ele>31.4</ele>
			 </trkpt>
			 <trkpt lat="38.14636" lon="13.34313">
				 <ele>31.2</ele>
			 </trkpt>
			 <trkpt lat="38.14588" lon="13.34235">
				 <ele>31.1</ele>
			 </trkpt>
			 <trkpt lat="38.14585" lon="13.34239">
				 <ele>30.9</ele>
			 </trkpt>
			 <trkpt lat="38.14583" lon="13.34242">
				 <ele>30.7</ele>
			 </trkpt>
			 <trkpt lat="38.14569" lon="13.34249">
				 <ele>30.5</ele>
			 </trkpt>
			 <trkpt lat="38.14557" lon="13.34249">
				 <ele>30.1</ele>
			 </trkpt>
			 <trkpt lat="38.14544" lon="13.34245">
				 <ele>29.5</ele>
			 </trkpt>
			 <trkpt lat="38.14532" lon="13.34235">
				 <ele>28.8</ele>
			 </trkpt>
			 <trkpt lat="38.1453" lon="13.34232">
				 <ele>28</ele>
			 </trkpt>
			 <trkpt lat="38.1452" lon="13.34235">
				 <ele>27.1</ele>
			 </trkpt>
			 <trkpt lat="38.14508" lon="13.34243">
				 <ele>26</ele>
			 </trkpt>
			 <trkpt lat="38.13989" lon="13.34579">
				 <ele>24.9</ele>
			 </trkpt>
			 <trkpt lat="38.13872" lon="13.34654">
				 <ele>23.7</ele>
			 </trkpt>
			 <trkpt lat="38.13815" lon="13.3469">
				 <ele>22.6</ele>
			 </trkpt>
			 <trkpt lat="38.13791" lon="13.34703">
				 <ele>21.6</ele>
			 </trkpt>
			 <trkpt lat="38.13684" lon="13.34773">
				 <ele>20.6</ele>
			 </trkpt>
			 <trkpt lat="38.13563" lon="13.34854">
				 <ele>19.7</ele>
			 </trkpt>
			 <trkpt lat="38.13516" lon="13.34885">
				 <ele>19</ele>
			 </trkpt>
			 <trkpt lat="38.13444" lon="13.34932">
				 <ele>18.5</ele>
			 </trkpt>
			 <trkpt lat="38.13102" lon="13.35153">
				 <ele>18</ele>
			 </trkpt>
			 <trkpt lat="38.12798" lon="13.3535">
				 <ele>17.7</ele>
			 </trkpt>
			 <trkpt lat="38.12679" lon="13.35427">
				 <ele>17.6</ele>
			 </trkpt>
			 <trkpt lat="38.12502" lon="13.35541">
				 <ele>17.5</ele>
			 </trkpt>
			 <trkpt lat="38.12496" lon="13.35526">
				 <ele>17.5</ele>
			 </trkpt>
			 <trkpt lat="38.1249" lon="13.35527">
				 <ele>17.5</ele>
			 </trkpt>
			 <trkpt lat="38.12484" lon="13.35525">
				 <ele>17.6</ele>
			 </trkpt>
			 <trkpt lat="38.124645" lon="13.354817">
				 <ele>17.8</ele>
			 </trkpt>
			 <trkpt lat="38.124137" lon="13.355209">
				 <ele>18</ele>
			 </trkpt>
			 <trkpt lat="38.12432" lon="13.35561">
				 <ele>18.2</ele>
			 </trkpt>
			 <trkpt lat="38.1244" lon="13.35582">
				 <ele>18.4</ele>
			 </trkpt>
			 <trkpt lat="38.12429" lon="13.35589">
				 <ele>18.5</ele>
			 </trkpt>
			 <trkpt lat="38.12407" lon="13.35603">
				 <ele>18.6</ele>
			 </trkpt>
			 <trkpt lat="38.12312" lon="13.35666">
				 <ele>18.6</ele>
			 </trkpt>
			 <trkpt lat="38.12221" lon="13.35723">
				 <ele>18.6</ele>
			 </trkpt>
			 <trkpt lat="38.12165" lon="13.35757">
				 <ele>18.5</ele>
			 </trkpt>
			 <trkpt lat="38.12122" lon="13.35787">
				 <ele>18.5</ele>
			 </trkpt>
			 <trkpt lat="38.12127" lon="13.35806">
				 <ele>18.1</ele>
			 </trkpt>
			 <trkpt lat="38.12151" lon="13.35905">
				 <ele>17.6</ele>
			 </trkpt>
			 <trkpt lat="38.12173" lon="13.35983">
				 <ele>17.2</ele>
			 </trkpt>
			 <trkpt lat="38.12201" lon="13.36081">
				 <ele>16.7</ele>
			 </trkpt>
			 <trkpt lat="38.12196" lon="13.36085">
				 <ele>16.3</ele>
			 </trkpt>
			 <trkpt lat="38.12119" lon="13.36135">
				 <ele>15.8</ele>
			 </trkpt>
			 <trkpt lat="38.12018" lon="13.36185">
				 <ele>15.5</ele>
			 </trkpt>
			 <trkpt lat="38.11934" lon="13.36225">
				 <ele>15.2</ele>
			 </trkpt>
			 <trkpt lat="38.11881" lon="13.36251">
				 <ele>15.1</ele>
			 </trkpt>
			 <trkpt lat="38.11847" lon="13.36267">
				 <ele>15.2</ele>
			 </trkpt>
			 <trkpt lat="38.11726" lon="13.36327">
				 <ele>15.5</ele>
			 </trkpt>
			 <trkpt lat="38.11657" lon="13.36364">
				 <ele>16.1</ele>
			 </trkpt>
			 <trkpt lat="38.11652" lon="13.36349">
				 <ele>17</ele>
			 </trkpt>
			 <trkpt lat="38.11569" lon="13.36146">
				 <ele>18.2</ele>
			 </trkpt>
			 <trkpt lat="38.11514" lon="13.3601">
				 <ele>19.5</ele>
			 </trkpt>
			 <trkpt lat="38.11475" lon="13.35915">
				 <ele>21</ele>
			 </trkpt>
			 <trkpt lat="38.11449" lon="13.35847">
				 <ele>22.5</ele>
			 </trkpt>
			 <trkpt lat="38.11412" lon="13.35758">
				 <ele>24.1</ele>
			 </trkpt>
			 <trkpt lat="38.11347" lon="13.35597">
				 <ele>25.7</ele>
			 </trkpt>
			 <trkpt lat="38.11227" lon="13.35299">
				 <ele>27.2</ele>
			 </trkpt>
			 <trkpt lat="38.11189" lon="13.3521">
				 <ele>28.5</ele>
			 </trkpt>
			 <trkpt lat="38.11148" lon="13.35108">
				 <ele>29.7</ele>
			 </trkpt>
			 <trkpt lat="38.11133" lon="13.35117">
				 <ele>30.7</ele>
			 </trkpt>
			 <trkpt lat="38.11114" lon="13.35131">
				 <ele>31.5</ele>
			 </trkpt>
			 <trkpt lat="38.11103" lon="13.35143">
				 <ele>32</ele>
			 </trkpt>
			 <trkpt lat="38.11093" lon="13.35156">
				 <ele>32.3</ele>
			 </trkpt>
			 <trkpt lat="38.11033" lon="13.35254">
				 <ele>32.5</ele>
			 </trkpt>
			 <trkpt lat="38.11026" lon="13.35265">
				 <ele>32.6</ele>
			 </trkpt>
			 <trkpt lat="38.11019" lon="13.35273">
				 <ele>32.7</ele>
			 </trkpt>
			 <trkpt lat="38.11037" lon="13.35278">
				 <ele>32.7</ele>
			 </trkpt>
			 <trkpt lat="38.1104" lon="13.35274">
				 <ele>32.7</ele>
			 </trkpt>
			 <trkpt lat="38.11047" lon="13.35265">
				 <ele>32.7</ele>
			 </trkpt>
			 <trkpt lat="38.11053" lon="13.35265">
				 <ele>32.7</ele>
			 </trkpt>
			 <trkpt lat="38.11061" lon="13.3526">
				 <ele>32.7</ele>
			 </trkpt>
			 <trkpt lat="38.11071" lon="13.35256">
				 <ele>32.7</ele>
			 </trkpt>
			 <trkpt lat="38.11075" lon="13.35259">
				 <ele>32.8</ele>
			 </trkpt>
			 <trkpt lat="38.11079" lon="13.35266">
				 <ele>33</ele>
			 </trkpt>
			 <trkpt lat="38.1108" lon="13.35273">
				 <ele>33.2</ele>
			 </trkpt>
			 <trkpt lat="38.11076" lon="13.35282">
				 <ele>33.3</ele>
			 </trkpt>
			 <trkpt lat="38.11066" lon="13.3529">
				 <ele>33.4</ele>
			 </trkpt>
			 <trkpt lat="38.11066" lon="13.35297">
				 <ele>33.5</ele>
			 </trkpt>
			 <trkpt lat="38.11069" lon="13.35301">
				 <ele>33.5</ele>
			 </trkpt>
			 <trkpt lat="38.1108" lon="13.353">
				 <ele>33.6</ele>
			 </trkpt>
			 <trkpt lat="38.111321" lon="13.352782">
				 <ele>33.6</ele>
			 </trkpt>
			 <trkpt lat="38.111655" lon="13.353482">
				 <ele>33.5</ele>
			 </trkpt>
			 <trkpt lat="38.112059" lon="13.353353">
				 <ele>33.3</ele>
			 </trkpt>
			 <trkpt lat="38.11213" lon="13.353417">
				 <ele>32.8</ele>
			 </trkpt>
			 <trkpt lat="38.112142" lon="13.353533">
				 <ele>32</ele>
			 </trkpt>
			 <trkpt lat="38.111629" lon="13.353922">
				 <ele>31.1</ele>
			 </trkpt>
			 <trkpt lat="38.111966" lon="13.35452">
				 <ele>29.9</ele>
			 </trkpt>
			 <trkpt lat="38.11267" lon="13.354">
				 <ele>28.6</ele>
			 </trkpt>
			 <trkpt lat="38.11276" lon="13.35422">
				 <ele>27.2</ele>
			 </trkpt>
			 <trkpt lat="38.11449" lon="13.35847">
				 <ele>25.6</ele>
			 </trkpt>
			 <trkpt lat="38.11474" lon="13.35911">
				 <ele>24.1</ele>
			 </trkpt>
			 <trkpt lat="38.11528" lon="13.36045">
				 <ele>22.5</ele>
			 </trkpt>
			 <trkpt lat="38.11561" lon="13.36127">
				 <ele>21.1</ele>
			 </trkpt>
			 <trkpt lat="38.11569" lon="13.36146">
				 <ele>19.9</ele>
			 </trkpt>
			 <trkpt lat="38.11556" lon="13.36155">
				 <ele>18.9</ele>
			 </trkpt>
			 <trkpt lat="38.1153" lon="13.36172">
				 <ele>18.2</ele>
			 </trkpt>
			 <trkpt lat="38.1147" lon="13.36211">
				 <ele>17.5</ele>
			 </trkpt>
			 <trkpt lat="38.11444" lon="13.36227">
				 <ele>17.3</ele>
			 </trkpt>
			 <trkpt lat="38.11372" lon="13.36273">
				 <ele>17.1</ele>
			 </trkpt>
			 <trkpt lat="38.11339" lon="13.36296">
				 <ele>17.1</ele>
			 </trkpt>
			 <trkpt lat="38.11304" lon="13.36318">
				 <ele>17.2</ele>
			 </trkpt>
			 <trkpt lat="38.11255" lon="13.36351">
				 <ele>17.3</ele>
			 </trkpt>
			 <trkpt lat="38.11188" lon="13.36393">
				 <ele>17.3</ele>
			 </trkpt>
			 <trkpt lat="38.11138" lon="13.36425">
				 <ele>17.2</ele>
			 </trkpt>
			 <trkpt lat="38.11112" lon="13.36442">
				 <ele>17</ele>
			 </trkpt>
			 <trkpt lat="38.11066" lon="13.36472">
				 <ele>16.7</ele>
			 </trkpt>
			 <trkpt lat="38.11071" lon="13.36485">
				 <ele>16.5</ele>
			 </trkpt>
			 <trkpt lat="38.11121" lon="13.36626">
				 <ele>16.1</ele>
			 </trkpt>
			 <trkpt lat="38.11226" lon="13.36577">
				 <ele>15.6</ele>
			 </trkpt>
			 <trkpt lat="38.1134" lon="13.36519">
				 <ele>15.2</ele>
			 </trkpt>
			 <trkpt lat="38.11379" lon="13.36498">
				 <ele>14.7</ele>
			 </trkpt>
			 <trkpt lat="38.11508" lon="13.36432">
				 <ele>14.3</ele>
			 </trkpt>
			 <trkpt lat="38.11556" lon="13.36413">
				 <ele>13.9</ele>
			 </trkpt>
			 <trkpt lat="38.11607" lon="13.36385">
				 <ele>13.7</ele>
			 </trkpt>
			 <trkpt lat="38.11657" lon="13.36364">
				 <ele>13.6</ele>
			 </trkpt>
			 <trkpt lat="38.11726" lon="13.36327">
				 <ele>13.6</ele>
			 </trkpt>
			 <trkpt lat="38.11838" lon="13.36271">
				 <ele>13.7</ele>
			 </trkpt>
			 <trkpt lat="38.11885" lon="13.36249">
				 <ele>13.9</ele>
			 </trkpt>
			 <trkpt lat="38.11986" lon="13.362">
				 <ele>14.3</ele>
			 </trkpt>
			 <trkpt lat="38.12068" lon="13.36161">
				 <ele>14.6</ele>
			 </trkpt>
			 <trkpt lat="38.12119" lon="13.36135">
				 <ele>15.1</ele>
			 </trkpt>
			 <trkpt lat="38.12142" lon="13.36119">
				 <ele>15.5</ele>
			 </trkpt>
			 <trkpt lat="38.12165" lon="13.36105">
				 <ele>16</ele>
			 </trkpt>
			 <trkpt lat="38.12201" lon="13.36081">
				 <ele>16.4</ele>
			 </trkpt>
			 <trkpt lat="38.12198" lon="13.36069">
				 <ele>16.8</ele>
			 </trkpt>
			 <trkpt lat="38.12151" lon="13.35905">
				 <ele>17.3</ele>
			 </trkpt>
			 <trkpt lat="38.12122" lon="13.35787">
				 <ele>17.5</ele>
			 </trkpt>
			 <trkpt lat="38.12165" lon="13.35757">
				 <ele>17.8</ele>
			 </trkpt>
			 <trkpt lat="38.12267" lon="13.35694">
				 <ele>18</ele>
			 </trkpt>
			 <trkpt lat="38.12306" lon="13.3567">
				 <ele>18.1</ele>
			 </trkpt>
			 <trkpt lat="38.124463" lon="13.355806">
				 <ele>18.3</ele>
			 </trkpt>
		 </trkseg>
	 </trk>
</gpx>