<?xml version="1.0" encoding="UTF-8"?>
 <gpx creator="Garmin Connect" version="1.1"
	 xsi:schemaLocation="http://www.topografix.com/GPX/1/1 http://www.topografix.com/GPX/11.xsd"
	 xmlns:ns3="http://www.garmin.com/xmlschemas/TrackPointExtension/v1"
	 xmlns="http://www.topografix.com/GPX/1/1"
	 xmlns:xsi="http://www.w3.org/2001/XMLSchema-instance" xmlns:ns2="http://www.garmin.com/xmlschemas/GpxExtensions/v3">
	 <metadata>
		<name>Prince of Wales Island International Marathon 2025 - 42.195 km</name>
		 <link href="https://www.goandrace.com">
		 <text>Garmin Connect</text>
		 </link>
	 <time>2026-08-09T18:05:20</time>
	 </metadata>
	 <trk>
		 <name>Prince of Wales Island International Marathon 2025 - 42.195 km</name>
		 <trkseg>
			 <trkpt lat="55.488369" lon="-133.128942">
				 <ele>12.8</ele>
			 </trkpt>
			 <trkpt lat="55.488301" lon="-133.128937">
				 <ele>12.4</ele>
			 </trkpt>
			 <trkpt lat="55.488131" lon="-133.129012">
				 <ele>12</ele>
			 </trkpt>
			 <trkpt lat="55.487967" lon="-133.129152">
				 <ele>11.7</ele>
			 </trkpt>
			 <trkpt lat="55.487857" lon="-133.129313">
				 <ele>11.4</ele>
			 </trkpt>
			 <trkpt lat="55.487681" lon="-133.129645">
				 <ele>11.5</ele>
			 </trkpt>
			 <trkpt lat="55.487475" lon="-133.130011">
				 <ele>11.9</ele>
			 </trkpt>
			 <trkpt lat="55.487666" lon="-133.130352">
				 <ele>12.7</ele>
			 </trkpt>
			 <trkpt lat="55.488007" lon="-133.131">
				 <ele>13.9</ele>
			 </trkpt>
			 <trkpt lat="55.488331" lon="-133.131645">
				 <ele>15.1</ele>
			 </trkpt>
			 <trkpt lat="55.489119" lon="-133.132949">
				 <ele>16.5</ele>
			 </trkpt>
			 <trkpt lat="55.489586" lon="-133.133594">
				 <ele>17.7</ele>
			 </trkpt>
			 <trkpt lat="55.490225" lon="-133.134075">
				 <ele>18.6</ele>
			 </trkpt>
			 <trkpt lat="55.490327" lon="-133.13412">
				 <ele>18.9</ele>
			 </trkpt>
			 <trkpt lat="55.490829" lon="-133.134338">
				 <ele>18.9</ele>
			 </trkpt>
			 <trkpt lat="55.491838" lon="-133.134115">
				 <ele>19.2</ele>
			 </trkpt>
			 <trkpt lat="55.493687" lon="-133.133173">
				 <ele>20</ele>
			 </trkpt>
			 <trkpt lat="55.495173" lon="-133.13233">
				 <ele>20.3</ele>
			 </trkpt>
			 <trkpt lat="55.496313" lon="-133.131825">
				 <ele>20.2</ele>
			 </trkpt>
			 <trkpt lat="55.497404" lon="-133.131847">
				 <ele>20</ele>
			 </trkpt>
			 <trkpt lat="55.499425" lon="-133.132112">
				 <ele>19.7</ele>
			 </trkpt>
			 <trkpt lat="55.502141" lon="-133.132329">
				 <ele>19.9</ele>
			 </trkpt>
			 <trkpt lat="55.50341" lon="-133.132511">
				 <ele>20</ele>
			 </trkpt>
			 <trkpt lat="55.504391" lon="-133.132386">
				 <ele>20.1</ele>
			 </trkpt>
			 <trkpt lat="55.505565" lon="-133.132167">
				 <ele>21</ele>
			 </trkpt>
			 <trkpt lat="55.506907" lon="-133.131868">
				 <ele>22.2</ele>
			 </trkpt>
			 <trkpt lat="55.508577" lon="-133.131328">
				 <ele>23</ele>
			 </trkpt>
			 <trkpt lat="55.510952" lon="-133.132056">
				 <ele>22.8</ele>
			 </trkpt>
			 <trkpt lat="55.51228" lon="-133.131411">
				 <ele>22.7</ele>
			 </trkpt>
			 <trkpt lat="55.513483" lon="-133.130787">
				 <ele>22.5</ele>
			 </trkpt>
			 <trkpt lat="55.514164" lon="-133.13076">
				 <ele>22.3</ele>
			 </trkpt>
			 <trkpt lat="55.514683" lon="-133.130739">
				 <ele>22.1</ele>
			 </trkpt>
			 <trkpt lat="55.517299" lon="-133.128787">
				 <ele>21.4</ele>
			 </trkpt>
			 <trkpt lat="55.518503" lon="-133.127016">
				 <ele>20.9</ele>
			 </trkpt>
			 <trkpt lat="55.519331" lon="-133.126198">
				 <ele>21</ele>
			 </trkpt>
			 <trkpt lat="55.51987" lon="-133.125704">
				 <ele>20.7</ele>
			 </trkpt>
			 <trkpt lat="55.520294" lon="-133.125261">
				 <ele>20.5</ele>
			 </trkpt>
			 <trkpt lat="55.520647" lon="-133.124868">
				 <ele>20.6</ele>
			 </trkpt>
			 <trkpt lat="55.521163" lon="-133.124264">
				 <ele>20.6</ele>
			 </trkpt>
			 <trkpt lat="55.52153" lon="-133.123817">
				 <ele>20.5</ele>
			 </trkpt>
			 <trkpt lat="55.521909" lon="-133.123401">
				 <ele>20.3</ele>
			 </trkpt>
			 <trkpt lat="55.52231" lon="-133.122977">
				 <ele>19.9</ele>
			 </trkpt>
			 <trkpt lat="55.52356" lon="-133.121719">
				 <ele>19.5</ele>
			 </trkpt>
			 <trkpt lat="55.524143" lon="-133.12127">
				 <ele>19.2</ele>
			 </trkpt>
			 <trkpt lat="55.524531" lon="-133.120922">
				 <ele>18.8</ele>
			 </trkpt>
			 <trkpt lat="55.525024" lon="-133.120373">
				 <ele>18.6</ele>
			 </trkpt>
			 <trkpt lat="55.525406" lon="-133.119904">
				 <ele>18.4</ele>
			 </trkpt>
			 <trkpt lat="55.525859" lon="-133.119408">
				 <ele>18.2</ele>
			 </trkpt>
			 <trkpt lat="55.52634" lon="-133.118639">
				 <ele>18.1</ele>
			 </trkpt>
			 <trkpt lat="55.526711" lon="-133.117841">
				 <ele>17.9</ele>
			 </trkpt>
			 <trkpt lat="55.527181" lon="-133.116761">
				 <ele>17.8</ele>
			 </trkpt>
			 <trkpt lat="55.527633" lon="-133.115299">
				 <ele>18</ele>
			 </trkpt>
			 <trkpt lat="55.528342" lon="-133.113248">
				 <ele>18.3</ele>
			 </trkpt>
			 <trkpt lat="55.528636" lon="-133.112685">
				 <ele>18.5</ele>
			 </trkpt>
			 <trkpt lat="55.528796" lon="-133.112475">
				 <ele>18.9</ele>
			 </trkpt>
			 <trkpt lat="55.529714" lon="-133.111266">
				 <ele>19.3</ele>
			 </trkpt>
			 <trkpt lat="55.530481" lon="-133.110577">
				 <ele>19.5</ele>
			 </trkpt>
			 <trkpt lat="55.531594" lon="-133.109784">
				 <ele>20.1</ele>
			 </trkpt>
			 <trkpt lat="55.532515" lon="-133.109178">
				 <ele>20.8</ele>
			 </trkpt>
			 <trkpt lat="55.534659" lon="-133.106896">
				 <ele>21.3</ele>
			 </trkpt>
			 <trkpt lat="55.535976" lon="-133.105446">
				 <ele>21.8</ele>
			 </trkpt>
			 <trkpt lat="55.537959" lon="-133.103237">
				 <ele>22.3</ele>
			 </trkpt>
			 <trkpt lat="55.539002" lon="-133.10179">
				 <ele>22.5</ele>
			 </trkpt>
			 <trkpt lat="55.539751" lon="-133.100458">
				 <ele>22.7</ele>
			 </trkpt>
			 <trkpt lat="55.539807" lon="-133.100359">
				 <ele>22.6</ele>
			 </trkpt>
			 <trkpt lat="55.539951" lon="-133.100159">
				 <ele>22.4</ele>
			 </trkpt>
			 <trkpt lat="55.540155" lon="-133.099994">
				 <ele>22</ele>
			 </trkpt>
			 <trkpt lat="55.540306" lon="-133.099896">
				 <ele>21.4</ele>
			 </trkpt>
			 <trkpt lat="55.540464" lon="-133.099821">
				 <ele>20.6</ele>
			 </trkpt>
			 <trkpt lat="55.540755" lon="-133.099731">
				 <ele>19.5</ele>
			 </trkpt>
			 <trkpt lat="55.540971" lon="-133.099703">
				 <ele>18.4</ele>
			 </trkpt>
			 <trkpt lat="55.541211" lon="-133.099639">
				 <ele>17.2</ele>
			 </trkpt>
			 <trkpt lat="55.541457" lon="-133.09951">
				 <ele>16</ele>
			 </trkpt>
			 <trkpt lat="55.54176" lon="-133.09929">
				 <ele>14.9</ele>
			 </trkpt>
			 <trkpt lat="55.542106" lon="-133.09899">
				 <ele>14.2</ele>
			 </trkpt>
			 <trkpt lat="55.542234" lon="-133.098869">
				 <ele>14</ele>
			 </trkpt>
			 <trkpt lat="55.542795" lon="-133.098351">
				 <ele>13.8</ele>
			 </trkpt>
			 <trkpt lat="55.543127" lon="-133.098104">
				 <ele>13.2</ele>
			 </trkpt>
			 <trkpt lat="55.543323" lon="-133.097981">
				 <ele>12.3</ele>
			 </trkpt>
			 <trkpt lat="55.543948" lon="-133.097796">
				 <ele>11.3</ele>
			 </trkpt>
			 <trkpt lat="55.544836" lon="-133.097646">
				 <ele>10.3</ele>
			 </trkpt>
			 <trkpt lat="55.545936" lon="-133.097499">
				 <ele>9.5</ele>
			 </trkpt>
			 <trkpt lat="55.547019" lon="-133.09734">
				 <ele>8.8</ele>
			 </trkpt>
			 <trkpt lat="55.547859" lon="-133.09722">
				 <ele>8.3</ele>
			 </trkpt>
			 <trkpt lat="55.548458" lon="-133.097147">
				 <ele>7.8</ele>
			 </trkpt>
			 <trkpt lat="55.550041" lon="-133.096895">
				 <ele>7</ele>
			 </trkpt>
			 <trkpt lat="55.550214" lon="-133.096849">
				 <ele>5.9</ele>
			 </trkpt>
			 <trkpt lat="55.550339" lon="-133.096802">
				 <ele>4.9</ele>
			 </trkpt>
			 <trkpt lat="55.550483" lon="-133.096725">
				 <ele>4.5</ele>
			 </trkpt>
			 <trkpt lat="55.550641" lon="-133.096617">
				 <ele>4.4</ele>
			 </trkpt>
			 <trkpt lat="55.55074" lon="-133.096531">
				 <ele>4.6</ele>
			 </trkpt>
			 <trkpt lat="55.550849" lon="-133.096413">
				 <ele>5</ele>
			 </trkpt>
			 <trkpt lat="55.550916" lon="-133.096342">
				 <ele>5.3</ele>
			 </trkpt>
			 <trkpt lat="55.551081" lon="-133.096138">
				 <ele>5.4</ele>
			 </trkpt>
			 <trkpt lat="55.551256" lon="-133.095811">
				 <ele>5.4</ele>
			 </trkpt>
			 <trkpt lat="55.551449" lon="-133.095414">
				 <ele>5.3</ele>
			 </trkpt>
			 <trkpt lat="55.551599" lon="-133.095041">
				 <ele>5.1</ele>
			 </trkpt>
			 <trkpt lat="55.552012" lon="-133.094084">
				 <ele>4.8</ele>
			 </trkpt>
			 <trkpt lat="55.552282" lon="-133.093482">
				 <ele>4.5</ele>
			 </trkpt>
			 <trkpt lat="55.552524" lon="-133.092935">
				 <ele>4.3</ele>
			 </trkpt>
			 <trkpt lat="55.552641" lon="-133.092643">
				 <ele>4.1</ele>
			 </trkpt>
			 <trkpt lat="55.552752" lon="-133.09229">
				 <ele>3.8</ele>
			 </trkpt>
			 <trkpt lat="55.552843" lon="-133.091908">
				 <ele>3.5</ele>
			 </trkpt>
			 <trkpt lat="55.552901" lon="-133.091565">
				 <ele>3.4</ele>
			 </trkpt>
			 <trkpt lat="55.552968" lon="-133.090884">
				 <ele>3.5</ele>
			 </trkpt>
			 <trkpt lat="55.552978" lon="-133.090615">
				 <ele>3.8</ele>
			 </trkpt>
			 <trkpt lat="55.552975" lon="-133.090307">
				 <ele>4.2</ele>
			 </trkpt>
			 <trkpt lat="55.552965" lon="-133.090023">
				 <ele>4.6</ele>
			 </trkpt>
			 <trkpt lat="55.552908" lon="-133.08942">
				 <ele>5.2</ele>
			 </trkpt>
			 <trkpt lat="55.552855" lon="-133.088968">
				 <ele>5.9</ele>
			 </trkpt>
			 <trkpt lat="55.552803" lon="-133.08861">
				 <ele>6.7</ele>
			 </trkpt>
			 <trkpt lat="55.552791" lon="-133.088506">
				 <ele>7.5</ele>
			 </trkpt>
			 <trkpt lat="55.552763" lon="-133.088241">
				 <ele>8.4</ele>
			 </trkpt>
			 <trkpt lat="55.552752" lon="-133.088159">
				 <ele>9.2</ele>
			 </trkpt>
			 <trkpt lat="55.552634" lon="-133.086853">
				 <ele>9.6</ele>
			 </trkpt>
			 <trkpt lat="55.552384" lon="-133.084493">
				 <ele>10.3</ele>
			 </trkpt>
			 <trkpt lat="55.55216" lon="-133.082638">
				 <ele>11.7</ele>
			 </trkpt>
			 <trkpt lat="55.55214" lon="-133.082464">
				 <ele>13.1</ele>
			 </trkpt>
			 <trkpt lat="55.552086" lon="-133.082017">
				 <ele>14.6</ele>
			 </trkpt>
			 <trkpt lat="55.552594" lon="-133.082013">
				 <ele>16.2</ele>
			 </trkpt>
			 <trkpt lat="55.553985" lon="-133.081983">
				 <ele>17.5</ele>
			 </trkpt>
			 <trkpt lat="55.554252" lon="-133.081983">
				 <ele>18.5</ele>
			 </trkpt>
			 <trkpt lat="55.556278" lon="-133.081977">
				 <ele>19.4</ele>
			 </trkpt>
			 <trkpt lat="55.556584" lon="-133.08199">
				 <ele>20.3</ele>
			 </trkpt>
			 <trkpt lat="55.557316" lon="-133.081974">
				 <ele>21.1</ele>
			 </trkpt>
			 <trkpt lat="55.557528" lon="-133.081947">
				 <ele>22.2</ele>
			 </trkpt>
			 <trkpt lat="55.557941" lon="-133.081786">
				 <ele>22.9</ele>
			 </trkpt>
			 <trkpt lat="55.558107" lon="-133.081668">
				 <ele>22.9</ele>
			 </trkpt>
			 <trkpt lat="55.55822" lon="-133.081573">
				 <ele>22.9</ele>
			 </trkpt>
			 <trkpt lat="55.558344" lon="-133.081469">
				 <ele>22.6</ele>
			 </trkpt>
			 <trkpt lat="55.558508" lon="-133.081277">
				 <ele>22</ele>
			 </trkpt>
			 <trkpt lat="55.558751" lon="-133.08096">
				 <ele>21.4</ele>
			 </trkpt>
			 <trkpt lat="55.558941" lon="-133.080634">
				 <ele>21.1</ele>
			 </trkpt>
			 <trkpt lat="55.559204" lon="-133.080147">
				 <ele>20.6</ele>
			 </trkpt>
			 <trkpt lat="55.559488" lon="-133.079676">
				 <ele>20.2</ele>
			 </trkpt>
			 <trkpt lat="55.559861" lon="-133.07898">
				 <ele>19.6</ele>
			 </trkpt>
			 <trkpt lat="55.560102" lon="-133.078589">
				 <ele>19</ele>
			 </trkpt>
			 <trkpt lat="55.560713" lon="-133.077681">
				 <ele>18.3</ele>
			 </trkpt>
			 <trkpt lat="55.560995" lon="-133.077201">
				 <ele>17.5</ele>
			 </trkpt>
			 <trkpt lat="55.562136" lon="-133.075264">
				 <ele>17</ele>
			 </trkpt>
			 <trkpt lat="55.562733" lon="-133.074201">
				 <ele>16.5</ele>
			 </trkpt>
			 <trkpt lat="55.563004" lon="-133.073745">
				 <ele>16.5</ele>
			 </trkpt>
			 <trkpt lat="55.563311" lon="-133.07317">
				 <ele>17.4</ele>
			 </trkpt>
			 <trkpt lat="55.563744" lon="-133.072334">
				 <ele>18.1</ele>
			 </trkpt>
			 <trkpt lat="55.564214" lon="-133.071373">
				 <ele>18.9</ele>
			 </trkpt>
			 <trkpt lat="55.564933" lon="-133.069931">
				 <ele>19.7</ele>
			 </trkpt>
			 <trkpt lat="55.565615" lon="-133.068518">
				 <ele>20.6</ele>
			 </trkpt>
			 <trkpt lat="55.567351" lon="-133.064989">
				 <ele>21.6</ele>
			 </trkpt>
			 <trkpt lat="55.567789" lon="-133.064115">
				 <ele>22.7</ele>
			 </trkpt>
			 <trkpt lat="55.568254" lon="-133.063156">
				 <ele>23.7</ele>
			 </trkpt>
			 <trkpt lat="55.568275" lon="-133.063112">
				 <ele>24.5</ele>
			 </trkpt>
			 <trkpt lat="55.568443" lon="-133.062839">
				 <ele>25.5</ele>
			 </trkpt>
			 <trkpt lat="55.568591" lon="-133.062631">
				 <ele>26.4</ele>
			 </trkpt>
			 <trkpt lat="55.568731" lon="-133.062485">
				 <ele>26.6</ele>
			 </trkpt>
			 <trkpt lat="55.568905" lon="-133.062338">
				 <ele>26.9</ele>
			 </trkpt>
			 <trkpt lat="55.569089" lon="-133.062233">
				 <ele>27.4</ele>
			 </trkpt>
			 <trkpt lat="55.569312" lon="-133.062144">
				 <ele>27.8</ele>
			 </trkpt>
			 <trkpt lat="55.56948" lon="-133.062093">
				 <ele>28.4</ele>
			 </trkpt>
			 <trkpt lat="55.569696" lon="-133.062076">
				 <ele>28.9</ele>
			 </trkpt>
			 <trkpt lat="55.56988" lon="-133.062104">
				 <ele>29.1</ele>
			 </trkpt>
			 <trkpt lat="55.570065" lon="-133.062163">
				 <ele>29.3</ele>
			 </trkpt>
			 <trkpt lat="55.57025" lon="-133.062254">
				 <ele>29.6</ele>
			 </trkpt>
			 <trkpt lat="55.570475" lon="-133.062426">
				 <ele>30</ele>
			 </trkpt>
			 <trkpt lat="55.570715" lon="-133.062646">
				 <ele>30.3</ele>
			 </trkpt>
			 <trkpt lat="55.571451" lon="-133.06342">
				 <ele>30.5</ele>
			 </trkpt>
			 <trkpt lat="55.571694" lon="-133.063644">
				 <ele>30.5</ele>
			 </trkpt>
			 <trkpt lat="55.571897" lon="-133.063815">
				 <ele>30.5</ele>
			 </trkpt>
			 <trkpt lat="55.572103" lon="-133.063965">
				 <ele>30.5</ele>
			 </trkpt>
			 <trkpt lat="55.572307" lon="-133.064073">
				 <ele>30.5</ele>
			 </trkpt>
			 <trkpt lat="55.572516" lon="-133.064137">
				 <ele>30.3</ele>
			 </trkpt>
			 <trkpt lat="55.572795" lon="-133.064169">
				 <ele>30.5</ele>
			 </trkpt>
			 <trkpt lat="55.572993" lon="-133.064148">
				 <ele>30.6</ele>
			 </trkpt>
			 <trkpt lat="55.573232" lon="-133.0641">
				 <ele>30.5</ele>
			 </trkpt>
			 <trkpt lat="55.573414" lon="-133.064024">
				 <ele>29.8</ele>
			 </trkpt>
			 <trkpt lat="55.573682" lon="-133.063856">
				 <ele>29.1</ele>
			 </trkpt>
			 <trkpt lat="55.573812" lon="-133.063736">
				 <ele>28.5</ele>
			 </trkpt>
			 <trkpt lat="55.574108" lon="-133.063461">
				 <ele>27.6</ele>
			 </trkpt>
			 <trkpt lat="55.574347" lon="-133.063134">
				 <ele>26.8</ele>
			 </trkpt>
			 <trkpt lat="55.575089" lon="-133.061983">
				 <ele>26.1</ele>
			 </trkpt>
			 <trkpt lat="55.575451" lon="-133.061415">
				 <ele>25.5</ele>
			 </trkpt>
			 <trkpt lat="55.575811" lon="-133.06083">
				 <ele>25</ele>
			 </trkpt>
			 <trkpt lat="55.576555" lon="-133.059769">
				 <ele>24</ele>
			 </trkpt>
			 <trkpt lat="55.578176" lon="-133.057283">
				 <ele>22.9</ele>
			 </trkpt>
			 <trkpt lat="55.579101" lon="-133.055883">
				 <ele>21.9</ele>
			 </trkpt>
			 <trkpt lat="55.579769" lon="-133.054908">
				 <ele>21.6</ele>
			 </trkpt>
			 <trkpt lat="55.58145" lon="-133.052587">
				 <ele>21.5</ele>
			 </trkpt>
			 <trkpt lat="55.582723" lon="-133.050731">
				 <ele>21.3</ele>
			 </trkpt>
			 <trkpt lat="55.583053" lon="-133.0502">
				 <ele>21.5</ele>
			 </trkpt>
			 <trkpt lat="55.583123" lon="-133.050088">
				 <ele>22</ele>
			 </trkpt>
			 <trkpt lat="55.583366" lon="-133.049541">
				 <ele>22.6</ele>
			 </trkpt>
			 <trkpt lat="55.583596" lon="-133.049079">
				 <ele>23.5</ele>
			 </trkpt>
			 <trkpt lat="55.583815" lon="-133.048618">
				 <ele>24.5</ele>
			 </trkpt>
			 <trkpt lat="55.584276" lon="-133.047481">
				 <ele>26.4</ele>
			 </trkpt>
			 <trkpt lat="55.584445" lon="-133.047019">
				 <ele>28.6</ele>
			 </trkpt>
			 <trkpt lat="55.584639" lon="-133.046418">
				 <ele>31.2</ele>
			 </trkpt>
			 <trkpt lat="55.584815" lon="-133.045678">
				 <ele>34.1</ele>
			 </trkpt>
			 <trkpt lat="55.584991" lon="-133.044766">
				 <ele>37.3</ele>
			 </trkpt>
			 <trkpt lat="55.58524" lon="-133.043758">
				 <ele>41</ele>
			 </trkpt>
			 <trkpt lat="55.585325" lon="-133.042953">
				 <ele>44.7</ele>
			 </trkpt>
			 <trkpt lat="55.585422" lon="-133.041955">
				 <ele>48.5</ele>
			 </trkpt>
			 <trkpt lat="55.58567" lon="-133.039777">
				 <ele>52.3</ele>
			 </trkpt>
			 <trkpt lat="55.586064" lon="-133.038586">
				 <ele>56.2</ele>
			 </trkpt>
			 <trkpt lat="55.587295" lon="-133.03688">
				 <ele>60.3</ele>
			 </trkpt>
			 <trkpt lat="55.587617" lon="-133.03614">
				 <ele>64</ele>
			 </trkpt>
			 <trkpt lat="55.58789" lon="-133.035314">
				 <ele>67.6</ele>
			 </trkpt>
			 <trkpt lat="55.588071" lon="-133.034402">
				 <ele>71.2</ele>
			 </trkpt>
			 <trkpt lat="55.588296" lon="-133.033469">
				 <ele>74.3</ele>
			 </trkpt>
			 <trkpt lat="55.588672" lon="-133.032707">
				 <ele>76.9</ele>
			 </trkpt>
			 <trkpt lat="55.589035" lon="-133.032299">
				 <ele>78.7</ele>
			 </trkpt>
			 <trkpt lat="55.589424" lon="-133.031913">
				 <ele>80.2</ele>
			 </trkpt>
			 <trkpt lat="55.589721" lon="-133.031741">
				 <ele>81.5</ele>
			 </trkpt>
			 <trkpt lat="55.590199" lon="-133.031634">
				 <ele>82.7</ele>
			 </trkpt>
			 <trkpt lat="55.590551" lon="-133.031656">
				 <ele>83.4</ele>
			 </trkpt>
			 <trkpt lat="55.591303" lon="-133.031999">
				 <ele>83.5</ele>
			 </trkpt>
			 <trkpt lat="55.591915" lon="-133.032235">
				 <ele>84.2</ele>
			 </trkpt>
			 <trkpt lat="55.592231" lon="-133.032256">
				 <ele>84.9</ele>
			 </trkpt>
			 <trkpt lat="55.592582" lon="-133.032171">
				 <ele>85.9</ele>
			 </trkpt>
			 <trkpt lat="55.59297" lon="-133.031988">
				 <ele>87.1</ele>
			 </trkpt>
			 <trkpt lat="55.593328" lon="-133.03172">
				 <ele>88.5</ele>
			 </trkpt>
			 <trkpt lat="55.595719" lon="-133.029189">
				 <ele>90</ele>
			 </trkpt>
			 <trkpt lat="55.596074" lon="-133.028909">
				 <ele>91.6</ele>
			 </trkpt>
			 <trkpt lat="55.596474" lon="-133.028673">
				 <ele>92.8</ele>
			 </trkpt>
			 <trkpt lat="55.59682" lon="-133.028426">
				 <ele>93.5</ele>
			 </trkpt>
			 <trkpt lat="55.596989" lon="-133.028269">
				 <ele>93.9</ele>
			 </trkpt>
			 <trkpt lat="55.597153" lon="-133.028115">
				 <ele>94.5</ele>
			 </trkpt>
			 <trkpt lat="55.597384" lon="-133.027772">
				 <ele>94.2</ele>
			 </trkpt>
			 <trkpt lat="55.5976" lon="-133.027341">
				 <ele>93.5</ele>
			 </trkpt>
			 <trkpt lat="55.597753" lon="-133.026828">
				 <ele>91.8</ele>
			 </trkpt>
			 <trkpt lat="55.597941" lon="-133.024124">
				 <ele>89.6</ele>
			 </trkpt>
			 <trkpt lat="55.597978" lon="-133.022954">
				 <ele>87.2</ele>
			 </trkpt>
			 <trkpt lat="55.598129" lon="-133.021635">
				 <ele>85</ele>
			 </trkpt>
			 <trkpt lat="55.598293" lon="-133.020744">
				 <ele>82.7</ele>
			 </trkpt>
			 <trkpt lat="55.598541" lon="-133.019779">
				 <ele>81.5</ele>
			 </trkpt>
			 <trkpt lat="55.598863" lon="-133.018963">
				 <ele>81.2</ele>
			 </trkpt>
			 <trkpt lat="55.599226" lon="-133.018277">
				 <ele>81.9</ele>
			 </trkpt>
			 <trkpt lat="55.600487" lon="-133.016185">
				 <ele>83.5</ele>
			 </trkpt>
			 <trkpt lat="55.60122" lon="-133.014951">
				 <ele>85.7</ele>
			 </trkpt>
			 <trkpt lat="55.601772" lon="-133.014071">
				 <ele>87.9</ele>
			 </trkpt>
			 <trkpt lat="55.602027" lon="-133.013577">
				 <ele>90.3</ele>
			 </trkpt>
			 <trkpt lat="55.602311" lon="-133.012934">
				 <ele>92.6</ele>
			 </trkpt>
			 <trkpt lat="55.60253" lon="-133.012011">
				 <ele>95</ele>
			 </trkpt>
			 <trkpt lat="55.602594" lon="-133.011193">
				 <ele>96.9</ele>
			 </trkpt>
			 <trkpt lat="55.602621" lon="-133.010606">
				 <ele>98.9</ele>
			 </trkpt>
			 <trkpt lat="55.602518" lon="-133.009533">
				 <ele>100.2</ele>
			 </trkpt>
			 <trkpt lat="55.602421" lon="-133.008653">
				 <ele>100.9</ele>
			 </trkpt>
			 <trkpt lat="55.60239" lon="-133.007988">
				 <ele>100.5</ele>
			 </trkpt>
			 <trkpt lat="55.602487" lon="-133.007278">
				 <ele>99.3</ele>
			 </trkpt>
			 <trkpt lat="55.602566" lon="-133.0067">
				 <ele>98</ele>
			 </trkpt>
			 <trkpt lat="55.60276" lon="-133.006067">
				 <ele>95.4</ele>
			 </trkpt>
			 <trkpt lat="55.602978" lon="-133.005552">
				 <ele>92.1</ele>
			 </trkpt>
			 <trkpt lat="55.603269" lon="-133.005155">
				 <ele>88.9</ele>
			 </trkpt>
			 <trkpt lat="55.603645" lon="-133.004705">
				 <ele>86.5</ele>
			 </trkpt>
			 <trkpt lat="55.605925" lon="-133.002448">
				 <ele>82.8</ele>
			 </trkpt>
			 <trkpt lat="55.607139" lon="-133.001116">
				 <ele>79</ele>
			 </trkpt>
			 <trkpt lat="55.607876" lon="-132.999695">
				 <ele>72.5</ele>
			 </trkpt>
			 <trkpt lat="55.608803" lon="-132.997408">
				 <ele>65.7</ele>
			 </trkpt>
			 <trkpt lat="55.609817" lon="-132.996175">
				 <ele>60.1</ele>
			 </trkpt>
			 <trkpt lat="55.612899" lon="-132.994716">
				 <ele>54.4</ele>
			 </trkpt>
			 <trkpt lat="55.614754" lon="-132.993121">
				 <ele>51.1</ele>
			 </trkpt>
			 <trkpt lat="55.618744" lon="-132.991317">
				 <ele>49.5</ele>
			 </trkpt>
			 <trkpt lat="55.621049" lon="-132.98875">
				 <ele>48.3</ele>
			 </trkpt>
			 <trkpt lat="55.621073" lon="-132.988706">
				 <ele>45.8</ele>
			 </trkpt>
			 <trkpt lat="55.622199" lon="-132.98672">
				 <ele>42.7</ele>
			 </trkpt>
			 <trkpt lat="55.622695" lon="-132.981214">
				 <ele>40.5</ele>
			 </trkpt>
			 <trkpt lat="55.6231" lon="-132.979281">
				 <ele>39.1</ele>
			 </trkpt>
			 <trkpt lat="55.623509" lon="-132.976112">
				 <ele>40.9</ele>
			 </trkpt>
			 <trkpt lat="55.622855" lon="-132.971147">
				 <ele>43.8</ele>
			 </trkpt>
			 <trkpt lat="55.622778" lon="-132.970556">
				 <ele>46.6</ele>
			 </trkpt>
			 <trkpt lat="55.623758" lon="-132.965159">
				 <ele>49.3</ele>
			 </trkpt>
			 <trkpt lat="55.622778" lon="-132.970556">
				 <ele>46.6</ele>
			 </trkpt>
			 <trkpt lat="55.623055" lon="-132.972663">
				 <ele>43.1</ele>
			 </trkpt>
			 <trkpt lat="55.623509" lon="-132.976112">
				 <ele>40.5</ele>
			 </trkpt>
			 <trkpt lat="55.6231" lon="-132.979281">
				 <ele>41.9</ele>
			 </trkpt>
			 <trkpt lat="55.622695" lon="-132.981214">
				 <ele>43.5</ele>
			 </trkpt>
			 <trkpt lat="55.622199" lon="-132.98672">
				 <ele>47.2</ele>
			 </trkpt>
			 <trkpt lat="55.621049" lon="-132.98875">
				 <ele>49.6</ele>
			 </trkpt>
			 <trkpt lat="55.618744" lon="-132.991317">
				 <ele>51.7</ele>
			 </trkpt>
			 <trkpt lat="55.614754" lon="-132.993121">
				 <ele>53.9</ele>
			 </trkpt>
			 <trkpt lat="55.612899" lon="-132.994716">
				 <ele>57</ele>
			 </trkpt>
			 <trkpt lat="55.609817" lon="-132.996175">
				 <ele>60.1</ele>
			 </trkpt>
			 <trkpt lat="55.608803" lon="-132.997408">
				 <ele>65.7</ele>
			 </trkpt>
			 <trkpt lat="55.607876" lon="-132.999695">
				 <ele>72.5</ele>
			 </trkpt>
			 <trkpt lat="55.607139" lon="-133.001116">
				 <ele>79</ele>
			 </trkpt>
			 <trkpt lat="55.605925" lon="-133.002448">
				 <ele>82.8</ele>
			 </trkpt>
			 <trkpt lat="55.603645" lon="-133.004705">
				 <ele>86.7</ele>
			 </trkpt>
			 <trkpt lat="55.603269" lon="-133.005155">
				 <ele>89.3</ele>
			 </trkpt>
			 <trkpt lat="55.602978" lon="-133.005552">
				 <ele>92.7</ele>
			 </trkpt>
			 <trkpt lat="55.60276" lon="-133.006067">
				 <ele>96.3</ele>
			 </trkpt>
			 <trkpt lat="55.602566" lon="-133.0067">
				 <ele>99.1</ele>
			 </trkpt>
			 <trkpt lat="55.60239" lon="-133.007988">
				 <ele>100.2</ele>
			 </trkpt>
			 <trkpt lat="55.602421" lon="-133.008653">
				 <ele>100.5</ele>
			 </trkpt>
			 <trkpt lat="55.602518" lon="-133.009533">
				 <ele>100.1</ele>
			 </trkpt>
			 <trkpt lat="55.602621" lon="-133.010606">
				 <ele>98.9</ele>
			 </trkpt>
			 <trkpt lat="55.602594" lon="-133.011193">
				 <ele>96.9</ele>
			 </trkpt>
			 <trkpt lat="55.60253" lon="-133.012011">
				 <ele>95</ele>
			 </trkpt>
			 <trkpt lat="55.602311" lon="-133.012934">
				 <ele>92.6</ele>
			 </trkpt>
			 <trkpt lat="55.602027" lon="-133.013577">
				 <ele>90.3</ele>
			 </trkpt>
			 <trkpt lat="55.601772" lon="-133.014071">
				 <ele>87.9</ele>
			 </trkpt>
			 <trkpt lat="55.60122" lon="-133.014951">
				 <ele>85.7</ele>
			 </trkpt>
			 <trkpt lat="55.600487" lon="-133.016185">
				 <ele>83.5</ele>
			 </trkpt>
			 <trkpt lat="55.599226" lon="-133.018277">
				 <ele>81.9</ele>
			 </trkpt>
			 <trkpt lat="55.598863" lon="-133.018963">
				 <ele>81.2</ele>
			 </trkpt>
			 <trkpt lat="55.598541" lon="-133.019779">
				 <ele>81.5</ele>
			 </trkpt>
			 <trkpt lat="55.598293" lon="-133.020744">
				 <ele>82.7</ele>
			 </trkpt>
			 <trkpt lat="55.598129" lon="-133.021635">
				 <ele>85</ele>
			 </trkpt>
			 <trkpt lat="55.597978" lon="-133.022954">
				 <ele>87.2</ele>
			 </trkpt>
			 <trkpt lat="55.597941" lon="-133.024124">
				 <ele>89.5</ele>
			 </trkpt>
			 <trkpt lat="55.597753" lon="-133.026828">
				 <ele>91.5</ele>
			 </trkpt>
			 <trkpt lat="55.5976" lon="-133.027341">
				 <ele>92.6</ele>
			 </trkpt>
			 <trkpt lat="55.597384" lon="-133.027772">
				 <ele>93.1</ele>
			 </trkpt>
			 <trkpt lat="55.597153" lon="-133.028115">
				 <ele>92.9</ele>
			 </trkpt>
			 <trkpt lat="55.59682" lon="-133.028426">
				 <ele>92.4</ele>
			 </trkpt>
			 <trkpt lat="55.596474" lon="-133.028673">
				 <ele>92.1</ele>
			 </trkpt>
			 <trkpt lat="55.596074" lon="-133.028909">
				 <ele>91.3</ele>
			 </trkpt>
			 <trkpt lat="55.595719" lon="-133.029189">
				 <ele>90</ele>
			 </trkpt>
			 <trkpt lat="55.593328" lon="-133.03172">
				 <ele>88.5</ele>
			 </trkpt>
			 <trkpt lat="55.59297" lon="-133.031988">
				 <ele>87.1</ele>
			 </trkpt>
			 <trkpt lat="55.592582" lon="-133.032171">
				 <ele>85.9</ele>
			 </trkpt>
			 <trkpt lat="55.592231" lon="-133.032256">
				 <ele>84.9</ele>
			 </trkpt>
			 <trkpt lat="55.591915" lon="-133.032235">
				 <ele>84.3</ele>
			 </trkpt>
			 <trkpt lat="55.591303" lon="-133.031999">
				 <ele>83.8</ele>
			 </trkpt>
			 <trkpt lat="55.590551" lon="-133.031656">
				 <ele>83.6</ele>
			 </trkpt>
			 <trkpt lat="55.590199" lon="-133.031634">
				 <ele>83.5</ele>
			 </trkpt>
			 <trkpt lat="55.589721" lon="-133.031741">
				 <ele>82.6</ele>
			 </trkpt>
			 <trkpt lat="55.589477" lon="-133.031882">
				 <ele>81.6</ele>
			 </trkpt>
			 <trkpt lat="55.589424" lon="-133.031913">
				 <ele>80.4</ele>
			 </trkpt>
			 <trkpt lat="55.589035" lon="-133.032299">
				 <ele>78.8</ele>
			 </trkpt>
			 <trkpt lat="55.588672" lon="-133.032707">
				 <ele>76.8</ele>
			 </trkpt>
			 <trkpt lat="55.588296" lon="-133.033469">
				 <ele>74.1</ele>
			 </trkpt>
			 <trkpt lat="55.588071" lon="-133.034402">
				 <ele>71.1</ele>
			 </trkpt>
			 <trkpt lat="55.58789" lon="-133.035314">
				 <ele>67.6</ele>
			 </trkpt>
			 <trkpt lat="55.587617" lon="-133.03614">
				 <ele>64</ele>
			 </trkpt>
			 <trkpt lat="55.587295" lon="-133.03688">
				 <ele>60.3</ele>
			 </trkpt>
			 <trkpt lat="55.586064" lon="-133.038586">
				 <ele>56.2</ele>
			 </trkpt>
			 <trkpt lat="55.58567" lon="-133.039777">
				 <ele>52.3</ele>
			 </trkpt>
			 <trkpt lat="55.585422" lon="-133.041955">
				 <ele>48.5</ele>
			 </trkpt>
			 <trkpt lat="55.585325" lon="-133.042953">
				 <ele>44.7</ele>
			 </trkpt>
			 <trkpt lat="55.58524" lon="-133.043758">
				 <ele>41</ele>
			 </trkpt>
			 <trkpt lat="55.584991" lon="-133.044766">
				 <ele>37.3</ele>
			 </trkpt>
			 <trkpt lat="55.584815" lon="-133.045678">
				 <ele>34.1</ele>
			 </trkpt>
			 <trkpt lat="55.584639" lon="-133.046418">
				 <ele>31.2</ele>
			 </trkpt>
			 <trkpt lat="55.584445" lon="-133.047019">
				 <ele>28.6</ele>
			 </trkpt>
			 <trkpt lat="55.584276" lon="-133.047481">
				 <ele>26.5</ele>
			 </trkpt>
			 <trkpt lat="55.583815" lon="-133.048618">
				 <ele>25.1</ele>
			 </trkpt>
			 <trkpt lat="55.583596" lon="-133.049079">
				 <ele>24</ele>
			 </trkpt>
			 <trkpt lat="55.583366" lon="-133.049541">
				 <ele>23.1</ele>
			 </trkpt>
			 <trkpt lat="55.583123" lon="-133.050088">
				 <ele>22.4</ele>
			 </trkpt>
			 <trkpt lat="55.582723" lon="-133.050731">
				 <ele>21.9</ele>
			 </trkpt>
			 <trkpt lat="55.58145" lon="-133.052587">
				 <ele>21.8</ele>
			 </trkpt>
			 <trkpt lat="55.579769" lon="-133.054908">
				 <ele>21.9</ele>
			 </trkpt>
			 <trkpt lat="55.579101" lon="-133.055883">
				 <ele>22.1</ele>
			 </trkpt>
			 <trkpt lat="55.578176" lon="-133.057283">
				 <ele>22.9</ele>
			 </trkpt>
			 <trkpt lat="55.576555" lon="-133.059769">
				 <ele>24</ele>
			 </trkpt>
			 <trkpt lat="55.575811" lon="-133.06083">
				 <ele>25</ele>
			 </trkpt>
			 <trkpt lat="55.575451" lon="-133.061415">
				 <ele>25.5</ele>
			 </trkpt>
			 <trkpt lat="55.575089" lon="-133.061983">
				 <ele>26.2</ele>
			 </trkpt>
			 <trkpt lat="55.574347" lon="-133.063134">
				 <ele>26.9</ele>
			 </trkpt>
			 <trkpt lat="55.574108" lon="-133.063461">
				 <ele>27.7</ele>
			 </trkpt>
			 <trkpt lat="55.573682" lon="-133.063856">
				 <ele>28.5</ele>
			 </trkpt>
			 <trkpt lat="55.573414" lon="-133.064024">
				 <ele>29.2</ele>
			 </trkpt>
			 <trkpt lat="55.573232" lon="-133.0641">
				 <ele>29.9</ele>
			 </trkpt>
			 <trkpt lat="55.572993" lon="-133.064148">
				 <ele>30.5</ele>
			 </trkpt>
			 <trkpt lat="55.572795" lon="-133.064169">
				 <ele>30.5</ele>
			 </trkpt>
			 <trkpt lat="55.572516" lon="-133.064137">
				 <ele>30.3</ele>
			 </trkpt>
			 <trkpt lat="55.572307" lon="-133.064073">
				 <ele>30.5</ele>
			 </trkpt>
			 <trkpt lat="55.572103" lon="-133.063965">
				 <ele>30.5</ele>
			 </trkpt>
			 <trkpt lat="55.571897" lon="-133.063815">
				 <ele>30.5</ele>
			 </trkpt>
			 <trkpt lat="55.571694" lon="-133.063644">
				 <ele>30.5</ele>
			 </trkpt>
			 <trkpt lat="55.571451" lon="-133.06342">
				 <ele>30.5</ele>
			 </trkpt>
			 <trkpt lat="55.570715" lon="-133.062646">
				 <ele>30.3</ele>
			 </trkpt>
			 <trkpt lat="55.570475" lon="-133.062426">
				 <ele>30</ele>
			 </trkpt>
			 <trkpt lat="55.57025" lon="-133.062254">
				 <ele>29.6</ele>
			 </trkpt>
			 <trkpt lat="55.570065" lon="-133.062163">
				 <ele>29.3</ele>
			 </trkpt>
			 <trkpt lat="55.56988" lon="-133.062104">
				 <ele>29.1</ele>
			 </trkpt>
			 <trkpt lat="55.569696" lon="-133.062076">
				 <ele>28.9</ele>
			 </trkpt>
			 <trkpt lat="55.56948" lon="-133.062093">
				 <ele>28.4</ele>
			 </trkpt>
			 <trkpt lat="55.569312" lon="-133.062144">
				 <ele>27.8</ele>
			 </trkpt>
			 <trkpt lat="55.569089" lon="-133.062233">
				 <ele>27.4</ele>
			 </trkpt>
			 <trkpt lat="55.568905" lon="-133.062338">
				 <ele>27</ele>
			 </trkpt>
			 <trkpt lat="55.568731" lon="-133.062485">
				 <ele>26.6</ele>
			 </trkpt>
			 <trkpt lat="55.568591" lon="-133.062631">
				 <ele>25.6</ele>
			 </trkpt>
			 <trkpt lat="55.568443" lon="-133.062839">
				 <ele>24.6</ele>
			 </trkpt>
			 <trkpt lat="55.568275" lon="-133.063112">
				 <ele>23.7</ele>
			 </trkpt>
			 <trkpt lat="55.567789" lon="-133.064115">
				 <ele>22.7</ele>
			 </trkpt>
			 <trkpt lat="55.567351" lon="-133.064989">
				 <ele>21.6</ele>
			 </trkpt>
			 <trkpt lat="55.565615" lon="-133.068518">
				 <ele>20.6</ele>
			 </trkpt>
			 <trkpt lat="55.564933" lon="-133.069931">
				 <ele>19.7</ele>
			 </trkpt>
			 <trkpt lat="55.564214" lon="-133.071373">
				 <ele>18.9</ele>
			 </trkpt>
			 <trkpt lat="55.563744" lon="-133.072334">
				 <ele>18.1</ele>
			 </trkpt>
			 <trkpt lat="55.563311" lon="-133.07317">
				 <ele>17.4</ele>
			 </trkpt>
			 <trkpt lat="55.563004" lon="-133.073745">
				 <ele>16.5</ele>
			 </trkpt>
			 <trkpt lat="55.562733" lon="-133.074201">
				 <ele>16.5</ele>
			 </trkpt>
			 <trkpt lat="55.562136" lon="-133.075264">
				 <ele>17</ele>
			 </trkpt>
			 <trkpt lat="55.560995" lon="-133.077201">
				 <ele>17.5</ele>
			 </trkpt>
			 <trkpt lat="55.560713" lon="-133.077681">
				 <ele>18.3</ele>
			 </trkpt>
			 <trkpt lat="55.560102" lon="-133.078589">
				 <ele>19</ele>
			 </trkpt>
			 <trkpt lat="55.559861" lon="-133.07898">
				 <ele>19.6</ele>
			 </trkpt>
			 <trkpt lat="55.559488" lon="-133.079676">
				 <ele>20.2</ele>
			 </trkpt>
			 <trkpt lat="55.559204" lon="-133.080147">
				 <ele>20.6</ele>
			 </trkpt>
			 <trkpt lat="55.558941" lon="-133.080634">
				 <ele>21.1</ele>
			 </trkpt>
			 <trkpt lat="55.558751" lon="-133.08096">
				 <ele>21.5</ele>
			 </trkpt>
			 <trkpt lat="55.558508" lon="-133.081277">
				 <ele>22.3</ele>
			 </trkpt>
			 <trkpt lat="55.558344" lon="-133.081469">
				 <ele>22.9</ele>
			 </trkpt>
			 <trkpt lat="55.558107" lon="-133.081668">
				 <ele>23.2</ele>
			 </trkpt>
			 <trkpt lat="55.557941" lon="-133.081786">
				 <ele>23.2</ele>
			 </trkpt>
			 <trkpt lat="55.557528" lon="-133.081947">
				 <ele>22.4</ele>
			 </trkpt>
			 <trkpt lat="55.557316" lon="-133.081974">
				 <ele>21.3</ele>
			 </trkpt>
			 <trkpt lat="55.556907" lon="-133.081983">
				 <ele>20.5</ele>
			 </trkpt>
			 <trkpt lat="55.556584" lon="-133.08199">
				 <ele>19.5</ele>
			 </trkpt>
			 <trkpt lat="55.556278" lon="-133.081977">
				 <ele>18.6</ele>
			 </trkpt>
			 <trkpt lat="55.553985" lon="-133.081983">
				 <ele>17.6</ele>
			 </trkpt>
			 <trkpt lat="55.552594" lon="-133.082013">
				 <ele>16.4</ele>
			 </trkpt>
			 <trkpt lat="55.552086" lon="-133.082017">
				 <ele>14.8</ele>
			 </trkpt>
			 <trkpt lat="55.55214" lon="-133.082464">
				 <ele>13.3</ele>
			 </trkpt>
			 <trkpt lat="55.55221" lon="-133.083047">
				 <ele>11.6</ele>
			 </trkpt>
			 <trkpt lat="55.552384" lon="-133.084493">
				 <ele>10.2</ele>
			 </trkpt>
			 <trkpt lat="55.552634" lon="-133.086853">
				 <ele>9.4</ele>
			 </trkpt>
			 <trkpt lat="55.552752" lon="-133.088159">
				 <ele>8.8</ele>
			 </trkpt>
			 <trkpt lat="55.552763" lon="-133.088241">
				 <ele>7.9</ele>
			 </trkpt>
			 <trkpt lat="55.552803" lon="-133.08861">
				 <ele>7.1</ele>
			 </trkpt>
			 <trkpt lat="55.552855" lon="-133.088968">
				 <ele>6.2</ele>
			 </trkpt>
			 <trkpt lat="55.552908" lon="-133.08942">
				 <ele>5.4</ele>
			 </trkpt>
			 <trkpt lat="55.552965" lon="-133.090023">
				 <ele>4.6</ele>
			 </trkpt>
			 <trkpt lat="55.552975" lon="-133.090307">
				 <ele>4.2</ele>
			 </trkpt>
			 <trkpt lat="55.552978" lon="-133.090615">
				 <ele>3.8</ele>
			 </trkpt>
			 <trkpt lat="55.552968" lon="-133.090884">
				 <ele>3.5</ele>
			 </trkpt>
			 <trkpt lat="55.552901" lon="-133.091565">
				 <ele>3.4</ele>
			 </trkpt>
			 <trkpt lat="55.552843" lon="-133.091908">
				 <ele>3.5</ele>
			 </trkpt>
			 <trkpt lat="55.552752" lon="-133.09229">
				 <ele>3.8</ele>
			 </trkpt>
			 <trkpt lat="55.552641" lon="-133.092643">
				 <ele>4.2</ele>
			 </trkpt>
			 <trkpt lat="55.552524" lon="-133.092935">
				 <ele>4.5</ele>
			 </trkpt>
			 <trkpt lat="55.552282" lon="-133.093482">
				 <ele>4.7</ele>
			 </trkpt>
			 <trkpt lat="55.552012" lon="-133.094084">
				 <ele>5</ele>
			 </trkpt>
			 <trkpt lat="55.551966" lon="-133.094189">
				 <ele>5.3</ele>
			 </trkpt>
			 <trkpt lat="55.551599" lon="-133.095041">
				 <ele>5.5</ele>
			 </trkpt>
			 <trkpt lat="55.551449" lon="-133.095414">
				 <ele>5.5</ele>
			 </trkpt>
			 <trkpt lat="55.551256" lon="-133.095811">
				 <ele>5.5</ele>
			 </trkpt>
			 <trkpt lat="55.551081" lon="-133.096138">
				 <ele>5.5</ele>
			 </trkpt>
			 <trkpt lat="55.550916" lon="-133.096342">
				 <ele>5.2</ele>
			 </trkpt>
			 <trkpt lat="55.55074" lon="-133.096531">
				 <ele>4.8</ele>
			 </trkpt>
			 <trkpt lat="55.550641" lon="-133.096617">
				 <ele>4.5</ele>
			 </trkpt>
			 <trkpt lat="55.550483" lon="-133.096725">
				 <ele>4.5</ele>
			 </trkpt>
			 <trkpt lat="55.550339" lon="-133.096802">
				 <ele>4.9</ele>
			 </trkpt>
			 <trkpt lat="55.550214" lon="-133.096849">
				 <ele>5.9</ele>
			 </trkpt>
			 <trkpt lat="55.550041" lon="-133.096895">
				 <ele>7</ele>
			 </trkpt>
			 <trkpt lat="55.548458" lon="-133.097147">
				 <ele>7.8</ele>
			 </trkpt>
			 <trkpt lat="55.547859" lon="-133.09722">
				 <ele>8.4</ele>
			 </trkpt>
			 <trkpt lat="55.547019" lon="-133.09734">
				 <ele>8.9</ele>
			 </trkpt>
			 <trkpt lat="55.545936" lon="-133.097499">
				 <ele>9.5</ele>
			 </trkpt>
			 <trkpt lat="55.544836" lon="-133.097646">
				 <ele>10.2</ele>
			 </trkpt>
			 <trkpt lat="55.543948" lon="-133.097796">
				 <ele>11.2</ele>
			 </trkpt>
			 <trkpt lat="55.543545" lon="-133.097915">
				 <ele>12.2</ele>
			 </trkpt>
			 <trkpt lat="55.543323" lon="-133.097981">
				 <ele>12.9</ele>
			 </trkpt>
			 <trkpt lat="55.543127" lon="-133.098104">
				 <ele>13.5</ele>
			 </trkpt>
			 <trkpt lat="55.542795" lon="-133.098351">
				 <ele>13.5</ele>
			 </trkpt>
			 <trkpt lat="55.542234" lon="-133.098869">
				 <ele>13.6</ele>
			 </trkpt>
			 <trkpt lat="55.542106" lon="-133.09899">
				 <ele>14.1</ele>
			 </trkpt>
			 <trkpt lat="55.54176" lon="-133.09929">
				 <ele>15.1</ele>
			 </trkpt>
			 <trkpt lat="55.541457" lon="-133.09951">
				 <ele>16.2</ele>
			 </trkpt>
			 <trkpt lat="55.541211" lon="-133.099639">
				 <ele>17.4</ele>
			 </trkpt>
			 <trkpt lat="55.540971" lon="-133.099703">
				 <ele>18.5</ele>
			 </trkpt>
			 <trkpt lat="55.540755" lon="-133.099731">
				 <ele>19.5</ele>
			 </trkpt>
			 <trkpt lat="55.540464" lon="-133.099821">
				 <ele>20.3</ele>
			 </trkpt>
			 <trkpt lat="55.540306" lon="-133.099896">
				 <ele>21.1</ele>
			 </trkpt>
			 <trkpt lat="55.540155" lon="-133.099994">
				 <ele>21.5</ele>
			 </trkpt>
			 <trkpt lat="55.539951" lon="-133.100159">
				 <ele>21.8</ele>
			 </trkpt>
			 <trkpt lat="55.539807" lon="-133.100359">
				 <ele>22</ele>
			 </trkpt>
			 <trkpt lat="55.539002" lon="-133.10179">
				 <ele>22</ele>
			 </trkpt>
			 <trkpt lat="55.537959" lon="-133.103237">
				 <ele>21.7</ele>
			 </trkpt>
			 <trkpt lat="55.535976" lon="-133.105446">
				 <ele>21.4</ele>
			 </trkpt>
			 <trkpt lat="55.534659" lon="-133.106896">
				 <ele>21.2</ele>
			 </trkpt>
			 <trkpt lat="55.532515" lon="-133.109178">
				 <ele>20.6</ele>
			 </trkpt>
			 <trkpt lat="55.531594" lon="-133.109784">
				 <ele>19.7</ele>
			 </trkpt>
			 <trkpt lat="55.530481" lon="-133.110577">
				 <ele>19.5</ele>
			 </trkpt>
			 <trkpt lat="55.529714" lon="-133.111266">
				 <ele>19</ele>
			 </trkpt>
			 <trkpt lat="55.528636" lon="-133.112685">
				 <ele>18.6</ele>
			 </trkpt>
			 <trkpt lat="55.528342" lon="-133.113248">
				 <ele>18.4</ele>
			 </trkpt>
			 <trkpt lat="55.527633" lon="-133.115299">
				 <ele>18.2</ele>
			 </trkpt>
			 <trkpt lat="55.527181" lon="-133.116761">
				 <ele>18.2</ele>
			 </trkpt>
			 <trkpt lat="55.526711" lon="-133.117841">
				 <ele>18.4</ele>
			 </trkpt>
			 <trkpt lat="55.52634" lon="-133.118639">
				 <ele>18.6</ele>
			 </trkpt>
			 <trkpt lat="55.525859" lon="-133.119408">
				 <ele>18.5</ele>
			 </trkpt>
			 <trkpt lat="55.525406" lon="-133.119904">
				 <ele>18.6</ele>
			 </trkpt>
			 <trkpt lat="55.525024" lon="-133.120373">
				 <ele>18.9</ele>
			 </trkpt>
			 <trkpt lat="55.524531" lon="-133.120922">
				 <ele>19.1</ele>
			 </trkpt>
			 <trkpt lat="55.524143" lon="-133.12127">
				 <ele>19.5</ele>
			 </trkpt>
			 <trkpt lat="55.52356" lon="-133.121719">
				 <ele>19.8</ele>
			 </trkpt>
			 <trkpt lat="55.52231" lon="-133.122977">
				 <ele>20.2</ele>
			 </trkpt>
			 <trkpt lat="55.521909" lon="-133.123401">
				 <ele>20.5</ele>
			 </trkpt>
			 <trkpt lat="55.52153" lon="-133.123817">
				 <ele>20.6</ele>
			 </trkpt>
			 <trkpt lat="55.521163" lon="-133.124264">
				 <ele>20.6</ele>
			 </trkpt>
			 <trkpt lat="55.520647" lon="-133.124868">
				 <ele>20.6</ele>
			 </trkpt>
			 <trkpt lat="55.520294" lon="-133.125261">
				 <ele>20.7</ele>
			 </trkpt>
			 <trkpt lat="55.51987" lon="-133.125704">
				 <ele>20.9</ele>
			 </trkpt>
			 <trkpt lat="55.519331" lon="-133.126198">
				 <ele>21.1</ele>
			 </trkpt>
			 <trkpt lat="55.518503" lon="-133.127016">
				 <ele>21.5</ele>
			 </trkpt>
			 <trkpt lat="55.517299" lon="-133.128787">
				 <ele>21.9</ele>
			 </trkpt>
			 <trkpt lat="55.514683" lon="-133.130739">
				 <ele>22.6</ele>
			 </trkpt>
			 <trkpt lat="55.513483" lon="-133.130787">
				 <ele>22.8</ele>
			 </trkpt>
			 <trkpt lat="55.51228" lon="-133.131411">
				 <ele>23.1</ele>
			 </trkpt>
			 <trkpt lat="55.510952" lon="-133.132056">
				 <ele>23.2</ele>
			 </trkpt>
			 <trkpt lat="55.510673" lon="-133.131971">
				 <ele>23.2</ele>
			 </trkpt>
			 <trkpt lat="55.508577" lon="-133.131328">
				 <ele>23.3</ele>
			 </trkpt>
			 <trkpt lat="55.506907" lon="-133.131868">
				 <ele>22.5</ele>
			 </trkpt>
			 <trkpt lat="55.505565" lon="-133.132167">
				 <ele>21.4</ele>
			 </trkpt>
			 <trkpt lat="55.504391" lon="-133.132386">
				 <ele>20.5</ele>
			 </trkpt>
			 <trkpt lat="55.50341" lon="-133.132511">
				 <ele>20</ele>
			 </trkpt>
			 <trkpt lat="55.502141" lon="-133.132329">
				 <ele>19.9</ele>
			 </trkpt>
			 <trkpt lat="55.499425" lon="-133.132112">
				 <ele>19.7</ele>
			 </trkpt>
			 <trkpt lat="55.497404" lon="-133.131847">
				 <ele>20</ele>
			 </trkpt>
			 <trkpt lat="55.496313" lon="-133.131825">
				 <ele>19.9</ele>
			 </trkpt>
			 <trkpt lat="55.495173" lon="-133.13233">
				 <ele>19.5</ele>
			 </trkpt>
			 <trkpt lat="55.493687" lon="-133.133173">
				 <ele>18.8</ele>
			 </trkpt>
			 <trkpt lat="55.491838" lon="-133.134115">
				 <ele>17.6</ele>
			 </trkpt>
			 <trkpt lat="55.490829" lon="-133.134338">
				 <ele>17.4</ele>
			 </trkpt>
			 <trkpt lat="55.490225" lon="-133.134075">
				 <ele>17.4</ele>
			 </trkpt>
			 <trkpt lat="55.489586" lon="-133.133594">
				 <ele>17.2</ele>
			 </trkpt>
			 <trkpt lat="55.489119" lon="-133.132949">
				 <ele>16.4</ele>
			 </trkpt>
			 <trkpt lat="55.488331" lon="-133.131645">
				 <ele>15.2</ele>
			 </trkpt>
			 <trkpt lat="55.488091" lon="-133.131169">
				 <ele>13.8</ele>
			 </trkpt>
			 <trkpt lat="55.488007" lon="-133.131">
				 <ele>12.6</ele>
			 </trkpt>
			 <trkpt lat="55.487666" lon="-133.130352">
				 <ele>11.7</ele>
			 </trkpt>
			 <trkpt lat="55.487475" lon="-133.130011">
				 <ele>11.4</ele>
			 </trkpt>
			 <trkpt lat="55.487681" lon="-133.129645">
				 <ele>11.5</ele>
			 </trkpt>
			 <trkpt lat="55.487857" lon="-133.129313">
				 <ele>11.7</ele>
			 </trkpt>
			 <trkpt lat="55.487967" lon="-133.129152">
				 <ele>12</ele>
			 </trkpt>
			 <trkpt lat="55.488131" lon="-133.129012">
				 <ele>12.4</ele>
			 </trkpt>
			 <trkpt lat="55.488301" lon="-133.128937">
				 <ele>12.7</ele>
			 </trkpt>
			 <trkpt lat="55.488363" lon="-133.128942">
				 <ele>13</ele>
			 </trkpt>
		 </trkseg>
	 </trk>
</gpx>