<?xml version="1.0" encoding="UTF-8"?>
 <gpx creator="Garmin Connect" version="1.1"
	 xsi:schemaLocation="http://www.topografix.com/GPX/1/1 http://www.topografix.com/GPX/11.xsd"
	 xmlns:ns3="http://www.garmin.com/xmlschemas/TrackPointExtension/v1"
	 xmlns="http://www.topografix.com/GPX/1/1"
	 xmlns:xsi="http://www.w3.org/2001/XMLSchema-instance" xmlns:ns2="http://www.garmin.com/xmlschemas/GpxExtensions/v3">
	 <metadata>
		<name>Rota Marathon 2025 - 42.195 km</name>
		 <link href="https://www.goandrace.com">
		 <text>Garmin Connect</text>
		 </link>
	 <time>2026-08-09T18:02:28</time>
	 </metadata>
	 <trk>
		 <name>Rota Marathon 2025 - 42.195 km</name>
		 <trkseg>
			 <trkpt lat="14.140598" lon="145.140321">
				 <ele>5.5</ele>
			 </trkpt>
			 <trkpt lat="14.14064" lon="145.14032">
				 <ele>6.4</ele>
			 </trkpt>
			 <trkpt lat="14.14122" lon="145.14104">
				 <ele>7.1</ele>
			 </trkpt>
			 <trkpt lat="14.14233" lon="145.14207">
				 <ele>7.1</ele>
			 </trkpt>
			 <trkpt lat="14.1422" lon="145.14222">
				 <ele>7.1</ele>
			 </trkpt>
			 <trkpt lat="14.1422" lon="145.14222">
				 <ele>7.1</ele>
			 </trkpt>
			 <trkpt lat="14.14131" lon="145.14327">
				 <ele>7.4</ele>
			 </trkpt>
			 <trkpt lat="14.14131" lon="145.14327">
				 <ele>7.6</ele>
			 </trkpt>
			 <trkpt lat="14.13988" lon="145.14486">
				 <ele>7.8</ele>
			 </trkpt>
			 <trkpt lat="14.13969" lon="145.14571">
				 <ele>7.9</ele>
			 </trkpt>
			 <trkpt lat="14.13959" lon="145.14606">
				 <ele>8</ele>
			 </trkpt>
			 <trkpt lat="14.13933" lon="145.14729">
				 <ele>8.4</ele>
			 </trkpt>
			 <trkpt lat="14.13917" lon="145.14801">
				 <ele>8.3</ele>
			 </trkpt>
			 <trkpt lat="14.13908" lon="145.14848">
				 <ele>8.2</ele>
			 </trkpt>
			 <trkpt lat="14.13882" lon="145.14981">
				 <ele>8.6</ele>
			 </trkpt>
			 <trkpt lat="14.13879" lon="145.15007">
				 <ele>9.1</ele>
			 </trkpt>
			 <trkpt lat="14.13869" lon="145.15064">
				 <ele>9.5</ele>
			 </trkpt>
			 <trkpt lat="14.13851" lon="145.15109">
				 <ele>10.1</ele>
			 </trkpt>
			 <trkpt lat="14.13828" lon="145.15149">
				 <ele>10.8</ele>
			 </trkpt>
			 <trkpt lat="14.13727" lon="145.1532">
				 <ele>11.5</ele>
			 </trkpt>
			 <trkpt lat="14.13727" lon="145.1532">
				 <ele>12.2</ele>
			 </trkpt>
			 <trkpt lat="14.1364" lon="145.15455">
				 <ele>12.7</ele>
			 </trkpt>
			 <trkpt lat="14.13504" lon="145.15655">
				 <ele>12.8</ele>
			 </trkpt>
			 <trkpt lat="14.13362" lon="145.15863">
				 <ele>12.9</ele>
			 </trkpt>
			 <trkpt lat="14.13348" lon="145.15894">
				 <ele>13.1</ele>
			 </trkpt>
			 <trkpt lat="14.13343" lon="145.15925">
				 <ele>13.3</ele>
			 </trkpt>
			 <trkpt lat="14.13344" lon="145.15982">
				 <ele>13.5</ele>
			 </trkpt>
			 <trkpt lat="14.13332" lon="145.16019">
				 <ele>13.8</ele>
			 </trkpt>
			 <trkpt lat="14.13305" lon="145.16083">
				 <ele>14</ele>
			 </trkpt>
			 <trkpt lat="14.13268" lon="145.16169">
				 <ele>14.1</ele>
			 </trkpt>
			 <trkpt lat="14.13236" lon="145.16236">
				 <ele>14.2</ele>
			 </trkpt>
			 <trkpt lat="14.13218" lon="145.16268">
				 <ele>14.1</ele>
			 </trkpt>
			 <trkpt lat="14.13216" lon="145.16271">
				 <ele>14.1</ele>
			 </trkpt>
			 <trkpt lat="14.13216" lon="145.16271">
				 <ele>14.2</ele>
			 </trkpt>
			 <trkpt lat="14.13181" lon="145.16321">
				 <ele>14.2</ele>
			 </trkpt>
			 <trkpt lat="14.13148" lon="145.16383">
				 <ele>14.1</ele>
			 </trkpt>
			 <trkpt lat="14.13131" lon="145.16405">
				 <ele>13.9</ele>
			 </trkpt>
			 <trkpt lat="14.13108" lon="145.16429">
				 <ele>13.7</ele>
			 </trkpt>
			 <trkpt lat="14.13067" lon="145.16466">
				 <ele>13.6</ele>
			 </trkpt>
			 <trkpt lat="14.13011" lon="145.16512">
				 <ele>13.7</ele>
			 </trkpt>
			 <trkpt lat="14.12983" lon="145.16541">
				 <ele>14.2</ele>
			 </trkpt>
			 <trkpt lat="14.12974" lon="145.16553">
				 <ele>14.9</ele>
			 </trkpt>
			 <trkpt lat="14.12935" lon="145.16614">
				 <ele>15.7</ele>
			 </trkpt>
			 <trkpt lat="14.12924" lon="145.1664">
				 <ele>16.2</ele>
			 </trkpt>
			 <trkpt lat="14.12918" lon="145.16659">
				 <ele>16.6</ele>
			 </trkpt>
			 <trkpt lat="14.12904" lon="145.16705">
				 <ele>17.2</ele>
			 </trkpt>
			 <trkpt lat="14.12895" lon="145.16728">
				 <ele>18.3</ele>
			 </trkpt>
			 <trkpt lat="14.12888" lon="145.16738">
				 <ele>20.9</ele>
			 </trkpt>
			 <trkpt lat="14.12834" lon="145.16781">
				 <ele>23.7</ele>
			 </trkpt>
			 <trkpt lat="14.12774" lon="145.16828">
				 <ele>26.5</ele>
			 </trkpt>
			 <trkpt lat="14.12719" lon="145.1687">
				 <ele>29.2</ele>
			 </trkpt>
			 <trkpt lat="14.12648" lon="145.16928">
				 <ele>31.4</ele>
			 </trkpt>
			 <trkpt lat="14.12595" lon="145.16977">
				 <ele>33.4</ele>
			 </trkpt>
			 <trkpt lat="14.12582" lon="145.16985">
				 <ele>35.3</ele>
			 </trkpt>
			 <trkpt lat="14.12576" lon="145.16984">
				 <ele>37.5</ele>
			 </trkpt>
			 <trkpt lat="14.12569" lon="145.16979">
				 <ele>39.7</ele>
			 </trkpt>
			 <trkpt lat="14.12556" lon="145.1696">
				 <ele>41.9</ele>
			 </trkpt>
			 <trkpt lat="14.12546" lon="145.16942">
				 <ele>43.5</ele>
			 </trkpt>
			 <trkpt lat="14.12539" lon="145.16925">
				 <ele>43.6</ele>
			 </trkpt>
			 <trkpt lat="14.12531" lon="145.16896">
				 <ele>43.4</ele>
			 </trkpt>
			 <trkpt lat="14.12524" lon="145.16879">
				 <ele>42.6</ele>
			 </trkpt>
			 <trkpt lat="14.12512" lon="145.16856">
				 <ele>41.5</ele>
			 </trkpt>
			 <trkpt lat="14.12493" lon="145.16834">
				 <ele>40.2</ele>
			 </trkpt>
			 <trkpt lat="14.12473" lon="145.16815">
				 <ele>38.7</ele>
			 </trkpt>
			 <trkpt lat="14.12458" lon="145.16807">
				 <ele>37.3</ele>
			 </trkpt>
			 <trkpt lat="14.12428" lon="145.16795">
				 <ele>35.8</ele>
			 </trkpt>
			 <trkpt lat="14.12415" lon="145.16794">
				 <ele>34.6</ele>
			 </trkpt>
			 <trkpt lat="14.12388" lon="145.16796">
				 <ele>34.3</ele>
			 </trkpt>
			 <trkpt lat="14.12344" lon="145.16812">
				 <ele>34.1</ele>
			 </trkpt>
			 <trkpt lat="14.12327" lon="145.16821">
				 <ele>33.6</ele>
			 </trkpt>
			 <trkpt lat="14.12315" lon="145.16829">
				 <ele>33.1</ele>
			 </trkpt>
			 <trkpt lat="14.12289" lon="145.16855">
				 <ele>32.9</ele>
			 </trkpt>
			 <trkpt lat="14.12269" lon="145.16875">
				 <ele>33</ele>
			 </trkpt>
			 <trkpt lat="14.12242" lon="145.16892">
				 <ele>33.4</ele>
			 </trkpt>
			 <trkpt lat="14.12174" lon="145.16921">
				 <ele>33.8</ele>
			 </trkpt>
			 <trkpt lat="14.12155" lon="145.16936">
				 <ele>34.5</ele>
			 </trkpt>
			 <trkpt lat="14.1215" lon="145.16944">
				 <ele>35.1</ele>
			 </trkpt>
			 <trkpt lat="14.12133" lon="145.16976">
				 <ele>35.6</ele>
			 </trkpt>
			 <trkpt lat="14.12128" lon="145.16984">
				 <ele>35.7</ele>
			 </trkpt>
			 <trkpt lat="14.12128" lon="145.16984">
				 <ele>35.7</ele>
			 </trkpt>
			 <trkpt lat="14.12146" lon="145.16953">
				 <ele>36</ele>
			 </trkpt>
			 <trkpt lat="14.12152" lon="145.16939">
				 <ele>35.9</ele>
			 </trkpt>
			 <trkpt lat="14.12165" lon="145.16927">
				 <ele>35.2</ele>
			 </trkpt>
			 <trkpt lat="14.12195" lon="145.16913">
				 <ele>34.6</ele>
			 </trkpt>
			 <trkpt lat="14.1224" lon="145.16893">
				 <ele>34.1</ele>
			 </trkpt>
			 <trkpt lat="14.12257" lon="145.16884">
				 <ele>33.6</ele>
			 </trkpt>
			 <trkpt lat="14.12279" lon="145.16866">
				 <ele>33.3</ele>
			 </trkpt>
			 <trkpt lat="14.12301" lon="145.16841">
				 <ele>32.9</ele>
			 </trkpt>
			 <trkpt lat="14.12324" lon="145.16823">
				 <ele>32.5</ele>
			 </trkpt>
			 <trkpt lat="14.12329" lon="145.1682">
				 <ele>32.2</ele>
			 </trkpt>
			 <trkpt lat="14.12344" lon="145.16812">
				 <ele>32.2</ele>
			 </trkpt>
			 <trkpt lat="14.1237" lon="145.16803">
				 <ele>32.4</ele>
			 </trkpt>
			 <trkpt lat="14.12388" lon="145.16796">
				 <ele>33.1</ele>
			 </trkpt>
			 <trkpt lat="14.12402" lon="145.16794">
				 <ele>34.5</ele>
			 </trkpt>
			 <trkpt lat="14.12426" lon="145.16795">
				 <ele>35.7</ele>
			 </trkpt>
			 <trkpt lat="14.12443" lon="145.168">
				 <ele>37.1</ele>
			 </trkpt>
			 <trkpt lat="14.12466" lon="145.16811">
				 <ele>38.5</ele>
			 </trkpt>
			 <trkpt lat="14.12483" lon="145.16823">
				 <ele>39.7</ele>
			 </trkpt>
			 <trkpt lat="14.12503" lon="145.16845">
				 <ele>41.1</ele>
			 </trkpt>
			 <trkpt lat="14.12519" lon="145.16869">
				 <ele>42.4</ele>
			 </trkpt>
			 <trkpt lat="14.12529" lon="145.16889">
				 <ele>43</ele>
			 </trkpt>
			 <trkpt lat="14.12542" lon="145.16933">
				 <ele>41.7</ele>
			 </trkpt>
			 <trkpt lat="14.12557" lon="145.16961">
				 <ele>39.9</ele>
			 </trkpt>
			 <trkpt lat="14.12569" lon="145.16979">
				 <ele>37.7</ele>
			 </trkpt>
			 <trkpt lat="14.12576" lon="145.16984">
				 <ele>35.6</ele>
			 </trkpt>
			 <trkpt lat="14.1259" lon="145.16982">
				 <ele>33.9</ele>
			 </trkpt>
			 <trkpt lat="14.12637" lon="145.16936">
				 <ele>32.1</ele>
			 </trkpt>
			 <trkpt lat="14.12673" lon="145.16906">
				 <ele>30.2</ele>
			 </trkpt>
			 <trkpt lat="14.12759" lon="145.16839">
				 <ele>28.1</ele>
			 </trkpt>
			 <trkpt lat="14.12812" lon="145.16799">
				 <ele>25.8</ele>
			 </trkpt>
			 <trkpt lat="14.12874" lon="145.1675">
				 <ele>23.3</ele>
			 </trkpt>
			 <trkpt lat="14.12889" lon="145.16737">
				 <ele>20.5</ele>
			 </trkpt>
			 <trkpt lat="14.12895" lon="145.16728">
				 <ele>19.3</ele>
			 </trkpt>
			 <trkpt lat="14.12901" lon="145.16715">
				 <ele>18.4</ele>
			 </trkpt>
			 <trkpt lat="14.12907" lon="145.16697">
				 <ele>17.8</ele>
			 </trkpt>
			 <trkpt lat="14.12915" lon="145.1667">
				 <ele>17.3</ele>
			 </trkpt>
			 <trkpt lat="14.12929" lon="145.16625">
				 <ele>16.4</ele>
			 </trkpt>
			 <trkpt lat="14.12963" lon="145.16568">
				 <ele>15.5</ele>
			 </trkpt>
			 <trkpt lat="14.12974" lon="145.16554">
				 <ele>14.8</ele>
			 </trkpt>
			 <trkpt lat="14.12995" lon="145.16526">
				 <ele>14.3</ele>
			 </trkpt>
			 <trkpt lat="14.13036" lon="145.1649">
				 <ele>13.9</ele>
			 </trkpt>
			 <trkpt lat="14.13085" lon="145.1645">
				 <ele>13.8</ele>
			 </trkpt>
			 <trkpt lat="14.13121" lon="145.16416">
				 <ele>14</ele>
			 </trkpt>
			 <trkpt lat="14.13148" lon="145.16383">
				 <ele>14.1</ele>
			 </trkpt>
			 <trkpt lat="14.13181" lon="145.16321">
				 <ele>14.1</ele>
			 </trkpt>
			 <trkpt lat="14.13198" lon="145.16297">
				 <ele>14.2</ele>
			 </trkpt>
			 <trkpt lat="14.13209" lon="145.16282">
				 <ele>14.3</ele>
			 </trkpt>
			 <trkpt lat="14.13229" lon="145.16252">
				 <ele>14.4</ele>
			 </trkpt>
			 <trkpt lat="14.13268" lon="145.16169">
				 <ele>14.5</ele>
			 </trkpt>
			 <trkpt lat="14.13318" lon="145.16052">
				 <ele>14.5</ele>
			 </trkpt>
			 <trkpt lat="14.13339" lon="145.15999">
				 <ele>14.3</ele>
			 </trkpt>
			 <trkpt lat="14.13344" lon="145.15982">
				 <ele>14.2</ele>
			 </trkpt>
			 <trkpt lat="14.13343" lon="145.15946">
				 <ele>14.2</ele>
			 </trkpt>
			 <trkpt lat="14.13343" lon="145.15925">
				 <ele>14.2</ele>
			 </trkpt>
			 <trkpt lat="14.13346" lon="145.15905">
				 <ele>14.1</ele>
			 </trkpt>
			 <trkpt lat="14.13352" lon="145.15882">
				 <ele>14.1</ele>
			 </trkpt>
			 <trkpt lat="14.13362" lon="145.15863">
				 <ele>14</ele>
			 </trkpt>
			 <trkpt lat="14.13384" lon="145.15832">
				 <ele>13.7</ele>
			 </trkpt>
			 <trkpt lat="14.13413" lon="145.15787">
				 <ele>13.5</ele>
			 </trkpt>
			 <trkpt lat="14.1354" lon="145.15604">
				 <ele>13.1</ele>
			 </trkpt>
			 <trkpt lat="14.13657" lon="145.15428">
				 <ele>12.5</ele>
			 </trkpt>
			 <trkpt lat="14.13727" lon="145.1532">
				 <ele>11.8</ele>
			 </trkpt>
			 <trkpt lat="14.13828" lon="145.15149">
				 <ele>11.1</ele>
			 </trkpt>
			 <trkpt lat="14.13851" lon="145.15109">
				 <ele>10.3</ele>
			 </trkpt>
			 <trkpt lat="14.13869" lon="145.15064">
				 <ele>9.5</ele>
			 </trkpt>
			 <trkpt lat="14.13879" lon="145.15007">
				 <ele>9.1</ele>
			 </trkpt>
			 <trkpt lat="14.13882" lon="145.14981">
				 <ele>8.6</ele>
			 </trkpt>
			 <trkpt lat="14.13908" lon="145.14848">
				 <ele>8.2</ele>
			 </trkpt>
			 <trkpt lat="14.13933" lon="145.14729">
				 <ele>7.8</ele>
			 </trkpt>
			 <trkpt lat="14.13959" lon="145.14606">
				 <ele>7.9</ele>
			 </trkpt>
			 <trkpt lat="14.13969" lon="145.14571">
				 <ele>8</ele>
			 </trkpt>
			 <trkpt lat="14.13987" lon="145.14492">
				 <ele>8.3</ele>
			 </trkpt>
			 <trkpt lat="14.13987" lon="145.14492">
				 <ele>8.2</ele>
			 </trkpt>
			 <trkpt lat="14.13988" lon="145.14486">
				 <ele>8.1</ele>
			 </trkpt>
			 <trkpt lat="14.14056" lon="145.14411">
				 <ele>8</ele>
			 </trkpt>
			 <trkpt lat="14.14099" lon="145.14363">
				 <ele>8.4</ele>
			 </trkpt>
			 <trkpt lat="14.14162" lon="145.14291">
				 <ele>8.8</ele>
			 </trkpt>
			 <trkpt lat="14.14233" lon="145.14207">
				 <ele>9.2</ele>
			 </trkpt>
			 <trkpt lat="14.14291" lon="145.14261">
				 <ele>9.4</ele>
			 </trkpt>
			 <trkpt lat="14.14291" lon="145.14261">
				 <ele>9.5</ele>
			 </trkpt>
			 <trkpt lat="14.1443" lon="145.14392">
				 <ele>8.7</ele>
			 </trkpt>
			 <trkpt lat="14.14439" lon="145.14397">
				 <ele>8</ele>
			 </trkpt>
			 <trkpt lat="14.14452" lon="145.14398">
				 <ele>7.3</ele>
			 </trkpt>
			 <trkpt lat="14.14465" lon="145.14396">
				 <ele>7</ele>
			 </trkpt>
			 <trkpt lat="14.14497" lon="145.14388">
				 <ele>6.8</ele>
			 </trkpt>
			 <trkpt lat="14.14579" lon="145.14363">
				 <ele>6.8</ele>
			 </trkpt>
			 <trkpt lat="14.14595" lon="145.14363">
				 <ele>6.5</ele>
			 </trkpt>
			 <trkpt lat="14.14637" lon="145.14366">
				 <ele>6</ele>
			 </trkpt>
			 <trkpt lat="14.14726" lon="145.14389">
				 <ele>5.6</ele>
			 </trkpt>
			 <trkpt lat="14.14763" lon="145.14402">
				 <ele>5.5</ele>
			 </trkpt>
			 <trkpt lat="14.14864" lon="145.14437">
				 <ele>5.4</ele>
			 </trkpt>
			 <trkpt lat="14.1492" lon="145.14458">
				 <ele>5.6</ele>
			 </trkpt>
			 <trkpt lat="14.14969" lon="145.14478">
				 <ele>6</ele>
			 </trkpt>
			 <trkpt lat="14.15004" lon="145.14498">
				 <ele>6.6</ele>
			 </trkpt>
			 <trkpt lat="14.15058" lon="145.14534">
				 <ele>7.3</ele>
			 </trkpt>
			 <trkpt lat="14.15089" lon="145.14556">
				 <ele>7.7</ele>
			 </trkpt>
			 <trkpt lat="14.15089" lon="145.14556">
				 <ele>7.9</ele>
			 </trkpt>
			 <trkpt lat="14.15123" lon="145.14583">
				 <ele>8.1</ele>
			 </trkpt>
			 <trkpt lat="14.15144" lon="145.14602">
				 <ele>8.2</ele>
			 </trkpt>
			 <trkpt lat="14.15248" lon="145.14708">
				 <ele>8.4</ele>
			 </trkpt>
			 <trkpt lat="14.1527" lon="145.14732">
				 <ele>8.5</ele>
			 </trkpt>
			 <trkpt lat="14.15286" lon="145.14755">
				 <ele>8.5</ele>
			 </trkpt>
			 <trkpt lat="14.15308" lon="145.1479">
				 <ele>8.5</ele>
			 </trkpt>
			 <trkpt lat="14.15333" lon="145.14822">
				 <ele>8.6</ele>
			 </trkpt>
			 <trkpt lat="14.15352" lon="145.14841">
				 <ele>9.1</ele>
			 </trkpt>
			 <trkpt lat="14.15383" lon="145.1486">
				 <ele>9.7</ele>
			 </trkpt>
			 <trkpt lat="14.15419" lon="145.14882">
				 <ele>10.5</ele>
			 </trkpt>
			 <trkpt lat="14.15442" lon="145.14898">
				 <ele>11.4</ele>
			 </trkpt>
			 <trkpt lat="14.15457" lon="145.14911">
				 <ele>12.3</ele>
			 </trkpt>
			 <trkpt lat="14.15474" lon="145.14934">
				 <ele>13.3</ele>
			 </trkpt>
			 <trkpt lat="14.15494" lon="145.14971">
				 <ele>14</ele>
			 </trkpt>
			 <trkpt lat="14.15519" lon="145.15009">
				 <ele>14.7</ele>
			 </trkpt>
			 <trkpt lat="14.15548" lon="145.15042">
				 <ele>15.5</ele>
			 </trkpt>
			 <trkpt lat="14.15584" lon="145.15079">
				 <ele>16.4</ele>
			 </trkpt>
			 <trkpt lat="14.156" lon="145.15091">
				 <ele>17.1</ele>
			 </trkpt>
			 <trkpt lat="14.1563" lon="145.1511">
				 <ele>16.7</ele>
			 </trkpt>
			 <trkpt lat="14.15676" lon="145.15136">
				 <ele>16.2</ele>
			 </trkpt>
			 <trkpt lat="14.15702" lon="145.1515">
				 <ele>15.6</ele>
			 </trkpt>
			 <trkpt lat="14.15751" lon="145.15183">
				 <ele>14.5</ele>
			 </trkpt>
			 <trkpt lat="14.15786" lon="145.1521">
				 <ele>13.8</ele>
			 </trkpt>
			 <trkpt lat="14.15816" lon="145.15237">
				 <ele>13.1</ele>
			 </trkpt>
			 <trkpt lat="14.15834" lon="145.15255">
				 <ele>12.6</ele>
			 </trkpt>
			 <trkpt lat="14.15834" lon="145.15255">
				 <ele>12.4</ele>
			 </trkpt>
			 <trkpt lat="14.1595" lon="145.15381">
				 <ele>12.1</ele>
			 </trkpt>
			 <trkpt lat="14.16069" lon="145.15489">
				 <ele>11.7</ele>
			 </trkpt>
			 <trkpt lat="14.16129" lon="145.15544">
				 <ele>11.2</ele>
			 </trkpt>
			 <trkpt lat="14.16153" lon="145.15572">
				 <ele>11.2</ele>
			 </trkpt>
			 <trkpt lat="14.16172" lon="145.15599">
				 <ele>11.5</ele>
			 </trkpt>
			 <trkpt lat="14.16202" lon="145.15647">
				 <ele>11.8</ele>
			 </trkpt>
			 <trkpt lat="14.16238" lon="145.15692">
				 <ele>12.6</ele>
			 </trkpt>
			 <trkpt lat="14.16287" lon="145.15748">
				 <ele>13</ele>
			 </trkpt>
			 <trkpt lat="14.16303" lon="145.15773">
				 <ele>13.5</ele>
			 </trkpt>
			 <trkpt lat="14.16326" lon="145.15832">
				 <ele>13.8</ele>
			 </trkpt>
			 <trkpt lat="14.16336" lon="145.15858">
				 <ele>14.1</ele>
			 </trkpt>
			 <trkpt lat="14.16352" lon="145.15881">
				 <ele>14.3</ele>
			 </trkpt>
			 <trkpt lat="14.16374" lon="145.15903">
				 <ele>14</ele>
			 </trkpt>
			 <trkpt lat="14.16384" lon="145.1591">
				 <ele>13.9</ele>
			 </trkpt>
			 <trkpt lat="14.16409" lon="145.15922">
				 <ele>13.8</ele>
			 </trkpt>
			 <trkpt lat="14.16449" lon="145.1593">
				 <ele>13.5</ele>
			 </trkpt>
			 <trkpt lat="14.1653" lon="145.15925">
				 <ele>13</ele>
			 </trkpt>
			 <trkpt lat="14.16587" lon="145.15922">
				 <ele>12.5</ele>
			 </trkpt>
			 <trkpt lat="14.16631" lon="145.15924">
				 <ele>11.7</ele>
			 </trkpt>
			 <trkpt lat="14.16657" lon="145.15927">
				 <ele>10.8</ele>
			 </trkpt>
			 <trkpt lat="14.16678" lon="145.15933">
				 <ele>9.9</ele>
			 </trkpt>
			 <trkpt lat="14.16696" lon="145.15942">
				 <ele>9</ele>
			 </trkpt>
			 <trkpt lat="14.16713" lon="145.15955">
				 <ele>8.2</ele>
			 </trkpt>
			 <trkpt lat="14.16746" lon="145.15985">
				 <ele>7.9</ele>
			 </trkpt>
			 <trkpt lat="14.1676" lon="145.16008">
				 <ele>7.5</ele>
			 </trkpt>
			 <trkpt lat="14.16771" lon="145.16037">
				 <ele>7.1</ele>
			 </trkpt>
			 <trkpt lat="14.16782" lon="145.16088">
				 <ele>6.7</ele>
			 </trkpt>
			 <trkpt lat="14.16789" lon="145.16119">
				 <ele>6.4</ele>
			 </trkpt>
			 <trkpt lat="14.16806" lon="145.16205">
				 <ele>6.1</ele>
			 </trkpt>
			 <trkpt lat="14.16813" lon="145.16277">
				 <ele>6</ele>
			 </trkpt>
			 <trkpt lat="14.16811" lon="145.16439">
				 <ele>6.1</ele>
			 </trkpt>
			 <trkpt lat="14.16808" lon="145.16486">
				 <ele>6.2</ele>
			 </trkpt>
			 <trkpt lat="14.16799" lon="145.16549">
				 <ele>6.4</ele>
			 </trkpt>
			 <trkpt lat="14.16752" lon="145.1677">
				 <ele>6.5</ele>
			 </trkpt>
			 <trkpt lat="14.16748" lon="145.16794">
				 <ele>6.6</ele>
			 </trkpt>
			 <trkpt lat="14.16745" lon="145.16824">
				 <ele>6.8</ele>
			 </trkpt>
			 <trkpt lat="14.16748" lon="145.16879">
				 <ele>6.9</ele>
			 </trkpt>
			 <trkpt lat="14.16751" lon="145.16951">
				 <ele>6.9</ele>
			 </trkpt>
			 <trkpt lat="14.16747" lon="145.17021">
				 <ele>6.9</ele>
			 </trkpt>
			 <trkpt lat="14.167" lon="145.17233">
				 <ele>6.9</ele>
			 </trkpt>
			 <trkpt lat="14.16677" lon="145.1734">
				 <ele>7</ele>
			 </trkpt>
			 <trkpt lat="14.16674" lon="145.17383">
				 <ele>6.9</ele>
			 </trkpt>
			 <trkpt lat="14.16681" lon="145.17437">
				 <ele>6.5</ele>
			 </trkpt>
			 <trkpt lat="14.16699" lon="145.17494">
				 <ele>6.2</ele>
			 </trkpt>
			 <trkpt lat="14.16733" lon="145.17563">
				 <ele>5.8</ele>
			 </trkpt>
			 <trkpt lat="14.16748" lon="145.17596">
				 <ele>5.4</ele>
			 </trkpt>
			 <trkpt lat="14.16761" lon="145.17634">
				 <ele>4.8</ele>
			 </trkpt>
			 <trkpt lat="14.16793" lon="145.1774">
				 <ele>4.5</ele>
			 </trkpt>
			 <trkpt lat="14.16834" lon="145.17876">
				 <ele>4.3</ele>
			 </trkpt>
			 <trkpt lat="14.16857" lon="145.17969">
				 <ele>4</ele>
			 </trkpt>
			 <trkpt lat="14.1688" lon="145.18071">
				 <ele>3.7</ele>
			 </trkpt>
			 <trkpt lat="14.16895" lon="145.18128">
				 <ele>3.5</ele>
			 </trkpt>
			 <trkpt lat="14.16926" lon="145.18209">
				 <ele>3.3</ele>
			 </trkpt>
			 <trkpt lat="14.16969" lon="145.1831">
				 <ele>3.5</ele>
			 </trkpt>
			 <trkpt lat="14.17" lon="145.18387">
				 <ele>3.4</ele>
			 </trkpt>
			 <trkpt lat="14.17017" lon="145.18451">
				 <ele>3.2</ele>
			 </trkpt>
			 <trkpt lat="14.17051" lon="145.18562">
				 <ele>3.1</ele>
			 </trkpt>
			 <trkpt lat="14.17073" lon="145.1862">
				 <ele>3.1</ele>
			 </trkpt>
			 <trkpt lat="14.17123" lon="145.18746">
				 <ele>3</ele>
			 </trkpt>
			 <trkpt lat="14.17155" lon="145.18828">
				 <ele>2.9</ele>
			 </trkpt>
			 <trkpt lat="14.1721" lon="145.1893">
				 <ele>2.8</ele>
			 </trkpt>
			 <trkpt lat="14.17253" lon="145.19003">
				 <ele>2.7</ele>
			 </trkpt>
			 <trkpt lat="14.1728" lon="145.19046">
				 <ele>2.5</ele>
			 </trkpt>
			 <trkpt lat="14.17296" lon="145.19077">
				 <ele>2.4</ele>
			 </trkpt>
			 <trkpt lat="14.17317" lon="145.19136">
				 <ele>2.1</ele>
			 </trkpt>
			 <trkpt lat="14.17334" lon="145.19219">
				 <ele>2.1</ele>
			 </trkpt>
			 <trkpt lat="14.17336" lon="145.19253">
				 <ele>2.2</ele>
			 </trkpt>
			 <trkpt lat="14.17333" lon="145.19305">
				 <ele>2.2</ele>
			 </trkpt>
			 <trkpt lat="14.17328" lon="145.19363">
				 <ele>2.2</ele>
			 </trkpt>
			 <trkpt lat="14.1733" lon="145.19403">
				 <ele>2.4</ele>
			 </trkpt>
			 <trkpt lat="14.17342" lon="145.19489">
				 <ele>2.5</ele>
			 </trkpt>
			 <trkpt lat="14.17358" lon="145.19575">
				 <ele>2.7</ele>
			 </trkpt>
			 <trkpt lat="14.17372" lon="145.19643">
				 <ele>3</ele>
			 </trkpt>
			 <trkpt lat="14.1739" lon="145.19697">
				 <ele>3.5</ele>
			 </trkpt>
			 <trkpt lat="14.1742" lon="145.19769">
				 <ele>4.5</ele>
			 </trkpt>
			 <trkpt lat="14.17477" lon="145.19906">
				 <ele>6.7</ele>
			 </trkpt>
			 <trkpt lat="14.17528" lon="145.20041">
				 <ele>9.1</ele>
			 </trkpt>
			 <trkpt lat="14.17543" lon="145.20099">
				 <ele>11.8</ele>
			 </trkpt>
			 <trkpt lat="14.17552" lon="145.2015">
				 <ele>14.9</ele>
			 </trkpt>
			 <trkpt lat="14.1756" lon="145.20263">
				 <ele>18.4</ele>
			 </trkpt>
			 <trkpt lat="14.17579" lon="145.2057">
				 <ele>22</ele>
			 </trkpt>
			 <trkpt lat="14.17586" lon="145.20602">
				 <ele>26</ele>
			 </trkpt>
			 <trkpt lat="14.17596" lon="145.20623">
				 <ele>30.3</ele>
			 </trkpt>
			 <trkpt lat="14.17612" lon="145.20646">
				 <ele>35</ele>
			 </trkpt>
			 <trkpt lat="14.17658" lon="145.20691">
				 <ele>39.7</ele>
			 </trkpt>
			 <trkpt lat="14.17677" lon="145.20715">
				 <ele>44</ele>
			 </trkpt>
			 <trkpt lat="14.17694" lon="145.20749">
				 <ele>47.1</ele>
			 </trkpt>
			 <trkpt lat="14.17702" lon="145.20782">
				 <ele>50.2</ele>
			 </trkpt>
			 <trkpt lat="14.17719" lon="145.20862">
				 <ele>53.1</ele>
			 </trkpt>
			 <trkpt lat="14.17728" lon="145.20898">
				 <ele>55.9</ele>
			 </trkpt>
			 <trkpt lat="14.17729" lon="145.20917">
				 <ele>58.5</ele>
			 </trkpt>
			 <trkpt lat="14.1773" lon="145.20934">
				 <ele>60.6</ele>
			 </trkpt>
			 <trkpt lat="14.17728" lon="145.20958">
				 <ele>62.5</ele>
			 </trkpt>
			 <trkpt lat="14.17715" lon="145.20996">
				 <ele>64.3</ele>
			 </trkpt>
			 <trkpt lat="14.17702" lon="145.21021">
				 <ele>65.6</ele>
			 </trkpt>
			 <trkpt lat="14.17693" lon="145.21034">
				 <ele>66.9</ele>
			 </trkpt>
			 <trkpt lat="14.1768" lon="145.21047">
				 <ele>68.2</ele>
			 </trkpt>
			 <trkpt lat="14.17667" lon="145.21063">
				 <ele>69.5</ele>
			 </trkpt>
			 <trkpt lat="14.17653" lon="145.21076">
				 <ele>70.6</ele>
			 </trkpt>
			 <trkpt lat="14.17634" lon="145.21089">
				 <ele>71.7</ele>
			 </trkpt>
			 <trkpt lat="14.17612" lon="145.21098">
				 <ele>73</ele>
			 </trkpt>
			 <trkpt lat="14.17569" lon="145.21107">
				 <ele>74.3</ele>
			 </trkpt>
			 <trkpt lat="14.17545" lon="145.21106">
				 <ele>75.5</ele>
			 </trkpt>
			 <trkpt lat="14.17513" lon="145.21097">
				 <ele>77.1</ele>
			 </trkpt>
			 <trkpt lat="14.17499" lon="145.21086">
				 <ele>78.7</ele>
			 </trkpt>
			 <trkpt lat="14.17354" lon="145.20917">
				 <ele>80.5</ele>
			 </trkpt>
			 <trkpt lat="14.17341" lon="145.20901">
				 <ele>82.5</ele>
			 </trkpt>
			 <trkpt lat="14.17341" lon="145.20901">
				 <ele>84.5</ele>
			 </trkpt>
			 <trkpt lat="14.17295" lon="145.20847">
				 <ele>86.4</ele>
			 </trkpt>
			 <trkpt lat="14.17237" lon="145.20783">
				 <ele>88.4</ele>
			 </trkpt>
			 <trkpt lat="14.17168" lon="145.20716">
				 <ele>90.5</ele>
			 </trkpt>
			 <trkpt lat="14.17112" lon="145.20669">
				 <ele>92.4</ele>
			 </trkpt>
			 <trkpt lat="14.17097" lon="145.20659">
				 <ele>94.4</ele>
			 </trkpt>
			 <trkpt lat="14.17089" lon="145.20655">
				 <ele>96.5</ele>
			 </trkpt>
			 <trkpt lat="14.17065" lon="145.20652">
				 <ele>98.5</ele>
			 </trkpt>
			 <trkpt lat="14.17048" lon="145.20652">
				 <ele>100.4</ele>
			 </trkpt>
			 <trkpt lat="14.1703" lon="145.20658">
				 <ele>102.1</ele>
			 </trkpt>
			 <trkpt lat="14.17013" lon="145.20667">
				 <ele>105.3</ele>
			 </trkpt>
			 <trkpt lat="14.16999" lon="145.20677">
				 <ele>109.1</ele>
			 </trkpt>
			 <trkpt lat="14.16989" lon="145.20688">
				 <ele>113.2</ele>
			 </trkpt>
			 <trkpt lat="14.16973" lon="145.20716">
				 <ele>118.4</ele>
			 </trkpt>
			 <trkpt lat="14.16966" lon="145.20748">
				 <ele>123.7</ele>
			 </trkpt>
			 <trkpt lat="14.16953" lon="145.21057">
				 <ele>129.6</ele>
			 </trkpt>
			 <trkpt lat="14.16952" lon="145.21155">
				 <ele>135.7</ele>
			 </trkpt>
			 <trkpt lat="14.1695" lon="145.21259">
				 <ele>142</ele>
			 </trkpt>
			 <trkpt lat="14.16942" lon="145.21532">
				 <ele>148.4</ele>
			 </trkpt>
			 <trkpt lat="14.16935" lon="145.21688">
				 <ele>154.6</ele>
			 </trkpt>
			 <trkpt lat="14.16928" lon="145.21927">
				 <ele>161</ele>
			 </trkpt>
			 <trkpt lat="14.16925" lon="145.22044">
				 <ele>165.7</ele>
			 </trkpt>
			 <trkpt lat="14.16921" lon="145.22135">
				 <ele>169.8</ele>
			 </trkpt>
			 <trkpt lat="14.1692" lon="145.22183">
				 <ele>173.6</ele>
			 </trkpt>
			 <trkpt lat="14.16918" lon="145.22198">
				 <ele>176.2</ele>
			 </trkpt>
			 <trkpt lat="14.16914" lon="145.22322">
				 <ele>178.1</ele>
			 </trkpt>
			 <trkpt lat="14.1691" lon="145.22451">
				 <ele>179.3</ele>
			 </trkpt>
			 <trkpt lat="14.16904" lon="145.22639">
				 <ele>180.2</ele>
			 </trkpt>
			 <trkpt lat="14.16904" lon="145.22639">
				 <ele>180.7</ele>
			 </trkpt>
			 <trkpt lat="14.16898" lon="145.22801">
				 <ele>181.2</ele>
			 </trkpt>
			 <trkpt lat="14.16889" lon="145.23078">
				 <ele>181.6</ele>
			 </trkpt>
			 <trkpt lat="14.16889" lon="145.23081">
				 <ele>181.9</ele>
			 </trkpt>
			 <trkpt lat="14.16828" lon="145.23078">
				 <ele>182.1</ele>
			 </trkpt>
			 <trkpt lat="14.16828" lon="145.23078">
				 <ele>182.2</ele>
			 </trkpt>
			 <trkpt lat="14.16651" lon="145.2307">
				 <ele>182.2</ele>
			 </trkpt>
			 <trkpt lat="14.16467" lon="145.2306">
				 <ele>182.2</ele>
			 </trkpt>
			 <trkpt lat="14.16467" lon="145.2306">
				 <ele>182.5</ele>
			 </trkpt>
			 <trkpt lat="14.16293" lon="145.23054">
				 <ele>182.6</ele>
			 </trkpt>
			 <trkpt lat="14.16217" lon="145.23051">
				 <ele>182.6</ele>
			 </trkpt>
			 <trkpt lat="14.16061" lon="145.2305">
				 <ele>182.5</ele>
			 </trkpt>
			 <trkpt lat="14.15937" lon="145.23046">
				 <ele>182.2</ele>
			 </trkpt>
			 <trkpt lat="14.15747" lon="145.23038">
				 <ele>181.8</ele>
			 </trkpt>
			 <trkpt lat="14.15678" lon="145.23034">
				 <ele>181.6</ele>
			 </trkpt>
			 <trkpt lat="14.15636" lon="145.23026">
				 <ele>181.3</ele>
			 </trkpt>
			 <trkpt lat="14.15565" lon="145.2301">
				 <ele>180.8</ele>
			 </trkpt>
			 <trkpt lat="14.15455" lon="145.22985">
				 <ele>180.5</ele>
			 </trkpt>
			 <trkpt lat="14.15371" lon="145.22968">
				 <ele>179.9</ele>
			 </trkpt>
			 <trkpt lat="14.15311" lon="145.22955">
				 <ele>178.8</ele>
			 </trkpt>
			 <trkpt lat="14.15277" lon="145.22957">
				 <ele>177.6</ele>
			 </trkpt>
			 <trkpt lat="14.15256" lon="145.22964">
				 <ele>176.4</ele>
			 </trkpt>
			 <trkpt lat="14.15248" lon="145.22967">
				 <ele>174.9</ele>
			 </trkpt>
			 <trkpt lat="14.15216" lon="145.2298">
				 <ele>173.5</ele>
			 </trkpt>
			 <trkpt lat="14.15151" lon="145.23006">
				 <ele>172.1</ele>
			 </trkpt>
			 <trkpt lat="14.15122" lon="145.23011">
				 <ele>170.3</ele>
			 </trkpt>
			 <trkpt lat="14.15081" lon="145.23013">
				 <ele>168.5</ele>
			 </trkpt>
			 <trkpt lat="14.15022" lon="145.23013">
				 <ele>166.7</ele>
			 </trkpt>
			 <trkpt lat="14.14978" lon="145.23008">
				 <ele>165.1</ele>
			 </trkpt>
			 <trkpt lat="14.14938" lon="145.22997">
				 <ele>163.7</ele>
			 </trkpt>
			 <trkpt lat="14.1482" lon="145.22958">
				 <ele>163</ele>
			 </trkpt>
			 <trkpt lat="14.14792" lon="145.22948">
				 <ele>162.9</ele>
			 </trkpt>
			 <trkpt lat="14.14728" lon="145.22919">
				 <ele>163.2</ele>
			 </trkpt>
			 <trkpt lat="14.14681" lon="145.22894">
				 <ele>163.8</ele>
			 </trkpt>
			 <trkpt lat="14.14666" lon="145.22883">
				 <ele>164.7</ele>
			 </trkpt>
			 <trkpt lat="14.14652" lon="145.22868">
				 <ele>166</ele>
			 </trkpt>
			 <trkpt lat="14.14603" lon="145.2278">
				 <ele>167.5</ele>
			 </trkpt>
			 <trkpt lat="14.14581" lon="145.22735">
				 <ele>168.9</ele>
			 </trkpt>
			 <trkpt lat="14.14564" lon="145.22712">
				 <ele>171.2</ele>
			 </trkpt>
			 <trkpt lat="14.14539" lon="145.22683">
				 <ele>173.4</ele>
			 </trkpt>
			 <trkpt lat="14.14503" lon="145.2265">
				 <ele>175.5</ele>
			 </trkpt>
			 <trkpt lat="14.14497" lon="145.22645">
				 <ele>177.5</ele>
			 </trkpt>
			 <trkpt lat="14.14497" lon="145.22645">
				 <ele>179.2</ele>
			 </trkpt>
			 <trkpt lat="14.14382" lon="145.22536">
				 <ele>180.6</ele>
			 </trkpt>
			 <trkpt lat="14.14339" lon="145.22506">
				 <ele>182</ele>
			 </trkpt>
			 <trkpt lat="14.1432" lon="145.22497">
				 <ele>183.1</ele>
			 </trkpt>
			 <trkpt lat="14.14298" lon="145.22491">
				 <ele>183.8</ele>
			 </trkpt>
			 <trkpt lat="14.14266" lon="145.22484">
				 <ele>184.5</ele>
			 </trkpt>
			 <trkpt lat="14.14242" lon="145.22483">
				 <ele>185.1</ele>
			 </trkpt>
			 <trkpt lat="14.14208" lon="145.22486">
				 <ele>185.1</ele>
			 </trkpt>
			 <trkpt lat="14.14175" lon="145.22494">
				 <ele>185</ele>
			 </trkpt>
			 <trkpt lat="14.14132" lon="145.22504">
				 <ele>184.9</ele>
			 </trkpt>
			 <trkpt lat="14.14066" lon="145.22518">
				 <ele>185</ele>
			 </trkpt>
			 <trkpt lat="14.14046" lon="145.2252">
				 <ele>185.1</ele>
			 </trkpt>
			 <trkpt lat="14.14035" lon="145.22519">
				 <ele>185.3</ele>
			 </trkpt>
			 <trkpt lat="14.14025" lon="145.22518">
				 <ele>185.5</ele>
			 </trkpt>
			 <trkpt lat="14.14001" lon="145.22513">
				 <ele>185.9</ele>
			 </trkpt>
			 <trkpt lat="14.13977" lon="145.22503">
				 <ele>186.1</ele>
			 </trkpt>
			 <trkpt lat="14.13948" lon="145.22487">
				 <ele>186.4</ele>
			 </trkpt>
			 <trkpt lat="14.139" lon="145.22458">
				 <ele>186.5</ele>
			 </trkpt>
			 <trkpt lat="14.13829" lon="145.22417">
				 <ele>186.5</ele>
			 </trkpt>
			 <trkpt lat="14.13829" lon="145.22417">
				 <ele>186.5</ele>
			 </trkpt>
			 <trkpt lat="14.13931" lon="145.22477">
				 <ele>186.5</ele>
			 </trkpt>
			 <trkpt lat="14.13931" lon="145.22477">
				 <ele>186.3</ele>
			 </trkpt>
			 <trkpt lat="14.13977" lon="145.22503">
				 <ele>186</ele>
			 </trkpt>
			 <trkpt lat="14.14014" lon="145.22517">
				 <ele>185.6</ele>
			 </trkpt>
			 <trkpt lat="14.14044" lon="145.2252">
				 <ele>185.3</ele>
			 </trkpt>
			 <trkpt lat="14.14062" lon="145.22519">
				 <ele>185</ele>
			 </trkpt>
			 <trkpt lat="14.14085" lon="145.22513">
				 <ele>184.9</ele>
			 </trkpt>
			 <trkpt lat="14.14111" lon="145.22508">
				 <ele>184.7</ele>
			 </trkpt>
			 <trkpt lat="14.14111" lon="145.22508">
				 <ele>184.7</ele>
			 </trkpt>
			 <trkpt lat="14.14143" lon="145.22502">
				 <ele>184.8</ele>
			 </trkpt>
			 <trkpt lat="14.14202" lon="145.22487">
				 <ele>184.8</ele>
			 </trkpt>
			 <trkpt lat="14.14242" lon="145.22483">
				 <ele>184.8</ele>
			 </trkpt>
			 <trkpt lat="14.1428" lon="145.22487">
				 <ele>184.5</ele>
			 </trkpt>
			 <trkpt lat="14.1432" lon="145.22497">
				 <ele>184.1</ele>
			 </trkpt>
			 <trkpt lat="14.14339" lon="145.22506">
				 <ele>183.1</ele>
			 </trkpt>
			 <trkpt lat="14.14352" lon="145.22516">
				 <ele>181.8</ele>
			 </trkpt>
			 <trkpt lat="14.14382" lon="145.22536">
				 <ele>180.3</ele>
			 </trkpt>
			 <trkpt lat="14.14399" lon="145.22552">
				 <ele>178.4</ele>
			 </trkpt>
			 <trkpt lat="14.14434" lon="145.22586">
				 <ele>176.4</ele>
			 </trkpt>
			 <trkpt lat="14.14539" lon="145.22683">
				 <ele>174.2</ele>
			 </trkpt>
			 <trkpt lat="14.14574" lon="145.22724">
				 <ele>172</ele>
			 </trkpt>
			 <trkpt lat="14.14591" lon="145.22754">
				 <ele>169.7</ele>
			 </trkpt>
			 <trkpt lat="14.14636" lon="145.2284">
				 <ele>167.6</ele>
			 </trkpt>
			 <trkpt lat="14.14652" lon="145.22868">
				 <ele>165.9</ele>
			 </trkpt>
			 <trkpt lat="14.14666" lon="145.22883">
				 <ele>164.5</ele>
			 </trkpt>
			 <trkpt lat="14.14687" lon="145.22897">
				 <ele>163.5</ele>
			 </trkpt>
			 <trkpt lat="14.14757" lon="145.22932">
				 <ele>162.9</ele>
			 </trkpt>
			 <trkpt lat="14.14801" lon="145.22951">
				 <ele>162.6</ele>
			 </trkpt>
			 <trkpt lat="14.14864" lon="145.22973">
				 <ele>163</ele>
			 </trkpt>
			 <trkpt lat="14.14941" lon="145.22997">
				 <ele>163.7</ele>
			 </trkpt>
			 <trkpt lat="14.14978" lon="145.23008">
				 <ele>164.7</ele>
			 </trkpt>
			 <trkpt lat="14.15002" lon="145.23012">
				 <ele>166.3</ele>
			 </trkpt>
			 <trkpt lat="14.15063" lon="145.23012">
				 <ele>168.1</ele>
			 </trkpt>
			 <trkpt lat="14.15122" lon="145.23011">
				 <ele>169.7</ele>
			 </trkpt>
			 <trkpt lat="14.15151" lon="145.23006">
				 <ele>171.4</ele>
			 </trkpt>
			 <trkpt lat="14.15171" lon="145.23">
				 <ele>173</ele>
			 </trkpt>
			 <trkpt lat="14.15232" lon="145.22974">
				 <ele>174.5</ele>
			 </trkpt>
			 <trkpt lat="14.1525" lon="145.22966">
				 <ele>175.8</ele>
			 </trkpt>
			 <trkpt lat="14.15268" lon="145.22959">
				 <ele>177</ele>
			 </trkpt>
			 <trkpt lat="14.15294" lon="145.22955">
				 <ele>178</ele>
			 </trkpt>
			 <trkpt lat="14.15311" lon="145.22955">
				 <ele>178.9</ele>
			 </trkpt>
			 <trkpt lat="14.15344" lon="145.22962">
				 <ele>179.7</ele>
			 </trkpt>
			 <trkpt lat="14.1542" lon="145.22979">
				 <ele>180.2</ele>
			 </trkpt>
			 <trkpt lat="14.15529" lon="145.23001">
				 <ele>180.5</ele>
			 </trkpt>
			 <trkpt lat="14.15582" lon="145.23014">
				 <ele>180.9</ele>
			 </trkpt>
			 <trkpt lat="14.15645" lon="145.23028">
				 <ele>181.3</ele>
			 </trkpt>
			 <trkpt lat="14.15688" lon="145.23035">
				 <ele>181.5</ele>
			 </trkpt>
			 <trkpt lat="14.15958" lon="145.23047">
				 <ele>181.8</ele>
			 </trkpt>
			 <trkpt lat="14.16079" lon="145.2305">
				 <ele>182.2</ele>
			 </trkpt>
			 <trkpt lat="14.16079" lon="145.2305">
				 <ele>182.4</ele>
			 </trkpt>
			 <trkpt lat="14.16217" lon="145.23051">
				 <ele>182.4</ele>
			 </trkpt>
			 <trkpt lat="14.16293" lon="145.23054">
				 <ele>182.5</ele>
			 </trkpt>
			 <trkpt lat="14.16474" lon="145.2306">
				 <ele>182.5</ele>
			 </trkpt>
			 <trkpt lat="14.16651" lon="145.2307">
				 <ele>182.4</ele>
			 </trkpt>
			 <trkpt lat="14.16805" lon="145.23077">
				 <ele>182.1</ele>
			 </trkpt>
			 <trkpt lat="14.16889" lon="145.23081">
				 <ele>181.6</ele>
			 </trkpt>
			 <trkpt lat="14.16892" lon="145.22967">
				 <ele>181</ele>
			 </trkpt>
			 <trkpt lat="14.16892" lon="145.22967">
				 <ele>180.2</ele>
			 </trkpt>
			 <trkpt lat="14.1691" lon="145.22451">
				 <ele>179.1</ele>
			 </trkpt>
			 <trkpt lat="14.16914" lon="145.22322">
				 <ele>177.7</ele>
			 </trkpt>
			 <trkpt lat="14.16918" lon="145.22198">
				 <ele>175.7</ele>
			 </trkpt>
			 <trkpt lat="14.1692" lon="145.22183">
				 <ele>173.5</ele>
			 </trkpt>
			 <trkpt lat="14.16921" lon="145.22135">
				 <ele>169.7</ele>
			 </trkpt>
			 <trkpt lat="14.16925" lon="145.22044">
				 <ele>165.7</ele>
			 </trkpt>
			 <trkpt lat="14.16928" lon="145.21927">
				 <ele>161</ele>
			 </trkpt>
			 <trkpt lat="14.16935" lon="145.21688">
				 <ele>154.7</ele>
			 </trkpt>
			 <trkpt lat="14.16942" lon="145.21532">
				 <ele>148.6</ele>
			 </trkpt>
			 <trkpt lat="14.1695" lon="145.21259">
				 <ele>142.5</ele>
			 </trkpt>
			 <trkpt lat="14.16952" lon="145.21155">
				 <ele>136.4</ele>
			 </trkpt>
			 <trkpt lat="14.16953" lon="145.21057">
				 <ele>130.5</ele>
			 </trkpt>
			 <trkpt lat="14.16965" lon="145.20767">
				 <ele>124.5</ele>
			 </trkpt>
			 <trkpt lat="14.16965" lon="145.20767">
				 <ele>119.2</ele>
			 </trkpt>
			 <trkpt lat="14.16968" lon="145.2073">
				 <ele>113.8</ele>
			 </trkpt>
			 <trkpt lat="14.16978" lon="145.20703">
				 <ele>109.6</ele>
			 </trkpt>
			 <trkpt lat="14.16999" lon="145.20677">
				 <ele>105.5</ele>
			 </trkpt>
			 <trkpt lat="14.17027" lon="145.20659">
				 <ele>102</ele>
			 </trkpt>
			 <trkpt lat="14.17048" lon="145.20652">
				 <ele>100</ele>
			 </trkpt>
			 <trkpt lat="14.17089" lon="145.20655">
				 <ele>97.9</ele>
			 </trkpt>
			 <trkpt lat="14.17104" lon="145.20663">
				 <ele>95.5</ele>
			 </trkpt>
			 <trkpt lat="14.17132" lon="145.20685">
				 <ele>92.7</ele>
			 </trkpt>
			 <trkpt lat="14.17171" lon="145.20718">
				 <ele>90</ele>
			 </trkpt>
			 <trkpt lat="14.17221" lon="145.20766">
				 <ele>87.6</ele>
			 </trkpt>
			 <trkpt lat="14.17264" lon="145.20811">
				 <ele>85.4</ele>
			 </trkpt>
			 <trkpt lat="14.17333" lon="145.20892">
				 <ele>83.4</ele>
			 </trkpt>
			 <trkpt lat="14.17499" lon="145.21086">
				 <ele>81.3</ele>
			 </trkpt>
			 <trkpt lat="14.17513" lon="145.21097">
				 <ele>79.1</ele>
			 </trkpt>
			 <trkpt lat="14.17532" lon="145.21104">
				 <ele>77</ele>
			 </trkpt>
			 <trkpt lat="14.17549" lon="145.21107">
				 <ele>75</ele>
			 </trkpt>
			 <trkpt lat="14.17591" lon="145.21104">
				 <ele>72.8</ele>
			 </trkpt>
			 <trkpt lat="14.17634" lon="145.21089">
				 <ele>71</ele>
			 </trkpt>
			 <trkpt lat="14.17667" lon="145.21063">
				 <ele>69.6</ele>
			 </trkpt>
			 <trkpt lat="14.17687" lon="145.2104">
				 <ele>68.2</ele>
			 </trkpt>
			 <trkpt lat="14.17702" lon="145.21021">
				 <ele>66.6</ele>
			 </trkpt>
			 <trkpt lat="14.17721" lon="145.2098">
				 <ele>64.8</ele>
			 </trkpt>
			 <trkpt lat="14.17728" lon="145.20958">
				 <ele>62.6</ele>
			 </trkpt>
			 <trkpt lat="14.17729" lon="145.20943">
				 <ele>60.5</ele>
			 </trkpt>
			 <trkpt lat="14.1773" lon="145.20926">
				 <ele>58.4</ele>
			 </trkpt>
			 <trkpt lat="14.17729" lon="145.20908">
				 <ele>56.1</ele>
			 </trkpt>
			 <trkpt lat="14.17713" lon="145.20833">
				 <ele>53.5</ele>
			 </trkpt>
			 <trkpt lat="14.17697" lon="145.20765">
				 <ele>50.7</ele>
			 </trkpt>
			 <trkpt lat="14.17694" lon="145.20749">
				 <ele>47.7</ele>
			 </trkpt>
			 <trkpt lat="14.17686" lon="145.20732">
				 <ele>44.8</ele>
			 </trkpt>
			 <trkpt lat="14.1767" lon="145.20706">
				 <ele>42</ele>
			 </trkpt>
			 <trkpt lat="14.17636" lon="145.20672">
				 <ele>39.2</ele>
			 </trkpt>
			 <trkpt lat="14.17601" lon="145.20631">
				 <ele>36.6</ele>
			 </trkpt>
			 <trkpt lat="14.17589" lon="145.20609">
				 <ele>34.2</ele>
			 </trkpt>
			 <trkpt lat="14.17589" lon="145.20609">
				 <ele>31.1</ele>
			 </trkpt>
			 <trkpt lat="14.17584" lon="145.20595">
				 <ele>27.6</ele>
			 </trkpt>
			 <trkpt lat="14.17581" lon="145.2058">
				 <ele>24.3</ele>
			 </trkpt>
			 <trkpt lat="14.17578" lon="145.20556">
				 <ele>21.4</ele>
			 </trkpt>
			 <trkpt lat="14.17574" lon="145.20476">
				 <ele>18.7</ele>
			 </trkpt>
			 <trkpt lat="14.17561" lon="145.20285">
				 <ele>16.4</ele>
			 </trkpt>
			 <trkpt lat="14.17555" lon="145.20181">
				 <ele>14</ele>
			 </trkpt>
			 <trkpt lat="14.17549" lon="145.20131">
				 <ele>11.7</ele>
			 </trkpt>
			 <trkpt lat="14.17545" lon="145.20108">
				 <ele>9.5</ele>
			 </trkpt>
			 <trkpt lat="14.17539" lon="145.20082">
				 <ele>7.5</ele>
			 </trkpt>
			 <trkpt lat="14.17528" lon="145.20041">
				 <ele>5.5</ele>
			 </trkpt>
			 <trkpt lat="14.17504" lon="145.19975">
				 <ele>4.5</ele>
			 </trkpt>
			 <trkpt lat="14.17497" lon="145.19957">
				 <ele>4.1</ele>
			 </trkpt>
			 <trkpt lat="14.17427" lon="145.19786">
				 <ele>3.7</ele>
			 </trkpt>
			 <trkpt lat="14.17419" lon="145.19767">
				 <ele>3.4</ele>
			 </trkpt>
			 <trkpt lat="14.17384" lon="145.1968">
				 <ele>3.1</ele>
			 </trkpt>
			 <trkpt lat="14.17368" lon="145.19628">
				 <ele>2.9</ele>
			 </trkpt>
			 <trkpt lat="14.17342" lon="145.19489">
				 <ele>2.7</ele>
			 </trkpt>
			 <trkpt lat="14.1733" lon="145.19403">
				 <ele>2.5</ele>
			 </trkpt>
			 <trkpt lat="14.17328" lon="145.19363">
				 <ele>2.4</ele>
			 </trkpt>
			 <trkpt lat="14.17336" lon="145.19253">
				 <ele>2.2</ele>
			 </trkpt>
			 <trkpt lat="14.17334" lon="145.19219">
				 <ele>2.2</ele>
			 </trkpt>
			 <trkpt lat="14.1733" lon="145.19191">
				 <ele>2.1</ele>
			 </trkpt>
			 <trkpt lat="14.17317" lon="145.19136">
				 <ele>2</ele>
			 </trkpt>
			 <trkpt lat="14.17307" lon="145.19103">
				 <ele>2.1</ele>
			 </trkpt>
			 <trkpt lat="14.1728" lon="145.19046">
				 <ele>2.2</ele>
			 </trkpt>
			 <trkpt lat="14.17253" lon="145.19003">
				 <ele>2.4</ele>
			 </trkpt>
			 <trkpt lat="14.17229" lon="145.1896">
				 <ele>2.6</ele>
			 </trkpt>
			 <trkpt lat="14.1721" lon="145.1893">
				 <ele>2.8</ele>
			 </trkpt>
			 <trkpt lat="14.17172" lon="145.18861">
				 <ele>3</ele>
			 </trkpt>
			 <trkpt lat="14.17155" lon="145.18828">
				 <ele>3.1</ele>
			 </trkpt>
			 <trkpt lat="14.17141" lon="145.18791">
				 <ele>3.2</ele>
			 </trkpt>
			 <trkpt lat="14.17097" lon="145.18683">
				 <ele>3.3</ele>
			 </trkpt>
			 <trkpt lat="14.17074" lon="145.18624">
				 <ele>3.4</ele>
			 </trkpt>
			 <trkpt lat="14.17035" lon="145.18513">
				 <ele>3.5</ele>
			 </trkpt>
			 <trkpt lat="14.17006" lon="145.18411">
				 <ele>3.4</ele>
			 </trkpt>
			 <trkpt lat="14.16984" lon="145.18347">
				 <ele>3.3</ele>
			 </trkpt>
			 <trkpt lat="14.16982" lon="145.18343">
				 <ele>3.3</ele>
			 </trkpt>
			 <trkpt lat="14.16983" lon="145.18343">
				 <ele>3.3</ele>
			 </trkpt>
			 <trkpt lat="14.16953" lon="145.18275">
				 <ele>3.3</ele>
			 </trkpt>
			 <trkpt lat="14.169" lon="145.18143">
				 <ele>3.5</ele>
			 </trkpt>
			 <trkpt lat="14.1689" lon="145.18111">
				 <ele>3.7</ele>
			 </trkpt>
			 <trkpt lat="14.16867" lon="145.18013">
				 <ele>4</ele>
			 </trkpt>
			 <trkpt lat="14.16846" lon="145.17922">
				 <ele>4.3</ele>
			 </trkpt>
			 <trkpt lat="14.16815" lon="145.17811">
				 <ele>4.5</ele>
			 </trkpt>
			 <trkpt lat="14.16748" lon="145.17596">
				 <ele>4.9</ele>
			 </trkpt>
			 <trkpt lat="14.16719" lon="145.17536">
				 <ele>5.5</ele>
			 </trkpt>
			 <trkpt lat="14.16699" lon="145.17494">
				 <ele>6.1</ele>
			 </trkpt>
			 <trkpt lat="14.16688" lon="145.17465">
				 <ele>6.5</ele>
			 </trkpt>
			 <trkpt lat="14.16676" lon="145.17411">
				 <ele>6.5</ele>
			 </trkpt>
			 <trkpt lat="14.16675" lon="145.17365">
				 <ele>6.8</ele>
			 </trkpt>
			 <trkpt lat="14.16677" lon="145.1734">
				 <ele>7</ele>
			 </trkpt>
			 <trkpt lat="14.16684" lon="145.17306">
				 <ele>7.2</ele>
			 </trkpt>
			 <trkpt lat="14.16699" lon="145.1724">
				 <ele>7.3</ele>
			 </trkpt>
			 <trkpt lat="14.16737" lon="145.17068">
				 <ele>7.4</ele>
			 </trkpt>
			 <trkpt lat="14.16747" lon="145.17021">
				 <ele>7.4</ele>
			 </trkpt>
			 <trkpt lat="14.1675" lon="145.16985">
				 <ele>7.3</ele>
			 </trkpt>
			 <trkpt lat="14.1675" lon="145.16915">
				 <ele>7.1</ele>
			 </trkpt>
			 <trkpt lat="14.16746" lon="145.16856">
				 <ele>6.8</ele>
			 </trkpt>
			 <trkpt lat="14.16745" lon="145.16824">
				 <ele>6.5</ele>
			 </trkpt>
			 <trkpt lat="14.16748" lon="145.16794">
				 <ele>6.6</ele>
			 </trkpt>
			 <trkpt lat="14.16762" lon="145.16723">
				 <ele>6.5</ele>
			 </trkpt>
			 <trkpt lat="14.16786" lon="145.16606">
				 <ele>6.3</ele>
			 </trkpt>
			 <trkpt lat="14.16805" lon="145.1651">
				 <ele>6.2</ele>
			 </trkpt>
			 <trkpt lat="14.16811" lon="145.16466">
				 <ele>6.1</ele>
			 </trkpt>
			 <trkpt lat="14.16813" lon="145.16285">
				 <ele>6</ele>
			 </trkpt>
			 <trkpt lat="14.16812" lon="145.16255">
				 <ele>6</ele>
			 </trkpt>
			 <trkpt lat="14.16806" lon="145.16205">
				 <ele>6.2</ele>
			 </trkpt>
			 <trkpt lat="14.16797" lon="145.16158">
				 <ele>6.5</ele>
			 </trkpt>
			 <trkpt lat="14.16786" lon="145.16104">
				 <ele>6.9</ele>
			 </trkpt>
			 <trkpt lat="14.16771" lon="145.16037">
				 <ele>7.4</ele>
			 </trkpt>
			 <trkpt lat="14.16753" lon="145.15995">
				 <ele>7.7</ele>
			 </trkpt>
			 <trkpt lat="14.1673" lon="145.15969">
				 <ele>8.3</ele>
			 </trkpt>
			 <trkpt lat="14.16696" lon="145.15942">
				 <ele>9.1</ele>
			 </trkpt>
			 <trkpt lat="14.16678" lon="145.15933">
				 <ele>10</ele>
			 </trkpt>
			 <trkpt lat="14.16657" lon="145.15927">
				 <ele>10.9</ele>
			 </trkpt>
			 <trkpt lat="14.16614" lon="145.15923">
				 <ele>11.8</ele>
			 </trkpt>
			 <trkpt lat="14.16564" lon="145.15923">
				 <ele>12.7</ele>
			 </trkpt>
			 <trkpt lat="14.16469" lon="145.15929">
				 <ele>13.4</ele>
			 </trkpt>
			 <trkpt lat="14.16449" lon="145.1593">
				 <ele>13.8</ele>
			 </trkpt>
			 <trkpt lat="14.1643" lon="145.15928">
				 <ele>13.9</ele>
			 </trkpt>
			 <trkpt lat="14.16409" lon="145.15922">
				 <ele>14</ele>
			 </trkpt>
			 <trkpt lat="14.16384" lon="145.1591">
				 <ele>14.1</ele>
			 </trkpt>
			 <trkpt lat="14.16361" lon="145.15892">
				 <ele>14.2</ele>
			 </trkpt>
			 <trkpt lat="14.16336" lon="145.15858">
				 <ele>13.8</ele>
			 </trkpt>
			 <trkpt lat="14.16313" lon="145.15798">
				 <ele>13.4</ele>
			 </trkpt>
			 <trkpt lat="14.16294" lon="145.15758">
				 <ele>12.9</ele>
			 </trkpt>
			 <trkpt lat="14.16272" lon="145.15729">
				 <ele>12.4</ele>
			 </trkpt>
			 <trkpt lat="14.16202" lon="145.15647">
				 <ele>11.5</ele>
			 </trkpt>
			 <trkpt lat="14.16153" lon="145.15572">
				 <ele>11</ele>
			 </trkpt>
			 <trkpt lat="14.16124" lon="145.15539">
				 <ele>10.6</ele>
			 </trkpt>
			 <trkpt lat="14.16124" lon="145.15539">
				 <ele>11.2</ele>
			 </trkpt>
			 <trkpt lat="14.16042" lon="145.15465">
				 <ele>11.7</ele>
			 </trkpt>
			 <trkpt lat="14.1595" lon="145.15381">
				 <ele>12.2</ele>
			 </trkpt>
			 <trkpt lat="14.15874" lon="145.15298">
				 <ele>12.5</ele>
			 </trkpt>
			 <trkpt lat="14.15816" lon="145.15237">
				 <ele>12.9</ele>
			 </trkpt>
			 <trkpt lat="14.15786" lon="145.1521">
				 <ele>13.6</ele>
			 </trkpt>
			 <trkpt lat="14.15751" lon="145.15183">
				 <ele>14.4</ele>
			 </trkpt>
			 <trkpt lat="14.15702" lon="145.1515">
				 <ele>15.1</ele>
			 </trkpt>
			 <trkpt lat="14.15676" lon="145.15136">
				 <ele>16.1</ele>
			 </trkpt>
			 <trkpt lat="14.1563" lon="145.1511">
				 <ele>16.7</ele>
			 </trkpt>
			 <trkpt lat="14.156" lon="145.15091">
				 <ele>17.1</ele>
			 </trkpt>
			 <trkpt lat="14.15584" lon="145.15079">
				 <ele>16.4</ele>
			 </trkpt>
			 <trkpt lat="14.15548" lon="145.15042">
				 <ele>15.5</ele>
			 </trkpt>
			 <trkpt lat="14.15519" lon="145.15009">
				 <ele>14.7</ele>
			 </trkpt>
			 <trkpt lat="14.15494" lon="145.14971">
				 <ele>14</ele>
			 </trkpt>
			 <trkpt lat="14.15474" lon="145.14934">
				 <ele>13.3</ele>
			 </trkpt>
			 <trkpt lat="14.15457" lon="145.14911">
				 <ele>12.3</ele>
			 </trkpt>
			 <trkpt lat="14.15442" lon="145.14898">
				 <ele>11.4</ele>
			 </trkpt>
			 <trkpt lat="14.15419" lon="145.14882">
				 <ele>10.5</ele>
			 </trkpt>
			 <trkpt lat="14.15383" lon="145.1486">
				 <ele>9.7</ele>
			 </trkpt>
			 <trkpt lat="14.15352" lon="145.14841">
				 <ele>9.1</ele>
			 </trkpt>
			 <trkpt lat="14.15333" lon="145.14822">
				 <ele>8.5</ele>
			 </trkpt>
			 <trkpt lat="14.15308" lon="145.1479">
				 <ele>8.6</ele>
			 </trkpt>
			 <trkpt lat="14.15286" lon="145.14755">
				 <ele>8.6</ele>
			 </trkpt>
			 <trkpt lat="14.1527" lon="145.14732">
				 <ele>8.6</ele>
			 </trkpt>
			 <trkpt lat="14.15248" lon="145.14708">
				 <ele>8.5</ele>
			 </trkpt>
			 <trkpt lat="14.15188" lon="145.14647">
				 <ele>8.4</ele>
			 </trkpt>
			 <trkpt lat="14.15144" lon="145.14602">
				 <ele>8.3</ele>
			 </trkpt>
			 <trkpt lat="14.15123" lon="145.14583">
				 <ele>8.1</ele>
			 </trkpt>
			 <trkpt lat="14.15099" lon="145.14562">
				 <ele>7.9</ele>
			 </trkpt>
			 <trkpt lat="14.15081" lon="145.14551">
				 <ele>7.5</ele>
			 </trkpt>
			 <trkpt lat="14.15029" lon="145.14516">
				 <ele>6.8</ele>
			 </trkpt>
			 <trkpt lat="14.14992" lon="145.14491">
				 <ele>6.4</ele>
			 </trkpt>
			 <trkpt lat="14.14945" lon="145.14466">
				 <ele>5.9</ele>
			 </trkpt>
			 <trkpt lat="14.1487" lon="145.14439">
				 <ele>5.7</ele>
			 </trkpt>
			 <trkpt lat="14.14737" lon="145.14394">
				 <ele>6</ele>
			 </trkpt>
			 <trkpt lat="14.14637" lon="145.14366">
				 <ele>6.4</ele>
			 </trkpt>
			 <trkpt lat="14.14586" lon="145.14362">
				 <ele>6.8</ele>
			 </trkpt>
			 <trkpt lat="14.14572" lon="145.14364">
				 <ele>6.7</ele>
			 </trkpt>
			 <trkpt lat="14.14556" lon="145.14371">
				 <ele>6.6</ele>
			 </trkpt>
			 <trkpt lat="14.14459" lon="145.14397">
				 <ele>6.6</ele>
			 </trkpt>
			 <trkpt lat="14.14446" lon="145.14398">
				 <ele>6.7</ele>
			 </trkpt>
			 <trkpt lat="14.14433" lon="145.14394">
				 <ele>6.8</ele>
			 </trkpt>
			 <trkpt lat="14.1434" lon="145.14306">
				 <ele>7.1</ele>
			 </trkpt>
			 <trkpt lat="14.14258" lon="145.1423">
				 <ele>7.3</ele>
			 </trkpt>
			 <trkpt lat="14.14258" lon="145.1423">
				 <ele>7.5</ele>
			 </trkpt>
			 <trkpt lat="14.14117" lon="145.14099">
				 <ele>7.1</ele>
			 </trkpt>
			 <trkpt lat="14.14061" lon="145.14029">
				 <ele>6.5</ele>
			 </trkpt>
		 </trkseg>
	 </trk>
</gpx>