<?xml version="1.0" encoding="UTF-8"?>
 <gpx creator="Garmin Connect" version="1.1"
	 xsi:schemaLocation="http://www.topografix.com/GPX/1/1 http://www.topografix.com/GPX/11.xsd"
	 xmlns:ns3="http://www.garmin.com/xmlschemas/TrackPointExtension/v1"
	 xmlns="http://www.topografix.com/GPX/1/1"
	 xmlns:xsi="http://www.w3.org/2001/XMLSchema-instance" xmlns:ns2="http://www.garmin.com/xmlschemas/GpxExtensions/v3">
	 <metadata>
		<name>Samoa International Marathon 2026 - 42.195 km</name>
		 <link href="https://www.goandrace.com">
		 <text>Garmin Connect</text>
		 </link>
	 <time>2026-08-09T21:59:12</time>
	 </metadata>
	 <trk>
		 <name>Samoa International Marathon 2026 - 42.195 km</name>
		 <trkseg>
			 <trkpt lat="-13.888401" lon="-172.065866">
				 <ele>3</ele>
			 </trkpt>
			 <trkpt lat="-13.88824" lon="-172.065914">
				 <ele>3.1</ele>
			 </trkpt>
			 <trkpt lat="-13.888075" lon="-172.065913">
				 <ele>3.3</ele>
			 </trkpt>
			 <trkpt lat="-13.887959" lon="-172.065888">
				 <ele>3.3</ele>
			 </trkpt>
			 <trkpt lat="-13.887312" lon="-172.065641">
				 <ele>3.3</ele>
			 </trkpt>
			 <trkpt lat="-13.886878" lon="-172.065419">
				 <ele>3.2</ele>
			 </trkpt>
			 <trkpt lat="-13.886634" lon="-172.065262">
				 <ele>3.1</ele>
			 </trkpt>
			 <trkpt lat="-13.88649" lon="-172.065189">
				 <ele>3.1</ele>
			 </trkpt>
			 <trkpt lat="-13.886373" lon="-172.065154">
				 <ele>3</ele>
			 </trkpt>
			 <trkpt lat="-13.886164" lon="-172.06518">
				 <ele>2.9</ele>
			 </trkpt>
			 <trkpt lat="-13.885766" lon="-172.065287">
				 <ele>2.9</ele>
			 </trkpt>
			 <trkpt lat="-13.885456" lon="-172.065371">
				 <ele>2.7</ele>
			 </trkpt>
			 <trkpt lat="-13.884845" lon="-172.065553">
				 <ele>2.5</ele>
			 </trkpt>
			 <trkpt lat="-13.884132" lon="-172.0659">
				 <ele>2.4</ele>
			 </trkpt>
			 <trkpt lat="-13.883078" lon="-172.066307">
				 <ele>2.2</ele>
			 </trkpt>
			 <trkpt lat="-13.881722" lon="-172.067023">
				 <ele>2</ele>
			 </trkpt>
			 <trkpt lat="-13.880399" lon="-172.067723">
				 <ele>1.9</ele>
			 </trkpt>
			 <trkpt lat="-13.879878" lon="-172.067944">
				 <ele>1.9</ele>
			 </trkpt>
			 <trkpt lat="-13.878797" lon="-172.068277">
				 <ele>1.7</ele>
			 </trkpt>
			 <trkpt lat="-13.877815" lon="-172.068649">
				 <ele>1.5</ele>
			 </trkpt>
			 <trkpt lat="-13.877372" lon="-172.0689">
				 <ele>1.5</ele>
			 </trkpt>
			 <trkpt lat="-13.876948" lon="-172.069126">
				 <ele>1.5</ele>
			 </trkpt>
			 <trkpt lat="-13.876128" lon="-172.069727">
				 <ele>1.6</ele>
			 </trkpt>
			 <trkpt lat="-13.875742" lon="-172.070123">
				 <ele>1.7</ele>
			 </trkpt>
			 <trkpt lat="-13.87494" lon="-172.07107">
				 <ele>1.8</ele>
			 </trkpt>
			 <trkpt lat="-13.874645" lon="-172.071324">
				 <ele>1.8</ele>
			 </trkpt>
			 <trkpt lat="-13.874403" lon="-172.071466">
				 <ele>1.9</ele>
			 </trkpt>
			 <trkpt lat="-13.873328" lon="-172.071784">
				 <ele>2</ele>
			 </trkpt>
			 <trkpt lat="-13.872809" lon="-172.07184">
				 <ele>2.2</ele>
			 </trkpt>
			 <trkpt lat="-13.872504" lon="-172.07183">
				 <ele>2.4</ele>
			 </trkpt>
			 <trkpt lat="-13.871909" lon="-172.071771">
				 <ele>2.6</ele>
			 </trkpt>
			 <trkpt lat="-13.87059" lon="-172.071521">
				 <ele>2.7</ele>
			 </trkpt>
			 <trkpt lat="-13.870171" lon="-172.071506">
				 <ele>2.7</ele>
			 </trkpt>
			 <trkpt lat="-13.869527" lon="-172.071581">
				 <ele>2.7</ele>
			 </trkpt>
			 <trkpt lat="-13.869387" lon="-172.07157">
				 <ele>2.7</ele>
			 </trkpt>
			 <trkpt lat="-13.869214" lon="-172.071526">
				 <ele>2.7</ele>
			 </trkpt>
			 <trkpt lat="-13.868845" lon="-172.071262">
				 <ele>2.9</ele>
			 </trkpt>
			 <trkpt lat="-13.868368" lon="-172.07088">
				 <ele>3.2</ele>
			 </trkpt>
			 <trkpt lat="-13.868146" lon="-172.070758">
				 <ele>3.5</ele>
			 </trkpt>
			 <trkpt lat="-13.867958" lon="-172.07072">
				 <ele>3.5</ele>
			 </trkpt>
			 <trkpt lat="-13.866345" lon="-172.070777">
				 <ele>3.5</ele>
			 </trkpt>
			 <trkpt lat="-13.86611" lon="-172.070771">
				 <ele>3.5</ele>
			 </trkpt>
			 <trkpt lat="-13.866042" lon="-172.070756">
				 <ele>3.5</ele>
			 </trkpt>
			 <trkpt lat="-13.865847" lon="-172.070714">
				 <ele>3.4</ele>
			 </trkpt>
			 <trkpt lat="-13.865688" lon="-172.070566">
				 <ele>3.4</ele>
			 </trkpt>
			 <trkpt lat="-13.865425" lon="-172.070258">
				 <ele>3.3</ele>
			 </trkpt>
			 <trkpt lat="-13.86511" lon="-172.069855">
				 <ele>3.2</ele>
			 </trkpt>
			 <trkpt lat="-13.864777" lon="-172.069569">
				 <ele>3</ele>
			 </trkpt>
			 <trkpt lat="-13.864157" lon="-172.069073">
				 <ele>2.8</ele>
			 </trkpt>
			 <trkpt lat="-13.863888" lon="-172.068772">
				 <ele>2.6</ele>
			 </trkpt>
			 <trkpt lat="-13.863541" lon="-172.068316">
				 <ele>2.5</ele>
			 </trkpt>
			 <trkpt lat="-13.86305" lon="-172.06749">
				 <ele>2.5</ele>
			 </trkpt>
			 <trkpt lat="-13.86288" lon="-172.06717">
				 <ele>2.5</ele>
			 </trkpt>
			 <trkpt lat="-13.862713" lon="-172.066667">
				 <ele>2.5</ele>
			 </trkpt>
			 <trkpt lat="-13.862382" lon="-172.065547">
				 <ele>2.7</ele>
			 </trkpt>
			 <trkpt lat="-13.862292" lon="-172.065359">
				 <ele>2.6</ele>
			 </trkpt>
			 <trkpt lat="-13.861879" lon="-172.064776">
				 <ele>2.6</ele>
			 </trkpt>
			 <trkpt lat="-13.861055" lon="-172.06369">
				 <ele>2.7</ele>
			 </trkpt>
			 <trkpt lat="-13.86057" lon="-172.063209">
				 <ele>2.8</ele>
			 </trkpt>
			 <trkpt lat="-13.859263" lon="-172.062131">
				 <ele>2.9</ele>
			 </trkpt>
			 <trkpt lat="-13.858674" lon="-172.061632">
				 <ele>3</ele>
			 </trkpt>
			 <trkpt lat="-13.858101" lon="-172.061257">
				 <ele>3.1</ele>
			 </trkpt>
			 <trkpt lat="-13.85769" lon="-172.061133">
				 <ele>3.3</ele>
			 </trkpt>
			 <trkpt lat="-13.857336" lon="-172.061166">
				 <ele>3.3</ele>
			 </trkpt>
			 <trkpt lat="-13.857096" lon="-172.061203">
				 <ele>3.2</ele>
			 </trkpt>
			 <trkpt lat="-13.856971" lon="-172.061198">
				 <ele>3</ele>
			 </trkpt>
			 <trkpt lat="-13.856846" lon="-172.061163">
				 <ele>3.1</ele>
			 </trkpt>
			 <trkpt lat="-13.856696" lon="-172.0611">
				 <ele>3.2</ele>
			 </trkpt>
			 <trkpt lat="-13.856537" lon="-172.061007">
				 <ele>3.3</ele>
			 </trkpt>
			 <trkpt lat="-13.855226" lon="-172.059835">
				 <ele>3.5</ele>
			 </trkpt>
			 <trkpt lat="-13.854524" lon="-172.059381">
				 <ele>3.5</ele>
			 </trkpt>
			 <trkpt lat="-13.853411" lon="-172.05869">
				 <ele>3.6</ele>
			 </trkpt>
			 <trkpt lat="-13.852681" lon="-172.058255">
				 <ele>3.7</ele>
			 </trkpt>
			 <trkpt lat="-13.852311" lon="-172.057961">
				 <ele>3.6</ele>
			 </trkpt>
			 <trkpt lat="-13.851819" lon="-172.057447">
				 <ele>3.6</ele>
			 </trkpt>
			 <trkpt lat="-13.850744" lon="-172.056758">
				 <ele>3.7</ele>
			 </trkpt>
			 <trkpt lat="-13.849981" lon="-172.055469">
				 <ele>3.8</ele>
			 </trkpt>
			 <trkpt lat="-13.849759" lon="-172.055184">
				 <ele>3.8</ele>
			 </trkpt>
			 <trkpt lat="-13.849475" lon="-172.054904">
				 <ele>3.6</ele>
			 </trkpt>
			 <trkpt lat="-13.849124" lon="-172.05458">
				 <ele>3.5</ele>
			 </trkpt>
			 <trkpt lat="-13.848897" lon="-172.054445">
				 <ele>3.3</ele>
			 </trkpt>
			 <trkpt lat="-13.848671" lon="-172.054287">
				 <ele>3.2</ele>
			 </trkpt>
			 <trkpt lat="-13.847434" lon="-172.052166">
				 <ele>3</ele>
			 </trkpt>
			 <trkpt lat="-13.846472" lon="-172.049856">
				 <ele>2.9</ele>
			 </trkpt>
			 <trkpt lat="-13.845472" lon="-172.047806">
				 <ele>2.7</ele>
			 </trkpt>
			 <trkpt lat="-13.845356" lon="-172.047585">
				 <ele>2.7</ele>
			 </trkpt>
			 <trkpt lat="-13.844162" lon="-172.045845">
				 <ele>2.6</ele>
			 </trkpt>
			 <trkpt lat="-13.843561" lon="-172.045017">
				 <ele>2.8</ele>
			 </trkpt>
			 <trkpt lat="-13.843049" lon="-172.044352">
				 <ele>2.7</ele>
			 </trkpt>
			 <trkpt lat="-13.842359" lon="-172.043642">
				 <ele>2.8</ele>
			 </trkpt>
			 <trkpt lat="-13.841392" lon="-172.042774">
				 <ele>2.9</ele>
			 </trkpt>
			 <trkpt lat="-13.840695" lon="-172.042205">
				 <ele>3</ele>
			 </trkpt>
			 <trkpt lat="-13.839916" lon="-172.041702">
				 <ele>2.9</ele>
			 </trkpt>
			 <trkpt lat="-13.839269" lon="-172.041404">
				 <ele>2.8</ele>
			 </trkpt>
			 <trkpt lat="-13.839048" lon="-172.041328">
				 <ele>2.9</ele>
			 </trkpt>
			 <trkpt lat="-13.838123" lon="-172.041383">
				 <ele>3.2</ele>
			 </trkpt>
			 <trkpt lat="-13.83771" lon="-172.041384">
				 <ele>3.2</ele>
			 </trkpt>
			 <trkpt lat="-13.837443" lon="-172.041358">
				 <ele>3.3</ele>
			 </trkpt>
			 <trkpt lat="-13.837111" lon="-172.041218">
				 <ele>3.1</ele>
			 </trkpt>
			 <trkpt lat="-13.833585" lon="-172.038881">
				 <ele>3.2</ele>
			 </trkpt>
			 <trkpt lat="-13.833284" lon="-172.038682">
				 <ele>3.1</ele>
			 </trkpt>
			 <trkpt lat="-13.832754" lon="-172.038236">
				 <ele>3</ele>
			 </trkpt>
			 <trkpt lat="-13.832201" lon="-172.037732">
				 <ele>2.9</ele>
			 </trkpt>
			 <trkpt lat="-13.832081" lon="-172.037541">
				 <ele>3</ele>
			 </trkpt>
			 <trkpt lat="-13.831884" lon="-172.037108">
				 <ele>3.1</ele>
			 </trkpt>
			 <trkpt lat="-13.831559" lon="-172.036519">
				 <ele>2.9</ele>
			 </trkpt>
			 <trkpt lat="-13.831169" lon="-172.035916">
				 <ele>2.8</ele>
			 </trkpt>
			 <trkpt lat="-13.83102" lon="-172.035705">
				 <ele>2.9</ele>
			 </trkpt>
			 <trkpt lat="-13.830612" lon="-172.035211">
				 <ele>3.4</ele>
			 </trkpt>
			 <trkpt lat="-13.830435" lon="-172.035018">
				 <ele>3.9</ele>
			 </trkpt>
			 <trkpt lat="-13.830408" lon="-172.034965">
				 <ele>4.4</ele>
			 </trkpt>
			 <trkpt lat="-13.830401" lon="-172.034921">
				 <ele>5</ele>
			 </trkpt>
			 <trkpt lat="-13.830418" lon="-172.034853">
				 <ele>7.9</ele>
			 </trkpt>
			 <trkpt lat="-13.831861" lon="-172.031633">
				 <ele>10.2</ele>
			 </trkpt>
			 <trkpt lat="-13.832023" lon="-172.031107">
				 <ele>12.5</ele>
			 </trkpt>
			 <trkpt lat="-13.832124" lon="-172.030638">
				 <ele>14.8</ele>
			 </trkpt>
			 <trkpt lat="-13.832233" lon="-172.029956">
				 <ele>16</ele>
			 </trkpt>
			 <trkpt lat="-13.833716" lon="-172.018055">
				 <ele>17.2</ele>
			 </trkpt>
			 <trkpt lat="-13.833927" lon="-172.016375">
				 <ele>17.8</ele>
			 </trkpt>
			 <trkpt lat="-13.833963" lon="-172.015823">
				 <ele>17.9</ele>
			 </trkpt>
			 <trkpt lat="-13.833949" lon="-172.01516">
				 <ele>18.3</ele>
			 </trkpt>
			 <trkpt lat="-13.833916" lon="-172.01126">
				 <ele>18.7</ele>
			 </trkpt>
			 <trkpt lat="-13.833728" lon="-171.999746">
				 <ele>19.2</ele>
			 </trkpt>
			 <trkpt lat="-13.833695" lon="-171.996192">
				 <ele>17.2</ele>
			 </trkpt>
			 <trkpt lat="-13.83367" lon="-171.995278">
				 <ele>15.8</ele>
			 </trkpt>
			 <trkpt lat="-13.833625" lon="-171.992136">
				 <ele>13.9</ele>
			 </trkpt>
			 <trkpt lat="-13.833598" lon="-171.991752">
				 <ele>11.9</ele>
			 </trkpt>
			 <trkpt lat="-13.833497" lon="-171.991137">
				 <ele>11</ele>
			 </trkpt>
			 <trkpt lat="-13.833282" lon="-171.990384">
				 <ele>10.1</ele>
			 </trkpt>
			 <trkpt lat="-13.832617" lon="-171.988472">
				 <ele>9.6</ele>
			 </trkpt>
			 <trkpt lat="-13.831782" lon="-171.986117">
				 <ele>10</ele>
			 </trkpt>
			 <trkpt lat="-13.831724" lon="-171.985946">
				 <ele>9.9</ele>
			 </trkpt>
			 <trkpt lat="-13.831628" lon="-171.985561">
				 <ele>9.9</ele>
			 </trkpt>
			 <trkpt lat="-13.831577" lon="-171.985284">
				 <ele>10</ele>
			 </trkpt>
			 <trkpt lat="-13.831551" lon="-171.98489">
				 <ele>9.9</ele>
			 </trkpt>
			 <trkpt lat="-13.831479" lon="-171.982099">
				 <ele>9.7</ele>
			 </trkpt>
			 <trkpt lat="-13.831432" lon="-171.981731">
				 <ele>10.1</ele>
			 </trkpt>
			 <trkpt lat="-13.831348" lon="-171.981421">
				 <ele>10.4</ele>
			 </trkpt>
			 <trkpt lat="-13.830908" lon="-171.980548">
				 <ele>10.7</ele>
			 </trkpt>
			 <trkpt lat="-13.830252" lon="-171.979254">
				 <ele>11</ele>
			 </trkpt>
			 <trkpt lat="-13.830189" lon="-171.979066">
				 <ele>11.3</ele>
			 </trkpt>
			 <trkpt lat="-13.830138" lon="-171.978872">
				 <ele>10.9</ele>
			 </trkpt>
			 <trkpt lat="-13.830101" lon="-171.978591">
				 <ele>10.4</ele>
			 </trkpt>
			 <trkpt lat="-13.830077" lon="-171.978339">
				 <ele>9.5</ele>
			 </trkpt>
			 <trkpt lat="-13.830062" lon="-171.978097">
				 <ele>8.6</ele>
			 </trkpt>
			 <trkpt lat="-13.830075" lon="-171.977869">
				 <ele>7.9</ele>
			 </trkpt>
			 <trkpt lat="-13.830119" lon="-171.977553">
				 <ele>7.3</ele>
			 </trkpt>
			 <trkpt lat="-13.830479" lon="-171.976057">
				 <ele>6.9</ele>
			 </trkpt>
			 <trkpt lat="-13.830799" lon="-171.974939">
				 <ele>6.6</ele>
			 </trkpt>
			 <trkpt lat="-13.830929" lon="-171.974382">
				 <ele>6.2</ele>
			 </trkpt>
			 <trkpt lat="-13.830952" lon="-171.97404">
				 <ele>5.7</ele>
			 </trkpt>
			 <trkpt lat="-13.830926" lon="-171.973749">
				 <ele>5.4</ele>
			 </trkpt>
			 <trkpt lat="-13.830725" lon="-171.97247">
				 <ele>5.2</ele>
			 </trkpt>
			 <trkpt lat="-13.83057" lon="-171.971218">
				 <ele>5.4</ele>
			 </trkpt>
			 <trkpt lat="-13.830518" lon="-171.970519">
				 <ele>5.5</ele>
			 </trkpt>
			 <trkpt lat="-13.830482" lon="-171.970056">
				 <ele>5.7</ele>
			 </trkpt>
			 <trkpt lat="-13.830356" lon="-171.969685">
				 <ele>5.9</ele>
			 </trkpt>
			 <trkpt lat="-13.829901" lon="-171.968853">
				 <ele>6.1</ele>
			 </trkpt>
			 <trkpt lat="-13.829041" lon="-171.967347">
				 <ele>6</ele>
			 </trkpt>
			 <trkpt lat="-13.828733" lon="-171.966492">
				 <ele>5.9</ele>
			 </trkpt>
			 <trkpt lat="-13.828403" lon="-171.965607">
				 <ele>5.9</ele>
			 </trkpt>
			 <trkpt lat="-13.828296" lon="-171.965388">
				 <ele>6.1</ele>
			 </trkpt>
			 <trkpt lat="-13.828116" lon="-171.965128">
				 <ele>6.2</ele>
			 </trkpt>
			 <trkpt lat="-13.827945" lon="-171.96494">
				 <ele>6</ele>
			 </trkpt>
			 <trkpt lat="-13.827708" lon="-171.964733">
				 <ele>5.7</ele>
			 </trkpt>
			 <trkpt lat="-13.827386" lon="-171.964558">
				 <ele>5.8</ele>
			 </trkpt>
			 <trkpt lat="-13.82706" lon="-171.964435">
				 <ele>5.8</ele>
			 </trkpt>
			 <trkpt lat="-13.826707" lon="-171.964287">
				 <ele>5.9</ele>
			 </trkpt>
			 <trkpt lat="-13.826318" lon="-171.964087">
				 <ele>6.1</ele>
			 </trkpt>
			 <trkpt lat="-13.825934" lon="-171.963852">
				 <ele>6.2</ele>
			 </trkpt>
			 <trkpt lat="-13.824902" lon="-171.962826">
				 <ele>6.2</ele>
			 </trkpt>
			 <trkpt lat="-13.82442" lon="-171.962375">
				 <ele>6.1</ele>
			 </trkpt>
			 <trkpt lat="-13.82291" lon="-171.961189">
				 <ele>5.9</ele>
			 </trkpt>
			 <trkpt lat="-13.82246" lon="-171.960751">
				 <ele>5.8</ele>
			 </trkpt>
			 <trkpt lat="-13.821734" lon="-171.959943">
				 <ele>6.1</ele>
			 </trkpt>
			 <trkpt lat="-13.821378" lon="-171.959452">
				 <ele>6.2</ele>
			 </trkpt>
			 <trkpt lat="-13.821077" lon="-171.958953">
				 <ele>6.2</ele>
			 </trkpt>
			 <trkpt lat="-13.820212" lon="-171.957583">
				 <ele>6.2</ele>
			 </trkpt>
			 <trkpt lat="-13.819509" lon="-171.956516">
				 <ele>6.2</ele>
			 </trkpt>
			 <trkpt lat="-13.817655" lon="-171.95423">
				 <ele>6.1</ele>
			 </trkpt>
			 <trkpt lat="-13.816752" lon="-171.953068">
				 <ele>5.8</ele>
			 </trkpt>
			 <trkpt lat="-13.816453" lon="-171.952608">
				 <ele>5.6</ele>
			 </trkpt>
			 <trkpt lat="-13.816205" lon="-171.95214">
				 <ele>5.6</ele>
			 </trkpt>
			 <trkpt lat="-13.815993" lon="-171.951249">
				 <ele>5.7</ele>
			 </trkpt>
			 <trkpt lat="-13.815854" lon="-171.950383">
				 <ele>5.6</ele>
			 </trkpt>
			 <trkpt lat="-13.815616" lon="-171.948574">
				 <ele>5.2</ele>
			 </trkpt>
			 <trkpt lat="-13.815264" lon="-171.946713">
				 <ele>4.9</ele>
			 </trkpt>
			 <trkpt lat="-13.815208" lon="-171.946388">
				 <ele>4.7</ele>
			 </trkpt>
			 <trkpt lat="-13.815085" lon="-171.946057">
				 <ele>4.6</ele>
			 </trkpt>
			 <trkpt lat="-13.814944" lon="-171.945727">
				 <ele>4.4</ele>
			 </trkpt>
			 <trkpt lat="-13.814368" lon="-171.944653">
				 <ele>4.2</ele>
			 </trkpt>
			 <trkpt lat="-13.813921" lon="-171.943924">
				 <ele>4.4</ele>
			 </trkpt>
			 <trkpt lat="-13.813326" lon="-171.943024">
				 <ele>4.6</ele>
			 </trkpt>
			 <trkpt lat="-13.813113" lon="-171.94272">
				 <ele>5</ele>
			 </trkpt>
			 <trkpt lat="-13.812923" lon="-171.942509">
				 <ele>5.3</ele>
			 </trkpt>
			 <trkpt lat="-13.8126" lon="-171.9422">
				 <ele>5.5</ele>
			 </trkpt>
			 <trkpt lat="-13.812038" lon="-171.94164">
				 <ele>6.1</ele>
			 </trkpt>
			 <trkpt lat="-13.811816" lon="-171.941362">
				 <ele>6.4</ele>
			 </trkpt>
			 <trkpt lat="-13.811637" lon="-171.941104">
				 <ele>6.2</ele>
			 </trkpt>
			 <trkpt lat="-13.811448" lon="-171.940757">
				 <ele>6.1</ele>
			 </trkpt>
			 <trkpt lat="-13.8111" lon="-171.939869">
				 <ele>6.2</ele>
			 </trkpt>
			 <trkpt lat="-13.810462" lon="-171.938385">
				 <ele>6.1</ele>
			 </trkpt>
			 <trkpt lat="-13.810404" lon="-171.938173">
				 <ele>5.8</ele>
			 </trkpt>
			 <trkpt lat="-13.810357" lon="-171.937819">
				 <ele>5.5</ele>
			 </trkpt>
			 <trkpt lat="-13.810341" lon="-171.93696">
				 <ele>5.2</ele>
			 </trkpt>
			 <trkpt lat="-13.810391" lon="-171.936063">
				 <ele>4.8</ele>
			 </trkpt>
			 <trkpt lat="-13.810365" lon="-171.935538">
				 <ele>4.5</ele>
			 </trkpt>
			 <trkpt lat="-13.810281" lon="-171.934875">
				 <ele>4.2</ele>
			 </trkpt>
			 <trkpt lat="-13.810202" lon="-171.934394">
				 <ele>4</ele>
			 </trkpt>
			 <trkpt lat="-13.810165" lon="-171.934234">
				 <ele>4.1</ele>
			 </trkpt>
			 <trkpt lat="-13.809811" lon="-171.933037">
				 <ele>4.2</ele>
			 </trkpt>
			 <trkpt lat="-13.809623" lon="-171.932478">
				 <ele>4.1</ele>
			 </trkpt>
			 <trkpt lat="-13.809338" lon="-171.93152">
				 <ele>4.1</ele>
			 </trkpt>
			 <trkpt lat="-13.809125" lon="-171.930994">
				 <ele>4.2</ele>
			 </trkpt>
			 <trkpt lat="-13.809011" lon="-171.930745">
				 <ele>4.2</ele>
			 </trkpt>
			 <trkpt lat="-13.808792" lon="-171.930372">
				 <ele>4.2</ele>
			 </trkpt>
			 <trkpt lat="-13.80859" lon="-171.930114">
				 <ele>4.2</ele>
			 </trkpt>
			 <trkpt lat="-13.80853" lon="-171.93005">
				 <ele>4.2</ele>
			 </trkpt>
			 <trkpt lat="-13.808407" lon="-171.929942">
				 <ele>4.2</ele>
			 </trkpt>
			 <trkpt lat="-13.80833" lon="-171.929889">
				 <ele>4.4</ele>
			 </trkpt>
			 <trkpt lat="-13.808199" lon="-171.929816">
				 <ele>4.5</ele>
			 </trkpt>
			 <trkpt lat="-13.808023" lon="-171.929742">
				 <ele>4.6</ele>
			 </trkpt>
			 <trkpt lat="-13.807712" lon="-171.929646">
				 <ele>4.8</ele>
			 </trkpt>
			 <trkpt lat="-13.807624" lon="-171.929609">
				 <ele>4.9</ele>
			 </trkpt>
			 <trkpt lat="-13.80736" lon="-171.929474">
				 <ele>5</ele>
			 </trkpt>
			 <trkpt lat="-13.807258" lon="-171.929401">
				 <ele>5.1</ele>
			 </trkpt>
			 <trkpt lat="-13.807186" lon="-171.929335">
				 <ele>5.2</ele>
			 </trkpt>
			 <trkpt lat="-13.807089" lon="-171.929224">
				 <ele>5.3</ele>
			 </trkpt>
			 <trkpt lat="-13.806971" lon="-171.929038">
				 <ele>5.4</ele>
			 </trkpt>
			 <trkpt lat="-13.806935" lon="-171.92897">
				 <ele>5.3</ele>
			 </trkpt>
			 <trkpt lat="-13.8069" lon="-171.928881">
				 <ele>5.2</ele>
			 </trkpt>
			 <trkpt lat="-13.806871" lon="-171.928767">
				 <ele>5.1</ele>
			 </trkpt>
			 <trkpt lat="-13.806851" lon="-171.928639">
				 <ele>4.9</ele>
			 </trkpt>
			 <trkpt lat="-13.806853" lon="-171.928479">
				 <ele>4.8</ele>
			 </trkpt>
			 <trkpt lat="-13.8069" lon="-171.927549">
				 <ele>4.9</ele>
			 </trkpt>
			 <trkpt lat="-13.806907" lon="-171.927296">
				 <ele>4.9</ele>
			 </trkpt>
			 <trkpt lat="-13.8069" lon="-171.927029">
				 <ele>4.9</ele>
			 </trkpt>
			 <trkpt lat="-13.806853" lon="-171.926535">
				 <ele>4.9</ele>
			 </trkpt>
			 <trkpt lat="-13.806782" lon="-171.92614">
				 <ele>5.2</ele>
			 </trkpt>
			 <trkpt lat="-13.806695" lon="-171.92576">
				 <ele>5.5</ele>
			 </trkpt>
			 <trkpt lat="-13.806552" lon="-171.925277">
				 <ele>5.8</ele>
			 </trkpt>
			 <trkpt lat="-13.806421" lon="-171.924937">
				 <ele>6</ele>
			 </trkpt>
			 <trkpt lat="-13.80577" lon="-171.923617">
				 <ele>6.3</ele>
			 </trkpt>
			 <trkpt lat="-13.8052" lon="-171.922431">
				 <ele>6.7</ele>
			 </trkpt>
			 <trkpt lat="-13.805133" lon="-171.922237">
				 <ele>7</ele>
			 </trkpt>
			 <trkpt lat="-13.805051" lon="-171.921911">
				 <ele>7.2</ele>
			 </trkpt>
			 <trkpt lat="-13.805027" lon="-171.92172">
				 <ele>7.4</ele>
			 </trkpt>
			 <trkpt lat="-13.804984" lon="-171.921255">
				 <ele>7.4</ele>
			 </trkpt>
			 <trkpt lat="-13.804981" lon="-171.92115">
				 <ele>7.4</ele>
			 </trkpt>
			 <trkpt lat="-13.80499" lon="-171.920897">
				 <ele>7.2</ele>
			 </trkpt>
			 <trkpt lat="-13.805001" lon="-171.920777">
				 <ele>7.1</ele>
			 </trkpt>
			 <trkpt lat="-13.80511" lon="-171.920074">
				 <ele>6.9</ele>
			 </trkpt>
			 <trkpt lat="-13.805209" lon="-171.919159">
				 <ele>6.8</ele>
			 </trkpt>
			 <trkpt lat="-13.805205" lon="-171.918557">
				 <ele>6.8</ele>
			 </trkpt>
			 <trkpt lat="-13.805159" lon="-171.91801">
				 <ele>6.9</ele>
			 </trkpt>
			 <trkpt lat="-13.805053" lon="-171.917311">
				 <ele>6.9</ele>
			 </trkpt>
			 <trkpt lat="-13.804967" lon="-171.916936">
				 <ele>6.9</ele>
			 </trkpt>
			 <trkpt lat="-13.804813" lon="-171.916353">
				 <ele>6.7</ele>
			 </trkpt>
			 <trkpt lat="-13.804625" lon="-171.915819">
				 <ele>6.7</ele>
			 </trkpt>
			 <trkpt lat="-13.804444" lon="-171.915372">
				 <ele>6.8</ele>
			 </trkpt>
			 <trkpt lat="-13.804212" lon="-171.914833">
				 <ele>6.8</ele>
			 </trkpt>
			 <trkpt lat="-13.803837" lon="-171.91404">
				 <ele>6.8</ele>
			 </trkpt>
			 <trkpt lat="-13.803457" lon="-171.913277">
				 <ele>6.9</ele>
			 </trkpt>
			 <trkpt lat="-13.803033" lon="-171.912448">
				 <ele>7</ele>
			 </trkpt>
			 <trkpt lat="-13.802819" lon="-171.912117">
				 <ele>6.8</ele>
			 </trkpt>
			 <trkpt lat="-13.802316" lon="-171.911468">
				 <ele>6.5</ele>
			 </trkpt>
			 <trkpt lat="-13.801818" lon="-171.910973">
				 <ele>6.3</ele>
			 </trkpt>
			 <trkpt lat="-13.801607" lon="-171.910776">
				 <ele>6.2</ele>
			 </trkpt>
			 <trkpt lat="-13.801369" lon="-171.910571">
				 <ele>6.4</ele>
			 </trkpt>
			 <trkpt lat="-13.800571" lon="-171.909904">
				 <ele>6.5</ele>
			 </trkpt>
			 <trkpt lat="-13.800238" lon="-171.909549">
				 <ele>6.4</ele>
			 </trkpt>
			 <trkpt lat="-13.800038" lon="-171.909252">
				 <ele>6.3</ele>
			 </trkpt>
			 <trkpt lat="-13.7999" lon="-171.908966">
				 <ele>6</ele>
			 </trkpt>
			 <trkpt lat="-13.799785" lon="-171.90868">
				 <ele>5.7</ele>
			 </trkpt>
			 <trkpt lat="-13.799702" lon="-171.908339">
				 <ele>5.5</ele>
			 </trkpt>
			 <trkpt lat="-13.799659" lon="-171.908019">
				 <ele>5.2</ele>
			 </trkpt>
			 <trkpt lat="-13.799655" lon="-171.907904">
				 <ele>4.9</ele>
			 </trkpt>
			 <trkpt lat="-13.799682" lon="-171.907327">
				 <ele>4.5</ele>
			 </trkpt>
			 <trkpt lat="-13.799785" lon="-171.9062">
				 <ele>4.2</ele>
			 </trkpt>
			 <trkpt lat="-13.799795" lon="-171.905957">
				 <ele>3.8</ele>
			 </trkpt>
			 <trkpt lat="-13.799776" lon="-171.905705">
				 <ele>3.5</ele>
			 </trkpt>
			 <trkpt lat="-13.799707" lon="-171.905424">
				 <ele>3.5</ele>
			 </trkpt>
			 <trkpt lat="-13.799563" lon="-171.905081">
				 <ele>3.5</ele>
			 </trkpt>
			 <trkpt lat="-13.799462" lon="-171.904895">
				 <ele>3.5</ele>
			 </trkpt>
			 <trkpt lat="-13.799385" lon="-171.90477">
				 <ele>3.6</ele>
			 </trkpt>
			 <trkpt lat="-13.799031" lon="-171.90425">
				 <ele>3.7</ele>
			 </trkpt>
			 <trkpt lat="-13.798648" lon="-171.903725">
				 <ele>3.9</ele>
			 </trkpt>
			 <trkpt lat="-13.798443" lon="-171.903416">
				 <ele>4.1</ele>
			 </trkpt>
			 <trkpt lat="-13.798367" lon="-171.90326">
				 <ele>4.4</ele>
			 </trkpt>
			 <trkpt lat="-13.798298" lon="-171.903052">
				 <ele>4.5</ele>
			 </trkpt>
			 <trkpt lat="-13.79827" lon="-171.902943">
				 <ele>4.7</ele>
			 </trkpt>
			 <trkpt lat="-13.79826" lon="-171.902846">
				 <ele>4.9</ele>
			 </trkpt>
			 <trkpt lat="-13.798261" lon="-171.902652">
				 <ele>5</ele>
			 </trkpt>
			 <trkpt lat="-13.798278" lon="-171.902515">
				 <ele>5</ele>
			 </trkpt>
			 <trkpt lat="-13.798298" lon="-171.902441">
				 <ele>4.9</ele>
			 </trkpt>
			 <trkpt lat="-13.798349" lon="-171.902309">
				 <ele>4.8</ele>
			 </trkpt>
			 <trkpt lat="-13.798463" lon="-171.902102">
				 <ele>4.6</ele>
			 </trkpt>
			 <trkpt lat="-13.798538" lon="-171.902001">
				 <ele>4.5</ele>
			 </trkpt>
			 <trkpt lat="-13.798647" lon="-171.901888">
				 <ele>4.4</ele>
			 </trkpt>
			 <trkpt lat="-13.798857" lon="-171.901752">
				 <ele>4.4</ele>
			 </trkpt>
			 <trkpt lat="-13.799622" lon="-171.901334">
				 <ele>4.4</ele>
			 </trkpt>
			 <trkpt lat="-13.800064" lon="-171.90112">
				 <ele>4.5</ele>
			 </trkpt>
			 <trkpt lat="-13.800262" lon="-171.901001">
				 <ele>4.5</ele>
			 </trkpt>
			 <trkpt lat="-13.800416" lon="-171.900888">
				 <ele>4.4</ele>
			 </trkpt>
			 <trkpt lat="-13.800617" lon="-171.900714">
				 <ele>4.3</ele>
			 </trkpt>
			 <trkpt lat="-13.80079" lon="-171.900524">
				 <ele>4.3</ele>
			 </trkpt>
			 <trkpt lat="-13.801211" lon="-171.899999">
				 <ele>4.3</ele>
			 </trkpt>
			 <trkpt lat="-13.801331" lon="-171.899814">
				 <ele>4.4</ele>
			 </trkpt>
			 <trkpt lat="-13.80146" lon="-171.899613">
				 <ele>4.5</ele>
			 </trkpt>
			 <trkpt lat="-13.801581" lon="-171.899373">
				 <ele>4.6</ele>
			 </trkpt>
			 <trkpt lat="-13.801653" lon="-171.899193">
				 <ele>4.5</ele>
			 </trkpt>
			 <trkpt lat="-13.801682" lon="-171.899056">
				 <ele>4.5</ele>
			 </trkpt>
			 <trkpt lat="-13.801707" lon="-171.898867">
				 <ele>4.5</ele>
			 </trkpt>
			 <trkpt lat="-13.80172" lon="-171.898627">
				 <ele>4.5</ele>
			 </trkpt>
			 <trkpt lat="-13.801707" lon="-171.898066">
				 <ele>4.7</ele>
			 </trkpt>
			 <trkpt lat="-13.801689" lon="-171.897761">
				 <ele>4.8</ele>
			 </trkpt>
			 <trkpt lat="-13.801664" lon="-171.897508">
				 <ele>4.9</ele>
			 </trkpt>
			 <trkpt lat="-13.801563" lon="-171.896801">
				 <ele>5</ele>
			 </trkpt>
			 <trkpt lat="-13.80154" lon="-171.896616">
				 <ele>5.1</ele>
			 </trkpt>
			 <trkpt lat="-13.801538" lon="-171.896464">
				 <ele>5</ele>
			 </trkpt>
			 <trkpt lat="-13.801572" lon="-171.896187">
				 <ele>4.8</ele>
			 </trkpt>
			 <trkpt lat="-13.801654" lon="-171.895905">
				 <ele>4.7</ele>
			 </trkpt>
			 <trkpt lat="-13.801762" lon="-171.895672">
				 <ele>4.6</ele>
			 </trkpt>
			 <trkpt lat="-13.801856" lon="-171.895519">
				 <ele>4.4</ele>
			 </trkpt>
			 <trkpt lat="-13.801953" lon="-171.895387">
				 <ele>4.1</ele>
			 </trkpt>
			 <trkpt lat="-13.802081" lon="-171.895189">
				 <ele>3.8</ele>
			 </trkpt>
			 <trkpt lat="-13.802134" lon="-171.895095">
				 <ele>3.7</ele>
			 </trkpt>
			 <trkpt lat="-13.802237" lon="-171.894882">
				 <ele>3.7</ele>
			 </trkpt>
			 <trkpt lat="-13.80228" lon="-171.894768">
				 <ele>3.5</ele>
			 </trkpt>
			 <trkpt lat="-13.802309" lon="-171.894671">
				 <ele>3.3</ele>
			 </trkpt>
			 <trkpt lat="-13.802355" lon="-171.894466">
				 <ele>3.3</ele>
			 </trkpt>
			 <trkpt lat="-13.802381" lon="-171.89427">
				 <ele>3.4</ele>
			 </trkpt>
			 <trkpt lat="-13.802395" lon="-171.893996">
				 <ele>3.5</ele>
			 </trkpt>
			 <trkpt lat="-13.802392" lon="-171.893638">
				 <ele>3.5</ele>
			 </trkpt>
			 <trkpt lat="-13.802379" lon="-171.893198">
				 <ele>3.7</ele>
			 </trkpt>
			 <trkpt lat="-13.802381" lon="-171.892178">
				 <ele>3.8</ele>
			 </trkpt>
			 <trkpt lat="-13.802395" lon="-171.891896">
				 <ele>3.8</ele>
			 </trkpt>
			 <trkpt lat="-13.802487" lon="-171.890774">
				 <ele>3.6</ele>
			 </trkpt>
			 <trkpt lat="-13.802519" lon="-171.890449">
				 <ele>3.4</ele>
			 </trkpt>
			 <trkpt lat="-13.802529" lon="-171.890254">
				 <ele>3.4</ele>
			 </trkpt>
			 <trkpt lat="-13.802534" lon="-171.889731">
				 <ele>3.5</ele>
			 </trkpt>
			 <trkpt lat="-13.802443" lon="-171.888856">
				 <ele>3.4</ele>
			 </trkpt>
			 <trkpt lat="-13.802127" lon="-171.887444">
				 <ele>3.3</ele>
			 </trkpt>
			 <trkpt lat="-13.802033" lon="-171.8872">
				 <ele>3.3</ele>
			 </trkpt>
			 <trkpt lat="-13.801953" lon="-171.887041">
				 <ele>3.5</ele>
			 </trkpt>
			 <trkpt lat="-13.801796" lon="-171.886826">
				 <ele>3.5</ele>
			 </trkpt>
			 <trkpt lat="-13.801664" lon="-171.886689">
				 <ele>3.5</ele>
			 </trkpt>
			 <trkpt lat="-13.801427" lon="-171.886522">
				 <ele>3.5</ele>
			 </trkpt>
			 <trkpt lat="-13.800866" lon="-171.886314">
				 <ele>3.6</ele>
			 </trkpt>
			 <trkpt lat="-13.800386" lon="-171.886172">
				 <ele>3.8</ele>
			 </trkpt>
			 <trkpt lat="-13.800187" lon="-171.886083">
				 <ele>3.9</ele>
			 </trkpt>
			 <trkpt lat="-13.800038" lon="-171.88599">
				 <ele>4.1</ele>
			 </trkpt>
			 <trkpt lat="-13.799925" lon="-171.885898">
				 <ele>4.4</ele>
			 </trkpt>
			 <trkpt lat="-13.79978" lon="-171.885765">
				 <ele>4.8</ele>
			 </trkpt>
			 <trkpt lat="-13.799656" lon="-171.885631">
				 <ele>5.2</ele>
			 </trkpt>
			 <trkpt lat="-13.799221" lon="-171.885027">
				 <ele>5.4</ele>
			 </trkpt>
			 <trkpt lat="-13.798502" lon="-171.883874">
				 <ele>5.6</ele>
			 </trkpt>
			 <trkpt lat="-13.798272" lon="-171.883486">
				 <ele>6</ele>
			 </trkpt>
			 <trkpt lat="-13.798054" lon="-171.882992">
				 <ele>6.5</ele>
			 </trkpt>
			 <trkpt lat="-13.797962" lon="-171.88268">
				 <ele>6.8</ele>
			 </trkpt>
			 <trkpt lat="-13.797939" lon="-171.882585">
				 <ele>7.2</ele>
			 </trkpt>
			 <trkpt lat="-13.797929" lon="-171.882501">
				 <ele>7.5</ele>
			 </trkpt>
			 <trkpt lat="-13.797923" lon="-171.882279">
				 <ele>7.8</ele>
			 </trkpt>
			 <trkpt lat="-13.797931" lon="-171.881969">
				 <ele>8</ele>
			 </trkpt>
			 <trkpt lat="-13.797956" lon="-171.881716">
				 <ele>7.9</ele>
			 </trkpt>
			 <trkpt lat="-13.798062" lon="-171.881203">
				 <ele>7.7</ele>
			 </trkpt>
			 <trkpt lat="-13.798134" lon="-171.880911">
				 <ele>7.5</ele>
			 </trkpt>
			 <trkpt lat="-13.79832" lon="-171.880239">
				 <ele>7.4</ele>
			 </trkpt>
			 <trkpt lat="-13.798421" lon="-171.879808">
				 <ele>7.3</ele>
			 </trkpt>
			 <trkpt lat="-13.798448" lon="-171.879613">
				 <ele>7.2</ele>
			 </trkpt>
			 <trkpt lat="-13.798449" lon="-171.879192">
				 <ele>7.1</ele>
			 </trkpt>
			 <trkpt lat="-13.798432" lon="-171.879018">
				 <ele>7</ele>
			 </trkpt>
			 <trkpt lat="-13.798171" lon="-171.877329">
				 <ele>6.9</ele>
			 </trkpt>
			 <trkpt lat="-13.798115" lon="-171.876791">
				 <ele>6.7</ele>
			 </trkpt>
			 <trkpt lat="-13.79811" lon="-171.876304">
				 <ele>6.5</ele>
			 </trkpt>
			 <trkpt lat="-13.79822" lon="-171.874426">
				 <ele>6.6</ele>
			 </trkpt>
			 <trkpt lat="-13.798272" lon="-171.873328">
				 <ele>6.9</ele>
			 </trkpt>
			 <trkpt lat="-13.798282" lon="-171.872892">
				 <ele>6.9</ele>
			 </trkpt>
			 <trkpt lat="-13.798327" lon="-171.872159">
				 <ele>6.9</ele>
			 </trkpt>
			 <trkpt lat="-13.798446" lon="-171.869497">
				 <ele>6.8</ele>
			 </trkpt>
			 <trkpt lat="-13.798475" lon="-171.868349">
				 <ele>6.7</ele>
			 </trkpt>
			 <trkpt lat="-13.798507" lon="-171.867999">
				 <ele>6.6</ele>
			 </trkpt>
			 <trkpt lat="-13.798594" lon="-171.866688">
				 <ele>6.5</ele>
			 </trkpt>
			 <trkpt lat="-13.798616" lon="-171.866539">
				 <ele>6.5</ele>
			 </trkpt>
			 <trkpt lat="-13.798674" lon="-171.866299">
				 <ele>6.7</ele>
			 </trkpt>
			 <trkpt lat="-13.798743" lon="-171.866117">
				 <ele>7</ele>
			 </trkpt>
			 <trkpt lat="-13.79885" lon="-171.865899">
				 <ele>7</ele>
			 </trkpt>
			 <trkpt lat="-13.798947" lon="-171.865663">
				 <ele>6.8</ele>
			 </trkpt>
			 <trkpt lat="-13.799249" lon="-171.865184">
				 <ele>6.7</ele>
			 </trkpt>
			 <trkpt lat="-13.799526" lon="-171.864656">
				 <ele>6.5</ele>
			 </trkpt>
			 <trkpt lat="-13.799638" lon="-171.86438">
				 <ele>6.4</ele>
			 </trkpt>
			 <trkpt lat="-13.799822" lon="-171.863848">
				 <ele>6.1</ele>
			 </trkpt>
			 <trkpt lat="-13.800455" lon="-171.862179">
				 <ele>5.9</ele>
			 </trkpt>
			 <trkpt lat="-13.800966" lon="-171.861008">
				 <ele>5.8</ele>
			 </trkpt>
			 <trkpt lat="-13.801003" lon="-171.860887">
				 <ele>5.6</ele>
			 </trkpt>
			 <trkpt lat="-13.801045" lon="-171.860665">
				 <ele>5.5</ele>
			 </trkpt>
			 <trkpt lat="-13.801058" lon="-171.860443">
				 <ele>5.3</ele>
			 </trkpt>
			 <trkpt lat="-13.80104" lon="-171.86026">
				 <ele>5.1</ele>
			 </trkpt>
			 <trkpt lat="-13.800991" lon="-171.860092">
				 <ele>4.9</ele>
			 </trkpt>
			 <trkpt lat="-13.800881" lon="-171.859771">
				 <ele>4.9</ele>
			 </trkpt>
			 <trkpt lat="-13.800125" lon="-171.858471">
				 <ele>5</ele>
			 </trkpt>
			 <trkpt lat="-13.799901" lon="-171.858034">
				 <ele>5.1</ele>
			 </trkpt>
			 <trkpt lat="-13.799804" lon="-171.857818">
				 <ele>5.2</ele>
			 </trkpt>
			 <trkpt lat="-13.799686" lon="-171.857477">
				 <ele>5.2</ele>
			 </trkpt>
			 <trkpt lat="-13.799619" lon="-171.857234">
				 <ele>5.2</ele>
			 </trkpt>
			 <trkpt lat="-13.7996" lon="-171.8571">
				 <ele>5.1</ele>
			 </trkpt>
			 <trkpt lat="-13.799591" lon="-171.856972">
				 <ele>4.9</ele>
			 </trkpt>
			 <trkpt lat="-13.799587" lon="-171.856842">
				 <ele>4.7</ele>
			 </trkpt>
			 <trkpt lat="-13.799605" lon="-171.856568">
				 <ele>4.7</ele>
			 </trkpt>
			 <trkpt lat="-13.799815" lon="-171.855264">
				 <ele>4.9</ele>
			 </trkpt>
			 <trkpt lat="-13.799841" lon="-171.855032">
				 <ele>5</ele>
			 </trkpt>
			 <trkpt lat="-13.79985" lon="-171.854323">
				 <ele>5.1</ele>
			 </trkpt>
			 <trkpt lat="-13.799858" lon="-171.854165">
				 <ele>5.3</ele>
			 </trkpt>
			 <trkpt lat="-13.799911" lon="-171.85354">
				 <ele>5.3</ele>
			 </trkpt>
			 <trkpt lat="-13.799933" lon="-171.853371">
				 <ele>5.3</ele>
			 </trkpt>
			 <trkpt lat="-13.800139" lon="-171.852251">
				 <ele>5.2</ele>
			 </trkpt>
			 <trkpt lat="-13.800164" lon="-171.852082">
				 <ele>5.2</ele>
			 </trkpt>
			 <trkpt lat="-13.800299" lon="-171.851445">
				 <ele>5.2</ele>
			 </trkpt>
			 <trkpt lat="-13.800577" lon="-171.850508">
				 <ele>5.2</ele>
			 </trkpt>
			 <trkpt lat="-13.800641" lon="-171.850314">
				 <ele>5.1</ele>
			 </trkpt>
			 <trkpt lat="-13.800688" lon="-171.850125">
				 <ele>4.9</ele>
			 </trkpt>
			 <trkpt lat="-13.800827" lon="-171.849606">
				 <ele>4.9</ele>
			 </trkpt>
			 <trkpt lat="-13.800838" lon="-171.849299">
				 <ele>4.7</ele>
			 </trkpt>
			 <trkpt lat="-13.800829" lon="-171.849098">
				 <ele>4.5</ele>
			 </trkpt>
			 <trkpt lat="-13.800805" lon="-171.848938">
				 <ele>4.6</ele>
			 </trkpt>
			 <trkpt lat="-13.800772" lon="-171.848804">
				 <ele>4.7</ele>
			 </trkpt>
			 <trkpt lat="-13.800666" lon="-171.848551">
				 <ele>4.8</ele>
			 </trkpt>
			 <trkpt lat="-13.800296" lon="-171.847852">
				 <ele>4.8</ele>
			 </trkpt>
			 <trkpt lat="-13.800035" lon="-171.847318">
				 <ele>4.8</ele>
			 </trkpt>
			 <trkpt lat="-13.799939" lon="-171.84708">
				 <ele>4.9</ele>
			 </trkpt>
			 <trkpt lat="-13.799883" lon="-171.846884">
				 <ele>5</ele>
			 </trkpt>
			 <trkpt lat="-13.799798" lon="-171.846479">
				 <ele>4.9</ele>
			 </trkpt>
			 <trkpt lat="-13.799749" lon="-171.846131">
				 <ele>4.7</ele>
			 </trkpt>
			 <trkpt lat="-13.799585" lon="-171.845258">
				 <ele>4.7</ele>
			 </trkpt>
			 <trkpt lat="-13.799346" lon="-171.844375">
				 <ele>4.7</ele>
			 </trkpt>
			 <trkpt lat="-13.7992" lon="-171.843878">
				 <ele>4.7</ele>
			 </trkpt>
			 <trkpt lat="-13.79898" lon="-171.842839">
				 <ele>4.7</ele>
			 </trkpt>
			 <trkpt lat="-13.798919" lon="-171.842429">
				 <ele>4.7</ele>
			 </trkpt>
			 <trkpt lat="-13.798769" lon="-171.84071">
				 <ele>4.8</ele>
			 </trkpt>
			 <trkpt lat="-13.798727" lon="-171.839982">
				 <ele>4.9</ele>
			 </trkpt>
			 <trkpt lat="-13.798617" lon="-171.839466">
				 <ele>4.8</ele>
			 </trkpt>
			 <trkpt lat="-13.798494" lon="-171.839153">
				 <ele>4.7</ele>
			 </trkpt>
			 <trkpt lat="-13.798393" lon="-171.838955">
				 <ele>4.9</ele>
			 </trkpt>
			 <trkpt lat="-13.798131" lon="-171.83857">
				 <ele>5.1</ele>
			 </trkpt>
			 <trkpt lat="-13.798058" lon="-171.83848">
				 <ele>5.2</ele>
			 </trkpt>
			 <trkpt lat="-13.797889" lon="-171.838312">
				 <ele>5.4</ele>
			 </trkpt>
			 <trkpt lat="-13.797766" lon="-171.838202">
				 <ele>5.5</ele>
			 </trkpt>
			 <trkpt lat="-13.79713" lon="-171.837699">
				 <ele>5.6</ele>
			 </trkpt>
			 <trkpt lat="-13.796847" lon="-171.837429">
				 <ele>5.7</ele>
			 </trkpt>
			 <trkpt lat="-13.796623" lon="-171.837176">
				 <ele>5.6</ele>
			 </trkpt>
			 <trkpt lat="-13.796484" lon="-171.836923">
				 <ele>5.6</ele>
			 </trkpt>
			 <trkpt lat="-13.796345" lon="-171.836619">
				 <ele>5.8</ele>
			 </trkpt>
			 <trkpt lat="-13.796209" lon="-171.836087">
				 <ele>6</ele>
			 </trkpt>
			 <trkpt lat="-13.796187" lon="-171.835083">
				 <ele>6.1</ele>
			 </trkpt>
			 <trkpt lat="-13.796194" lon="-171.834282">
				 <ele>6.1</ele>
			 </trkpt>
			 <trkpt lat="-13.796169" lon="-171.833455">
				 <ele>6.2</ele>
			 </trkpt>
			 <trkpt lat="-13.795923" lon="-171.831427">
				 <ele>6.1</ele>
			 </trkpt>
			 <trkpt lat="-13.795882" lon="-171.830941">
				 <ele>6</ele>
			 </trkpt>
			 <trkpt lat="-13.79588" lon="-171.830573">
				 <ele>6</ele>
			 </trkpt>
			 <trkpt lat="-13.79589" lon="-171.830336">
				 <ele>5.9</ele>
			 </trkpt>
			 <trkpt lat="-13.795998" lon="-171.829966">
				 <ele>6</ele>
			 </trkpt>
			 <trkpt lat="-13.796164" lon="-171.829602">
				 <ele>5.9</ele>
			 </trkpt>
			 <trkpt lat="-13.796315" lon="-171.829374">
				 <ele>5.6</ele>
			 </trkpt>
			 <trkpt lat="-13.796477" lon="-171.829211">
				 <ele>5.5</ele>
			 </trkpt>
			 <trkpt lat="-13.796781" lon="-171.828992">
				 <ele>5.3</ele>
			 </trkpt>
			 <trkpt lat="-13.797716" lon="-171.828449">
				 <ele>5.2</ele>
			 </trkpt>
			 <trkpt lat="-13.798777" lon="-171.827878">
				 <ele>5.1</ele>
			 </trkpt>
			 <trkpt lat="-13.79897" lon="-171.827741">
				 <ele>5</ele>
			 </trkpt>
			 <trkpt lat="-13.799162" lon="-171.827572">
				 <ele>5</ele>
			 </trkpt>
			 <trkpt lat="-13.799326" lon="-171.827413">
				 <ele>5</ele>
			 </trkpt>
			 <trkpt lat="-13.799605" lon="-171.827068">
				 <ele>5</ele>
			 </trkpt>
			 <trkpt lat="-13.799861" lon="-171.826553">
				 <ele>5.1</ele>
			 </trkpt>
			 <trkpt lat="-13.799966" lon="-171.826214">
				 <ele>5.4</ele>
			 </trkpt>
			 <trkpt lat="-13.800161" lon="-171.8251">
				 <ele>5.7</ele>
			 </trkpt>
			 <trkpt lat="-13.800257" lon="-171.824681">
				 <ele>5.9</ele>
			 </trkpt>
			 <trkpt lat="-13.800361" lon="-171.824334">
				 <ele>6.1</ele>
			 </trkpt>
			 <trkpt lat="-13.800488" lon="-171.823977">
				 <ele>6.5</ele>
			 </trkpt>
			 <trkpt lat="-13.800705" lon="-171.823414">
				 <ele>6.9</ele>
			 </trkpt>
			 <trkpt lat="-13.802118" lon="-171.820444">
				 <ele>7.5</ele>
			 </trkpt>
			 <trkpt lat="-13.802366" lon="-171.819954">
				 <ele>8</ele>
			 </trkpt>
			 <trkpt lat="-13.8025" lon="-171.819744">
				 <ele>8.5</ele>
			 </trkpt>
			 <trkpt lat="-13.803065" lon="-171.818984">
				 <ele>8.9</ele>
			 </trkpt>
			 <trkpt lat="-13.803567" lon="-171.818337">
				 <ele>9</ele>
			 </trkpt>
			 <trkpt lat="-13.804089" lon="-171.817619">
				 <ele>9</ele>
			 </trkpt>
			 <trkpt lat="-13.80525" lon="-171.816121">
				 <ele>8.9</ele>
			 </trkpt>
			 <trkpt lat="-13.806949" lon="-171.813883">
				 <ele>8.9</ele>
			 </trkpt>
			 <trkpt lat="-13.807101" lon="-171.813671">
				 <ele>9</ele>
			 </trkpt>
			 <trkpt lat="-13.808742" lon="-171.811531">
				 <ele>8.9</ele>
			 </trkpt>
			 <trkpt lat="-13.80944" lon="-171.810587">
				 <ele>8.7</ele>
			 </trkpt>
			 <trkpt lat="-13.809628" lon="-171.810379">
				 <ele>8.5</ele>
			 </trkpt>
			 <trkpt lat="-13.809758" lon="-171.810249">
				 <ele>8</ele>
			 </trkpt>
			 <trkpt lat="-13.810096" lon="-171.809976">
				 <ele>7.7</ele>
			 </trkpt>
			 <trkpt lat="-13.810579" lon="-171.809659">
				 <ele>7.6</ele>
			 </trkpt>
			 <trkpt lat="-13.810787" lon="-171.809548">
				 <ele>7.8</ele>
			 </trkpt>
			 <trkpt lat="-13.810994" lon="-171.809459">
				 <ele>7.8</ele>
			 </trkpt>
			 <trkpt lat="-13.811422" lon="-171.809331">
				 <ele>7.8</ele>
			 </trkpt>
			 <trkpt lat="-13.811628" lon="-171.809291">
				 <ele>7.6</ele>
			 </trkpt>
			 <trkpt lat="-13.811905" lon="-171.809274">
				 <ele>7.4</ele>
			 </trkpt>
			 <trkpt lat="-13.81247" lon="-171.809296">
				 <ele>7</ele>
			 </trkpt>
			 <trkpt lat="-13.813976" lon="-171.809484">
				 <ele>6.7</ele>
			 </trkpt>
			 <trkpt lat="-13.814227" lon="-171.809491">
				 <ele>6.5</ele>
			 </trkpt>
			 <trkpt lat="-13.81462" lon="-171.809463">
				 <ele>6.3</ele>
			 </trkpt>
			 <trkpt lat="-13.815068" lon="-171.809339">
				 <ele>6.2</ele>
			 </trkpt>
			 <trkpt lat="-13.815232" lon="-171.809267">
				 <ele>5.9</ele>
			 </trkpt>
			 <trkpt lat="-13.815392" lon="-171.809181">
				 <ele>5.5</ele>
			 </trkpt>
			 <trkpt lat="-13.815904" lon="-171.808824">
				 <ele>5.4</ele>
			 </trkpt>
			 <trkpt lat="-13.817074" lon="-171.807871">
				 <ele>5.2</ele>
			 </trkpt>
			 <trkpt lat="-13.818089" lon="-171.806966">
				 <ele>5.2</ele>
			 </trkpt>
			 <trkpt lat="-13.818543" lon="-171.80654">
				 <ele>5.2</ele>
			 </trkpt>
			 <trkpt lat="-13.818934" lon="-171.806155">
				 <ele>5.4</ele>
			 </trkpt>
			 <trkpt lat="-13.819414" lon="-171.805554">
				 <ele>5.3</ele>
			 </trkpt>
			 <trkpt lat="-13.819778" lon="-171.805064">
				 <ele>5.4</ele>
			 </trkpt>
			 <trkpt lat="-13.819843" lon="-171.804925">
				 <ele>5.6</ele>
			 </trkpt>
			 <trkpt lat="-13.820552" lon="-171.803747">
				 <ele>5.8</ele>
			 </trkpt>
			 <trkpt lat="-13.820955" lon="-171.803059">
				 <ele>6.1</ele>
			 </trkpt>
			 <trkpt lat="-13.822392" lon="-171.800463">
				 <ele>6.5</ele>
			 </trkpt>
			 <trkpt lat="-13.822713" lon="-171.799984">
				 <ele>7.1</ele>
			 </trkpt>
			 <trkpt lat="-13.823335" lon="-171.79882">
				 <ele>7.7</ele>
			 </trkpt>
			 <trkpt lat="-13.823554" lon="-171.798479">
				 <ele>8.4</ele>
			 </trkpt>
			 <trkpt lat="-13.823794" lon="-171.798158">
				 <ele>8.8</ele>
			 </trkpt>
			 <trkpt lat="-13.824775" lon="-171.797057">
				 <ele>9</ele>
			 </trkpt>
			 <trkpt lat="-13.824961" lon="-171.796819">
				 <ele>9.3</ele>
			 </trkpt>
			 <trkpt lat="-13.825162" lon="-171.796492">
				 <ele>9.3</ele>
			 </trkpt>
			 <trkpt lat="-13.825396" lon="-171.795981">
				 <ele>9</ele>
			 </trkpt>
			 <trkpt lat="-13.825759" lon="-171.795226">
				 <ele>8.7</ele>
			 </trkpt>
			 <trkpt lat="-13.826384" lon="-171.794063">
				 <ele>8.6</ele>
			 </trkpt>
			 <trkpt lat="-13.826595" lon="-171.793752">
				 <ele>8.3</ele>
			 </trkpt>
			 <trkpt lat="-13.826901" lon="-171.793443">
				 <ele>7.7</ele>
			 </trkpt>
			 <trkpt lat="-13.827241" lon="-171.793171">
				 <ele>7.1</ele>
			 </trkpt>
			 <trkpt lat="-13.827976" lon="-171.792627">
				 <ele>6.5</ele>
			 </trkpt>
			 <trkpt lat="-13.828282" lon="-171.792437">
				 <ele>5.9</ele>
			 </trkpt>
			 <trkpt lat="-13.828671" lon="-171.792238">
				 <ele>5.5</ele>
			 </trkpt>
			 <trkpt lat="-13.829009" lon="-171.792133">
				 <ele>5.5</ele>
			 </trkpt>
			 <trkpt lat="-13.829924" lon="-171.791899">
				 <ele>5.5</ele>
			 </trkpt>
			 <trkpt lat="-13.830192" lon="-171.791841">
				 <ele>5.7</ele>
			 </trkpt>
			 <trkpt lat="-13.830349" lon="-171.791782">
				 <ele>5.8</ele>
			 </trkpt>
			 <trkpt lat="-13.831211" lon="-171.791498">
				 <ele>5.8</ele>
			 </trkpt>
			 <trkpt lat="-13.832422" lon="-171.790985">
				 <ele>6.2</ele>
			 </trkpt>
			 <trkpt lat="-13.832656" lon="-171.790857">
				 <ele>6.6</ele>
			 </trkpt>
			 <trkpt lat="-13.83285" lon="-171.790724">
				 <ele>7.1</ele>
			 </trkpt>
			 <trkpt lat="-13.833025" lon="-171.790574">
				 <ele>7.5</ele>
			 </trkpt>
			 <trkpt lat="-13.833572" lon="-171.789881">
				 <ele>8.2</ele>
			 </trkpt>
			 <trkpt lat="-13.83387" lon="-171.789572">
				 <ele>8.6</ele>
			 </trkpt>
			 <trkpt lat="-13.834353" lon="-171.789129">
				 <ele>8.9</ele>
			 </trkpt>
			 <trkpt lat="-13.834705" lon="-171.788742">
				 <ele>9</ele>
			 </trkpt>
			 <trkpt lat="-13.834804" lon="-171.788591">
				 <ele>9.1</ele>
			 </trkpt>
			 <trkpt lat="-13.834965" lon="-171.788296">
				 <ele>9.1</ele>
			 </trkpt>
			 <trkpt lat="-13.835345" lon="-171.787438">
				 <ele>9.1</ele>
			 </trkpt>
			 <trkpt lat="-13.835533" lon="-171.786966">
				 <ele>8.6</ele>
			 </trkpt>
			 <trkpt lat="-13.835739" lon="-171.786534">
				 <ele>8.2</ele>
			 </trkpt>
			 <trkpt lat="-13.836026" lon="-171.786018">
				 <ele>7.8</ele>
			 </trkpt>
			 <trkpt lat="-13.836307" lon="-171.785557">
				 <ele>7.5</ele>
			 </trkpt>
			 <trkpt lat="-13.836496" lon="-171.785168">
				 <ele>7.1</ele>
			 </trkpt>
			 <trkpt lat="-13.837162" lon="-171.783762">
				 <ele>6.9</ele>
			 </trkpt>
			 <trkpt lat="-13.83771" lon="-171.782243">
				 <ele>6.6</ele>
			 </trkpt>
			 <trkpt lat="-13.83774" lon="-171.782045">
				 <ele>6.4</ele>
			 </trkpt>
			 <trkpt lat="-13.837846" lon="-171.780623">
				 <ele>6.1</ele>
			 </trkpt>
			 <trkpt lat="-13.837868" lon="-171.780194">
				 <ele>6</ele>
			 </trkpt>
			 <trkpt lat="-13.837904" lon="-171.780009">
				 <ele>5.8</ele>
			 </trkpt>
			 <trkpt lat="-13.837916" lon="-171.77991">
				 <ele>5.9</ele>
			 </trkpt>
			 <trkpt lat="-13.838178" lon="-171.779118">
				 <ele>6</ele>
			 </trkpt>
			 <trkpt lat="-13.838418" lon="-171.77845">
				 <ele>6</ele>
			 </trkpt>
			 <trkpt lat="-13.838544" lon="-171.778065">
				 <ele>6</ele>
			 </trkpt>
			 <trkpt lat="-13.838557" lon="-171.777964">
				 <ele>5.9</ele>
			 </trkpt>
			 <trkpt lat="-13.838592" lon="-171.777689">
				 <ele>5.8</ele>
			 </trkpt>
			 <trkpt lat="-13.838593" lon="-171.777566">
				 <ele>5.8</ele>
			 </trkpt>
			 <trkpt lat="-13.83858" lon="-171.7775">
				 <ele>5.7</ele>
			 </trkpt>
			 <trkpt lat="-13.838418" lon="-171.777243">
				 <ele>5.7</ele>
			 </trkpt>
			 <trkpt lat="-13.838315" lon="-171.777056">
				 <ele>5.5</ele>
			 </trkpt>
			 <trkpt lat="-13.838293" lon="-171.777006">
				 <ele>5.3</ele>
			 </trkpt>
			 <trkpt lat="-13.838197" lon="-171.776865">
				 <ele>5</ele>
			 </trkpt>
			 <trkpt lat="-13.837777" lon="-171.776173">
				 <ele>4.7</ele>
			 </trkpt>
			 <trkpt lat="-13.837362" lon="-171.775471">
				 <ele>4.5</ele>
			 </trkpt>
			 <trkpt lat="-13.836741" lon="-171.774489">
				 <ele>4.3</ele>
			 </trkpt>
			 <trkpt lat="-13.836568" lon="-171.774248">
				 <ele>4.1</ele>
			 </trkpt>
			 <trkpt lat="-13.836427" lon="-171.774092">
				 <ele>4</ele>
			 </trkpt>
			 <trkpt lat="-13.836185" lon="-171.77387">
				 <ele>3.8</ele>
			 </trkpt>
			 <trkpt lat="-13.836042" lon="-171.773771">
				 <ele>3.8</ele>
			 </trkpt>
			 <trkpt lat="-13.835668" lon="-171.773524">
				 <ele>3.6</ele>
			 </trkpt>
			 <trkpt lat="-13.835288" lon="-171.773367">
				 <ele>3.6</ele>
			 </trkpt>
			 <trkpt lat="-13.835177" lon="-171.773335">
				 <ele>3.7</ele>
			 </trkpt>
			 <trkpt lat="-13.833917" lon="-171.772988">
				 <ele>3.8</ele>
			 </trkpt>
			 <trkpt lat="-13.833284" lon="-171.772831">
				 <ele>3.9</ele>
			 </trkpt>
			 <trkpt lat="-13.832746" lon="-171.772709">
				 <ele>4</ele>
			 </trkpt>
			 <trkpt lat="-13.83241" lon="-171.772666">
				 <ele>4</ele>
			 </trkpt>
			 <trkpt lat="-13.831313" lon="-171.772553">
				 <ele>4.1</ele>
			 </trkpt>
			 <trkpt lat="-13.831032" lon="-171.772469">
				 <ele>4</ele>
			 </trkpt>
			 <trkpt lat="-13.830778" lon="-171.772324">
				 <ele>4.1</ele>
			 </trkpt>
			 <trkpt lat="-13.830523" lon="-171.772149">
				 <ele>4.1</ele>
			 </trkpt>
			 <trkpt lat="-13.830249" lon="-171.771929">
				 <ele>4.2</ele>
			 </trkpt>
			 <trkpt lat="-13.82964" lon="-171.771408">
				 <ele>4.2</ele>
			 </trkpt>
			 <trkpt lat="-13.829876" lon="-171.771001">
				 <ele>4.3</ele>
			 </trkpt>
			 <trkpt lat="-13.830105" lon="-171.770603">
				 <ele>4.7</ele>
			 </trkpt>
			 <trkpt lat="-13.83017" lon="-171.770492">
				 <ele>5.2</ele>
			 </trkpt>
			 <trkpt lat="-13.830301" lon="-171.770048">
				 <ele>5.3</ele>
			 </trkpt>
			 <trkpt lat="-13.830356" lon="-171.769861">
				 <ele>5.4</ele>
			 </trkpt>
			 <trkpt lat="-13.830402" lon="-171.7694">
				 <ele>5.5</ele>
			 </trkpt>
			 <trkpt lat="-13.830448" lon="-171.768939">
				 <ele>5.7</ele>
			 </trkpt>
			 <trkpt lat="-13.830464" lon="-171.768775">
				 <ele>5.8</ele>
			 </trkpt>
		 </trkseg>
	 </trk>
</gpx>