<?xml version="1.0" encoding="UTF-8"?>
 <gpx creator="Garmin Connect" version="1.1"
	 xsi:schemaLocation="http://www.topografix.com/GPX/1/1 http://www.topografix.com/GPX/11.xsd"
	 xmlns:ns3="http://www.garmin.com/xmlschemas/TrackPointExtension/v1"
	 xmlns="http://www.topografix.com/GPX/1/1"
	 xmlns:xsi="http://www.w3.org/2001/XMLSchema-instance" xmlns:ns2="http://www.garmin.com/xmlschemas/GpxExtensions/v3">
	 <metadata>
		<name>Santa Eulària Ibiza Marathon 2026 - 42.195 km</name>
		 <link href="https://www.goandrace.com">
		 <text>Garmin Connect</text>
		 </link>
	 <time>2026-08-09T18:07:36</time>
	 </metadata>
	 <trk>
		 <name>Santa Eulària Ibiza Marathon 2026 - 42.195 km</name>
		 <trkseg>
			 <trkpt lat="38.909974" lon="1.438126">
				 <ele>3</ele>
			 </trkpt>
			 <trkpt lat="38.910299" lon="1.437231">
				 <ele>2.9</ele>
			 </trkpt>
			 <trkpt lat="38.910447" lon="1.434823">
				 <ele>2.6</ele>
			 </trkpt>
			 <trkpt lat="38.910511" lon="1.434668">
				 <ele>2.3</ele>
			 </trkpt>
			 <trkpt lat="38.911629" lon="1.434569">
				 <ele>2.1</ele>
			 </trkpt>
			 <trkpt lat="38.913354" lon="1.434991">
				 <ele>1.8</ele>
			 </trkpt>
			 <trkpt lat="38.914016" lon="1.435185">
				 <ele>1.7</ele>
			 </trkpt>
			 <trkpt lat="38.914323" lon="1.43531">
				 <ele>1.3</ele>
			 </trkpt>
			 <trkpt lat="38.914542" lon="1.435429">
				 <ele>0.7</ele>
			 </trkpt>
			 <trkpt lat="38.914635" lon="1.435492">
				 <ele>0.1</ele>
			 </trkpt>
			 <trkpt lat="38.914846" lon="1.435634">
				 <ele>-0.4</ele>
			 </trkpt>
			 <trkpt lat="38.915129" lon="1.435859">
				 <ele>-0.6</ele>
			 </trkpt>
			 <trkpt lat="38.915407" lon="1.43613">
				 <ele>-0.9</ele>
			 </trkpt>
			 <trkpt lat="38.916142" lon="1.436874">
				 <ele>-1.1</ele>
			 </trkpt>
			 <trkpt lat="38.916512" lon="1.437224">
				 <ele>-1.2</ele>
			 </trkpt>
			 <trkpt lat="38.91665" lon="1.4374">
				 <ele>-1.3</ele>
			 </trkpt>
			 <trkpt lat="38.916844" lon="1.437701">
				 <ele>-1.3</ele>
			 </trkpt>
			 <trkpt lat="38.916871" lon="1.437796">
				 <ele>-1.3</ele>
			 </trkpt>
			 <trkpt lat="38.916899" lon="1.437844">
				 <ele>-1.2</ele>
			 </trkpt>
			 <trkpt lat="38.916933" lon="1.437883">
				 <ele>-1.1</ele>
			 </trkpt>
			 <trkpt lat="38.916973" lon="1.437913">
				 <ele>-1</ele>
			 </trkpt>
			 <trkpt lat="38.917025" lon="1.437933">
				 <ele>-1</ele>
			 </trkpt>
			 <trkpt lat="38.91709" lon="1.437935">
				 <ele>-1</ele>
			 </trkpt>
			 <trkpt lat="38.917123" lon="1.437927">
				 <ele>-0.6</ele>
			 </trkpt>
			 <trkpt lat="38.917182" lon="1.437893">
				 <ele>-0.1</ele>
			 </trkpt>
			 <trkpt lat="38.917298" lon="1.437923">
				 <ele>0.2</ele>
			 </trkpt>
			 <trkpt lat="38.917395" lon="1.437988">
				 <ele>0.5</ele>
			 </trkpt>
			 <trkpt lat="38.917425" lon="1.438023">
				 <ele>0.6</ele>
			 </trkpt>
			 <trkpt lat="38.917612" lon="1.438446">
				 <ele>0.6</ele>
			 </trkpt>
			 <trkpt lat="38.917705" lon="1.438986">
				 <ele>0.6</ele>
			 </trkpt>
			 <trkpt lat="38.918093" lon="1.441432">
				 <ele>0.7</ele>
			 </trkpt>
			 <trkpt lat="38.9181" lon="1.441721">
				 <ele>0.9</ele>
			 </trkpt>
			 <trkpt lat="38.918102" lon="1.44226">
				 <ele>1.2</ele>
			 </trkpt>
			 <trkpt lat="38.918064" lon="1.442757">
				 <ele>1.5</ele>
			 </trkpt>
			 <trkpt lat="38.918035" lon="1.442976">
				 <ele>1.3</ele>
			 </trkpt>
			 <trkpt lat="38.917873" lon="1.443844">
				 <ele>0.8</ele>
			 </trkpt>
			 <trkpt lat="38.917742" lon="1.444589">
				 <ele>0.5</ele>
			 </trkpt>
			 <trkpt lat="38.917655" lon="1.445027">
				 <ele>0.4</ele>
			 </trkpt>
			 <trkpt lat="38.917559" lon="1.445392">
				 <ele>0.3</ele>
			 </trkpt>
			 <trkpt lat="38.917502" lon="1.445575">
				 <ele>0.4</ele>
			 </trkpt>
			 <trkpt lat="38.917366" lon="1.445943">
				 <ele>0.5</ele>
			 </trkpt>
			 <trkpt lat="38.917197" lon="1.446329">
				 <ele>0.4</ele>
			 </trkpt>
			 <trkpt lat="38.916975" lon="1.446712">
				 <ele>0.3</ele>
			 </trkpt>
			 <trkpt lat="38.916765" lon="1.447019">
				 <ele>0.4</ele>
			 </trkpt>
			 <trkpt lat="38.91669" lon="1.44711">
				 <ele>0.5</ele>
			 </trkpt>
			 <trkpt lat="38.916467" lon="1.447382">
				 <ele>0.6</ele>
			 </trkpt>
			 <trkpt lat="38.916202" lon="1.447656">
				 <ele>0.9</ele>
			 </trkpt>
			 <trkpt lat="38.915897" lon="1.447923">
				 <ele>1.2</ele>
			 </trkpt>
			 <trkpt lat="38.915192" lon="1.448484">
				 <ele>1.5</ele>
			 </trkpt>
			 <trkpt lat="38.915156" lon="1.448514">
				 <ele>1.7</ele>
			 </trkpt>
			 <trkpt lat="38.915192" lon="1.448607">
				 <ele>1.9</ele>
			 </trkpt>
			 <trkpt lat="38.91541" lon="1.449148">
				 <ele>1.9</ele>
			 </trkpt>
			 <trkpt lat="38.915621" lon="1.44971">
				 <ele>2</ele>
			 </trkpt>
			 <trkpt lat="38.916035" lon="1.450871">
				 <ele>2</ele>
			 </trkpt>
			 <trkpt lat="38.916226" lon="1.45128">
				 <ele>1.7</ele>
			 </trkpt>
			 <trkpt lat="38.916831" lon="1.452509">
				 <ele>1.5</ele>
			 </trkpt>
			 <trkpt lat="38.918347" lon="1.45567">
				 <ele>1.4</ele>
			 </trkpt>
			 <trkpt lat="38.918434" lon="1.455885">
				 <ele>1.3</ele>
			 </trkpt>
			 <trkpt lat="38.918506" lon="1.4561">
				 <ele>1.2</ele>
			 </trkpt>
			 <trkpt lat="38.918588" lon="1.456485">
				 <ele>1</ele>
			 </trkpt>
			 <trkpt lat="38.91864" lon="1.456649">
				 <ele>0.8</ele>
			 </trkpt>
			 <trkpt lat="38.91874" lon="1.456807">
				 <ele>0.9</ele>
			 </trkpt>
			 <trkpt lat="38.919141" lon="1.457372">
				 <ele>1.7</ele>
			 </trkpt>
			 <trkpt lat="38.919635" lon="1.457843">
				 <ele>2.5</ele>
			 </trkpt>
			 <trkpt lat="38.919722" lon="1.457914">
				 <ele>2.6</ele>
			 </trkpt>
			 <trkpt lat="38.920134" lon="1.457993">
				 <ele>2.8</ele>
			 </trkpt>
			 <trkpt lat="38.920674" lon="1.458046">
				 <ele>3</ele>
			 </trkpt>
			 <trkpt lat="38.920912" lon="1.458021">
				 <ele>3.2</ele>
			 </trkpt>
			 <trkpt lat="38.921027" lon="1.457565">
				 <ele>3.3</ele>
			 </trkpt>
			 <trkpt lat="38.921236" lon="1.456816">
				 <ele>3.5</ele>
			 </trkpt>
			 <trkpt lat="38.921523" lon="1.456144">
				 <ele>3.7</ele>
			 </trkpt>
			 <trkpt lat="38.921585" lon="1.455906">
				 <ele>4</ele>
			 </trkpt>
			 <trkpt lat="38.92163" lon="1.45579">
				 <ele>4.2</ele>
			 </trkpt>
			 <trkpt lat="38.92168" lon="1.455691">
				 <ele>3.8</ele>
			 </trkpt>
			 <trkpt lat="38.921929" lon="1.455348">
				 <ele>3.5</ele>
			 </trkpt>
			 <trkpt lat="38.922704" lon="1.454606">
				 <ele>3.9</ele>
			 </trkpt>
			 <trkpt lat="38.922831" lon="1.454548">
				 <ele>4.4</ele>
			 </trkpt>
			 <trkpt lat="38.923164" lon="1.454493">
				 <ele>4.7</ele>
			 </trkpt>
			 <trkpt lat="38.923607" lon="1.454377">
				 <ele>5.2</ele>
			 </trkpt>
			 <trkpt lat="38.923733" lon="1.454364">
				 <ele>5.5</ele>
			 </trkpt>
			 <trkpt lat="38.92396" lon="1.454362">
				 <ele>5.6</ele>
			 </trkpt>
			 <trkpt lat="38.924308" lon="1.454335">
				 <ele>5.8</ele>
			 </trkpt>
			 <trkpt lat="38.924441" lon="1.454302">
				 <ele>5.8</ele>
			 </trkpt>
			 <trkpt lat="38.924653" lon="1.454202">
				 <ele>5.7</ele>
			 </trkpt>
			 <trkpt lat="38.924615" lon="1.45413">
				 <ele>5.6</ele>
			 </trkpt>
			 <trkpt lat="38.924472" lon="1.453712">
				 <ele>5.5</ele>
			 </trkpt>
			 <trkpt lat="38.924472" lon="1.453649">
				 <ele>5.3</ele>
			 </trkpt>
			 <trkpt lat="38.924737" lon="1.452972">
				 <ele>4.9</ele>
			 </trkpt>
			 <trkpt lat="38.924786" lon="1.452823">
				 <ele>4.5</ele>
			 </trkpt>
			 <trkpt lat="38.924794" lon="1.452742">
				 <ele>3.9</ele>
			 </trkpt>
			 <trkpt lat="38.924779" lon="1.452631">
				 <ele>3.5</ele>
			 </trkpt>
			 <trkpt lat="38.924699" lon="1.452031">
				 <ele>3.2</ele>
			 </trkpt>
			 <trkpt lat="38.924609" lon="1.451399">
				 <ele>2.9</ele>
			 </trkpt>
			 <trkpt lat="38.924481" lon="1.450845">
				 <ele>2.6</ele>
			 </trkpt>
			 <trkpt lat="38.924442" lon="1.450707">
				 <ele>2.4</ele>
			 </trkpt>
			 <trkpt lat="38.924432" lon="1.450562">
				 <ele>2.1</ele>
			 </trkpt>
			 <trkpt lat="38.924431" lon="1.450397">
				 <ele>1.8</ele>
			 </trkpt>
			 <trkpt lat="38.924378" lon="1.449984">
				 <ele>1.6</ele>
			 </trkpt>
			 <trkpt lat="38.924357" lon="1.449887">
				 <ele>1.4</ele>
			 </trkpt>
			 <trkpt lat="38.924301" lon="1.449791">
				 <ele>1.2</ele>
			 </trkpt>
			 <trkpt lat="38.924219" lon="1.449683">
				 <ele>1</ele>
			 </trkpt>
			 <trkpt lat="38.924186" lon="1.449599">
				 <ele>0.8</ele>
			 </trkpt>
			 <trkpt lat="38.924126" lon="1.449338">
				 <ele>0.5</ele>
			 </trkpt>
			 <trkpt lat="38.924013" lon="1.448995">
				 <ele>0.3</ele>
			 </trkpt>
			 <trkpt lat="38.923958" lon="1.448796">
				 <ele>0.4</ele>
			 </trkpt>
			 <trkpt lat="38.923906" lon="1.448433">
				 <ele>0.4</ele>
			 </trkpt>
			 <trkpt lat="38.923864" lon="1.448283">
				 <ele>0.4</ele>
			 </trkpt>
			 <trkpt lat="38.923204" lon="1.446826">
				 <ele>0.4</ele>
			 </trkpt>
			 <trkpt lat="38.922787" lon="1.446036">
				 <ele>0.4</ele>
			 </trkpt>
			 <trkpt lat="38.922513" lon="1.445488">
				 <ele>0.5</ele>
			 </trkpt>
			 <trkpt lat="38.92214" lon="1.444794">
				 <ele>0.5</ele>
			 </trkpt>
			 <trkpt lat="38.922127" lon="1.44475">
				 <ele>0.6</ele>
			 </trkpt>
			 <trkpt lat="38.922137" lon="1.444694">
				 <ele>0.8</ele>
			 </trkpt>
			 <trkpt lat="38.922161" lon="1.444635">
				 <ele>1.3</ele>
			 </trkpt>
			 <trkpt lat="38.922168" lon="1.444583">
				 <ele>1.5</ele>
			 </trkpt>
			 <trkpt lat="38.92212" lon="1.444514">
				 <ele>1.5</ele>
			 </trkpt>
			 <trkpt lat="38.922082" lon="1.444476">
				 <ele>1.6</ele>
			 </trkpt>
			 <trkpt lat="38.921895" lon="1.444294">
				 <ele>1.7</ele>
			 </trkpt>
			 <trkpt lat="38.921473" lon="1.443956">
				 <ele>1.8</ele>
			 </trkpt>
			 <trkpt lat="38.921195" lon="1.44368">
				 <ele>1.9</ele>
			 </trkpt>
			 <trkpt lat="38.920695" lon="1.443297">
				 <ele>1.9</ele>
			 </trkpt>
			 <trkpt lat="38.919714" lon="1.442622">
				 <ele>1.9</ele>
			 </trkpt>
			 <trkpt lat="38.91923" lon="1.44214">
				 <ele>2.1</ele>
			 </trkpt>
			 <trkpt lat="38.919041" lon="1.442004">
				 <ele>2.1</ele>
			 </trkpt>
			 <trkpt lat="38.918323" lon="1.441537">
				 <ele>2</ele>
			 </trkpt>
			 <trkpt lat="38.918196" lon="1.441434">
				 <ele>1.9</ele>
			 </trkpt>
			 <trkpt lat="38.91813" lon="1.440905">
				 <ele>1.9</ele>
			 </trkpt>
			 <trkpt lat="38.917826" lon="1.439308">
				 <ele>1.9</ele>
			 </trkpt>
			 <trkpt lat="38.91769" lon="1.4385">
				 <ele>1.9</ele>
			 </trkpt>
			 <trkpt lat="38.917638" lon="1.438275">
				 <ele>1.8</ele>
			 </trkpt>
			 <trkpt lat="38.917503" lon="1.437979">
				 <ele>1.7</ele>
			 </trkpt>
			 <trkpt lat="38.917418" lon="1.437862">
				 <ele>1.7</ele>
			 </trkpt>
			 <trkpt lat="38.917337" lon="1.437759">
				 <ele>1.7</ele>
			 </trkpt>
			 <trkpt lat="38.917325" lon="1.437687">
				 <ele>1.5</ele>
			 </trkpt>
			 <trkpt lat="38.917342" lon="1.4376">
				 <ele>1.5</ele>
			 </trkpt>
			 <trkpt lat="38.917401" lon="1.437539">
				 <ele>1.4</ele>
			 </trkpt>
			 <trkpt lat="38.917477" lon="1.43752">
				 <ele>1.3</ele>
			 </trkpt>
			 <trkpt lat="38.917619" lon="1.437455">
				 <ele>1.2</ele>
			 </trkpt>
			 <trkpt lat="38.91774" lon="1.437356">
				 <ele>1.1</ele>
			 </trkpt>
			 <trkpt lat="38.917803" lon="1.43724">
				 <ele>1.1</ele>
			 </trkpt>
			 <trkpt lat="38.917811" lon="1.437135">
				 <ele>1.2</ele>
			 </trkpt>
			 <trkpt lat="38.917789" lon="1.437023">
				 <ele>1.2</ele>
			 </trkpt>
			 <trkpt lat="38.917628" lon="1.436795">
				 <ele>1.2</ele>
			 </trkpt>
			 <trkpt lat="38.917493" lon="1.436625">
				 <ele>1.3</ele>
			 </trkpt>
			 <trkpt lat="38.917399" lon="1.436459">
				 <ele>1.4</ele>
			 </trkpt>
			 <trkpt lat="38.91707" lon="1.43569">
				 <ele>1.5</ele>
			 </trkpt>
			 <trkpt lat="38.916871" lon="1.435184">
				 <ele>1.7</ele>
			 </trkpt>
			 <trkpt lat="38.916704" lon="1.434665">
				 <ele>2</ele>
			 </trkpt>
			 <trkpt lat="38.916565" lon="1.434124">
				 <ele>2.3</ele>
			 </trkpt>
			 <trkpt lat="38.916479" lon="1.433631">
				 <ele>2.5</ele>
			 </trkpt>
			 <trkpt lat="38.916428" lon="1.433187">
				 <ele>2.8</ele>
			 </trkpt>
			 <trkpt lat="38.91641" lon="1.432449">
				 <ele>3.2</ele>
			 </trkpt>
			 <trkpt lat="38.916405" lon="1.430757">
				 <ele>3.6</ele>
			 </trkpt>
			 <trkpt lat="38.916375" lon="1.430257">
				 <ele>4.1</ele>
			 </trkpt>
			 <trkpt lat="38.91633" lon="1.429813">
				 <ele>4.5</ele>
			 </trkpt>
			 <trkpt lat="38.916113" lon="1.428561">
				 <ele>4.9</ele>
			 </trkpt>
			 <trkpt lat="38.916125" lon="1.428347">
				 <ele>5.3</ele>
			 </trkpt>
			 <trkpt lat="38.916174" lon="1.42819">
				 <ele>5.6</ele>
			 </trkpt>
			 <trkpt lat="38.916228" lon="1.428094">
				 <ele>5.9</ele>
			 </trkpt>
			 <trkpt lat="38.916373" lon="1.427942">
				 <ele>6.2</ele>
			 </trkpt>
			 <trkpt lat="38.916616" lon="1.427807">
				 <ele>6.6</ele>
			 </trkpt>
			 <trkpt lat="38.916736" lon="1.427796">
				 <ele>6.9</ele>
			 </trkpt>
			 <trkpt lat="38.916966" lon="1.427854">
				 <ele>7.4</ele>
			 </trkpt>
			 <trkpt lat="38.91718" lon="1.427957">
				 <ele>7.7</ele>
			 </trkpt>
			 <trkpt lat="38.917361" lon="1.42806">
				 <ele>8.2</ele>
			 </trkpt>
			 <trkpt lat="38.918104" lon="1.428593">
				 <ele>8.6</ele>
			 </trkpt>
			 <trkpt lat="38.918373" lon="1.428686">
				 <ele>8.9</ele>
			 </trkpt>
			 <trkpt lat="38.919133" lon="1.428883">
				 <ele>9</ele>
			 </trkpt>
			 <trkpt lat="38.919516" lon="1.428884">
				 <ele>9.2</ele>
			 </trkpt>
			 <trkpt lat="38.920001" lon="1.428822">
				 <ele>9.6</ele>
			 </trkpt>
			 <trkpt lat="38.920595" lon="1.428893">
				 <ele>10.3</ele>
			 </trkpt>
			 <trkpt lat="38.92078" lon="1.42894">
				 <ele>11.1</ele>
			 </trkpt>
			 <trkpt lat="38.921651" lon="1.429338">
				 <ele>12.1</ele>
			 </trkpt>
			 <trkpt lat="38.921934" lon="1.42941">
				 <ele>12.8</ele>
			 </trkpt>
			 <trkpt lat="38.922487" lon="1.429428">
				 <ele>13.6</ele>
			 </trkpt>
			 <trkpt lat="38.923525" lon="1.429544">
				 <ele>14.5</ele>
			 </trkpt>
			 <trkpt lat="38.926971" lon="1.429841">
				 <ele>15.5</ele>
			 </trkpt>
			 <trkpt lat="38.927334" lon="1.429833">
				 <ele>16.5</ele>
			 </trkpt>
			 <trkpt lat="38.92802" lon="1.429811">
				 <ele>17.5</ele>
			 </trkpt>
			 <trkpt lat="38.92825" lon="1.429811">
				 <ele>18.4</ele>
			 </trkpt>
			 <trkpt lat="38.930165" lon="1.42985">
				 <ele>18.9</ele>
			 </trkpt>
			 <trkpt lat="38.930369" lon="1.429816">
				 <ele>19.3</ele>
			 </trkpt>
			 <trkpt lat="38.931403" lon="1.429656">
				 <ele>19.4</ele>
			 </trkpt>
			 <trkpt lat="38.934547" lon="1.429725">
				 <ele>19.4</ele>
			 </trkpt>
			 <trkpt lat="38.934898" lon="1.429733">
				 <ele>19.4</ele>
			 </trkpt>
			 <trkpt lat="38.935344" lon="1.429712">
				 <ele>19.6</ele>
			 </trkpt>
			 <trkpt lat="38.935504" lon="1.429709">
				 <ele>19.9</ele>
			 </trkpt>
			 <trkpt lat="38.938491" lon="1.429802">
				 <ele>20.4</ele>
			 </trkpt>
			 <trkpt lat="38.938664" lon="1.429777">
				 <ele>20.8</ele>
			 </trkpt>
			 <trkpt lat="38.938931" lon="1.429697">
				 <ele>21.2</ele>
			 </trkpt>
			 <trkpt lat="38.939806" lon="1.429329">
				 <ele>21.5</ele>
			 </trkpt>
			 <trkpt lat="38.94051" lon="1.429017">
				 <ele>21.7</ele>
			 </trkpt>
			 <trkpt lat="38.941322" lon="1.428621">
				 <ele>22</ele>
			 </trkpt>
			 <trkpt lat="38.941602" lon="1.428523">
				 <ele>22.2</ele>
			 </trkpt>
			 <trkpt lat="38.942155" lon="1.428268">
				 <ele>22.3</ele>
			 </trkpt>
			 <trkpt lat="38.942952" lon="1.427902">
				 <ele>22.4</ele>
			 </trkpt>
			 <trkpt lat="38.943176" lon="1.427834">
				 <ele>22.3</ele>
			 </trkpt>
			 <trkpt lat="38.943325" lon="1.427797">
				 <ele>22</ele>
			 </trkpt>
			 <trkpt lat="38.94367" lon="1.427751">
				 <ele>21.5</ele>
			 </trkpt>
			 <trkpt lat="38.944039" lon="1.427778">
				 <ele>21.3</ele>
			 </trkpt>
			 <trkpt lat="38.944326" lon="1.42783">
				 <ele>21.4</ele>
			 </trkpt>
			 <trkpt lat="38.945181" lon="1.428015">
				 <ele>21.8</ele>
			 </trkpt>
			 <trkpt lat="38.945966" lon="1.428123">
				 <ele>22.8</ele>
			 </trkpt>
			 <trkpt lat="38.946874" lon="1.428278">
				 <ele>24.1</ele>
			 </trkpt>
			 <trkpt lat="38.947355" lon="1.42851">
				 <ele>25.7</ele>
			 </trkpt>
			 <trkpt lat="38.94811" lon="1.429025">
				 <ele>28.2</ele>
			 </trkpt>
			 <trkpt lat="38.949109" lon="1.429131">
				 <ele>30.8</ele>
			 </trkpt>
			 <trkpt lat="38.951949" lon="1.42913">
				 <ele>33.5</ele>
			 </trkpt>
			 <trkpt lat="38.953005" lon="1.429126">
				 <ele>36.1</ele>
			 </trkpt>
			 <trkpt lat="38.953654" lon="1.429003">
				 <ele>39.1</ele>
			 </trkpt>
			 <trkpt lat="38.955067" lon="1.42871">
				 <ele>41.9</ele>
			 </trkpt>
			 <trkpt lat="38.955744" lon="1.428552">
				 <ele>44.9</ele>
			 </trkpt>
			 <trkpt lat="38.956648" lon="1.428326">
				 <ele>47.9</ele>
			 </trkpt>
			 <trkpt lat="38.956761" lon="1.428273">
				 <ele>50.4</ele>
			 </trkpt>
			 <trkpt lat="38.957733" lon="1.427724">
				 <ele>52.5</ele>
			 </trkpt>
			 <trkpt lat="38.959229" lon="1.426802">
				 <ele>54.6</ele>
			 </trkpt>
			 <trkpt lat="38.960724" lon="1.425929">
				 <ele>56.1</ele>
			 </trkpt>
			 <trkpt lat="38.961091" lon="1.425683">
				 <ele>57.4</ele>
			 </trkpt>
			 <trkpt lat="38.961368" lon="1.425469">
				 <ele>58.7</ele>
			 </trkpt>
			 <trkpt lat="38.961712" lon="1.425221">
				 <ele>60.3</ele>
			 </trkpt>
			 <trkpt lat="38.962777" lon="1.424482">
				 <ele>61.4</ele>
			 </trkpt>
			 <trkpt lat="38.962934" lon="1.424397">
				 <ele>62.9</ele>
			 </trkpt>
			 <trkpt lat="38.963041" lon="1.424362">
				 <ele>64.5</ele>
			 </trkpt>
			 <trkpt lat="38.963744" lon="1.424274">
				 <ele>66</ele>
			 </trkpt>
			 <trkpt lat="38.964178" lon="1.424187">
				 <ele>67.8</ele>
			 </trkpt>
			 <trkpt lat="38.964372" lon="1.424135">
				 <ele>69.8</ele>
			 </trkpt>
			 <trkpt lat="38.96538" lon="1.423812">
				 <ele>72.2</ele>
			 </trkpt>
			 <trkpt lat="38.966004" lon="1.423496">
				 <ele>74.6</ele>
			 </trkpt>
			 <trkpt lat="38.966124" lon="1.423413">
				 <ele>77.1</ele>
			 </trkpt>
			 <trkpt lat="38.966783" lon="1.422812">
				 <ele>79.5</ele>
			 </trkpt>
			 <trkpt lat="38.967189" lon="1.422455">
				 <ele>81.8</ele>
			 </trkpt>
			 <trkpt lat="38.967627" lon="1.422112">
				 <ele>84.3</ele>
			 </trkpt>
			 <trkpt lat="38.968128" lon="1.421781">
				 <ele>86.4</ele>
			 </trkpt>
			 <trkpt lat="38.968327" lon="1.421712">
				 <ele>87.5</ele>
			 </trkpt>
			 <trkpt lat="38.968508" lon="1.421686">
				 <ele>88.5</ele>
			 </trkpt>
			 <trkpt lat="38.969896" lon="1.421496">
				 <ele>88.1</ele>
			 </trkpt>
			 <trkpt lat="38.970038" lon="1.421459">
				 <ele>86.8</ele>
			 </trkpt>
			 <trkpt lat="38.970311" lon="1.421328">
				 <ele>84.9</ele>
			 </trkpt>
			 <trkpt lat="38.972951" lon="1.419471">
				 <ele>82.8</ele>
			 </trkpt>
			 <trkpt lat="38.973524" lon="1.41893">
				 <ele>80.7</ele>
			 </trkpt>
			 <trkpt lat="38.975776" lon="1.417115">
				 <ele>78.5</ele>
			 </trkpt>
			 <trkpt lat="38.978375" lon="1.415269">
				 <ele>76.1</ele>
			 </trkpt>
			 <trkpt lat="38.978852" lon="1.414837">
				 <ele>73.5</ele>
			 </trkpt>
			 <trkpt lat="38.978972" lon="1.414814">
				 <ele>70.5</ele>
			 </trkpt>
			 <trkpt lat="38.979078" lon="1.414848">
				 <ele>68.1</ele>
			 </trkpt>
			 <trkpt lat="38.979161" lon="1.414912">
				 <ele>65.8</ele>
			 </trkpt>
			 <trkpt lat="38.979241" lon="1.415025">
				 <ele>64.6</ele>
			 </trkpt>
			 <trkpt lat="38.979391" lon="1.415373">
				 <ele>63.8</ele>
			 </trkpt>
			 <trkpt lat="38.980871" lon="1.418957">
				 <ele>63</ele>
			 </trkpt>
			 <trkpt lat="38.980987" lon="1.419309">
				 <ele>62.3</ele>
			 </trkpt>
			 <trkpt lat="38.981082" lon="1.419659">
				 <ele>61.7</ele>
			 </trkpt>
			 <trkpt lat="38.981152" lon="1.420019">
				 <ele>61.4</ele>
			 </trkpt>
			 <trkpt lat="38.981196" lon="1.42016">
				 <ele>61.1</ele>
			 </trkpt>
			 <trkpt lat="38.981221" lon="1.420586">
				 <ele>61</ele>
			 </trkpt>
			 <trkpt lat="38.981208" lon="1.420946">
				 <ele>61.3</ele>
			 </trkpt>
			 <trkpt lat="38.981166" lon="1.421347">
				 <ele>61.8</ele>
			 </trkpt>
			 <trkpt lat="38.981102" lon="1.421781">
				 <ele>63.6</ele>
			 </trkpt>
			 <trkpt lat="38.981021" lon="1.422185">
				 <ele>65.5</ele>
			 </trkpt>
			 <trkpt lat="38.980984" lon="1.422416">
				 <ele>67.6</ele>
			 </trkpt>
			 <trkpt lat="38.980956" lon="1.422836">
				 <ele>69.5</ele>
			 </trkpt>
			 <trkpt lat="38.980952" lon="1.423267">
				 <ele>71.3</ele>
			 </trkpt>
			 <trkpt lat="38.981196" lon="1.42651">
				 <ele>72.6</ele>
			 </trkpt>
			 <trkpt lat="38.981204" lon="1.426851">
				 <ele>73.7</ele>
			 </trkpt>
			 <trkpt lat="38.981194" lon="1.427105">
				 <ele>74.7</ele>
			 </trkpt>
			 <trkpt lat="38.981173" lon="1.427326">
				 <ele>75.5</ele>
			 </trkpt>
			 <trkpt lat="38.98111" lon="1.427655">
				 <ele>75.9</ele>
			 </trkpt>
			 <trkpt lat="38.981017" lon="1.427986">
				 <ele>76</ele>
			 </trkpt>
			 <trkpt lat="38.980907" lon="1.428266">
				 <ele>74.6</ele>
			 </trkpt>
			 <trkpt lat="38.980759" lon="1.428554">
				 <ele>73</ele>
			 </trkpt>
			 <trkpt lat="38.980613" lon="1.428776">
				 <ele>71.5</ele>
			 </trkpt>
			 <trkpt lat="38.980508" lon="1.428913">
				 <ele>70.1</ele>
			 </trkpt>
			 <trkpt lat="38.980342" lon="1.429101">
				 <ele>68.8</ele>
			 </trkpt>
			 <trkpt lat="38.98016" lon="1.429265">
				 <ele>67.7</ele>
			 </trkpt>
			 <trkpt lat="38.98001" lon="1.429375">
				 <ele>66.9</ele>
			 </trkpt>
			 <trkpt lat="38.979859" lon="1.429468">
				 <ele>66.3</ele>
			 </trkpt>
			 <trkpt lat="38.979632" lon="1.429584">
				 <ele>65.8</ele>
			 </trkpt>
			 <trkpt lat="38.978378" lon="1.430126">
				 <ele>65.6</ele>
			 </trkpt>
			 <trkpt lat="38.978141" lon="1.430252">
				 <ele>65.6</ele>
			 </trkpt>
			 <trkpt lat="38.977835" lon="1.430466">
				 <ele>65.7</ele>
			 </trkpt>
			 <trkpt lat="38.977667" lon="1.430626">
				 <ele>65.9</ele>
			 </trkpt>
			 <trkpt lat="38.977547" lon="1.430757">
				 <ele>66.1</ele>
			 </trkpt>
			 <trkpt lat="38.977431" lon="1.430903">
				 <ele>66.3</ele>
			 </trkpt>
			 <trkpt lat="38.977341" lon="1.431033">
				 <ele>66.5</ele>
			 </trkpt>
			 <trkpt lat="38.977189" lon="1.431298">
				 <ele>66.6</ele>
			 </trkpt>
			 <trkpt lat="38.977075" lon="1.431546">
				 <ele>66.8</ele>
			 </trkpt>
			 <trkpt lat="38.977016" lon="1.431707">
				 <ele>67</ele>
			 </trkpt>
			 <trkpt lat="38.976963" lon="1.431883">
				 <ele>67.9</ele>
			 </trkpt>
			 <trkpt lat="38.976923" lon="1.432015">
				 <ele>68.9</ele>
			 </trkpt>
			 <trkpt lat="38.976866" lon="1.432289">
				 <ele>69.9</ele>
			 </trkpt>
			 <trkpt lat="38.976824" lon="1.432653">
				 <ele>70.9</ele>
			 </trkpt>
			 <trkpt lat="38.976808" lon="1.433074">
				 <ele>71.9</ele>
			 </trkpt>
			 <trkpt lat="38.97675" lon="1.436515">
				 <ele>72.8</ele>
			 </trkpt>
			 <trkpt lat="38.976738" lon="1.436799">
				 <ele>73.9</ele>
			 </trkpt>
			 <trkpt lat="38.976703" lon="1.437257">
				 <ele>75.1</ele>
			 </trkpt>
			 <trkpt lat="38.976668" lon="1.437554">
				 <ele>76.4</ele>
			 </trkpt>
			 <trkpt lat="38.976619" lon="1.437868">
				 <ele>77.5</ele>
			 </trkpt>
			 <trkpt lat="38.976538" lon="1.438296">
				 <ele>78.5</ele>
			 </trkpt>
			 <trkpt lat="38.976115" lon="1.440397">
				 <ele>78.8</ele>
			 </trkpt>
			 <trkpt lat="38.976064" lon="1.440748">
				 <ele>79</ele>
			 </trkpt>
			 <trkpt lat="38.976052" lon="1.440996">
				 <ele>79.2</ele>
			 </trkpt>
			 <trkpt lat="38.976051" lon="1.441273">
				 <ele>79.7</ele>
			 </trkpt>
			 <trkpt lat="38.976104" lon="1.441907">
				 <ele>80.4</ele>
			 </trkpt>
			 <trkpt lat="38.976159" lon="1.442481">
				 <ele>81.2</ele>
			 </trkpt>
			 <trkpt lat="38.976214" lon="1.443055">
				 <ele>81.5</ele>
			 </trkpt>
			 <trkpt lat="38.976229" lon="1.443208">
				 <ele>81.7</ele>
			 </trkpt>
			 <trkpt lat="38.976447" lon="1.443429">
				 <ele>81.9</ele>
			 </trkpt>
			 <trkpt lat="38.976501" lon="1.44344">
				 <ele>82.3</ele>
			 </trkpt>
			 <trkpt lat="38.976577" lon="1.44344">
				 <ele>82.9</ele>
			 </trkpt>
			 <trkpt lat="38.976823" lon="1.443225">
				 <ele>83.7</ele>
			 </trkpt>
			 <trkpt lat="38.976979" lon="1.443058">
				 <ele>84.7</ele>
			 </trkpt>
			 <trkpt lat="38.977157" lon="1.442823">
				 <ele>86</ele>
			 </trkpt>
			 <trkpt lat="38.977428" lon="1.442432">
				 <ele>87.2</ele>
			 </trkpt>
			 <trkpt lat="38.977644" lon="1.442136">
				 <ele>88</ele>
			 </trkpt>
			 <trkpt lat="38.977873" lon="1.441874">
				 <ele>88.9</ele>
			 </trkpt>
			 <trkpt lat="38.978092" lon="1.441688">
				 <ele>90.3</ele>
			 </trkpt>
			 <trkpt lat="38.97841" lon="1.441466">
				 <ele>91.6</ele>
			 </trkpt>
			 <trkpt lat="38.978734" lon="1.441331">
				 <ele>93</ele>
			 </trkpt>
			 <trkpt lat="38.983187" lon="1.439911">
				 <ele>94.2</ele>
			 </trkpt>
			 <trkpt lat="38.984305" lon="1.439599">
				 <ele>95.2</ele>
			 </trkpt>
			 <trkpt lat="38.984552" lon="1.439515">
				 <ele>96.1</ele>
			 </trkpt>
			 <trkpt lat="38.984871" lon="1.439339">
				 <ele>96.9</ele>
			 </trkpt>
			 <trkpt lat="38.984974" lon="1.439279">
				 <ele>97.5</ele>
			 </trkpt>
			 <trkpt lat="38.985154" lon="1.439139">
				 <ele>98</ele>
			 </trkpt>
			 <trkpt lat="38.985327" lon="1.438977">
				 <ele>98.9</ele>
			 </trkpt>
			 <trkpt lat="38.985497" lon="1.438796">
				 <ele>99.6</ele>
			 </trkpt>
			 <trkpt lat="38.985933" lon="1.43827">
				 <ele>100.2</ele>
			 </trkpt>
			 <trkpt lat="38.98628" lon="1.437826">
				 <ele>100.6</ele>
			 </trkpt>
			 <trkpt lat="38.986649" lon="1.437326">
				 <ele>101.1</ele>
			 </trkpt>
			 <trkpt lat="38.987176" lon="1.436661">
				 <ele>101.5</ele>
			 </trkpt>
			 <trkpt lat="38.98738" lon="1.436429">
				 <ele>102.3</ele>
			 </trkpt>
			 <trkpt lat="38.987637" lon="1.436162">
				 <ele>103.1</ele>
			 </trkpt>
			 <trkpt lat="38.987856" lon="1.435971">
				 <ele>104.3</ele>
			 </trkpt>
			 <trkpt lat="38.988058" lon="1.435827">
				 <ele>105.5</ele>
			 </trkpt>
			 <trkpt lat="38.988294" lon="1.435676">
				 <ele>106.8</ele>
			 </trkpt>
			 <trkpt lat="38.991813" lon="1.433624">
				 <ele>108.3</ele>
			 </trkpt>
			 <trkpt lat="38.994562" lon="1.432033">
				 <ele>109.4</ele>
			 </trkpt>
			 <trkpt lat="38.996156" lon="1.431132">
				 <ele>110.5</ele>
			 </trkpt>
			 <trkpt lat="38.99624" lon="1.431094">
				 <ele>111.7</ele>
			 </trkpt>
			 <trkpt lat="38.996407" lon="1.430912">
				 <ele>112.9</ele>
			 </trkpt>
			 <trkpt lat="38.996411" lon="1.430528">
				 <ele>114.1</ele>
			 </trkpt>
			 <trkpt lat="38.996324" lon="1.430249">
				 <ele>115</ele>
			 </trkpt>
			 <trkpt lat="38.996276" lon="1.43007">
				 <ele>115.6</ele>
			 </trkpt>
			 <trkpt lat="38.99626" lon="1.429937">
				 <ele>115.8</ele>
			 </trkpt>
			 <trkpt lat="38.996263" lon="1.429786">
				 <ele>116</ele>
			 </trkpt>
			 <trkpt lat="38.996268" lon="1.429695">
				 <ele>115.7</ele>
			 </trkpt>
			 <trkpt lat="38.996316" lon="1.429368">
				 <ele>115.3</ele>
			 </trkpt>
			 <trkpt lat="38.996399" lon="1.428968">
				 <ele>115.1</ele>
			 </trkpt>
			 <trkpt lat="38.996445" lon="1.428768">
				 <ele>114.9</ele>
			 </trkpt>
			 <trkpt lat="38.996485" lon="1.428632">
				 <ele>115.4</ele>
			 </trkpt>
			 <trkpt lat="38.996551" lon="1.428412">
				 <ele>116.2</ele>
			 </trkpt>
			 <trkpt lat="38.996646" lon="1.428161">
				 <ele>117.1</ele>
			 </trkpt>
			 <trkpt lat="38.996725" lon="1.427983">
				 <ele>117.9</ele>
			 </trkpt>
			 <trkpt lat="38.996806" lon="1.427831">
				 <ele>118.8</ele>
			 </trkpt>
			 <trkpt lat="38.997662" lon="1.426295">
				 <ele>119.7</ele>
			 </trkpt>
			 <trkpt lat="38.997684" lon="1.426316">
				 <ele>120.6</ele>
			 </trkpt>
			 <trkpt lat="38.997766" lon="1.42636">
				 <ele>121.5</ele>
			 </trkpt>
			 <trkpt lat="38.99783" lon="1.426403">
				 <ele>122.5</ele>
			 </trkpt>
			 <trkpt lat="38.997946" lon="1.426501">
				 <ele>123.5</ele>
			 </trkpt>
			 <trkpt lat="38.998079" lon="1.426673">
				 <ele>124.7</ele>
			 </trkpt>
			 <trkpt lat="38.998219" lon="1.426893">
				 <ele>125.5</ele>
			 </trkpt>
			 <trkpt lat="38.998364" lon="1.427193">
				 <ele>125.8</ele>
			 </trkpt>
			 <trkpt lat="38.998087" lon="1.427407">
				 <ele>126.1</ele>
			 </trkpt>
			 <trkpt lat="38.998" lon="1.427507">
				 <ele>126.4</ele>
			 </trkpt>
			 <trkpt lat="38.997957" lon="1.427685">
				 <ele>126.5</ele>
			 </trkpt>
			 <trkpt lat="38.997962" lon="1.427893">
				 <ele>126.7</ele>
			 </trkpt>
			 <trkpt lat="38.997955" lon="1.428115">
				 <ele>126.5</ele>
			 </trkpt>
			 <trkpt lat="38.997979" lon="1.428429">
				 <ele>126.3</ele>
			 </trkpt>
			 <trkpt lat="38.997986" lon="1.428532">
				 <ele>125.9</ele>
			 </trkpt>
			 <trkpt lat="38.997904" lon="1.42861">
				 <ele>125.5</ele>
			 </trkpt>
			 <trkpt lat="38.997812" lon="1.42873">
				 <ele>124.9</ele>
			 </trkpt>
			 <trkpt lat="38.997701" lon="1.429719">
				 <ele>124.2</ele>
			 </trkpt>
			 <trkpt lat="38.997637" lon="1.430183">
				 <ele>123.4</ele>
			 </trkpt>
			 <trkpt lat="38.99766" lon="1.430291">
				 <ele>122.5</ele>
			 </trkpt>
			 <trkpt lat="38.997712" lon="1.43038">
				 <ele>121.6</ele>
			 </trkpt>
			 <trkpt lat="38.997771" lon="1.430423">
				 <ele>120.7</ele>
			 </trkpt>
			 <trkpt lat="38.997923" lon="1.430436">
				 <ele>119.7</ele>
			 </trkpt>
			 <trkpt lat="38.99808" lon="1.430417">
				 <ele>119.1</ele>
			 </trkpt>
			 <trkpt lat="38.998229" lon="1.430501">
				 <ele>118.7</ele>
			 </trkpt>
			 <trkpt lat="38.998375" lon="1.430758">
				 <ele>118.1</ele>
			 </trkpt>
			 <trkpt lat="38.998431" lon="1.430888">
				 <ele>117.5</ele>
			 </trkpt>
			 <trkpt lat="38.99849" lon="1.431022">
				 <ele>116.9</ele>
			 </trkpt>
			 <trkpt lat="38.998496" lon="1.431248">
				 <ele>116.2</ele>
			 </trkpt>
			 <trkpt lat="38.998356" lon="1.432857">
				 <ele>114.9</ele>
			 </trkpt>
			 <trkpt lat="38.998313" lon="1.433447">
				 <ele>113.5</ele>
			 </trkpt>
			 <trkpt lat="38.998315" lon="1.433485">
				 <ele>112.2</ele>
			 </trkpt>
			 <trkpt lat="38.998326" lon="1.433695">
				 <ele>110.9</ele>
			 </trkpt>
			 <trkpt lat="38.998361" lon="1.433873">
				 <ele>109.8</ele>
			 </trkpt>
			 <trkpt lat="38.998751" lon="1.435054">
				 <ele>108.8</ele>
			 </trkpt>
			 <trkpt lat="38.999015" lon="1.435897">
				 <ele>108.1</ele>
			 </trkpt>
			 <trkpt lat="38.999069" lon="1.436072">
				 <ele>107.8</ele>
			 </trkpt>
			 <trkpt lat="38.999132" lon="1.436213">
				 <ele>107.7</ele>
			 </trkpt>
			 <trkpt lat="38.999197" lon="1.436317">
				 <ele>107.8</ele>
			 </trkpt>
			 <trkpt lat="38.999338" lon="1.436426">
				 <ele>108</ele>
			 </trkpt>
			 <trkpt lat="38.999712" lon="1.436572">
				 <ele>108.9</ele>
			 </trkpt>
			 <trkpt lat="39.000269" lon="1.436743">
				 <ele>109.9</ele>
			 </trkpt>
			 <trkpt lat="39.000824" lon="1.436979">
				 <ele>111.2</ele>
			 </trkpt>
			 <trkpt lat="39.001164" lon="1.437193">
				 <ele>112.5</ele>
			 </trkpt>
			 <trkpt lat="39.001254" lon="1.437266">
				 <ele>114</ele>
			 </trkpt>
			 <trkpt lat="39.001335" lon="1.437372">
				 <ele>115.5</ele>
			 </trkpt>
			 <trkpt lat="39.00138" lon="1.43747">
				 <ele>116.9</ele>
			 </trkpt>
			 <trkpt lat="39.001509" lon="1.437885">
				 <ele>118.2</ele>
			 </trkpt>
			 <trkpt lat="39.001542" lon="1.438036">
				 <ele>119.5</ele>
			 </trkpt>
			 <trkpt lat="39.001547" lon="1.438202">
				 <ele>120.7</ele>
			 </trkpt>
			 <trkpt lat="39.001553" lon="1.438365">
				 <ele>121.7</ele>
			 </trkpt>
			 <trkpt lat="39.001582" lon="1.438719">
				 <ele>122.3</ele>
			 </trkpt>
			 <trkpt lat="39.001506" lon="1.438805">
				 <ele>122.4</ele>
			 </trkpt>
			 <trkpt lat="39.001491" lon="1.439081">
				 <ele>122</ele>
			 </trkpt>
			 <trkpt lat="39.001439" lon="1.439461">
				 <ele>121.3</ele>
			 </trkpt>
			 <trkpt lat="39.001337" lon="1.440465">
				 <ele>120.5</ele>
			 </trkpt>
			 <trkpt lat="39.00132" lon="1.440824">
				 <ele>119.5</ele>
			 </trkpt>
			 <trkpt lat="39.001308" lon="1.441393">
				 <ele>118.4</ele>
			 </trkpt>
			 <trkpt lat="39.001329" lon="1.441714">
				 <ele>117.3</ele>
			 </trkpt>
			 <trkpt lat="39.001555" lon="1.444947">
				 <ele>116.2</ele>
			 </trkpt>
			 <trkpt lat="39.001585" lon="1.445125">
				 <ele>115.1</ele>
			 </trkpt>
			 <trkpt lat="39.001607" lon="1.445202">
				 <ele>114.4</ele>
			 </trkpt>
			 <trkpt lat="39.001667" lon="1.445409">
				 <ele>114.1</ele>
			 </trkpt>
			 <trkpt lat="39.001937" lon="1.445699">
				 <ele>114.5</ele>
			 </trkpt>
			 <trkpt lat="39.002275" lon="1.446097">
				 <ele>115.1</ele>
			 </trkpt>
			 <trkpt lat="39.002561" lon="1.446478">
				 <ele>116.1</ele>
			 </trkpt>
			 <trkpt lat="39.003" lon="1.446966">
				 <ele>117.1</ele>
			 </trkpt>
			 <trkpt lat="39.003269" lon="1.447218">
				 <ele>118.3</ele>
			 </trkpt>
			 <trkpt lat="39.003792" lon="1.448012">
				 <ele>119.5</ele>
			 </trkpt>
			 <trkpt lat="39.005089" lon="1.449311">
				 <ele>120.7</ele>
			 </trkpt>
			 <trkpt lat="39.005297" lon="1.449647">
				 <ele>121.7</ele>
			 </trkpt>
			 <trkpt lat="39.005401" lon="1.449815">
				 <ele>122.7</ele>
			 </trkpt>
			 <trkpt lat="39.005518" lon="1.450158">
				 <ele>123.6</ele>
			 </trkpt>
			 <trkpt lat="39.005593" lon="1.450561">
				 <ele>124.5</ele>
			 </trkpt>
			 <trkpt lat="39.005601" lon="1.450866">
				 <ele>125.3</ele>
			 </trkpt>
			 <trkpt lat="39.005629" lon="1.451064">
				 <ele>126</ele>
			 </trkpt>
			 <trkpt lat="39.005806" lon="1.45129">
				 <ele>126.4</ele>
			 </trkpt>
			 <trkpt lat="39.006047" lon="1.451553">
				 <ele>126.5</ele>
			 </trkpt>
			 <trkpt lat="39.006435" lon="1.452229">
				 <ele>126.5</ele>
			 </trkpt>
			 <trkpt lat="39.006494" lon="1.452349">
				 <ele>126.2</ele>
			 </trkpt>
			 <trkpt lat="39.006667" lon="1.4527">
				 <ele>125.8</ele>
			 </trkpt>
			 <trkpt lat="39.006844" lon="1.453114">
				 <ele>125.4</ele>
			 </trkpt>
			 <trkpt lat="39.006906" lon="1.453334">
				 <ele>124.7</ele>
			 </trkpt>
			 <trkpt lat="39.006952" lon="1.453549">
				 <ele>124</ele>
			 </trkpt>
			 <trkpt lat="39.006973" lon="1.453691">
				 <ele>123.2</ele>
			 </trkpt>
			 <trkpt lat="39.006854" lon="1.454102">
				 <ele>122.3</ele>
			 </trkpt>
			 <trkpt lat="39.006731" lon="1.454606">
				 <ele>121.4</ele>
			 </trkpt>
			 <trkpt lat="39.00666" lon="1.45496">
				 <ele>120.6</ele>
			 </trkpt>
			 <trkpt lat="39.006609" lon="1.455279">
				 <ele>119.9</ele>
			 </trkpt>
			 <trkpt lat="39.006489" lon="1.455938">
				 <ele>119.2</ele>
			 </trkpt>
			 <trkpt lat="39.006306" lon="1.456817">
				 <ele>118.5</ele>
			 </trkpt>
			 <trkpt lat="39.006278" lon="1.45699">
				 <ele>117.7</ele>
			 </trkpt>
			 <trkpt lat="39.006287" lon="1.457445">
				 <ele>117.1</ele>
			 </trkpt>
			 <trkpt lat="39.006211" lon="1.457944">
				 <ele>116.5</ele>
			 </trkpt>
			 <trkpt lat="39.006079" lon="1.458972">
				 <ele>115.8</ele>
			 </trkpt>
			 <trkpt lat="39.006067" lon="1.459268">
				 <ele>115.2</ele>
			 </trkpt>
			 <trkpt lat="39.006125" lon="1.459712">
				 <ele>114.4</ele>
			 </trkpt>
			 <trkpt lat="39.006096" lon="1.460204">
				 <ele>113.6</ele>
			 </trkpt>
			 <trkpt lat="39.006138" lon="1.460869">
				 <ele>112.9</ele>
			 </trkpt>
			 <trkpt lat="39.006165" lon="1.461002">
				 <ele>112.2</ele>
			 </trkpt>
			 <trkpt lat="39.006225" lon="1.461138">
				 <ele>111.7</ele>
			 </trkpt>
			 <trkpt lat="39.006457" lon="1.461538">
				 <ele>111.4</ele>
			 </trkpt>
			 <trkpt lat="39.006478" lon="1.461614">
				 <ele>111.2</ele>
			 </trkpt>
			 <trkpt lat="39.00652" lon="1.461839">
				 <ele>111.2</ele>
			 </trkpt>
			 <trkpt lat="39.006528" lon="1.462681">
				 <ele>111.5</ele>
			 </trkpt>
			 <trkpt lat="39.006665" lon="1.463712">
				 <ele>112.2</ele>
			 </trkpt>
			 <trkpt lat="39.006659" lon="1.463777">
				 <ele>113</ele>
			 </trkpt>
			 <trkpt lat="39.006613" lon="1.464208">
				 <ele>114.2</ele>
			 </trkpt>
			 <trkpt lat="39.006483" lon="1.464734">
				 <ele>115.5</ele>
			 </trkpt>
			 <trkpt lat="39.006316" lon="1.465079">
				 <ele>116.7</ele>
			 </trkpt>
			 <trkpt lat="39.006213" lon="1.465477">
				 <ele>118.1</ele>
			 </trkpt>
			 <trkpt lat="39.006079" lon="1.466311">
				 <ele>119.1</ele>
			 </trkpt>
			 <trkpt lat="39.005875" lon="1.467266">
				 <ele>120.3</ele>
			 </trkpt>
			 <trkpt lat="39.00581" lon="1.467525">
				 <ele>121.5</ele>
			 </trkpt>
			 <trkpt lat="39.005762" lon="1.468048">
				 <ele>122.5</ele>
			 </trkpt>
			 <trkpt lat="39.005752" lon="1.46842">
				 <ele>123.5</ele>
			 </trkpt>
			 <trkpt lat="39.00591" lon="1.469015">
				 <ele>124.7</ele>
			 </trkpt>
			 <trkpt lat="39.005892" lon="1.46924">
				 <ele>125.8</ele>
			 </trkpt>
			 <trkpt lat="39.005831" lon="1.46953">
				 <ele>126.7</ele>
			 </trkpt>
			 <trkpt lat="39.005769" lon="1.469685">
				 <ele>127.4</ele>
			 </trkpt>
			 <trkpt lat="39.00571" lon="1.46983">
				 <ele>128</ele>
			 </trkpt>
			 <trkpt lat="39.005358" lon="1.470317">
				 <ele>128.5</ele>
			 </trkpt>
			 <trkpt lat="39.005294" lon="1.470424">
				 <ele>129.1</ele>
			 </trkpt>
			 <trkpt lat="39.005266" lon="1.470522">
				 <ele>129.5</ele>
			 </trkpt>
			 <trkpt lat="39.005241" lon="1.470653">
				 <ele>130.5</ele>
			 </trkpt>
			 <trkpt lat="39.005198" lon="1.470793">
				 <ele>131.3</ele>
			 </trkpt>
			 <trkpt lat="39.00497" lon="1.471217">
				 <ele>132</ele>
			 </trkpt>
			 <trkpt lat="39.004814" lon="1.471366">
				 <ele>131.7</ele>
			 </trkpt>
			 <trkpt lat="39.004648" lon="1.471466">
				 <ele>131.2</ele>
			 </trkpt>
			 <trkpt lat="39.003962" lon="1.471625">
				 <ele>130.7</ele>
			 </trkpt>
			 <trkpt lat="39.003878" lon="1.471675">
				 <ele>130.3</ele>
			 </trkpt>
			 <trkpt lat="39.003813" lon="1.471745">
				 <ele>129.8</ele>
			 </trkpt>
			 <trkpt lat="39.003611" lon="1.472433">
				 <ele>129.5</ele>
			 </trkpt>
			 <trkpt lat="39.003475" lon="1.472813">
				 <ele>129.2</ele>
			 </trkpt>
			 <trkpt lat="39.003393" lon="1.473004">
				 <ele>128.9</ele>
			 </trkpt>
			 <trkpt lat="39.003373" lon="1.473085">
				 <ele>128.3</ele>
			 </trkpt>
			 <trkpt lat="39.003328" lon="1.473175">
				 <ele>127.7</ele>
			 </trkpt>
			 <trkpt lat="39.002555" lon="1.474049">
				 <ele>127</ele>
			 </trkpt>
			 <trkpt lat="39.002375" lon="1.474276">
				 <ele>126.7</ele>
			 </trkpt>
			 <trkpt lat="39.002331" lon="1.474331">
				 <ele>126.7</ele>
			 </trkpt>
			 <trkpt lat="39.002232" lon="1.474485">
				 <ele>126.3</ele>
			 </trkpt>
			 <trkpt lat="39.002202" lon="1.474595">
				 <ele>125</ele>
			 </trkpt>
			 <trkpt lat="39.002319" lon="1.475033">
				 <ele>123.6</ele>
			 </trkpt>
			 <trkpt lat="39.002333" lon="1.475367">
				 <ele>122.4</ele>
			 </trkpt>
			 <trkpt lat="39.002265" lon="1.475931">
				 <ele>120.9</ele>
			 </trkpt>
			 <trkpt lat="39.002051" lon="1.476366">
				 <ele>119.5</ele>
			 </trkpt>
			 <trkpt lat="39.00141" lon="1.477126">
				 <ele>117.8</ele>
			 </trkpt>
			 <trkpt lat="39.001266" lon="1.477266">
				 <ele>115.9</ele>
			 </trkpt>
			 <trkpt lat="39.001073" lon="1.47737">
				 <ele>113.9</ele>
			 </trkpt>
			 <trkpt lat="39.000734" lon="1.4775">
				 <ele>111.7</ele>
			 </trkpt>
			 <trkpt lat="39.000163" lon="1.477815">
				 <ele>109.6</ele>
			 </trkpt>
			 <trkpt lat="38.999694" lon="1.478002">
				 <ele>108.2</ele>
			 </trkpt>
			 <trkpt lat="38.999034" lon="1.478227">
				 <ele>107.7</ele>
			 </trkpt>
			 <trkpt lat="38.998612" lon="1.47854">
				 <ele>107.3</ele>
			 </trkpt>
			 <trkpt lat="38.99817" lon="1.478797">
				 <ele>106.5</ele>
			 </trkpt>
			 <trkpt lat="38.997963" lon="1.478898">
				 <ele>105.3</ele>
			 </trkpt>
			 <trkpt lat="38.997702" lon="1.478967">
				 <ele>104.2</ele>
			 </trkpt>
			 <trkpt lat="38.997364" lon="1.479124">
				 <ele>103.2</ele>
			 </trkpt>
			 <trkpt lat="38.996438" lon="1.479644">
				 <ele>102.4</ele>
			 </trkpt>
			 <trkpt lat="38.996237" lon="1.479819">
				 <ele>101.7</ele>
			 </trkpt>
			 <trkpt lat="38.995605" lon="1.480331">
				 <ele>100.9</ele>
			 </trkpt>
			 <trkpt lat="38.995413" lon="1.480573">
				 <ele>99.9</ele>
			 </trkpt>
			 <trkpt lat="38.995209" lon="1.480832">
				 <ele>98.6</ele>
			 </trkpt>
			 <trkpt lat="38.995144" lon="1.480943">
				 <ele>97.2</ele>
			 </trkpt>
			 <trkpt lat="38.995106" lon="1.48104">
				 <ele>95.6</ele>
			 </trkpt>
			 <trkpt lat="38.994884" lon="1.481526">
				 <ele>94.2</ele>
			 </trkpt>
			 <trkpt lat="38.994503" lon="1.48192">
				 <ele>93.1</ele>
			 </trkpt>
			 <trkpt lat="38.994284" lon="1.482275">
				 <ele>91.7</ele>
			 </trkpt>
			 <trkpt lat="38.994077" lon="1.482561">
				 <ele>90.1</ele>
			 </trkpt>
			 <trkpt lat="38.993997" lon="1.482739">
				 <ele>87.6</ele>
			 </trkpt>
			 <trkpt lat="38.993846" lon="1.483188">
				 <ele>84.9</ele>
			 </trkpt>
			 <trkpt lat="38.993776" lon="1.483397">
				 <ele>82.9</ele>
			 </trkpt>
			 <trkpt lat="38.993732" lon="1.483574">
				 <ele>80.9</ele>
			 </trkpt>
			 <trkpt lat="38.993726" lon="1.483869">
				 <ele>78.9</ele>
			 </trkpt>
			 <trkpt lat="38.993571" lon="1.485401">
				 <ele>76.8</ele>
			 </trkpt>
			 <trkpt lat="38.993325" lon="1.486202">
				 <ele>74.5</ele>
			 </trkpt>
			 <trkpt lat="38.993229" lon="1.486223">
				 <ele>72.1</ele>
			 </trkpt>
			 <trkpt lat="38.991288" lon="1.485065">
				 <ele>69.3</ele>
			 </trkpt>
			 <trkpt lat="38.99114" lon="1.485083">
				 <ele>65.7</ele>
			 </trkpt>
			 <trkpt lat="38.990987" lon="1.485372">
				 <ele>62.5</ele>
			 </trkpt>
			 <trkpt lat="38.990627" lon="1.486204">
				 <ele>60</ele>
			 </trkpt>
			 <trkpt lat="38.990055" lon="1.486888">
				 <ele>58</ele>
			 </trkpt>
			 <trkpt lat="38.989093" lon="1.487967">
				 <ele>55.7</ele>
			 </trkpt>
			 <trkpt lat="38.987006" lon="1.490013">
				 <ele>53.6</ele>
			 </trkpt>
			 <trkpt lat="38.986632" lon="1.490319">
				 <ele>51.9</ele>
			 </trkpt>
			 <trkpt lat="38.98648" lon="1.490573">
				 <ele>50.5</ele>
			 </trkpt>
			 <trkpt lat="38.986066" lon="1.491501">
				 <ele>49.5</ele>
			 </trkpt>
			 <trkpt lat="38.985547" lon="1.4928">
				 <ele>48.8</ele>
			 </trkpt>
			 <trkpt lat="38.98553" lon="1.492996">
				 <ele>48.7</ele>
			 </trkpt>
			 <trkpt lat="38.985177" lon="1.49615">
				 <ele>49.6</ele>
			 </trkpt>
			 <trkpt lat="38.985142" lon="1.496384">
				 <ele>50.5</ele>
			 </trkpt>
			 <trkpt lat="38.985103" lon="1.496473">
				 <ele>51.5</ele>
			 </trkpt>
			 <trkpt lat="38.985063" lon="1.49652">
				 <ele>52.5</ele>
			 </trkpt>
			 <trkpt lat="38.985129" lon="1.496858">
				 <ele>53.2</ele>
			 </trkpt>
			 <trkpt lat="38.985171" lon="1.497188">
				 <ele>52.5</ele>
			 </trkpt>
			 <trkpt lat="38.985197" lon="1.497522">
				 <ele>51.2</ele>
			 </trkpt>
			 <trkpt lat="38.985203" lon="1.497818">
				 <ele>49.7</ele>
			 </trkpt>
			 <trkpt lat="38.98519" lon="1.49809">
				 <ele>47.9</ele>
			 </trkpt>
			 <trkpt lat="38.985118" lon="1.49867">
				 <ele>46</ele>
			 </trkpt>
			 <trkpt lat="38.984262" lon="1.503677">
				 <ele>44.1</ele>
			 </trkpt>
			 <trkpt lat="38.983763" lon="1.506658">
				 <ele>42.1</ele>
			 </trkpt>
			 <trkpt lat="38.983166" lon="1.510155">
				 <ele>40</ele>
			 </trkpt>
			 <trkpt lat="38.982989" lon="1.511249">
				 <ele>37.9</ele>
			 </trkpt>
			 <trkpt lat="38.982934" lon="1.511667">
				 <ele>35.8</ele>
			 </trkpt>
			 <trkpt lat="38.982925" lon="1.511956">
				 <ele>34</ele>
			 </trkpt>
			 <trkpt lat="38.982923" lon="1.512033">
				 <ele>33.5</ele>
			 </trkpt>
			 <trkpt lat="38.982946" lon="1.512335">
				 <ele>33.5</ele>
			 </trkpt>
			 <trkpt lat="38.982973" lon="1.512569">
				 <ele>33.5</ele>
			 </trkpt>
			 <trkpt lat="38.983021" lon="1.512786">
				 <ele>33.9</ele>
			 </trkpt>
			 <trkpt lat="38.983168" lon="1.513243">
				 <ele>34.4</ele>
			 </trkpt>
			 <trkpt lat="38.983366" lon="1.513709">
				 <ele>34.7</ele>
			 </trkpt>
			 <trkpt lat="38.98381" lon="1.514697">
				 <ele>35</ele>
			 </trkpt>
			 <trkpt lat="38.984103" lon="1.515374">
				 <ele>35.3</ele>
			 </trkpt>
			 <trkpt lat="38.984182" lon="1.51553">
				 <ele>35.4</ele>
			 </trkpt>
			 <trkpt lat="38.984756" lon="1.516808">
				 <ele>35.5</ele>
			 </trkpt>
			 <trkpt lat="38.984878" lon="1.51723">
				 <ele>35.5</ele>
			 </trkpt>
			 <trkpt lat="38.984946" lon="1.517583">
				 <ele>34.9</ele>
			 </trkpt>
			 <trkpt lat="38.984948" lon="1.517622">
				 <ele>34.1</ele>
			 </trkpt>
			 <trkpt lat="38.984973" lon="1.518097">
				 <ele>33.3</ele>
			 </trkpt>
			 <trkpt lat="38.984949" lon="1.518621">
				 <ele>32.3</ele>
			 </trkpt>
			 <trkpt lat="38.984729" lon="1.521635">
				 <ele>30.5</ele>
			 </trkpt>
			 <trkpt lat="38.98467" lon="1.523255">
				 <ele>28.8</ele>
			 </trkpt>
			 <trkpt lat="38.98465" lon="1.523407">
				 <ele>27.2</ele>
			 </trkpt>
			 <trkpt lat="38.984623" lon="1.523609">
				 <ele>25.5</ele>
			 </trkpt>
			 <trkpt lat="38.984511" lon="1.523936">
				 <ele>23.8</ele>
			 </trkpt>
			 <trkpt lat="38.98389" lon="1.525104">
				 <ele>22.1</ele>
			 </trkpt>
			 <trkpt lat="38.983686" lon="1.525386">
				 <ele>20.5</ele>
			 </trkpt>
			 <trkpt lat="38.983628" lon="1.525453">
				 <ele>19.2</ele>
			 </trkpt>
			 <trkpt lat="38.983565" lon="1.525502">
				 <ele>17.9</ele>
			 </trkpt>
			 <trkpt lat="38.983507" lon="1.525536">
				 <ele>16.5</ele>
			 </trkpt>
			 <trkpt lat="38.98348" lon="1.525571">
				 <ele>15</ele>
			 </trkpt>
			 <trkpt lat="38.983461" lon="1.525614">
				 <ele>14.1</ele>
			 </trkpt>
			 <trkpt lat="38.983451" lon="1.525662">
				 <ele>13.2</ele>
			 </trkpt>
			 <trkpt lat="38.983458" lon="1.525739">
				 <ele>12.2</ele>
			 </trkpt>
			 <trkpt lat="38.983359" lon="1.526134">
				 <ele>11.3</ele>
			 </trkpt>
			 <trkpt lat="38.983214" lon="1.526426">
				 <ele>10.4</ele>
			 </trkpt>
			 <trkpt lat="38.983159" lon="1.526576">
				 <ele>9.5</ele>
			 </trkpt>
			 <trkpt lat="38.983141" lon="1.526719">
				 <ele>8.5</ele>
			 </trkpt>
			 <trkpt lat="38.983147" lon="1.526815">
				 <ele>7.8</ele>
			 </trkpt>
			 <trkpt lat="38.983177" lon="1.526948">
				 <ele>7.2</ele>
			 </trkpt>
			 <trkpt lat="38.983384" lon="1.527644">
				 <ele>6.8</ele>
			 </trkpt>
			 <trkpt lat="38.983402" lon="1.52776">
				 <ele>6.5</ele>
			 </trkpt>
			 <trkpt lat="38.983406" lon="1.527876">
				 <ele>6.3</ele>
			 </trkpt>
			 <trkpt lat="38.983384" lon="1.528037">
				 <ele>6.1</ele>
			 </trkpt>
			 <trkpt lat="38.983321" lon="1.528189">
				 <ele>6</ele>
			 </trkpt>
			 <trkpt lat="38.983224" lon="1.528322">
				 <ele>5.9</ele>
			 </trkpt>
			 <trkpt lat="38.983114" lon="1.528444">
				 <ele>5.8</ele>
			 </trkpt>
			 <trkpt lat="38.982756" lon="1.528784">
				 <ele>5.8</ele>
			 </trkpt>
			 <trkpt lat="38.982694" lon="1.528853">
				 <ele>5.9</ele>
			 </trkpt>
			 <trkpt lat="38.982652" lon="1.528935">
				 <ele>6</ele>
			 </trkpt>
			 <trkpt lat="38.982628" lon="1.529043">
				 <ele>6.1</ele>
			 </trkpt>
			 <trkpt lat="38.982628" lon="1.529164">
				 <ele>6.3</ele>
			 </trkpt>
			 <trkpt lat="38.982628" lon="1.529247">
				 <ele>6.5</ele>
			 </trkpt>
			 <trkpt lat="38.982651" lon="1.529507">
				 <ele>7</ele>
			 </trkpt>
			 <trkpt lat="38.982687" lon="1.529767">
				 <ele>7.8</ele>
			 </trkpt>
			 <trkpt lat="38.982732" lon="1.529978">
				 <ele>8.5</ele>
			 </trkpt>
			 <trkpt lat="38.982774" lon="1.530105">
				 <ele>9.1</ele>
			 </trkpt>
			 <trkpt lat="38.98289" lon="1.53034">
				 <ele>9.6</ele>
			 </trkpt>
			 <trkpt lat="38.983075" lon="1.530683">
				 <ele>10.1</ele>
			 </trkpt>
			 <trkpt lat="38.984217" lon="1.532667">
				 <ele>10.5</ele>
			 </trkpt>
			 <trkpt lat="38.984523" lon="1.533256">
				 <ele>10.8</ele>
			 </trkpt>
			 <trkpt lat="38.984903" lon="1.534042">
				 <ele>11.3</ele>
			 </trkpt>
			 <trkpt lat="38.985442" lon="1.535124">
				 <ele>11.6</ele>
			 </trkpt>
			 <trkpt lat="38.985542" lon="1.535321">
				 <ele>12</ele>
			 </trkpt>
			 <trkpt lat="38.985681" lon="1.535591">
				 <ele>12.2</ele>
			 </trkpt>
			 <trkpt lat="38.98583" lon="1.535882">
				 <ele>11.8</ele>
			 </trkpt>
			 <trkpt lat="38.985963" lon="1.536133">
				 <ele>11.7</ele>
			 </trkpt>
			 <trkpt lat="38.986309" lon="1.536826">
				 <ele>11.8</ele>
			 </trkpt>
			 <trkpt lat="38.98641" lon="1.537013">
				 <ele>11.9</ele>
			 </trkpt>
			 <trkpt lat="38.986571" lon="1.537273">
				 <ele>12</ele>
			 </trkpt>
			 <trkpt lat="38.986914" lon="1.537659">
				 <ele>12.2</ele>
			 </trkpt>
			 <trkpt lat="38.989849" lon="1.540356">
				 <ele>12.2</ele>
			 </trkpt>
			 <trkpt lat="38.989902" lon="1.540492">
				 <ele>12.1</ele>
			 </trkpt>
			 <trkpt lat="38.989952" lon="1.540642">
				 <ele>12</ele>
			 </trkpt>
			 <trkpt lat="38.990042" lon="1.540785">
				 <ele>11.5</ele>
			 </trkpt>
			 <trkpt lat="38.990087" lon="1.540991">
				 <ele>11.2</ele>
			 </trkpt>
			 <trkpt lat="38.990087" lon="1.541165">
				 <ele>11</ele>
			 </trkpt>
			 <trkpt lat="38.990035" lon="1.541318">
				 <ele>10.7</ele>
			 </trkpt>
			 <trkpt lat="38.989936" lon="1.541403">
				 <ele>10.5</ele>
			 </trkpt>
			 <trkpt lat="38.989506" lon="1.541668">
				 <ele>10.2</ele>
			 </trkpt>
			 <trkpt lat="38.989395" lon="1.541822">
				 <ele>10.1</ele>
			 </trkpt>
			 <trkpt lat="38.989335" lon="1.541952">
				 <ele>10.7</ele>
			 </trkpt>
			 <trkpt lat="38.989291" lon="1.542221">
				 <ele>11.7</ele>
			 </trkpt>
			 <trkpt lat="38.989323" lon="1.54237">
				 <ele>12.4</ele>
			 </trkpt>
			 <trkpt lat="38.994745" lon="1.552466">
				 <ele>13.4</ele>
			 </trkpt>
			 <trkpt lat="38.99609" lon="1.554991">
				 <ele>14.7</ele>
			 </trkpt>
			 <trkpt lat="38.99864" lon="1.559752">
				 <ele>15.8</ele>
			 </trkpt>
			 <trkpt lat="39.000892" lon="1.563933">
				 <ele>16.9</ele>
			 </trkpt>
			 <trkpt lat="39.002584" lon="1.56716">
				 <ele>17.9</ele>
			 </trkpt>
			 <trkpt lat="39.004847" lon="1.571392">
				 <ele>18.7</ele>
			 </trkpt>
			 <trkpt lat="39.004929" lon="1.571732">
				 <ele>19.7</ele>
			 </trkpt>
			 <trkpt lat="39.004764" lon="1.572395">
				 <ele>20.3</ele>
			 </trkpt>
			 <trkpt lat="39.004269" lon="1.573236">
				 <ele>19.6</ele>
			 </trkpt>
			 <trkpt lat="39.003832" lon="1.57388">
				 <ele>18.5</ele>
			 </trkpt>
			 <trkpt lat="39.003592" lon="1.574254">
				 <ele>17.5</ele>
			 </trkpt>
			 <trkpt lat="39.003365" lon="1.57449">
				 <ele>15.8</ele>
			 </trkpt>
			 <trkpt lat="39.003075" lon="1.57477">
				 <ele>14</ele>
			 </trkpt>
			 <trkpt lat="39.001954" lon="1.57548">
				 <ele>12.5</ele>
			 </trkpt>
			 <trkpt lat="39.001709" lon="1.575855">
				 <ele>10.9</ele>
			 </trkpt>
			 <trkpt lat="39.001334" lon="1.57653">
				 <ele>9.4</ele>
			 </trkpt>
			 <trkpt lat="39.000897" lon="1.577436">
				 <ele>7.9</ele>
			 </trkpt>
			 <trkpt lat="39.00061" lon="1.577794">
				 <ele>6.6</ele>
			 </trkpt>
			 <trkpt lat="39.000315" lon="1.578047">
				 <ele>5.6</ele>
			 </trkpt>
			 <trkpt lat="39.000137" lon="1.578423">
				 <ele>5.1</ele>
			 </trkpt>
			 <trkpt lat="39.000045" lon="1.578875">
				 <ele>4.8</ele>
			 </trkpt>
			 <trkpt lat="38.999683" lon="1.578894">
				 <ele>5.1</ele>
			 </trkpt>
			 <trkpt lat="38.999328" lon="1.57896">
				 <ele>5.5</ele>
			 </trkpt>
			 <trkpt lat="38.999103" lon="1.578984">
				 <ele>6.2</ele>
			 </trkpt>
			 <trkpt lat="38.998235" lon="1.578958">
				 <ele>7</ele>
			 </trkpt>
			 <trkpt lat="38.998049" lon="1.578915">
				 <ele>8</ele>
			 </trkpt>
			 <trkpt lat="38.997853" lon="1.578791">
				 <ele>8.9</ele>
			 </trkpt>
			 <trkpt lat="38.996987" lon="1.578295">
				 <ele>9.5</ele>
			 </trkpt>
			 <trkpt lat="38.996255" lon="1.57793">
				 <ele>9.7</ele>
			 </trkpt>
			 <trkpt lat="38.9955" lon="1.577642">
				 <ele>9.7</ele>
			 </trkpt>
			 <trkpt lat="38.994707" lon="1.577393">
				 <ele>9.6</ele>
			 </trkpt>
			 <trkpt lat="38.994035" lon="1.577109">
				 <ele>9.5</ele>
			 </trkpt>
			 <trkpt lat="38.993234" lon="1.576697">
				 <ele>9.2</ele>
			 </trkpt>
			 <trkpt lat="38.992411" lon="1.576406">
				 <ele>8.7</ele>
			 </trkpt>
			 <trkpt lat="38.992049" lon="1.576291">
				 <ele>8</ele>
			 </trkpt>
			 <trkpt lat="38.991906" lon="1.576198">
				 <ele>7</ele>
			 </trkpt>
			 <trkpt lat="38.991802" lon="1.576131">
				 <ele>5.8</ele>
			 </trkpt>
			 <trkpt lat="38.991749" lon="1.575838">
				 <ele>4.9</ele>
			 </trkpt>
			 <trkpt lat="38.991741" lon="1.57544">
				 <ele>4.4</ele>
			 </trkpt>
			 <trkpt lat="38.991882" lon="1.575193">
				 <ele>4.3</ele>
			 </trkpt>
			 <trkpt lat="38.992407" lon="1.574539">
				 <ele>4.3</ele>
			 </trkpt>
			 <trkpt lat="38.992778" lon="1.574083">
				 <ele>4.3</ele>
			 </trkpt>
			 <trkpt lat="38.99375" lon="1.572035">
				 <ele>4.6</ele>
			 </trkpt>
			 <trkpt lat="38.994568" lon="1.571445">
				 <ele>5.3</ele>
			 </trkpt>
			 <trkpt lat="38.995535" lon="1.570733">
				 <ele>6.1</ele>
			 </trkpt>
			 <trkpt lat="38.996019" lon="1.570171">
				 <ele>7.2</ele>
			 </trkpt>
			 <trkpt lat="38.99603" lon="1.570076">
				 <ele>8.5</ele>
			 </trkpt>
			 <trkpt lat="38.995589" lon="1.568673">
				 <ele>9.8</ele>
			 </trkpt>
			 <trkpt lat="38.995491" lon="1.567831">
				 <ele>11.3</ele>
			 </trkpt>
			 <trkpt lat="38.995585" lon="1.567437">
				 <ele>11.7</ele>
			 </trkpt>
			 <trkpt lat="38.996282" lon="1.566182">
				 <ele>11.8</ele>
			 </trkpt>
			 <trkpt lat="38.996519" lon="1.56562">
				 <ele>12</ele>
			 </trkpt>
			 <trkpt lat="38.997599" lon="1.562182">
				 <ele>12.2</ele>
			 </trkpt>
			 <trkpt lat="38.998391" lon="1.559396">
				 <ele>11.6</ele>
			 </trkpt>
			 <trkpt lat="38.995344" lon="1.553657">
				 <ele>10.7</ele>
			 </trkpt>
			 <trkpt lat="38.991566" lon="1.546689">
				 <ele>9.8</ele>
			 </trkpt>
			 <trkpt lat="38.988986" lon="1.541886">
				 <ele>8.8</ele>
			 </trkpt>
			 <trkpt lat="38.98876" lon="1.541955">
				 <ele>7.7</ele>
			 </trkpt>
			 <trkpt lat="38.987248" lon="1.542593">
				 <ele>6.6</ele>
			 </trkpt>
			 <trkpt lat="38.985741" lon="1.54327">
				 <ele>5.2</ele>
			 </trkpt>
			 <trkpt lat="38.985434" lon="1.543382">
				 <ele>4.5</ele>
			 </trkpt>
			 <trkpt lat="38.985328" lon="1.543362">
				 <ele>4</ele>
			 </trkpt>
			 <trkpt lat="38.985204" lon="1.543036">
				 <ele>3.5</ele>
			 </trkpt>
			 <trkpt lat="38.985087" lon="1.542425">
				 <ele>2.9</ele>
			 </trkpt>
			 <trkpt lat="38.985133" lon="1.542267">
				 <ele>2.5</ele>
			 </trkpt>
			 <trkpt lat="38.985585" lon="1.541573">
				 <ele>2.5</ele>
			 </trkpt>
			 <trkpt lat="38.985684" lon="1.541242">
				 <ele>2.5</ele>
			 </trkpt>
			 <trkpt lat="38.98577" lon="1.540782">
				 <ele>2.5</ele>
			 </trkpt>
			 <trkpt lat="38.985828" lon="1.539891">
				 <ele>2.5</ele>
			 </trkpt>
			 <trkpt lat="38.985841" lon="1.539242">
				 <ele>2.4</ele>
			 </trkpt>
			 <trkpt lat="38.985778" lon="1.53878">
				 <ele>2.5</ele>
			 </trkpt>
			 <trkpt lat="38.985673" lon="1.538446">
				 <ele>2.6</ele>
			 </trkpt>
			 <trkpt lat="38.985518" lon="1.538078">
				 <ele>2.9</ele>
			 </trkpt>
			 <trkpt lat="38.985302" lon="1.537785">
				 <ele>3</ele>
			 </trkpt>
			 <trkpt lat="38.985031" lon="1.537505">
				 <ele>3.1</ele>
			 </trkpt>
			 <trkpt lat="38.98483" lon="1.537361">
				 <ele>3.3</ele>
			 </trkpt>
			 <trkpt lat="38.984529" lon="1.537259">
				 <ele>3.9</ele>
			 </trkpt>
			 <trkpt lat="38.984288" lon="1.537185">
				 <ele>4.1</ele>
			 </trkpt>
			 <trkpt lat="38.984111" lon="1.537187">
				 <ele>4.1</ele>
			 </trkpt>
			 <trkpt lat="38.983733" lon="1.537293">
				 <ele>4.1</ele>
			 </trkpt>
			 <trkpt lat="38.983628" lon="1.537138">
				 <ele>4.5</ele>
			 </trkpt>
			 <trkpt lat="38.983485" lon="1.536642">
				 <ele>4.7</ele>
			 </trkpt>
			 <trkpt lat="38.9834" lon="1.53644">
				 <ele>4.8</ele>
			 </trkpt>
			 <trkpt lat="38.98336" lon="1.53629">
				 <ele>4.9</ele>
			 </trkpt>
			 <trkpt lat="38.983379" lon="1.536229">
				 <ele>5</ele>
			 </trkpt>
			 <trkpt lat="38.983545" lon="1.536062">
				 <ele>4.9</ele>
			 </trkpt>
			 <trkpt lat="38.983717" lon="1.535755">
				 <ele>4.9</ele>
			 </trkpt>
			 <trkpt lat="38.983754" lon="1.535527">
				 <ele>4.2</ele>
			 </trkpt>
			 <trkpt lat="38.983753" lon="1.535355">
				 <ele>4.2</ele>
			 </trkpt>
			 <trkpt lat="38.983662" lon="1.534949">
				 <ele>3.7</ele>
			 </trkpt>
			 <trkpt lat="38.983412" lon="1.534439">
				 <ele>3.7</ele>
			 </trkpt>
			 <trkpt lat="38.983171" lon="1.533986">
				 <ele>3.4</ele>
			 </trkpt>
			 <trkpt lat="38.983088" lon="1.533853">
				 <ele>3.1</ele>
			 </trkpt>
			 <trkpt lat="38.983024" lon="1.53376">
				 <ele>2.9</ele>
			 </trkpt>
			 <trkpt lat="38.982813" lon="1.533608">
				 <ele>2.7</ele>
			 </trkpt>
			 <trkpt lat="38.982452" lon="1.533469">
				 <ele>2.5</ele>
			 </trkpt>
			 <trkpt lat="38.982309" lon="1.533416">
				 <ele>2.6</ele>
			 </trkpt>
			 <trkpt lat="38.981875" lon="1.533338">
				 <ele>2.5</ele>
			 </trkpt>
		 </trkseg>
	 </trk>
</gpx>