<?xml version="1.0" encoding="UTF-8"?>
 <gpx creator="Garmin Connect" version="1.1"
	 xsi:schemaLocation="http://www.topografix.com/GPX/1/1 http://www.topografix.com/GPX/11.xsd"
	 xmlns:ns3="http://www.garmin.com/xmlschemas/TrackPointExtension/v1"
	 xmlns="http://www.topografix.com/GPX/1/1"
	 xmlns:xsi="http://www.w3.org/2001/XMLSchema-instance" xmlns:ns2="http://www.garmin.com/xmlschemas/GpxExtensions/v3">
	 <metadata>
		<name>Seattle Marathon - 42.195 km</name>
		 <link href="https://www.goandrace.com">
		 <text>Garmin Connect</text>
		 </link>
	 <time>2026-08-08T20:51:32</time>
	 </metadata>
	 <trk>
		 <name>Seattle Marathon - 42.195 km</name>
		 <trkseg>
			 <trkpt lat="47.622067" lon="-122.347567">
				 <ele>36.8</ele>
			 </trkpt>
			 <trkpt lat="47.618576" lon="-122.347615">
				 <ele>36.9</ele>
			 </trkpt>
			 <trkpt lat="47.618454" lon="-122.34707">
				 <ele>36.5</ele>
			 </trkpt>
			 <trkpt lat="47.616059" lon="-122.343045">
				 <ele>36.2</ele>
			 </trkpt>
			 <trkpt lat="47.615009" lon="-122.341157">
				 <ele>36.2</ele>
			 </trkpt>
			 <trkpt lat="47.61499" lon="-122.341186">
				 <ele>36.9</ele>
			 </trkpt>
			 <trkpt lat="47.61453" lon="-122.340437">
				 <ele>38.1</ele>
			 </trkpt>
			 <trkpt lat="47.612774" lon="-122.337509">
				 <ele>38.5</ele>
			 </trkpt>
			 <trkpt lat="47.612677" lon="-122.337468">
				 <ele>39.6</ele>
			 </trkpt>
			 <trkpt lat="47.611788" lon="-122.336566">
				 <ele>40.8</ele>
			 </trkpt>
			 <trkpt lat="47.609685" lon="-122.334663">
				 <ele>42.4</ele>
			 </trkpt>
			 <trkpt lat="47.609709" lon="-122.334605">
				 <ele>44.5</ele>
			 </trkpt>
			 <trkpt lat="47.609685" lon="-122.334663">
				 <ele>46.8</ele>
			 </trkpt>
			 <trkpt lat="47.60506" lon="-122.330477">
				 <ele>49.8</ele>
			 </trkpt>
			 <trkpt lat="47.604991" lon="-122.330124">
				 <ele>52.8</ele>
			 </trkpt>
			 <trkpt lat="47.604962" lon="-122.329277">
				 <ele>55.5</ele>
			 </trkpt>
			 <trkpt lat="47.605256" lon="-122.328977">
				 <ele>57.5</ele>
			 </trkpt>
			 <trkpt lat="47.605451" lon="-122.328894">
				 <ele>59.3</ele>
			 </trkpt>
			 <trkpt lat="47.605885" lon="-122.328892">
				 <ele>60</ele>
			 </trkpt>
			 <trkpt lat="47.606245" lon="-122.329072">
				 <ele>60</ele>
			 </trkpt>
			 <trkpt lat="47.607931" lon="-122.330614">
				 <ele>60.1</ele>
			 </trkpt>
			 <trkpt lat="47.608129" lon="-122.330731">
				 <ele>59.9</ele>
			 </trkpt>
			 <trkpt lat="47.609288" lon="-122.331103">
				 <ele>59.2</ele>
			 </trkpt>
			 <trkpt lat="47.610319" lon="-122.33111">
				 <ele>58.1</ele>
			 </trkpt>
			 <trkpt lat="47.610935" lon="-122.331022">
				 <ele>56.6</ele>
			 </trkpt>
			 <trkpt lat="47.612301" lon="-122.330605">
				 <ele>54.1</ele>
			 </trkpt>
			 <trkpt lat="47.615761" lon="-122.329202">
				 <ele>51.3</ele>
			 </trkpt>
			 <trkpt lat="47.617417" lon="-122.328684">
				 <ele>48.5</ele>
			 </trkpt>
			 <trkpt lat="47.618899" lon="-122.328534">
				 <ele>46.1</ele>
			 </trkpt>
			 <trkpt lat="47.622179" lon="-122.328636">
				 <ele>44.5</ele>
			 </trkpt>
			 <trkpt lat="47.6263" lon="-122.328659">
				 <ele>43</ele>
			 </trkpt>
			 <trkpt lat="47.627345" lon="-122.328591">
				 <ele>41.7</ele>
			 </trkpt>
			 <trkpt lat="47.627699" lon="-122.328498">
				 <ele>40.5</ele>
			 </trkpt>
			 <trkpt lat="47.628217" lon="-122.32828">
				 <ele>39.4</ele>
			 </trkpt>
			 <trkpt lat="47.629029" lon="-122.327714">
				 <ele>38.6</ele>
			 </trkpt>
			 <trkpt lat="47.631476" lon="-122.325038">
				 <ele>39.3</ele>
			 </trkpt>
			 <trkpt lat="47.632147" lon="-122.324495">
				 <ele>38.5</ele>
			 </trkpt>
			 <trkpt lat="47.632654" lon="-122.324204">
				 <ele>37.2</ele>
			 </trkpt>
			 <trkpt lat="47.634418" lon="-122.323472">
				 <ele>36.4</ele>
			 </trkpt>
			 <trkpt lat="47.635652" lon="-122.323118">
				 <ele>35.9</ele>
			 </trkpt>
			 <trkpt lat="47.636865" lon="-122.322955">
				 <ele>35.7</ele>
			 </trkpt>
			 <trkpt lat="47.648339" lon="-122.322582">
				 <ele>35.5</ele>
			 </trkpt>
			 <trkpt lat="47.655696" lon="-122.322455">
				 <ele>35</ele>
			 </trkpt>
			 <trkpt lat="47.656389" lon="-122.32221">
				 <ele>33.3</ele>
			 </trkpt>
			 <trkpt lat="47.657034" lon="-122.321732">
				 <ele>31.6</ele>
			 </trkpt>
			 <trkpt lat="47.657354" lon="-122.321423">
				 <ele>30.2</ele>
			 </trkpt>
			 <trkpt lat="47.657464" lon="-122.321164">
				 <ele>27.4</ele>
			 </trkpt>
			 <trkpt lat="47.657516" lon="-122.320834">
				 <ele>27.3</ele>
			 </trkpt>
			 <trkpt lat="47.655899" lon="-122.320849">
				 <ele>28.2</ele>
			 </trkpt>
			 <trkpt lat="47.655902" lon="-122.320175">
				 <ele>28.5</ele>
			 </trkpt>
			 <trkpt lat="47.655729" lon="-122.318826">
				 <ele>28.5</ele>
			 </trkpt>
			 <trkpt lat="47.655813" lon="-122.3188">
				 <ele>28</ele>
			 </trkpt>
			 <trkpt lat="47.656107" lon="-122.318297">
				 <ele>28.2</ele>
			 </trkpt>
			 <trkpt lat="47.656201" lon="-122.318003">
				 <ele>28.5</ele>
			 </trkpt>
			 <trkpt lat="47.656251" lon="-122.317618">
				 <ele>30</ele>
			 </trkpt>
			 <trkpt lat="47.656221" lon="-122.314402">
				 <ele>32</ele>
			 </trkpt>
			 <trkpt lat="47.655353" lon="-122.314433">
				 <ele>33.6</ele>
			 </trkpt>
			 <trkpt lat="47.655359" lon="-122.311786">
				 <ele>35.6</ele>
			 </trkpt>
			 <trkpt lat="47.655299" lon="-122.311473">
				 <ele>37.5</ele>
			 </trkpt>
			 <trkpt lat="47.655421" lon="-122.311401">
				 <ele>39.5</ele>
			 </trkpt>
			 <trkpt lat="47.656924" lon="-122.311324">
				 <ele>41.5</ele>
			 </trkpt>
			 <trkpt lat="47.657" lon="-122.311161">
				 <ele>43.3</ele>
			 </trkpt>
			 <trkpt lat="47.657011" lon="-122.310401">
				 <ele>45.6</ele>
			 </trkpt>
			 <trkpt lat="47.657056" lon="-122.310252">
				 <ele>47.4</ele>
			 </trkpt>
			 <trkpt lat="47.65728" lon="-122.309913">
				 <ele>49</ele>
			 </trkpt>
			 <trkpt lat="47.657171" lon="-122.309715">
				 <ele>51.6</ele>
			 </trkpt>
			 <trkpt lat="47.657247" lon="-122.309563">
				 <ele>53.1</ele>
			 </trkpt>
			 <trkpt lat="47.657335" lon="-122.30959">
				 <ele>54.3</ele>
			 </trkpt>
			 <trkpt lat="47.657408" lon="-122.309726">
				 <ele>54.6</ele>
			 </trkpt>
			 <trkpt lat="47.657448" lon="-122.309659">
				 <ele>54.8</ele>
			 </trkpt>
			 <trkpt lat="47.659764" lon="-122.309649">
				 <ele>54.7</ele>
			 </trkpt>
			 <trkpt lat="47.659775" lon="-122.307824">
				 <ele>54.5</ele>
			 </trkpt>
			 <trkpt lat="47.65965" lon="-122.307322">
				 <ele>54.2</ele>
			 </trkpt>
			 <trkpt lat="47.65844" lon="-122.305511">
				 <ele>53.6</ele>
			 </trkpt>
			 <trkpt lat="47.658137" lon="-122.305213">
				 <ele>52.7</ele>
			 </trkpt>
			 <trkpt lat="47.657956" lon="-122.304699">
				 <ele>51.6</ele>
			 </trkpt>
			 <trkpt lat="47.657826" lon="-122.304529">
				 <ele>49.3</ele>
			 </trkpt>
			 <trkpt lat="47.657607" lon="-122.304499">
				 <ele>47.4</ele>
			 </trkpt>
			 <trkpt lat="47.65688" lon="-122.304807">
				 <ele>45.5</ele>
			 </trkpt>
			 <trkpt lat="47.655958" lon="-122.304546">
				 <ele>44.1</ele>
			 </trkpt>
			 <trkpt lat="47.655431" lon="-122.304512">
				 <ele>42.6</ele>
			 </trkpt>
			 <trkpt lat="47.655002" lon="-122.304628">
				 <ele>41</ele>
			 </trkpt>
			 <trkpt lat="47.65458" lon="-122.305003">
				 <ele>39.3</ele>
			 </trkpt>
			 <trkpt lat="47.654402" lon="-122.305089">
				 <ele>38.3</ele>
			 </trkpt>
			 <trkpt lat="47.653588" lon="-122.305146">
				 <ele>37.4</ele>
			 </trkpt>
			 <trkpt lat="47.65299" lon="-122.30541">
				 <ele>36.9</ele>
			 </trkpt>
			 <trkpt lat="47.65253" lon="-122.305902">
				 <ele>36.6</ele>
			 </trkpt>
			 <trkpt lat="47.652255" lon="-122.306433">
				 <ele>36.5</ele>
			 </trkpt>
			 <trkpt lat="47.653674" lon="-122.307397">
				 <ele>36.5</ele>
			 </trkpt>
			 <trkpt lat="47.653809" lon="-122.307353">
				 <ele>36.5</ele>
			 </trkpt>
			 <trkpt lat="47.65394" lon="-122.307395">
				 <ele>36.5</ele>
			 </trkpt>
			 <trkpt lat="47.654042" lon="-122.307513">
				 <ele>36.5</ele>
			 </trkpt>
			 <trkpt lat="47.654101" lon="-122.307685">
				 <ele>36.9</ele>
			 </trkpt>
			 <trkpt lat="47.654077" lon="-122.307988">
				 <ele>36</ele>
			 </trkpt>
			 <trkpt lat="47.653987" lon="-122.30815">
				 <ele>34.5</ele>
			 </trkpt>
			 <trkpt lat="47.653771" lon="-122.308229">
				 <ele>33.1</ele>
			 </trkpt>
			 <trkpt lat="47.653578" lon="-122.308062">
				 <ele>31.6</ele>
			 </trkpt>
			 <trkpt lat="47.653522" lon="-122.307878">
				 <ele>30.1</ele>
			 </trkpt>
			 <trkpt lat="47.650839" lon="-122.305979">
				 <ele>28.5</ele>
			 </trkpt>
			 <trkpt lat="47.650709" lon="-122.305647">
				 <ele>26.8</ele>
			 </trkpt>
			 <trkpt lat="47.650619" lon="-122.305583">
				 <ele>25.1</ele>
			 </trkpt>
			 <trkpt lat="47.650572" lon="-122.305383">
				 <ele>23.5</ele>
			 </trkpt>
			 <trkpt lat="47.650411" lon="-122.305188">
				 <ele>22</ele>
			 </trkpt>
			 <trkpt lat="47.650583" lon="-122.304513">
				 <ele>20.5</ele>
			 </trkpt>
			 <trkpt lat="47.650511" lon="-122.304212">
				 <ele>20.6</ele>
			 </trkpt>
			 <trkpt lat="47.650399" lon="-122.304104">
				 <ele>20.5</ele>
			 </trkpt>
			 <trkpt lat="47.650277" lon="-122.304063">
				 <ele>20.3</ele>
			 </trkpt>
			 <trkpt lat="47.649247" lon="-122.304317">
				 <ele>20.3</ele>
			 </trkpt>
			 <trkpt lat="47.64919" lon="-122.304389">
				 <ele>20.2</ele>
			 </trkpt>
			 <trkpt lat="47.648076" lon="-122.304387">
				 <ele>19.8</ele>
			 </trkpt>
			 <trkpt lat="47.647777" lon="-122.304516">
				 <ele>19.4</ele>
			 </trkpt>
			 <trkpt lat="47.646861" lon="-122.304518">
				 <ele>19.1</ele>
			 </trkpt>
			 <trkpt lat="47.646484" lon="-122.304349">
				 <ele>18.5</ele>
			 </trkpt>
			 <trkpt lat="47.64513" lon="-122.304337">
				 <ele>17.6</ele>
			 </trkpt>
			 <trkpt lat="47.644628" lon="-122.303771">
				 <ele>16.7</ele>
			 </trkpt>
			 <trkpt lat="47.644251" lon="-122.303521">
				 <ele>15.7</ele>
			 </trkpt>
			 <trkpt lat="47.644139" lon="-122.303531">
				 <ele>14.7</ele>
			 </trkpt>
			 <trkpt lat="47.644176" lon="-122.302942">
				 <ele>14</ele>
			 </trkpt>
			 <trkpt lat="47.644153" lon="-122.299984">
				 <ele>13</ele>
			 </trkpt>
			 <trkpt lat="47.644022" lon="-122.29935">
				 <ele>12.2</ele>
			 </trkpt>
			 <trkpt lat="47.64389" lon="-122.299081">
				 <ele>11.6</ele>
			 </trkpt>
			 <trkpt lat="47.643625" lon="-122.298774">
				 <ele>11.3</ele>
			 </trkpt>
			 <trkpt lat="47.643219" lon="-122.298595">
				 <ele>11</ele>
			 </trkpt>
			 <trkpt lat="47.641767" lon="-122.298584">
				 <ele>11</ele>
			 </trkpt>
			 <trkpt lat="47.641703" lon="-122.298592">
				 <ele>11.1</ele>
			 </trkpt>
			 <trkpt lat="47.641823" lon="-122.2986">
				 <ele>11.1</ele>
			 </trkpt>
			 <trkpt lat="47.641586" lon="-122.29866">
				 <ele>11.1</ele>
			 </trkpt>
			 <trkpt lat="47.641266" lon="-122.298539">
				 <ele>11.4</ele>
			 </trkpt>
			 <trkpt lat="47.641158" lon="-122.298335">
				 <ele>11.6</ele>
			 </trkpt>
			 <trkpt lat="47.641058" lon="-122.297862">
				 <ele>11.6</ele>
			 </trkpt>
			 <trkpt lat="47.64068" lon="-122.297357">
				 <ele>11.9</ele>
			 </trkpt>
			 <trkpt lat="47.640548" lon="-122.297094">
				 <ele>12.2</ele>
			 </trkpt>
			 <trkpt lat="47.640369" lon="-122.296872">
				 <ele>12.5</ele>
			 </trkpt>
			 <trkpt lat="47.640177" lon="-122.296735">
				 <ele>12.7</ele>
			 </trkpt>
			 <trkpt lat="47.639312" lon="-122.296912">
				 <ele>13</ele>
			 </trkpt>
			 <trkpt lat="47.637983" lon="-122.29698">
				 <ele>13.3</ele>
			 </trkpt>
			 <trkpt lat="47.637745" lon="-122.297199">
				 <ele>13.6</ele>
			 </trkpt>
			 <trkpt lat="47.637384" lon="-122.297905">
				 <ele>14</ele>
			 </trkpt>
			 <trkpt lat="47.637184" lon="-122.29808">
				 <ele>14.5</ele>
			 </trkpt>
			 <trkpt lat="47.636326" lon="-122.298196">
				 <ele>14.9</ele>
			 </trkpt>
			 <trkpt lat="47.6354" lon="-122.298431">
				 <ele>15.5</ele>
			 </trkpt>
			 <trkpt lat="47.635166" lon="-122.298399">
				 <ele>16</ele>
			 </trkpt>
			 <trkpt lat="47.634403" lon="-122.297958">
				 <ele>16.5</ele>
			 </trkpt>
			 <trkpt lat="47.633599" lon="-122.297836">
				 <ele>16.8</ele>
			 </trkpt>
			 <trkpt lat="47.632957" lon="-122.297143">
				 <ele>17.2</ele>
			 </trkpt>
			 <trkpt lat="47.632673" lon="-122.297026">
				 <ele>17.6</ele>
			 </trkpt>
			 <trkpt lat="47.632304" lon="-122.297047">
				 <ele>18.4</ele>
			 </trkpt>
			 <trkpt lat="47.631585" lon="-122.297247">
				 <ele>19.4</ele>
			 </trkpt>
			 <trkpt lat="47.630853" lon="-122.297229">
				 <ele>20.5</ele>
			 </trkpt>
			 <trkpt lat="47.630983" lon="-122.297487">
				 <ele>21.5</ele>
			 </trkpt>
			 <trkpt lat="47.631376" lon="-122.297551">
				 <ele>22.5</ele>
			 </trkpt>
			 <trkpt lat="47.631864" lon="-122.297741">
				 <ele>23.8</ele>
			 </trkpt>
			 <trkpt lat="47.632483" lon="-122.297705">
				 <ele>25</ele>
			 </trkpt>
			 <trkpt lat="47.632585" lon="-122.297756">
				 <ele>26.5</ele>
			 </trkpt>
			 <trkpt lat="47.633103" lon="-122.298342">
				 <ele>28.5</ele>
			 </trkpt>
			 <trkpt lat="47.633298" lon="-122.298684">
				 <ele>30.3</ele>
			 </trkpt>
			 <trkpt lat="47.633351" lon="-122.299011">
				 <ele>31.9</ele>
			 </trkpt>
			 <trkpt lat="47.633301" lon="-122.299799">
				 <ele>33.5</ele>
			 </trkpt>
			 <trkpt lat="47.633522" lon="-122.30045">
				 <ele>34.9</ele>
			 </trkpt>
			 <trkpt lat="47.633716" lon="-122.300659">
				 <ele>36.4</ele>
			 </trkpt>
			 <trkpt lat="47.634072" lon="-122.300741">
				 <ele>37.8</ele>
			 </trkpt>
			 <trkpt lat="47.634375" lon="-122.30086">
				 <ele>39.3</ele>
			 </trkpt>
			 <trkpt lat="47.634432" lon="-122.300936">
				 <ele>40.2</ele>
			 </trkpt>
			 <trkpt lat="47.634551" lon="-122.301278">
				 <ele>41.1</ele>
			 </trkpt>
			 <trkpt lat="47.634628" lon="-122.302005">
				 <ele>41.7</ele>
			 </trkpt>
			 <trkpt lat="47.634772" lon="-122.302371">
				 <ele>42.1</ele>
			 </trkpt>
			 <trkpt lat="47.635017" lon="-122.302847">
				 <ele>42.5</ele>
			 </trkpt>
			 <trkpt lat="47.635463" lon="-122.303279">
				 <ele>43.1</ele>
			 </trkpt>
			 <trkpt lat="47.63587" lon="-122.304014">
				 <ele>43.5</ele>
			 </trkpt>
			 <trkpt lat="47.635885" lon="-122.304365">
				 <ele>43.6</ele>
			 </trkpt>
			 <trkpt lat="47.635845" lon="-122.304477">
				 <ele>43.7</ele>
			 </trkpt>
			 <trkpt lat="47.635698" lon="-122.304771">
				 <ele>43.6</ele>
			 </trkpt>
			 <trkpt lat="47.635303" lon="-122.305214">
				 <ele>43.6</ele>
			 </trkpt>
			 <trkpt lat="47.635275" lon="-122.305359">
				 <ele>44</ele>
			 </trkpt>
			 <trkpt lat="47.6353" lon="-122.305463">
				 <ele>44.5</ele>
			 </trkpt>
			 <trkpt lat="47.635475" lon="-122.305623">
				 <ele>44.6</ele>
			 </trkpt>
			 <trkpt lat="47.635794" lon="-122.305711">
				 <ele>44.7</ele>
			 </trkpt>
			 <trkpt lat="47.635883" lon="-122.305835">
				 <ele>45</ele>
			 </trkpt>
			 <trkpt lat="47.635979" lon="-122.306102">
				 <ele>45.2</ele>
			 </trkpt>
			 <trkpt lat="47.636015" lon="-122.306486">
				 <ele>45.5</ele>
			 </trkpt>
			 <trkpt lat="47.636348" lon="-122.307271">
				 <ele>45.7</ele>
			 </trkpt>
			 <trkpt lat="47.636392" lon="-122.307517">
				 <ele>46.1</ele>
			 </trkpt>
			 <trkpt lat="47.635904" lon="-122.308179">
				 <ele>46.5</ele>
			 </trkpt>
			 <trkpt lat="47.635748" lon="-122.308485">
				 <ele>46.4</ele>
			 </trkpt>
			 <trkpt lat="47.635768" lon="-122.308573">
				 <ele>46</ele>
			 </trkpt>
			 <trkpt lat="47.635811" lon="-122.308657">
				 <ele>45.6</ele>
			 </trkpt>
			 <trkpt lat="47.635907" lon="-122.308689">
				 <ele>45.8</ele>
			 </trkpt>
			 <trkpt lat="47.636196" lon="-122.308575">
				 <ele>46.1</ele>
			 </trkpt>
			 <trkpt lat="47.636524" lon="-122.308581">
				 <ele>46.2</ele>
			 </trkpt>
			 <trkpt lat="47.637153" lon="-122.308897">
				 <ele>46.4</ele>
			 </trkpt>
			 <trkpt lat="47.637432" lon="-122.309173">
				 <ele>46.5</ele>
			 </trkpt>
			 <trkpt lat="47.637531" lon="-122.309353">
				 <ele>46.5</ele>
			 </trkpt>
			 <trkpt lat="47.637494" lon="-122.309461">
				 <ele>46.2</ele>
			 </trkpt>
			 <trkpt lat="47.637336" lon="-122.309575">
				 <ele>46.1</ele>
			 </trkpt>
			 <trkpt lat="47.637269" lon="-122.309796">
				 <ele>46.5</ele>
			 </trkpt>
			 <trkpt lat="47.637035" lon="-122.310216">
				 <ele>46.9</ele>
			 </trkpt>
			 <trkpt lat="47.636689" lon="-122.310365">
				 <ele>47.2</ele>
			 </trkpt>
			 <trkpt lat="47.636589" lon="-122.310624">
				 <ele>47.3</ele>
			 </trkpt>
			 <trkpt lat="47.636652" lon="-122.31093">
				 <ele>47.2</ele>
			 </trkpt>
			 <trkpt lat="47.636743" lon="-122.311033">
				 <ele>47.2</ele>
			 </trkpt>
			 <trkpt lat="47.637189" lon="-122.31116">
				 <ele>47</ele>
			 </trkpt>
			 <trkpt lat="47.637918" lon="-122.310879">
				 <ele>47</ele>
			 </trkpt>
			 <trkpt lat="47.638114" lon="-122.310924">
				 <ele>47</ele>
			 </trkpt>
			 <trkpt lat="47.638683" lon="-122.311383">
				 <ele>47.4</ele>
			 </trkpt>
			 <trkpt lat="47.638808" lon="-122.311834">
				 <ele>47.6</ele>
			 </trkpt>
			 <trkpt lat="47.638808" lon="-122.31214">
				 <ele>47.6</ele>
			 </trkpt>
			 <trkpt lat="47.638688" lon="-122.312521">
				 <ele>47.6</ele>
			 </trkpt>
			 <trkpt lat="47.638723" lon="-122.312914">
				 <ele>48</ele>
			 </trkpt>
			 <trkpt lat="47.639092" lon="-122.31397">
				 <ele>48.5</ele>
			 </trkpt>
			 <trkpt lat="47.639236" lon="-122.314258">
				 <ele>49.1</ele>
			 </trkpt>
			 <trkpt lat="47.639687" lon="-122.314553">
				 <ele>48.9</ele>
			 </trkpt>
			 <trkpt lat="47.639824" lon="-122.314719">
				 <ele>48.8</ele>
			 </trkpt>
			 <trkpt lat="47.640159" lon="-122.315371">
				 <ele>48.7</ele>
			 </trkpt>
			 <trkpt lat="47.640682" lon="-122.315577">
				 <ele>48.5</ele>
			 </trkpt>
			 <trkpt lat="47.641109" lon="-122.315921">
				 <ele>48.1</ele>
			 </trkpt>
			 <trkpt lat="47.641429" lon="-122.315926">
				 <ele>47.5</ele>
			 </trkpt>
			 <trkpt lat="47.641574" lon="-122.315988">
				 <ele>47.2</ele>
			 </trkpt>
			 <trkpt lat="47.641698" lon="-122.316228">
				 <ele>46.7</ele>
			 </trkpt>
			 <trkpt lat="47.641916" lon="-122.316981">
				 <ele>46.4</ele>
			 </trkpt>
			 <trkpt lat="47.641969" lon="-122.317043">
				 <ele>45.7</ele>
			 </trkpt>
			 <trkpt lat="47.642042" lon="-122.317013">
				 <ele>44.8</ele>
			 </trkpt>
			 <trkpt lat="47.642099" lon="-122.317207">
				 <ele>42.7</ele>
			 </trkpt>
			 <trkpt lat="47.642153" lon="-122.317159">
				 <ele>39.8</ele>
			 </trkpt>
			 <trkpt lat="47.643174" lon="-122.318873">
				 <ele>37.5</ele>
			 </trkpt>
			 <trkpt lat="47.643186" lon="-122.318569">
				 <ele>35.5</ele>
			 </trkpt>
			 <trkpt lat="47.643267" lon="-122.318389">
				 <ele>33.1</ele>
			 </trkpt>
			 <trkpt lat="47.646913" lon="-122.318315">
				 <ele>30.8</ele>
			 </trkpt>
			 <trkpt lat="47.646901" lon="-122.317101">
				 <ele>28.5</ele>
			 </trkpt>
			 <trkpt lat="47.649878" lon="-122.319791">
				 <ele>26</ele>
			 </trkpt>
			 <trkpt lat="47.649907" lon="-122.319769">
				 <ele>24</ele>
			 </trkpt>
			 <trkpt lat="47.65137" lon="-122.321054">
				 <ele>22.4</ele>
			 </trkpt>
			 <trkpt lat="47.651553" lon="-122.321307">
				 <ele>20.9</ele>
			 </trkpt>
			 <trkpt lat="47.651597" lon="-122.321162">
				 <ele>21.3</ele>
			 </trkpt>
			 <trkpt lat="47.651691" lon="-122.321079">
				 <ele>22.5</ele>
			 </trkpt>
			 <trkpt lat="47.655378" lon="-122.318231">
				 <ele>22.8</ele>
			 </trkpt>
			 <trkpt lat="47.655598" lon="-122.318132">
				 <ele>23.1</ele>
			 </trkpt>
			 <trkpt lat="47.655628" lon="-122.317991">
				 <ele>23.6</ele>
			 </trkpt>
			 <trkpt lat="47.655845" lon="-122.317701">
				 <ele>24.2</ele>
			 </trkpt>
			 <trkpt lat="47.655837" lon="-122.317472">
				 <ele>24.4</ele>
			 </trkpt>
			 <trkpt lat="47.655681" lon="-122.317331">
				 <ele>24.6</ele>
			 </trkpt>
			 <trkpt lat="47.655493" lon="-122.317335">
				 <ele>23.9</ele>
			 </trkpt>
			 <trkpt lat="47.655403" lon="-122.317469">
				 <ele>23</ele>
			 </trkpt>
			 <trkpt lat="47.655449" lon="-122.318741">
				 <ele>22.1</ele>
			 </trkpt>
			 <trkpt lat="47.655713" lon="-122.31998">
				 <ele>21.1</ele>
			 </trkpt>
			 <trkpt lat="47.655771" lon="-122.320606">
				 <ele>20.1</ele>
			 </trkpt>
			 <trkpt lat="47.655608" lon="-122.32064">
				 <ele>19</ele>
			 </trkpt>
			 <trkpt lat="47.655563" lon="-122.321555">
				 <ele>17.8</ele>
			 </trkpt>
			 <trkpt lat="47.654768" lon="-122.32582">
				 <ele>16.8</ele>
			 </trkpt>
			 <trkpt lat="47.654344" lon="-122.326899">
				 <ele>15.7</ele>
			 </trkpt>
			 <trkpt lat="47.654075" lon="-122.327329">
				 <ele>15</ele>
			 </trkpt>
			 <trkpt lat="47.653652" lon="-122.327827">
				 <ele>14.4</ele>
			 </trkpt>
			 <trkpt lat="47.652456" lon="-122.329007">
				 <ele>13.9</ele>
			 </trkpt>
			 <trkpt lat="47.650979" lon="-122.330972">
				 <ele>13.5</ele>
			 </trkpt>
			 <trkpt lat="47.650436" lon="-122.331546">
				 <ele>12.9</ele>
			 </trkpt>
			 <trkpt lat="47.648447" lon="-122.332797">
				 <ele>12.5</ele>
			 </trkpt>
			 <trkpt lat="47.648033" lon="-122.332959">
				 <ele>11.9</ele>
			 </trkpt>
			 <trkpt lat="47.647074" lon="-122.333561">
				 <ele>11.5</ele>
			 </trkpt>
			 <trkpt lat="47.646956" lon="-122.333846">
				 <ele>11.3</ele>
			 </trkpt>
			 <trkpt lat="47.646805" lon="-122.333849">
				 <ele>11.1</ele>
			 </trkpt>
			 <trkpt lat="47.646487" lon="-122.334339">
				 <ele>11</ele>
			 </trkpt>
			 <trkpt lat="47.646177" lon="-122.333848">
				 <ele>10.9</ele>
			 </trkpt>
			 <trkpt lat="47.64575" lon="-122.333834">
				 <ele>11</ele>
			 </trkpt>
			 <trkpt lat="47.645719" lon="-122.334164">
				 <ele>11</ele>
			 </trkpt>
			 <trkpt lat="47.645615" lon="-122.334585">
				 <ele>11</ele>
			 </trkpt>
			 <trkpt lat="47.645561" lon="-122.335128">
				 <ele>11.1</ele>
			 </trkpt>
			 <trkpt lat="47.645621" lon="-122.335633">
				 <ele>11.1</ele>
			 </trkpt>
			 <trkpt lat="47.645837" lon="-122.33612">
				 <ele>11.3</ele>
			 </trkpt>
			 <trkpt lat="47.646093" lon="-122.336109">
				 <ele>11.5</ele>
			 </trkpt>
			 <trkpt lat="47.646166" lon="-122.335309">
				 <ele>11.7</ele>
			 </trkpt>
			 <trkpt lat="47.64625" lon="-122.334941">
				 <ele>11.9</ele>
			 </trkpt>
			 <trkpt lat="47.646487" lon="-122.334339">
				 <ele>12.2</ele>
			 </trkpt>
			 <trkpt lat="47.646805" lon="-122.333849">
				 <ele>12.5</ele>
			 </trkpt>
			 <trkpt lat="47.646956" lon="-122.333846">
				 <ele>12.7</ele>
			 </trkpt>
			 <trkpt lat="47.646911" lon="-122.334154">
				 <ele>12.5</ele>
			 </trkpt>
			 <trkpt lat="47.646951" lon="-122.334342">
				 <ele>12.2</ele>
			 </trkpt>
			 <trkpt lat="47.646897" lon="-122.335002">
				 <ele>12.2</ele>
			 </trkpt>
			 <trkpt lat="47.646895" lon="-122.335296">
				 <ele>12.1</ele>
			 </trkpt>
			 <trkpt lat="47.646942" lon="-122.335513">
				 <ele>12.1</ele>
			 </trkpt>
			 <trkpt lat="47.646931" lon="-122.338342">
				 <ele>11.7</ele>
			 </trkpt>
			 <trkpt lat="47.64702" lon="-122.338571">
				 <ele>11.4</ele>
			 </trkpt>
			 <trkpt lat="47.647589" lon="-122.339425">
				 <ele>11</ele>
			 </trkpt>
			 <trkpt lat="47.64806" lon="-122.340508">
				 <ele>11</ele>
			 </trkpt>
			 <trkpt lat="47.648189" lon="-122.341002">
				 <ele>11.2</ele>
			 </trkpt>
			 <trkpt lat="47.648422" lon="-122.342794">
				 <ele>11.4</ele>
			 </trkpt>
			 <trkpt lat="47.648526" lon="-122.342788">
				 <ele>12.2</ele>
			 </trkpt>
			 <trkpt lat="47.648726" lon="-122.344074">
				 <ele>13.9</ele>
			 </trkpt>
			 <trkpt lat="47.649643" lon="-122.344009">
				 <ele>15.4</ele>
			 </trkpt>
			 <trkpt lat="47.650478" lon="-122.34403">
				 <ele>17.9</ele>
			 </trkpt>
			 <trkpt lat="47.650543" lon="-122.34394">
				 <ele>20.7</ele>
			 </trkpt>
			 <trkpt lat="47.650605" lon="-122.344031">
				 <ele>23.8</ele>
			 </trkpt>
			 <trkpt lat="47.652723" lon="-122.343996">
				 <ele>26.8</ele>
			 </trkpt>
			 <trkpt lat="47.652722" lon="-122.343954">
				 <ele>29.7</ele>
			 </trkpt>
			 <trkpt lat="47.652749" lon="-122.345853">
				 <ele>36.7</ele>
			 </trkpt>
			 <trkpt lat="47.65235" lon="-122.346496">
				 <ele>43.5</ele>
			 </trkpt>
			 <trkpt lat="47.652118" lon="-122.346762">
				 <ele>49.2</ele>
			 </trkpt>
			 <trkpt lat="47.65175" lon="-122.347062">
				 <ele>54.5</ele>
			 </trkpt>
			 <trkpt lat="47.651365" lon="-122.347266">
				 <ele>57.4</ele>
			 </trkpt>
			 <trkpt lat="47.665165" lon="-122.347248">
				 <ele>60</ele>
			 </trkpt>
			 <trkpt lat="47.665563" lon="-122.347308">
				 <ele>61.3</ele>
			 </trkpt>
			 <trkpt lat="47.671101" lon="-122.347278">
				 <ele>62.3</ele>
			 </trkpt>
			 <trkpt lat="47.671671" lon="-122.347199">
				 <ele>63.5</ele>
			 </trkpt>
			 <trkpt lat="47.67477" lon="-122.347128">
				 <ele>64.6</ele>
			 </trkpt>
			 <trkpt lat="47.675211" lon="-122.347045">
				 <ele>65.9</ele>
			 </trkpt>
			 <trkpt lat="47.676074" lon="-122.346727">
				 <ele>62.5</ele>
			 </trkpt>
			 <trkpt lat="47.676024" lon="-122.346646">
				 <ele>59.1</ele>
			 </trkpt>
			 <trkpt lat="47.675446" lon="-122.346702">
				 <ele>56.8</ele>
			 </trkpt>
			 <trkpt lat="47.674987" lon="-122.346471">
				 <ele>54.7</ele>
			 </trkpt>
			 <trkpt lat="47.674318" lon="-122.345832">
				 <ele>54.4</ele>
			 </trkpt>
			 <trkpt lat="47.673594" lon="-122.344777">
				 <ele>54.2</ele>
			 </trkpt>
			 <trkpt lat="47.673069" lon="-122.344287">
				 <ele>54.4</ele>
			 </trkpt>
			 <trkpt lat="47.672319" lon="-122.343874">
				 <ele>54.5</ele>
			 </trkpt>
			 <trkpt lat="47.671372" lon="-122.343626">
				 <ele>54.4</ele>
			 </trkpt>
			 <trkpt lat="47.670884" lon="-122.343228">
				 <ele>54.5</ele>
			 </trkpt>
			 <trkpt lat="47.670517" lon="-122.342635">
				 <ele>54.5</ele>
			 </trkpt>
			 <trkpt lat="47.67037" lon="-122.342227">
				 <ele>54.5</ele>
			 </trkpt>
			 <trkpt lat="47.670047" lon="-122.340771">
				 <ele>54.6</ele>
			 </trkpt>
			 <trkpt lat="47.66972" lon="-122.340224">
				 <ele>54.7</ele>
			 </trkpt>
			 <trkpt lat="47.669663" lon="-122.340045">
				 <ele>54.8</ele>
			 </trkpt>
			 <trkpt lat="47.669972" lon="-122.339972">
				 <ele>54.8</ele>
			 </trkpt>
			 <trkpt lat="47.671048" lon="-122.339939">
				 <ele>54.7</ele>
			 </trkpt>
			 <trkpt lat="47.671454" lon="-122.339689">
				 <ele>54.6</ele>
			 </trkpt>
			 <trkpt lat="47.671695" lon="-122.339312">
				 <ele>54.6</ele>
			 </trkpt>
			 <trkpt lat="47.672082" lon="-122.337991">
				 <ele>54.7</ele>
			 </trkpt>
			 <trkpt lat="47.672397" lon="-122.337336">
				 <ele>54.7</ele>
			 </trkpt>
			 <trkpt lat="47.674676" lon="-122.334568">
				 <ele>54.6</ele>
			 </trkpt>
			 <trkpt lat="47.674932" lon="-122.334229">
				 <ele>54.5</ele>
			 </trkpt>
			 <trkpt lat="47.675391" lon="-122.33344">
				 <ele>54.5</ele>
			 </trkpt>
			 <trkpt lat="47.6757" lon="-122.333053">
				 <ele>54.5</ele>
			 </trkpt>
			 <trkpt lat="47.676082" lon="-122.332691">
				 <ele>54.5</ele>
			 </trkpt>
			 <trkpt lat="47.677486" lon="-122.332206">
				 <ele>54.5</ele>
			 </trkpt>
			 <trkpt lat="47.677724" lon="-122.332098">
				 <ele>54.4</ele>
			 </trkpt>
			 <trkpt lat="47.678015" lon="-122.331828">
				 <ele>54.3</ele>
			 </trkpt>
			 <trkpt lat="47.678307" lon="-122.331277">
				 <ele>54.2</ele>
			 </trkpt>
			 <trkpt lat="47.678428" lon="-122.33068">
				 <ele>54</ele>
			 </trkpt>
			 <trkpt lat="47.678346" lon="-122.328192">
				 <ele>53.9</ele>
			 </trkpt>
			 <trkpt lat="47.678419" lon="-122.327425">
				 <ele>53.9</ele>
			 </trkpt>
			 <trkpt lat="47.678544" lon="-122.326955">
				 <ele>54</ele>
			 </trkpt>
			 <trkpt lat="47.678737" lon="-122.326561">
				 <ele>54</ele>
			 </trkpt>
			 <trkpt lat="47.679043" lon="-122.326177">
				 <ele>54</ele>
			 </trkpt>
			 <trkpt lat="47.679622" lon="-122.325843">
				 <ele>54</ele>
			 </trkpt>
			 <trkpt lat="47.679582" lon="-122.325826">
				 <ele>54.1</ele>
			 </trkpt>
			 <trkpt lat="47.680222" lon="-122.32588">
				 <ele>54.2</ele>
			 </trkpt>
			 <trkpt lat="47.680757" lon="-122.326246">
				 <ele>54.3</ele>
			 </trkpt>
			 <trkpt lat="47.681072" lon="-122.326666">
				 <ele>54.4</ele>
			 </trkpt>
			 <trkpt lat="47.682141" lon="-122.328373">
				 <ele>54.5</ele>
			 </trkpt>
			 <trkpt lat="47.68237" lon="-122.32885">
				 <ele>54.5</ele>
			 </trkpt>
			 <trkpt lat="47.682599" lon="-122.329714">
				 <ele>54.6</ele>
			 </trkpt>
			 <trkpt lat="47.682641" lon="-122.329698">
				 <ele>54.5</ele>
			 </trkpt>
			 <trkpt lat="47.682691" lon="-122.330508">
				 <ele>54.5</ele>
			 </trkpt>
			 <trkpt lat="47.682608" lon="-122.331941">
				 <ele>54.4</ele>
			 </trkpt>
			 <trkpt lat="47.682696" lon="-122.332582">
				 <ele>54.3</ele>
			 </trkpt>
			 <trkpt lat="47.682867" lon="-122.333132">
				 <ele>54.2</ele>
			 </trkpt>
			 <trkpt lat="47.683152" lon="-122.333748">
				 <ele>54.2</ele>
			 </trkpt>
			 <trkpt lat="47.683657" lon="-122.334318">
				 <ele>54.1</ele>
			 </trkpt>
			 <trkpt lat="47.683633" lon="-122.334373">
				 <ele>54</ele>
			 </trkpt>
			 <trkpt lat="47.685104" lon="-122.335854">
				 <ele>53.9</ele>
			 </trkpt>
			 <trkpt lat="47.685077" lon="-122.335905">
				 <ele>53.7</ele>
			 </trkpt>
			 <trkpt lat="47.685384" lon="-122.336398">
				 <ele>53.5</ele>
			 </trkpt>
			 <trkpt lat="47.685558" lon="-122.337053">
				 <ele>53.5</ele>
			 </trkpt>
			 <trkpt lat="47.685582" lon="-122.337381">
				 <ele>53.5</ele>
			 </trkpt>
			 <trkpt lat="47.685521" lon="-122.33806">
				 <ele>53.5</ele>
			 </trkpt>
			 <trkpt lat="47.685356" lon="-122.338492">
				 <ele>53.5</ele>
			 </trkpt>
			 <trkpt lat="47.68504" lon="-122.339008">
				 <ele>53.6</ele>
			 </trkpt>
			 <trkpt lat="47.684778" lon="-122.339243">
				 <ele>53.6</ele>
			 </trkpt>
			 <trkpt lat="47.683064" lon="-122.340175">
				 <ele>53.6</ele>
			 </trkpt>
			 <trkpt lat="47.682562" lon="-122.340685">
				 <ele>53.6</ele>
			 </trkpt>
			 <trkpt lat="47.682295" lon="-122.341096">
				 <ele>53.6</ele>
			 </trkpt>
			 <trkpt lat="47.682074" lon="-122.341659">
				 <ele>53.5</ele>
			 </trkpt>
			 <trkpt lat="47.681647" lon="-122.343401">
				 <ele>53.3</ele>
			 </trkpt>
			 <trkpt lat="47.681314" lon="-122.344197">
				 <ele>53.1</ele>
			 </trkpt>
			 <trkpt lat="47.681335" lon="-122.344228">
				 <ele>52.8</ele>
			 </trkpt>
			 <trkpt lat="47.681179" lon="-122.344165">
				 <ele>52.5</ele>
			 </trkpt>
			 <trkpt lat="47.680954" lon="-122.34418">
				 <ele>52.2</ele>
			 </trkpt>
			 <trkpt lat="47.680608" lon="-122.344339">
				 <ele>51.8</ele>
			 </trkpt>
			 <trkpt lat="47.680916" lon="-122.343917">
				 <ele>51.6</ele>
			 </trkpt>
			 <trkpt lat="47.681042" lon="-122.343572">
				 <ele>51.5</ele>
			 </trkpt>
			 <trkpt lat="47.681039" lon="-122.343189">
				 <ele>51.5</ele>
			 </trkpt>
			 <trkpt lat="47.680936" lon="-122.342922">
				 <ele>51.3</ele>
			 </trkpt>
			 <trkpt lat="47.680908" lon="-122.342687">
				 <ele>51.3</ele>
			 </trkpt>
			 <trkpt lat="47.68109" lon="-122.342232">
				 <ele>51.5</ele>
			 </trkpt>
			 <trkpt lat="47.681071" lon="-122.341484">
				 <ele>51.6</ele>
			 </trkpt>
			 <trkpt lat="47.681095" lon="-122.341317">
				 <ele>51.8</ele>
			 </trkpt>
			 <trkpt lat="47.681782" lon="-122.340147">
				 <ele>51.7</ele>
			 </trkpt>
			 <trkpt lat="47.682692" lon="-122.33979">
				 <ele>51.7</ele>
			 </trkpt>
			 <trkpt lat="47.683167" lon="-122.339854">
				 <ele>51.7</ele>
			 </trkpt>
			 <trkpt lat="47.683301" lon="-122.339805">
				 <ele>51.6</ele>
			 </trkpt>
			 <trkpt lat="47.68385" lon="-122.339398">
				 <ele>51.5</ele>
			 </trkpt>
			 <trkpt lat="47.684128" lon="-122.339086">
				 <ele>51.5</ele>
			 </trkpt>
			 <trkpt lat="47.684321" lon="-122.338995">
				 <ele>51.5</ele>
			 </trkpt>
			 <trkpt lat="47.684925" lon="-122.338342">
				 <ele>51.5</ele>
			 </trkpt>
			 <trkpt lat="47.684966" lon="-122.337911">
				 <ele>51.4</ele>
			 </trkpt>
			 <trkpt lat="47.684929" lon="-122.337099">
				 <ele>51.4</ele>
			 </trkpt>
			 <trkpt lat="47.684862" lon="-122.336653">
				 <ele>51.3</ele>
			 </trkpt>
			 <trkpt lat="47.684448" lon="-122.335761">
				 <ele>51.4</ele>
			 </trkpt>
			 <trkpt lat="47.684176" lon="-122.335462">
				 <ele>51.4</ele>
			 </trkpt>
			 <trkpt lat="47.683719" lon="-122.335152">
				 <ele>51.4</ele>
			 </trkpt>
			 <trkpt lat="47.682944" lon="-122.334269">
				 <ele>51.4</ele>
			 </trkpt>
			 <trkpt lat="47.682534" lon="-122.333969">
				 <ele>51.4</ele>
			 </trkpt>
			 <trkpt lat="47.682448" lon="-122.333813">
				 <ele>51.4</ele>
			 </trkpt>
			 <trkpt lat="47.682376" lon="-122.333387">
				 <ele>51.4</ele>
			 </trkpt>
			 <trkpt lat="47.682322" lon="-122.33314">
				 <ele>51.2</ele>
			 </trkpt>
			 <trkpt lat="47.682119" lon="-122.332302">
				 <ele>51</ele>
			 </trkpt>
			 <trkpt lat="47.681986" lon="-122.331953">
				 <ele>50.8</ele>
			 </trkpt>
			 <trkpt lat="47.681812" lon="-122.331524">
				 <ele>50.6</ele>
			 </trkpt>
			 <trkpt lat="47.681758" lon="-122.331367">
				 <ele>50.5</ele>
			 </trkpt>
			 <trkpt lat="47.681729" lon="-122.331203">
				 <ele>50.5</ele>
			 </trkpt>
			 <trkpt lat="47.681724" lon="-122.331067">
				 <ele>50.5</ele>
			 </trkpt>
			 <trkpt lat="47.681728" lon="-122.330943">
				 <ele>50.5</ele>
			 </trkpt>
			 <trkpt lat="47.681747" lon="-122.330797">
				 <ele>50.5</ele>
			 </trkpt>
			 <trkpt lat="47.681784" lon="-122.330636">
				 <ele>50.5</ele>
			 </trkpt>
			 <trkpt lat="47.681862" lon="-122.330479">
				 <ele>50.5</ele>
			 </trkpt>
			 <trkpt lat="47.68206" lon="-122.330179">
				 <ele>50.5</ele>
			 </trkpt>
			 <trkpt lat="47.682102" lon="-122.33009">
				 <ele>50.6</ele>
			 </trkpt>
			 <trkpt lat="47.682134" lon="-122.329969">
				 <ele>50.7</ele>
			 </trkpt>
			 <trkpt lat="47.682099" lon="-122.329574">
				 <ele>50.8</ele>
			 </trkpt>
			 <trkpt lat="47.681899" lon="-122.329157">
				 <ele>50.9</ele>
			 </trkpt>
			 <trkpt lat="47.681778" lon="-122.329029">
				 <ele>51</ele>
			 </trkpt>
			 <trkpt lat="47.681568" lon="-122.328961">
				 <ele>51</ele>
			 </trkpt>
			 <trkpt lat="47.6805" lon="-122.32916">
				 <ele>51.1</ele>
			 </trkpt>
			 <trkpt lat="47.679766" lon="-122.32921">
				 <ele>51.2</ele>
			 </trkpt>
			 <trkpt lat="47.67937" lon="-122.329311">
				 <ele>51.3</ele>
			 </trkpt>
			 <trkpt lat="47.679041" lon="-122.329515">
				 <ele>51.4</ele>
			 </trkpt>
			 <trkpt lat="47.678945" lon="-122.329637">
				 <ele>51.5</ele>
			 </trkpt>
			 <trkpt lat="47.678835" lon="-122.32989">
				 <ele>51.5</ele>
			 </trkpt>
			 <trkpt lat="47.678808" lon="-122.33016">
				 <ele>51.6</ele>
			 </trkpt>
			 <trkpt lat="47.678867" lon="-122.330676">
				 <ele>51.7</ele>
			 </trkpt>
			 <trkpt lat="47.678843" lon="-122.330959">
				 <ele>51.7</ele>
			 </trkpt>
			 <trkpt lat="47.678733" lon="-122.331305">
				 <ele>51.8</ele>
			 </trkpt>
			 <trkpt lat="47.678322" lon="-122.331933">
				 <ele>51.9</ele>
			 </trkpt>
			 <trkpt lat="47.677704" lon="-122.332469">
				 <ele>51.9</ele>
			 </trkpt>
			 <trkpt lat="47.6771" lon="-122.332715">
				 <ele>51.9</ele>
			 </trkpt>
			 <trkpt lat="47.676171" lon="-122.333322">
				 <ele>51.9</ele>
			 </trkpt>
			 <trkpt lat="47.675752" lon="-122.333738">
				 <ele>51.9</ele>
			 </trkpt>
			 <trkpt lat="47.675488" lon="-122.33409">
				 <ele>51.9</ele>
			 </trkpt>
			 <trkpt lat="47.675411" lon="-122.33409">
				 <ele>52</ele>
			 </trkpt>
			 <trkpt lat="47.674915" lon="-122.334871">
				 <ele>52.1</ele>
			 </trkpt>
			 <trkpt lat="47.674138" lon="-122.335628">
				 <ele>52.1</ele>
			 </trkpt>
			 <trkpt lat="47.673459" lon="-122.33648">
				 <ele>52.2</ele>
			 </trkpt>
			 <trkpt lat="47.672513" lon="-122.338075">
				 <ele>52.2</ele>
			 </trkpt>
			 <trkpt lat="47.672055" lon="-122.33914">
				 <ele>52.3</ele>
			 </trkpt>
			 <trkpt lat="47.671893" lon="-122.339675">
				 <ele>52.4</ele>
			 </trkpt>
			 <trkpt lat="47.671578" lon="-122.341132">
				 <ele>52.5</ele>
			 </trkpt>
			 <trkpt lat="47.67153" lon="-122.341628">
				 <ele>52.4</ele>
			 </trkpt>
			 <trkpt lat="47.671342" lon="-122.342305">
				 <ele>52.4</ele>
			 </trkpt>
			 <trkpt lat="47.671345" lon="-122.342739">
				 <ele>52.4</ele>
			 </trkpt>
			 <trkpt lat="47.67147" lon="-122.343154">
				 <ele>52.3</ele>
			 </trkpt>
			 <trkpt lat="47.671641" lon="-122.343388">
				 <ele>52.1</ele>
			 </trkpt>
			 <trkpt lat="47.672149" lon="-122.34347">
				 <ele>52</ele>
			 </trkpt>
			 <trkpt lat="47.672618" lon="-122.343634">
				 <ele>51.9</ele>
			 </trkpt>
			 <trkpt lat="47.673176" lon="-122.343971">
				 <ele>51.8</ele>
			 </trkpt>
			 <trkpt lat="47.674912" lon="-122.345785">
				 <ele>51.6</ele>
			 </trkpt>
			 <trkpt lat="47.675535" lon="-122.346319">
				 <ele>51.5</ele>
			 </trkpt>
			 <trkpt lat="47.675798" lon="-122.346374">
				 <ele>51.3</ele>
			 </trkpt>
			 <trkpt lat="47.676112" lon="-122.346314">
				 <ele>51.2</ele>
			 </trkpt>
			 <trkpt lat="47.677357" lon="-122.345569">
				 <ele>51.2</ele>
			 </trkpt>
			 <trkpt lat="47.678112" lon="-122.345249">
				 <ele>51.3</ele>
			 </trkpt>
			 <trkpt lat="47.679503" lon="-122.344992">
				 <ele>51.5</ele>
			 </trkpt>
			 <trkpt lat="47.680108" lon="-122.344753">
				 <ele>51.7</ele>
			 </trkpt>
			 <trkpt lat="47.680608" lon="-122.344339">
				 <ele>52</ele>
			 </trkpt>
			 <trkpt lat="47.680954" lon="-122.34418">
				 <ele>52.3</ele>
			 </trkpt>
			 <trkpt lat="47.681314" lon="-122.344197">
				 <ele>52.5</ele>
			 </trkpt>
			 <trkpt lat="47.681408" lon="-122.344301">
				 <ele>52.7</ele>
			 </trkpt>
			 <trkpt lat="47.681444" lon="-122.344405">
				 <ele>52.9</ele>
			 </trkpt>
			 <trkpt lat="47.681126" lon="-122.34451">
				 <ele>53.1</ele>
			 </trkpt>
			 <trkpt lat="47.680606" lon="-122.344939">
				 <ele>53.5</ele>
			 </trkpt>
			 <trkpt lat="47.68003" lon="-122.345237">
				 <ele>54.2</ele>
			 </trkpt>
			 <trkpt lat="47.677769" lon="-122.345615">
				 <ele>56.4</ele>
			 </trkpt>
			 <trkpt lat="47.677404" lon="-122.34581">
				 <ele>58.6</ele>
			 </trkpt>
			 <trkpt lat="47.676489" lon="-122.346498">
				 <ele>62.1</ele>
			 </trkpt>
			 <trkpt lat="47.675646" lon="-122.346911">
				 <ele>65.5</ele>
			 </trkpt>
			 <trkpt lat="47.67477" lon="-122.347128">
				 <ele>69</ele>
			 </trkpt>
			 <trkpt lat="47.671671" lon="-122.347199">
				 <ele>68.9</ele>
			 </trkpt>
			 <trkpt lat="47.671101" lon="-122.347278">
				 <ele>67.8</ele>
			 </trkpt>
			 <trkpt lat="47.665563" lon="-122.347308">
				 <ele>66.4</ele>
			 </trkpt>
			 <trkpt lat="47.665429" lon="-122.347256">
				 <ele>65.5</ele>
			 </trkpt>
			 <trkpt lat="47.664355" lon="-122.347243">
				 <ele>66.4</ele>
			 </trkpt>
			 <trkpt lat="47.654135" lon="-122.34723">
				 <ele>67</ele>
			 </trkpt>
			 <trkpt lat="47.651344" lon="-122.347273">
				 <ele>65.6</ele>
			 </trkpt>
			 <trkpt lat="47.651153" lon="-122.347322">
				 <ele>63.2</ele>
			 </trkpt>
			 <trkpt lat="47.643887" lon="-122.347299">
				 <ele>59.5</ele>
			 </trkpt>
			 <trkpt lat="47.643156" lon="-122.34721">
				 <ele>55.9</ele>
			 </trkpt>
			 <trkpt lat="47.640383" lon="-122.346158">
				 <ele>50.1</ele>
			 </trkpt>
			 <trkpt lat="47.639111" lon="-122.345452">
				 <ele>47.3</ele>
			 </trkpt>
			 <trkpt lat="47.63661" lon="-122.343727">
				 <ele>45.6</ele>
			 </trkpt>
			 <trkpt lat="47.635891" lon="-122.343419">
				 <ele>44.5</ele>
			 </trkpt>
			 <trkpt lat="47.635558" lon="-122.34338">
				 <ele>42.9</ele>
			 </trkpt>
			 <trkpt lat="47.627146" lon="-122.34349">
				 <ele>40</ele>
			 </trkpt>
			 <trkpt lat="47.624277" lon="-122.343621">
				 <ele>36.7</ele>
			 </trkpt>
			 <trkpt lat="47.623073" lon="-122.343959">
				 <ele>33.8</ele>
			 </trkpt>
			 <trkpt lat="47.622476" lon="-122.343718">
				 <ele>31.7</ele>
			 </trkpt>
			 <trkpt lat="47.622057" lon="-122.343598">
				 <ele>29.8</ele>
			 </trkpt>
			 <trkpt lat="47.622067" lon="-122.347583">
				 <ele>27.9</ele>
			 </trkpt>
			 <trkpt lat="47.622475" lon="-122.34758">
				 <ele>28.2</ele>
			 </trkpt>
			 <trkpt lat="47.62255" lon="-122.347664">
				 <ele>28.9</ele>
			 </trkpt>
			 <trkpt lat="47.623249" lon="-122.347652">
				 <ele>29.5</ele>
			 </trkpt>
			 <trkpt lat="47.623255" lon="-122.348293">
				 <ele>30</ele>
			 </trkpt>
			 <trkpt lat="47.623388" lon="-122.348763">
				 <ele>30.5</ele>
			 </trkpt>
			 <trkpt lat="47.622979" lon="-122.349324">
				 <ele>30.3</ele>
			 </trkpt>
			 <trkpt lat="47.622821" lon="-122.349946">
				 <ele>30.3</ele>
			 </trkpt>
		 </trkseg>
	 </trk>
</gpx>