<?xml version="1.0" encoding="UTF-8"?>
 <gpx creator="Garmin Connect" version="1.1"
	 xsi:schemaLocation="http://www.topografix.com/GPX/1/1 http://www.topografix.com/GPX/11.xsd"
	 xmlns:ns3="http://www.garmin.com/xmlschemas/TrackPointExtension/v1"
	 xmlns="http://www.topografix.com/GPX/1/1"
	 xmlns:xsi="http://www.w3.org/2001/XMLSchema-instance" xmlns:ns2="http://www.garmin.com/xmlschemas/GpxExtensions/v3">
	 <metadata>
		<name>GO! St. Louis Marathon - 42.195 km</name>
		 <link href="https://www.goandrace.com">
		 <text>Garmin Connect</text>
		 </link>
	 <time>2026-08-08T21:05:37</time>
	 </metadata>
	 <trk>
		 <name>GO! St. Louis Marathon - 42.195 km</name>
		 <trkseg>
			 <trkpt lat="38.628283" lon="-90.201841">
				 <ele>143.2</ele>
			 </trkpt>
			 <trkpt lat="38.628223" lon="-90.201597">
				 <ele>143</ele>
			 </trkpt>
			 <trkpt lat="38.628127" lon="-90.201219">
				 <ele>142.9</ele>
			 </trkpt>
			 <trkpt lat="38.628088" lon="-90.201069">
				 <ele>142.8</ele>
			 </trkpt>
			 <trkpt lat="38.628051" lon="-90.200922">
				 <ele>142.7</ele>
			 </trkpt>
			 <trkpt lat="38.62778" lon="-90.199737">
				 <ele>142.5</ele>
			 </trkpt>
			 <trkpt lat="38.627492" lon="-90.198472">
				 <ele>142.3</ele>
			 </trkpt>
			 <trkpt lat="38.627464" lon="-90.19835">
				 <ele>142</ele>
			 </trkpt>
			 <trkpt lat="38.627417" lon="-90.198146">
				 <ele>141.7</ele>
			 </trkpt>
			 <trkpt lat="38.627394" lon="-90.19805">
				 <ele>141.5</ele>
			 </trkpt>
			 <trkpt lat="38.627266" lon="-90.197527">
				 <ele>141.2</ele>
			 </trkpt>
			 <trkpt lat="38.627138" lon="-90.197003">
				 <ele>141</ele>
			 </trkpt>
			 <trkpt lat="38.627107" lon="-90.196878">
				 <ele>140.8</ele>
			 </trkpt>
			 <trkpt lat="38.627003" lon="-90.196454">
				 <ele>140.6</ele>
			 </trkpt>
			 <trkpt lat="38.62698" lon="-90.196362">
				 <ele>140.4</ele>
			 </trkpt>
			 <trkpt lat="38.626969" lon="-90.196314">
				 <ele>140.1</ele>
			 </trkpt>
			 <trkpt lat="38.626803" lon="-90.19564">
				 <ele>139.9</ele>
			 </trkpt>
			 <trkpt lat="38.626783" lon="-90.195561">
				 <ele>139.7</ele>
			 </trkpt>
			 <trkpt lat="38.626763" lon="-90.195481">
				 <ele>139.6</ele>
			 </trkpt>
			 <trkpt lat="38.62666" lon="-90.195061">
				 <ele>139.7</ele>
			 </trkpt>
			 <trkpt lat="38.626532" lon="-90.194537">
				 <ele>139.8</ele>
			 </trkpt>
			 <trkpt lat="38.62651" lon="-90.194447">
				 <ele>139.7</ele>
			 </trkpt>
			 <trkpt lat="38.62649" lon="-90.194368">
				 <ele>139.9</ele>
			 </trkpt>
			 <trkpt lat="38.626261" lon="-90.193432">
				 <ele>140.2</ele>
			 </trkpt>
			 <trkpt lat="38.626239" lon="-90.193346">
				 <ele>140.5</ele>
			 </trkpt>
			 <trkpt lat="38.626189" lon="-90.193366">
				 <ele>139.6</ele>
			 </trkpt>
			 <trkpt lat="38.624013" lon="-90.194254">
				 <ele>138.8</ele>
			 </trkpt>
			 <trkpt lat="38.62346" lon="-90.192086">
				 <ele>137.5</ele>
			 </trkpt>
			 <trkpt lat="38.62299" lon="-90.191035">
				 <ele>136.3</ele>
			 </trkpt>
			 <trkpt lat="38.623024" lon="-90.191035">
				 <ele>134.7</ele>
			 </trkpt>
			 <trkpt lat="38.617067" lon="-90.193414">
				 <ele>133.2</ele>
			 </trkpt>
			 <trkpt lat="38.617033" lon="-90.192985">
				 <ele>131.5</ele>
			 </trkpt>
			 <trkpt lat="38.614686" lon="-90.187942">
				 <ele>130.2</ele>
			 </trkpt>
			 <trkpt lat="38.614937" lon="-90.187599">
				 <ele>128.6</ele>
			 </trkpt>
			 <trkpt lat="38.619196" lon="-90.18614">
				 <ele>128.7</ele>
			 </trkpt>
			 <trkpt lat="38.624493" lon="-90.18393">
				 <ele>128.8</ele>
			 </trkpt>
			 <trkpt lat="38.627159" lon="-90.182814">
				 <ele>128</ele>
			 </trkpt>
			 <trkpt lat="38.629086" lon="-90.182277">
				 <ele>127.8</ele>
			 </trkpt>
			 <trkpt lat="38.631014" lon="-90.181977">
				 <ele>128</ele>
			 </trkpt>
			 <trkpt lat="38.631567" lon="-90.185775">
				 <ele>127.9</ele>
			 </trkpt>
			 <trkpt lat="38.629671" lon="-90.185729">
				 <ele>127.7</ele>
			 </trkpt>
			 <trkpt lat="38.629028" lon="-90.179252">
				 <ele>127.5</ele>
			 </trkpt>
			 <trkpt lat="38.62861" lon="-90.17509">
				 <ele>127.4</ele>
			 </trkpt>
			 <trkpt lat="38.628426" lon="-90.175215">
				 <ele>129.2</ele>
			 </trkpt>
			 <trkpt lat="38.628477" lon="-90.175678">
				 <ele>130.9</ele>
			 </trkpt>
			 <trkpt lat="38.628795" lon="-90.17834">
				 <ele>130.9</ele>
			 </trkpt>
			 <trkpt lat="38.628955" lon="-90.180139">
				 <ele>130.7</ele>
			 </trkpt>
			 <trkpt lat="38.629158" lon="-90.182072">
				 <ele>132.5</ele>
			 </trkpt>
			 <trkpt lat="38.629537" lon="-90.185751">
				 <ele>133.5</ele>
			 </trkpt>
			 <trkpt lat="38.629419" lon="-90.186244">
				 <ele>134.5</ele>
			 </trkpt>
			 <trkpt lat="38.628715" lon="-90.18618">
				 <ele>135.9</ele>
			 </trkpt>
			 <trkpt lat="38.628045" lon="-90.186373">
				 <ele>137.9</ele>
			 </trkpt>
			 <trkpt lat="38.626385" lon="-90.186974">
				 <ele>139.3</ele>
			 </trkpt>
			 <trkpt lat="38.626251" lon="-90.186502">
				 <ele>140.5</ele>
			 </trkpt>
			 <trkpt lat="38.627291" lon="-90.18588">
				 <ele>139.5</ele>
			 </trkpt>
			 <trkpt lat="38.628011" lon="-90.185665">
				 <ele>138.6</ele>
			 </trkpt>
			 <trkpt lat="38.629235" lon="-90.185579">
				 <ele>137.6</ele>
			 </trkpt>
			 <trkpt lat="38.628397" lon="-90.184506">
				 <ele>136.8</ele>
			 </trkpt>
			 <trkpt lat="38.628062" lon="-90.18412">
				 <ele>136.2</ele>
			 </trkpt>
			 <trkpt lat="38.627693" lon="-90.183927">
				 <ele>135.6</ele>
			 </trkpt>
			 <trkpt lat="38.627257" lon="-90.183991">
				 <ele>135.1</ele>
			 </trkpt>
			 <trkpt lat="38.626972" lon="-90.184077">
				 <ele>134.4</ele>
			 </trkpt>
			 <trkpt lat="38.626587" lon="-90.184335">
				 <ele>133.3</ele>
			 </trkpt>
			 <trkpt lat="38.626033" lon="-90.184646">
				 <ele>133</ele>
			 </trkpt>
			 <trkpt lat="38.625706" lon="-90.184656">
				 <ele>132.9</ele>
			 </trkpt>
			 <trkpt lat="38.625509" lon="-90.184391">
				 <ele>132.7</ele>
			 </trkpt>
			 <trkpt lat="38.625346" lon="-90.18427">
				 <ele>132.6</ele>
			 </trkpt>
			 <trkpt lat="38.624793" lon="-90.184335">
				 <ele>132.8</ele>
			 </trkpt>
			 <trkpt lat="38.624038" lon="-90.184656">
				 <ele>133.1</ele>
			 </trkpt>
			 <trkpt lat="38.623401" lon="-90.185128">
				 <ele>133.3</ele>
			 </trkpt>
			 <trkpt lat="38.622865" lon="-90.18545">
				 <ele>133.3</ele>
			 </trkpt>
			 <trkpt lat="38.622328" lon="-90.185794">
				 <ele>133.3</ele>
			 </trkpt>
			 <trkpt lat="38.621926" lon="-90.186116">
				 <ele>133.3</ele>
			 </trkpt>
			 <trkpt lat="38.621323" lon="-90.186566">
				 <ele>133.3</ele>
			 </trkpt>
			 <trkpt lat="38.621054" lon="-90.186931">
				 <ele>133</ele>
			 </trkpt>
			 <trkpt lat="38.62087" lon="-90.18736">
				 <ele>132.6</ele>
			 </trkpt>
			 <trkpt lat="38.620753" lon="-90.187746">
				 <ele>132.4</ele>
			 </trkpt>
			 <trkpt lat="38.620551" lon="-90.188154">
				 <ele>132</ele>
			 </trkpt>
			 <trkpt lat="38.620384" lon="-90.188283">
				 <ele>131.6</ele>
			 </trkpt>
			 <trkpt lat="38.620149" lon="-90.188133">
				 <ele>131</ele>
			 </trkpt>
			 <trkpt lat="38.619971" lon="-90.188108">
				 <ele>130.6</ele>
			 </trkpt>
			 <trkpt lat="38.618864" lon="-90.188774">
				 <ele>130.4</ele>
			 </trkpt>
			 <trkpt lat="38.61816" lon="-90.189213">
				 <ele>131.3</ele>
			 </trkpt>
			 <trkpt lat="38.618546" lon="-90.19034">
				 <ele>132.5</ele>
			 </trkpt>
			 <trkpt lat="38.61728" lon="-90.191295">
				 <ele>133.7</ele>
			 </trkpt>
			 <trkpt lat="38.618093" lon="-90.193129">
				 <ele>135.4</ele>
			 </trkpt>
			 <trkpt lat="38.617104" lon="-90.193559">
				 <ele>137.1</ele>
			 </trkpt>
			 <trkpt lat="38.618705" lon="-90.201635">
				 <ele>139.1</ele>
			 </trkpt>
			 <trkpt lat="38.617276" lon="-90.202148">
				 <ele>141.1</ele>
			 </trkpt>
			 <trkpt lat="38.616656" lon="-90.20248">
				 <ele>142.9</ele>
			 </trkpt>
			 <trkpt lat="38.613998" lon="-90.204926">
				 <ele>144.9</ele>
			 </trkpt>
			 <trkpt lat="38.611257" lon="-90.207491">
				 <ele>146.6</ele>
			 </trkpt>
			 <trkpt lat="38.609974" lon="-90.208649">
				 <ele>148.5</ele>
			 </trkpt>
			 <trkpt lat="38.609943" lon="-90.208635">
				 <ele>149.4</ele>
			 </trkpt>
			 <trkpt lat="38.609878" lon="-90.208659">
				 <ele>150</ele>
			 </trkpt>
			 <trkpt lat="38.609727" lon="-90.208727">
				 <ele>150.5</ele>
			 </trkpt>
			 <trkpt lat="38.609693" lon="-90.208755">
				 <ele>150.8</ele>
			 </trkpt>
			 <trkpt lat="38.609636" lon="-90.208824">
				 <ele>151</ele>
			 </trkpt>
			 <trkpt lat="38.609557" lon="-90.208861">
				 <ele>151</ele>
			 </trkpt>
			 <trkpt lat="38.609528" lon="-90.208874">
				 <ele>150.9</ele>
			 </trkpt>
			 <trkpt lat="38.608755" lon="-90.209215">
				 <ele>150.8</ele>
			 </trkpt>
			 <trkpt lat="38.608696" lon="-90.209242">
				 <ele>150.7</ele>
			 </trkpt>
			 <trkpt lat="38.608632" lon="-90.209271">
				 <ele>150.6</ele>
			 </trkpt>
			 <trkpt lat="38.608339" lon="-90.209403">
				 <ele>150.4</ele>
			 </trkpt>
			 <trkpt lat="38.608037" lon="-90.20954">
				 <ele>150</ele>
			 </trkpt>
			 <trkpt lat="38.607821" lon="-90.209638">
				 <ele>149.6</ele>
			 </trkpt>
			 <trkpt lat="38.607734" lon="-90.209677">
				 <ele>149.3</ele>
			 </trkpt>
			 <trkpt lat="38.607653" lon="-90.209714">
				 <ele>148.9</ele>
			 </trkpt>
			 <trkpt lat="38.607244" lon="-90.209901">
				 <ele>148.6</ele>
			 </trkpt>
			 <trkpt lat="38.606837" lon="-90.210084">
				 <ele>148.4</ele>
			 </trkpt>
			 <trkpt lat="38.606778" lon="-90.210111">
				 <ele>148.6</ele>
			 </trkpt>
			 <trkpt lat="38.606714" lon="-90.210139">
				 <ele>148.9</ele>
			 </trkpt>
			 <trkpt lat="38.606357" lon="-90.210301">
				 <ele>149.2</ele>
			 </trkpt>
			 <trkpt lat="38.60591" lon="-90.210504">
				 <ele>149.5</ele>
			 </trkpt>
			 <trkpt lat="38.605841" lon="-90.210535">
				 <ele>149.9</ele>
			 </trkpt>
			 <trkpt lat="38.604981" lon="-90.210925">
				 <ele>150.5</ele>
			 </trkpt>
			 <trkpt lat="38.604907" lon="-90.210958">
				 <ele>151.1</ele>
			 </trkpt>
			 <trkpt lat="38.604852" lon="-90.210983">
				 <ele>151.8</ele>
			 </trkpt>
			 <trkpt lat="38.603983" lon="-90.211377">
				 <ele>152.7</ele>
			 </trkpt>
			 <trkpt lat="38.60321" lon="-90.211722">
				 <ele>153.6</ele>
			 </trkpt>
			 <trkpt lat="38.603154" lon="-90.211747">
				 <ele>154.5</ele>
			 </trkpt>
			 <trkpt lat="38.603088" lon="-90.211776">
				 <ele>155.1</ele>
			 </trkpt>
			 <trkpt lat="38.602638" lon="-90.211973">
				 <ele>155.7</ele>
			 </trkpt>
			 <trkpt lat="38.60219" lon="-90.212178">
				 <ele>156.4</ele>
			 </trkpt>
			 <trkpt lat="38.602128" lon="-90.212212">
				 <ele>156.9</ele>
			 </trkpt>
			 <trkpt lat="38.602075" lon="-90.212247">
				 <ele>157.5</ele>
			 </trkpt>
			 <trkpt lat="38.60169" lon="-90.212516">
				 <ele>158</ele>
			 </trkpt>
			 <trkpt lat="38.601189" lon="-90.21287">
				 <ele>158.5</ele>
			 </trkpt>
			 <trkpt lat="38.600664" lon="-90.213243">
				 <ele>158.8</ele>
			 </trkpt>
			 <trkpt lat="38.600331" lon="-90.213478">
				 <ele>158.9</ele>
			 </trkpt>
			 <trkpt lat="38.600279" lon="-90.213515">
				 <ele>159</ele>
			 </trkpt>
			 <trkpt lat="38.600203" lon="-90.213587">
				 <ele>159.1</ele>
			 </trkpt>
			 <trkpt lat="38.600147" lon="-90.21367">
				 <ele>159.1</ele>
			 </trkpt>
			 <trkpt lat="38.600109" lon="-90.213742">
				 <ele>159</ele>
			 </trkpt>
			 <trkpt lat="38.600063" lon="-90.213874">
				 <ele>158.8</ele>
			 </trkpt>
			 <trkpt lat="38.599939" lon="-90.214383">
				 <ele>158.7</ele>
			 </trkpt>
			 <trkpt lat="38.5999" lon="-90.214493">
				 <ele>158.6</ele>
			 </trkpt>
			 <trkpt lat="38.599806" lon="-90.214661">
				 <ele>158.6</ele>
			 </trkpt>
			 <trkpt lat="38.599715" lon="-90.214773">
				 <ele>158.7</ele>
			 </trkpt>
			 <trkpt lat="38.598639" lon="-90.215021">
				 <ele>158.8</ele>
			 </trkpt>
			 <trkpt lat="38.598551" lon="-90.215041">
				 <ele>159.4</ele>
			 </trkpt>
			 <trkpt lat="38.598605" lon="-90.215241">
				 <ele>159.9</ele>
			 </trkpt>
			 <trkpt lat="38.598636" lon="-90.215355">
				 <ele>160.4</ele>
			 </trkpt>
			 <trkpt lat="38.598829" lon="-90.216046">
				 <ele>160.3</ele>
			 </trkpt>
			 <trkpt lat="38.598863" lon="-90.216164">
				 <ele>159.3</ele>
			 </trkpt>
			 <trkpt lat="38.60092" lon="-90.215797">
				 <ele>158.6</ele>
			 </trkpt>
			 <trkpt lat="38.601046" lon="-90.216301">
				 <ele>158</ele>
			 </trkpt>
			 <trkpt lat="38.60305" lon="-90.215507">
				 <ele>157.5</ele>
			 </trkpt>
			 <trkpt lat="38.602198" lon="-90.212246">
				 <ele>156.5</ele>
			 </trkpt>
			 <trkpt lat="38.607178" lon="-90.20994">
				 <ele>155.4</ele>
			 </trkpt>
			 <trkpt lat="38.608956" lon="-90.209189">
				 <ele>154.4</ele>
			 </trkpt>
			 <trkpt lat="38.610029" lon="-90.208695">
				 <ele>153</ele>
			 </trkpt>
			 <trkpt lat="38.612477" lon="-90.206506">
				 <ele>151.6</ele>
			 </trkpt>
			 <trkpt lat="38.614757" lon="-90.204382">
				 <ele>150.5</ele>
			 </trkpt>
			 <trkpt lat="38.614913" lon="-90.204922">
				 <ele>149.9</ele>
			 </trkpt>
			 <trkpt lat="38.61507" lon="-90.205461">
				 <ele>150.3</ele>
			 </trkpt>
			 <trkpt lat="38.615226" lon="-90.206001">
				 <ele>150.5</ele>
			 </trkpt>
			 <trkpt lat="38.615383" lon="-90.20654">
				 <ele>150.7</ele>
			 </trkpt>
			 <trkpt lat="38.615539" lon="-90.20708">
				 <ele>151</ele>
			 </trkpt>
			 <trkpt lat="38.615696" lon="-90.207619">
				 <ele>151.7</ele>
			 </trkpt>
			 <trkpt lat="38.615852" lon="-90.208159">
				 <ele>152.5</ele>
			 </trkpt>
			 <trkpt lat="38.616009" lon="-90.208698">
				 <ele>153.2</ele>
			 </trkpt>
			 <trkpt lat="38.61614" lon="-90.209148">
				 <ele>154</ele>
			 </trkpt>
			 <trkpt lat="38.616291" lon="-90.20969">
				 <ele>154.8</ele>
			 </trkpt>
			 <trkpt lat="38.616442" lon="-90.210232">
				 <ele>155.5</ele>
			 </trkpt>
			 <trkpt lat="38.616593" lon="-90.210774">
				 <ele>156.3</ele>
			 </trkpt>
			 <trkpt lat="38.616743" lon="-90.211317">
				 <ele>157</ele>
			 </trkpt>
			 <trkpt lat="38.616894" lon="-90.211859">
				 <ele>157.7</ele>
			 </trkpt>
			 <trkpt lat="38.617045" lon="-90.212401">
				 <ele>158.5</ele>
			 </trkpt>
			 <trkpt lat="38.617196" lon="-90.212943">
				 <ele>159.2</ele>
			 </trkpt>
			 <trkpt lat="38.617322" lon="-90.213394">
				 <ele>159.7</ele>
			 </trkpt>
			 <trkpt lat="38.617311" lon="-90.213529">
				 <ele>160.2</ele>
			 </trkpt>
			 <trkpt lat="38.616945" lon="-90.213606">
				 <ele>160.5</ele>
			 </trkpt>
			 <trkpt lat="38.6157" lon="-90.21387">
				 <ele>160.8</ele>
			 </trkpt>
			 <trkpt lat="38.61498" lon="-90.214022">
				 <ele>161</ele>
			 </trkpt>
			 <trkpt lat="38.61493" lon="-90.214033">
				 <ele>161.2</ele>
			 </trkpt>
			 <trkpt lat="38.614295" lon="-90.214168">
				 <ele>161.3</ele>
			 </trkpt>
			 <trkpt lat="38.614127" lon="-90.214201">
				 <ele>161.4</ele>
			 </trkpt>
			 <trkpt lat="38.61408" lon="-90.214201">
				 <ele>161.5</ele>
			 </trkpt>
			 <trkpt lat="38.614001" lon="-90.214181">
				 <ele>161.6</ele>
			 </trkpt>
			 <trkpt lat="38.614016" lon="-90.21431">
				 <ele>161.8</ele>
			 </trkpt>
			 <trkpt lat="38.614027" lon="-90.214399">
				 <ele>162</ele>
			 </trkpt>
			 <trkpt lat="38.614044" lon="-90.214534">
				 <ele>162.3</ele>
			 </trkpt>
			 <trkpt lat="38.614129" lon="-90.215214">
				 <ele>162.5</ele>
			 </trkpt>
			 <trkpt lat="38.61421" lon="-90.215872">
				 <ele>162.8</ele>
			 </trkpt>
			 <trkpt lat="38.614272" lon="-90.216374">
				 <ele>163.1</ele>
			 </trkpt>
			 <trkpt lat="38.614298" lon="-90.21659">
				 <ele>163.3</ele>
			 </trkpt>
			 <trkpt lat="38.614447" lon="-90.217794">
				 <ele>163.3</ele>
			 </trkpt>
			 <trkpt lat="38.614547" lon="-90.218602">
				 <ele>163.3</ele>
			 </trkpt>
			 <trkpt lat="38.614622" lon="-90.218587">
				 <ele>162.9</ele>
			 </trkpt>
			 <trkpt lat="38.614684" lon="-90.218574">
				 <ele>162.4</ele>
			 </trkpt>
			 <trkpt lat="38.614961" lon="-90.218515">
				 <ele>161.8</ele>
			 </trkpt>
			 <trkpt lat="38.615777" lon="-90.218343">
				 <ele>161</ele>
			 </trkpt>
			 <trkpt lat="38.615829" lon="-90.218332">
				 <ele>160.2</ele>
			 </trkpt>
			 <trkpt lat="38.616236" lon="-90.218246">
				 <ele>159.7</ele>
			 </trkpt>
			 <trkpt lat="38.616637" lon="-90.218161">
				 <ele>159.3</ele>
			 </trkpt>
			 <trkpt lat="38.616709" lon="-90.218146">
				 <ele>158.8</ele>
			 </trkpt>
			 <trkpt lat="38.617875" lon="-90.2179">
				 <ele>158.4</ele>
			 </trkpt>
			 <trkpt lat="38.61799" lon="-90.217875">
				 <ele>158</ele>
			 </trkpt>
			 <trkpt lat="38.617456" lon="-90.213523">
				 <ele>157.5</ele>
			 </trkpt>
			 <trkpt lat="38.617303" lon="-90.212982">
				 <ele>157.3</ele>
			 </trkpt>
			 <trkpt lat="38.617149" lon="-90.212441">
				 <ele>157.1</ele>
			 </trkpt>
			 <trkpt lat="38.616996" lon="-90.2119">
				 <ele>156.8</ele>
			 </trkpt>
			 <trkpt lat="38.616842" lon="-90.211359">
				 <ele>156.8</ele>
			 </trkpt>
			 <trkpt lat="38.616689" lon="-90.210818">
				 <ele>156.7</ele>
			 </trkpt>
			 <trkpt lat="38.616631" lon="-90.210615">
				 <ele>156.2</ele>
			 </trkpt>
			 <trkpt lat="38.616495" lon="-90.210066">
				 <ele>155.5</ele>
			 </trkpt>
			 <trkpt lat="38.616358" lon="-90.209518">
				 <ele>154.9</ele>
			 </trkpt>
			 <trkpt lat="38.616336" lon="-90.209429">
				 <ele>154.3</ele>
			 </trkpt>
			 <trkpt lat="38.616193" lon="-90.208963">
				 <ele>153.6</ele>
			 </trkpt>
			 <trkpt lat="38.616037" lon="-90.208423">
				 <ele>153</ele>
			 </trkpt>
			 <trkpt lat="38.615881" lon="-90.207883">
				 <ele>152.4</ele>
			 </trkpt>
			 <trkpt lat="38.615725" lon="-90.207343">
				 <ele>151.7</ele>
			 </trkpt>
			 <trkpt lat="38.61557" lon="-90.206804">
				 <ele>151.2</ele>
			 </trkpt>
			 <trkpt lat="38.615414" lon="-90.206264">
				 <ele>150.5</ele>
			 </trkpt>
			 <trkpt lat="38.615386" lon="-90.206168">
				 <ele>150</ele>
			 </trkpt>
			 <trkpt lat="38.615345" lon="-90.205901">
				 <ele>149.5</ele>
			 </trkpt>
			 <trkpt lat="38.61529" lon="-90.205821">
				 <ele>149.1</ele>
			 </trkpt>
			 <trkpt lat="38.615133" lon="-90.205282">
				 <ele>148.6</ele>
			 </trkpt>
			 <trkpt lat="38.614975" lon="-90.204742">
				 <ele>148.3</ele>
			 </trkpt>
			 <trkpt lat="38.614881" lon="-90.204418">
				 <ele>147.9</ele>
			 </trkpt>
			 <trkpt lat="38.614891" lon="-90.204275">
				 <ele>147.5</ele>
			 </trkpt>
			 <trkpt lat="38.615256" lon="-90.203939">
				 <ele>147.1</ele>
			 </trkpt>
			 <trkpt lat="38.615621" lon="-90.203603">
				 <ele>146.6</ele>
			 </trkpt>
			 <trkpt lat="38.615987" lon="-90.203267">
				 <ele>146.1</ele>
			 </trkpt>
			 <trkpt lat="38.616352" lon="-90.202932">
				 <ele>145.6</ele>
			 </trkpt>
			 <trkpt lat="38.6167" lon="-90.202611">
				 <ele>145.1</ele>
			 </trkpt>
			 <trkpt lat="38.617104" lon="-90.202358">
				 <ele>144.5</ele>
			 </trkpt>
			 <trkpt lat="38.617266" lon="-90.202256">
				 <ele>144</ele>
			 </trkpt>
			 <trkpt lat="38.617701" lon="-90.202111">
				 <ele>143.5</ele>
			 </trkpt>
			 <trkpt lat="38.617754" lon="-90.202094">
				 <ele>142.7</ele>
			 </trkpt>
			 <trkpt lat="38.618185" lon="-90.201931">
				 <ele>141.9</ele>
			 </trkpt>
			 <trkpt lat="38.618616" lon="-90.201769">
				 <ele>141.1</ele>
			 </trkpt>
			 <trkpt lat="38.619048" lon="-90.201606">
				 <ele>140.4</ele>
			 </trkpt>
			 <trkpt lat="38.619479" lon="-90.201444">
				 <ele>139.5</ele>
			 </trkpt>
			 <trkpt lat="38.61991" lon="-90.201282">
				 <ele>138.6</ele>
			 </trkpt>
			 <trkpt lat="38.620342" lon="-90.201119">
				 <ele>137.8</ele>
			 </trkpt>
			 <trkpt lat="38.620773" lon="-90.200957">
				 <ele>137.1</ele>
			 </trkpt>
			 <trkpt lat="38.620926" lon="-90.200899">
				 <ele>136.5</ele>
			 </trkpt>
			 <trkpt lat="38.621355" lon="-90.200726">
				 <ele>136.2</ele>
			 </trkpt>
			 <trkpt lat="38.621784" lon="-90.200554">
				 <ele>135.8</ele>
			 </trkpt>
			 <trkpt lat="38.622213" lon="-90.200381">
				 <ele>135.7</ele>
			 </trkpt>
			 <trkpt lat="38.622642" lon="-90.200208">
				 <ele>135.9</ele>
			 </trkpt>
			 <trkpt lat="38.623071" lon="-90.200035">
				 <ele>136.2</ele>
			 </trkpt>
			 <trkpt lat="38.6235" lon="-90.199862">
				 <ele>136.5</ele>
			 </trkpt>
			 <trkpt lat="38.623928" lon="-90.19969">
				 <ele>137.1</ele>
			 </trkpt>
			 <trkpt lat="38.624357" lon="-90.199517">
				 <ele>137.7</ele>
			 </trkpt>
			 <trkpt lat="38.624786" lon="-90.199344">
				 <ele>138.4</ele>
			 </trkpt>
			 <trkpt lat="38.62517" lon="-90.199189">
				 <ele>139.1</ele>
			 </trkpt>
			 <trkpt lat="38.625513" lon="-90.199138">
				 <ele>139.6</ele>
			 </trkpt>
			 <trkpt lat="38.625939" lon="-90.198953">
				 <ele>140.1</ele>
			 </trkpt>
			 <trkpt lat="38.626365" lon="-90.198769">
				 <ele>140.5</ele>
			 </trkpt>
			 <trkpt lat="38.626759" lon="-90.198598">
				 <ele>140.9</ele>
			 </trkpt>
			 <trkpt lat="38.627196" lon="-90.198463">
				 <ele>141.3</ele>
			 </trkpt>
			 <trkpt lat="38.627464" lon="-90.19838">
				 <ele>141.6</ele>
			 </trkpt>
			 <trkpt lat="38.627591" lon="-90.198932">
				 <ele>142</ele>
			 </trkpt>
			 <trkpt lat="38.627719" lon="-90.199484">
				 <ele>142.5</ele>
			 </trkpt>
			 <trkpt lat="38.627846" lon="-90.200036">
				 <ele>142.9</ele>
			 </trkpt>
			 <trkpt lat="38.627973" lon="-90.200588">
				 <ele>143.4</ele>
			 </trkpt>
			 <trkpt lat="38.6281" lon="-90.20114">
				 <ele>143.7</ele>
			 </trkpt>
			 <trkpt lat="38.628228" lon="-90.201692">
				 <ele>144.1</ele>
			 </trkpt>
			 <trkpt lat="38.628355" lon="-90.202244">
				 <ele>144.5</ele>
			 </trkpt>
			 <trkpt lat="38.628381" lon="-90.20236">
				 <ele>145.1</ele>
			 </trkpt>
			 <trkpt lat="38.628408" lon="-90.20235">
				 <ele>145.6</ele>
			 </trkpt>
			 <trkpt lat="38.628421" lon="-90.202401">
				 <ele>146.1</ele>
			 </trkpt>
			 <trkpt lat="38.628446" lon="-90.202513">
				 <ele>146.5</ele>
			 </trkpt>
			 <trkpt lat="38.628502" lon="-90.202779">
				 <ele>146.8</ele>
			 </trkpt>
			 <trkpt lat="38.628635" lon="-90.203407">
				 <ele>146.9</ele>
			 </trkpt>
			 <trkpt lat="38.628698" lon="-90.203707">
				 <ele>146.8</ele>
			 </trkpt>
			 <trkpt lat="38.628719" lon="-90.20381">
				 <ele>146.7</ele>
			 </trkpt>
			 <trkpt lat="38.62879" lon="-90.204161">
				 <ele>146.5</ele>
			 </trkpt>
			 <trkpt lat="38.628917" lon="-90.2048">
				 <ele>146.4</ele>
			 </trkpt>
			 <trkpt lat="38.628953" lon="-90.204987">
				 <ele>146.1</ele>
			 </trkpt>
			 <trkpt lat="38.629093" lon="-90.205646">
				 <ele>145.6</ele>
			 </trkpt>
			 <trkpt lat="38.629164" lon="-90.205913">
				 <ele>145.1</ele>
			 </trkpt>
			 <trkpt lat="38.629273" lon="-90.206272">
				 <ele>144.5</ele>
			 </trkpt>
			 <trkpt lat="38.629307" lon="-90.206388">
				 <ele>143.8</ele>
			 </trkpt>
			 <trkpt lat="38.629336" lon="-90.206493">
				 <ele>143.3</ele>
			 </trkpt>
			 <trkpt lat="38.629391" lon="-90.206696">
				 <ele>142.8</ele>
			 </trkpt>
			 <trkpt lat="38.62954" lon="-90.207352">
				 <ele>142.5</ele>
			 </trkpt>
			 <trkpt lat="38.629788" lon="-90.208591">
				 <ele>142.5</ele>
			 </trkpt>
			 <trkpt lat="38.629866" lon="-90.209017">
				 <ele>142.5</ele>
			 </trkpt>
			 <trkpt lat="38.629887" lon="-90.209131">
				 <ele>142.5</ele>
			 </trkpt>
			 <trkpt lat="38.629912" lon="-90.209265">
				 <ele>142.6</ele>
			 </trkpt>
			 <trkpt lat="38.63" lon="-90.209742">
				 <ele>143.1</ele>
			 </trkpt>
			 <trkpt lat="38.630134" lon="-90.210473">
				 <ele>143.6</ele>
			 </trkpt>
			 <trkpt lat="38.630156" lon="-90.210587">
				 <ele>144.9</ele>
			 </trkpt>
			 <trkpt lat="38.63017" lon="-90.210663">
				 <ele>146.4</ele>
			 </trkpt>
			 <trkpt lat="38.63034" lon="-90.211576">
				 <ele>148.1</ele>
			 </trkpt>
			 <trkpt lat="38.630567" lon="-90.21208">
				 <ele>149.6</ele>
			 </trkpt>
			 <trkpt lat="38.630608" lon="-90.21218">
				 <ele>150.3</ele>
			 </trkpt>
			 <trkpt lat="38.631149" lon="-90.214903">
				 <ele>150.9</ele>
			 </trkpt>
			 <trkpt lat="38.631267" lon="-90.215697">
				 <ele>151.5</ele>
			 </trkpt>
			 <trkpt lat="38.631334" lon="-90.217629">
				 <ele>152</ele>
			 </trkpt>
			 <trkpt lat="38.63125" lon="-90.22295">
				 <ele>152.8</ele>
			 </trkpt>
			 <trkpt lat="38.631199" lon="-90.227113">
				 <ele>152.5</ele>
			 </trkpt>
			 <trkpt lat="38.633127" lon="-90.226448">
				 <ele>151.8</ele>
			 </trkpt>
			 <trkpt lat="38.633144" lon="-90.226877">
				 <ele>150.6</ele>
			 </trkpt>
			 <trkpt lat="38.633017" lon="-90.227012">
				 <ele>149.4</ele>
			 </trkpt>
			 <trkpt lat="38.635263" lon="-90.237591">
				 <ele>147.8</ele>
			 </trkpt>
			 <trkpt lat="38.636152" lon="-90.241882">
				 <ele>146.5</ele>
			 </trkpt>
			 <trkpt lat="38.632129" lon="-90.243234">
				 <ele>145.9</ele>
			 </trkpt>
			 <trkpt lat="38.631947" lon="-90.243478">
				 <ele>145.2</ele>
			 </trkpt>
			 <trkpt lat="38.631614" lon="-90.243864">
				 <ele>144.7</ele>
			 </trkpt>
			 <trkpt lat="38.631592" lon="-90.243889">
				 <ele>144.4</ele>
			 </trkpt>
			 <trkpt lat="38.631235" lon="-90.244239">
				 <ele>143.7</ele>
			 </trkpt>
			 <trkpt lat="38.631201" lon="-90.244272">
				 <ele>144.1</ele>
			 </trkpt>
			 <trkpt lat="38.63132" lon="-90.244827">
				 <ele>144.9</ele>
			 </trkpt>
			 <trkpt lat="38.631439" lon="-90.245382">
				 <ele>145.7</ele>
			 </trkpt>
			 <trkpt lat="38.631557" lon="-90.245937">
				 <ele>146.5</ele>
			 </trkpt>
			 <trkpt lat="38.631676" lon="-90.246492">
				 <ele>147.2</ele>
			 </trkpt>
			 <trkpt lat="38.631795" lon="-90.247047">
				 <ele>147.9</ele>
			 </trkpt>
			 <trkpt lat="38.631914" lon="-90.247603">
				 <ele>148.5</ele>
			 </trkpt>
			 <trkpt lat="38.632033" lon="-90.248158">
				 <ele>149.1</ele>
			 </trkpt>
			 <trkpt lat="38.632151" lon="-90.248713">
				 <ele>149.4</ele>
			 </trkpt>
			 <trkpt lat="38.632162" lon="-90.248765">
				 <ele>149.5</ele>
			 </trkpt>
			 <trkpt lat="38.631728" lon="-90.248913">
				 <ele>149.6</ele>
			 </trkpt>
			 <trkpt lat="38.631293" lon="-90.24906">
				 <ele>149.6</ele>
			 </trkpt>
			 <trkpt lat="38.630859" lon="-90.249208">
				 <ele>149.6</ele>
			 </trkpt>
			 <trkpt lat="38.630424" lon="-90.249356">
				 <ele>149.5</ele>
			 </trkpt>
			 <trkpt lat="38.62999" lon="-90.249504">
				 <ele>149.3</ele>
			 </trkpt>
			 <trkpt lat="38.629555" lon="-90.249652">
				 <ele>149.1</ele>
			 </trkpt>
			 <trkpt lat="38.62912" lon="-90.2498">
				 <ele>148.9</ele>
			 </trkpt>
			 <trkpt lat="38.628686" lon="-90.249948">
				 <ele>148.8</ele>
			 </trkpt>
			 <trkpt lat="38.628251" lon="-90.250096">
				 <ele>148.8</ele>
			 </trkpt>
			 <trkpt lat="38.627921" lon="-90.250208">
				 <ele>148.9</ele>
			 </trkpt>
			 <trkpt lat="38.627883" lon="-90.250304">
				 <ele>149.1</ele>
			 </trkpt>
			 <trkpt lat="38.627767" lon="-90.251187">
				 <ele>149.2</ele>
			 </trkpt>
			 <trkpt lat="38.627713" lon="-90.251596">
				 <ele>149.3</ele>
			 </trkpt>
			 <trkpt lat="38.627692" lon="-90.25175">
				 <ele>149.4</ele>
			 </trkpt>
			 <trkpt lat="38.627635" lon="-90.252161">
				 <ele>149.5</ele>
			 </trkpt>
			 <trkpt lat="38.627532" lon="-90.252903">
				 <ele>149.5</ele>
			 </trkpt>
			 <trkpt lat="38.627377" lon="-90.254044">
				 <ele>149.5</ele>
			 </trkpt>
			 <trkpt lat="38.627356" lon="-90.254202">
				 <ele>149.5</ele>
			 </trkpt>
			 <trkpt lat="38.627343" lon="-90.254296">
				 <ele>149.5</ele>
			 </trkpt>
			 <trkpt lat="38.627298" lon="-90.254613">
				 <ele>149.5</ele>
			 </trkpt>
			 <trkpt lat="38.627243" lon="-90.255031">
				 <ele>149.5</ele>
			 </trkpt>
			 <trkpt lat="38.627216" lon="-90.25522">
				 <ele>149.4</ele>
			 </trkpt>
			 <trkpt lat="38.627122" lon="-90.255898">
				 <ele>149.3</ele>
			 </trkpt>
			 <trkpt lat="38.627086" lon="-90.25616">
				 <ele>149.2</ele>
			 </trkpt>
			 <trkpt lat="38.627053" lon="-90.25641">
				 <ele>149.1</ele>
			 </trkpt>
			 <trkpt lat="38.627007" lon="-90.256749">
				 <ele>149</ele>
			 </trkpt>
			 <trkpt lat="38.62699" lon="-90.256867">
				 <ele>149</ele>
			 </trkpt>
			 <trkpt lat="38.626982" lon="-90.256936">
				 <ele>149</ele>
			 </trkpt>
			 <trkpt lat="38.62694" lon="-90.25723">
				 <ele>149</ele>
			 </trkpt>
			 <trkpt lat="38.626915" lon="-90.257407">
				 <ele>149</ele>
			 </trkpt>
			 <trkpt lat="38.626789" lon="-90.258334">
				 <ele>149</ele>
			 </trkpt>
			 <trkpt lat="38.626748" lon="-90.258613">
				 <ele>149</ele>
			 </trkpt>
			 <trkpt lat="38.626739" lon="-90.25868">
				 <ele>149</ele>
			 </trkpt>
			 <trkpt lat="38.626718" lon="-90.258825">
				 <ele>149</ele>
			 </trkpt>
			 <trkpt lat="38.626697" lon="-90.258961">
				 <ele>149</ele>
			 </trkpt>
			 <trkpt lat="38.626773" lon="-90.258974">
				 <ele>149</ele>
			 </trkpt>
			 <trkpt lat="38.626807" lon="-90.25897">
				 <ele>149</ele>
			 </trkpt>
			 <trkpt lat="38.627181" lon="-90.258848">
				 <ele>149.1</ele>
			 </trkpt>
			 <trkpt lat="38.62722" lon="-90.258835">
				 <ele>149.2</ele>
			 </trkpt>
			 <trkpt lat="38.627674" lon="-90.258676">
				 <ele>149.4</ele>
			 </trkpt>
			 <trkpt lat="38.628126" lon="-90.258521">
				 <ele>149.6</ele>
			 </trkpt>
			 <trkpt lat="38.628537" lon="-90.258374">
				 <ele>149.9</ele>
			 </trkpt>
			 <trkpt lat="38.628996" lon="-90.258214">
				 <ele>150.2</ele>
			 </trkpt>
			 <trkpt lat="38.629063" lon="-90.258192">
				 <ele>150.5</ele>
			 </trkpt>
			 <trkpt lat="38.629438" lon="-90.258066">
				 <ele>150.7</ele>
			 </trkpt>
			 <trkpt lat="38.629836" lon="-90.257934">
				 <ele>150.9</ele>
			 </trkpt>
			 <trkpt lat="38.629925" lon="-90.257905">
				 <ele>151.2</ele>
			 </trkpt>
			 <trkpt lat="38.630015" lon="-90.257874">
				 <ele>151.5</ele>
			 </trkpt>
			 <trkpt lat="38.630582" lon="-90.257678">
				 <ele>151.6</ele>
			 </trkpt>
			 <trkpt lat="38.63094" lon="-90.257557">
				 <ele>151.8</ele>
			 </trkpt>
			 <trkpt lat="38.631444" lon="-90.257388">
				 <ele>151.9</ele>
			 </trkpt>
			 <trkpt lat="38.631653" lon="-90.257313">
				 <ele>151.9</ele>
			 </trkpt>
			 <trkpt lat="38.632306" lon="-90.257069">
				 <ele>152</ele>
			 </trkpt>
			 <trkpt lat="38.632425" lon="-90.25703">
				 <ele>152.1</ele>
			 </trkpt>
			 <trkpt lat="38.632878" lon="-90.25688">
				 <ele>152.3</ele>
			 </trkpt>
			 <trkpt lat="38.63296" lon="-90.256853">
				 <ele>152.5</ele>
			 </trkpt>
			 <trkpt lat="38.632973" lon="-90.257437">
				 <ele>152.9</ele>
			 </trkpt>
			 <trkpt lat="38.632984" lon="-90.258012">
				 <ele>153.3</ele>
			 </trkpt>
			 <trkpt lat="38.632994" lon="-90.258588">
				 <ele>153.7</ele>
			 </trkpt>
			 <trkpt lat="38.633005" lon="-90.259163">
				 <ele>154.3</ele>
			 </trkpt>
			 <trkpt lat="38.633015" lon="-90.259739">
				 <ele>154.8</ele>
			 </trkpt>
			 <trkpt lat="38.633025" lon="-90.260314">
				 <ele>155.4</ele>
			 </trkpt>
			 <trkpt lat="38.633036" lon="-90.26089">
				 <ele>155.9</ele>
			 </trkpt>
			 <trkpt lat="38.633046" lon="-90.261465">
				 <ele>156.4</ele>
			 </trkpt>
			 <trkpt lat="38.633057" lon="-90.262041">
				 <ele>156.6</ele>
			 </trkpt>
			 <trkpt lat="38.633067" lon="-90.262616">
				 <ele>156.7</ele>
			 </trkpt>
			 <trkpt lat="38.633077" lon="-90.263192">
				 <ele>156.7</ele>
			 </trkpt>
			 <trkpt lat="38.633088" lon="-90.263767">
				 <ele>156.5</ele>
			 </trkpt>
			 <trkpt lat="38.63309" lon="-90.263894">
				 <ele>156</ele>
			 </trkpt>
			 <trkpt lat="38.633113" lon="-90.264468">
				 <ele>155.3</ele>
			 </trkpt>
			 <trkpt lat="38.633137" lon="-90.265043">
				 <ele>154.4</ele>
			 </trkpt>
			 <trkpt lat="38.633138" lon="-90.265084">
				 <ele>153.4</ele>
			 </trkpt>
			 <trkpt lat="38.633166" lon="-90.265658">
				 <ele>152.2</ele>
			 </trkpt>
			 <trkpt lat="38.633192" lon="-90.266208">
				 <ele>150.7</ele>
			 </trkpt>
			 <trkpt lat="38.633147" lon="-90.266726">
				 <ele>149.4</ele>
			 </trkpt>
			 <trkpt lat="38.633103" lon="-90.267066">
				 <ele>148.3</ele>
			 </trkpt>
			 <trkpt lat="38.633084" lon="-90.267425">
				 <ele>147.5</ele>
			 </trkpt>
			 <trkpt lat="38.633017" lon="-90.267995">
				 <ele>146.7</ele>
			 </trkpt>
			 <trkpt lat="38.632941" lon="-90.268565">
				 <ele>146.4</ele>
			 </trkpt>
			 <trkpt lat="38.632866" lon="-90.269133">
				 <ele>146.2</ele>
			 </trkpt>
			 <trkpt lat="38.632836" lon="-90.269356">
				 <ele>146.2</ele>
			 </trkpt>
			 <trkpt lat="38.63277" lon="-90.269926">
				 <ele>146.2</ele>
			 </trkpt>
			 <trkpt lat="38.632738" lon="-90.270203">
				 <ele>146.2</ele>
			 </trkpt>
			 <trkpt lat="38.632716" lon="-90.27039">
				 <ele>146.4</ele>
			 </trkpt>
			 <trkpt lat="38.632708" lon="-90.2705">
				 <ele>146.8</ele>
			 </trkpt>
			 <trkpt lat="38.632704" lon="-90.270556">
				 <ele>147.1</ele>
			 </trkpt>
			 <trkpt lat="38.63277" lon="-90.270539">
				 <ele>147.1</ele>
			 </trkpt>
			 <trkpt lat="38.633223" lon="-90.270426">
				 <ele>146.9</ele>
			 </trkpt>
			 <trkpt lat="38.633353" lon="-90.270409">
				 <ele>146.6</ele>
			 </trkpt>
			 <trkpt lat="38.633507" lon="-90.270405">
				 <ele>146.2</ele>
			 </trkpt>
			 <trkpt lat="38.633696" lon="-90.270423">
				 <ele>145.5</ele>
			 </trkpt>
			 <trkpt lat="38.634259" lon="-90.270524">
				 <ele>144.6</ele>
			 </trkpt>
			 <trkpt lat="38.634989" lon="-90.270575">
				 <ele>144</ele>
			 </trkpt>
			 <trkpt lat="38.635087" lon="-90.270577">
				 <ele>143.5</ele>
			 </trkpt>
			 <trkpt lat="38.63519" lon="-90.270578">
				 <ele>142.9</ele>
			 </trkpt>
			 <trkpt lat="38.635372" lon="-90.270562">
				 <ele>142.5</ele>
			 </trkpt>
			 <trkpt lat="38.635815" lon="-90.27048">
				 <ele>142</ele>
			 </trkpt>
			 <trkpt lat="38.63599" lon="-90.270448">
				 <ele>141.7</ele>
			 </trkpt>
			 <trkpt lat="38.636243" lon="-90.270398">
				 <ele>141.5</ele>
			 </trkpt>
			 <trkpt lat="38.636362" lon="-90.270361">
				 <ele>141.2</ele>
			 </trkpt>
			 <trkpt lat="38.636664" lon="-90.270231">
				 <ele>141</ele>
			 </trkpt>
			 <trkpt lat="38.636761" lon="-90.270198">
				 <ele>141</ele>
			 </trkpt>
			 <trkpt lat="38.636863" lon="-90.27018">
				 <ele>141</ele>
			 </trkpt>
			 <trkpt lat="38.636967" lon="-90.270178">
				 <ele>141.1</ele>
			 </trkpt>
			 <trkpt lat="38.637068" lon="-90.270191">
				 <ele>141.2</ele>
			 </trkpt>
			 <trkpt lat="38.637166" lon="-90.270214">
				 <ele>141.4</ele>
			 </trkpt>
			 <trkpt lat="38.637263" lon="-90.270251">
				 <ele>141.5</ele>
			 </trkpt>
			 <trkpt lat="38.63745" lon="-90.270355">
				 <ele>141.9</ele>
			 </trkpt>
			 <trkpt lat="38.638143" lon="-90.270784">
				 <ele>142.5</ele>
			 </trkpt>
			 <trkpt lat="38.638226" lon="-90.270842">
				 <ele>143</ele>
			 </trkpt>
			 <trkpt lat="38.638331" lon="-90.270912">
				 <ele>143.5</ele>
			 </trkpt>
			 <trkpt lat="38.638366" lon="-90.270936">
				 <ele>144.1</ele>
			 </trkpt>
			 <trkpt lat="38.638883" lon="-90.271299">
				 <ele>144.6</ele>
			 </trkpt>
			 <trkpt lat="38.639167" lon="-90.271486">
				 <ele>145.2</ele>
			 </trkpt>
			 <trkpt lat="38.639603" lon="-90.271723">
				 <ele>145.3</ele>
			 </trkpt>
			 <trkpt lat="38.639842" lon="-90.271889">
				 <ele>145.3</ele>
			 </trkpt>
			 <trkpt lat="38.639961" lon="-90.271982">
				 <ele>145.1</ele>
			 </trkpt>
			 <trkpt lat="38.640221" lon="-90.27224">
				 <ele>144.8</ele>
			 </trkpt>
			 <trkpt lat="38.640461" lon="-90.272526">
				 <ele>144.3</ele>
			 </trkpt>
			 <trkpt lat="38.640664" lon="-90.272822">
				 <ele>143.6</ele>
			 </trkpt>
			 <trkpt lat="38.640769" lon="-90.273002">
				 <ele>143</ele>
			 </trkpt>
			 <trkpt lat="38.640829" lon="-90.27312">
				 <ele>142.4</ele>
			 </trkpt>
			 <trkpt lat="38.640952" lon="-90.273369">
				 <ele>141.8</ele>
			 </trkpt>
			 <trkpt lat="38.640956" lon="-90.273532">
				 <ele>141.2</ele>
			 </trkpt>
			 <trkpt lat="38.640959" lon="-90.273566">
				 <ele>140.6</ele>
			 </trkpt>
			 <trkpt lat="38.640977" lon="-90.27372">
				 <ele>140.4</ele>
			 </trkpt>
			 <trkpt lat="38.641002" lon="-90.273877">
				 <ele>140.2</ele>
			 </trkpt>
			 <trkpt lat="38.641057" lon="-90.274087">
				 <ele>140.2</ele>
			 </trkpt>
			 <trkpt lat="38.641167" lon="-90.274266">
				 <ele>140.3</ele>
			 </trkpt>
			 <trkpt lat="38.641186" lon="-90.274291">
				 <ele>140.4</ele>
			 </trkpt>
			 <trkpt lat="38.641288" lon="-90.274419">
				 <ele>140.4</ele>
			 </trkpt>
			 <trkpt lat="38.641371" lon="-90.274505">
				 <ele>140.4</ele>
			 </trkpt>
			 <trkpt lat="38.641558" lon="-90.27467">
				 <ele>140.4</ele>
			 </trkpt>
			 <trkpt lat="38.641795" lon="-90.274842">
				 <ele>140.3</ele>
			 </trkpt>
			 <trkpt lat="38.641931" lon="-90.274923">
				 <ele>140.5</ele>
			 </trkpt>
			 <trkpt lat="38.64235" lon="-90.275043">
				 <ele>140.6</ele>
			 </trkpt>
			 <trkpt lat="38.64253" lon="-90.275106">
				 <ele>140.8</ele>
			 </trkpt>
			 <trkpt lat="38.642823" lon="-90.275234">
				 <ele>141.1</ele>
			 </trkpt>
			 <trkpt lat="38.643018" lon="-90.275326">
				 <ele>141.2</ele>
			 </trkpt>
			 <trkpt lat="38.643198" lon="-90.275426">
				 <ele>141.3</ele>
			 </trkpt>
			 <trkpt lat="38.643298" lon="-90.275499">
				 <ele>141.4</ele>
			 </trkpt>
			 <trkpt lat="38.643338" lon="-90.275531">
				 <ele>141.5</ele>
			 </trkpt>
			 <trkpt lat="38.643401" lon="-90.275586">
				 <ele>141.7</ele>
			 </trkpt>
			 <trkpt lat="38.643495" lon="-90.275697">
				 <ele>141.9</ele>
			 </trkpt>
			 <trkpt lat="38.643557" lon="-90.275809">
				 <ele>142.1</ele>
			 </trkpt>
			 <trkpt lat="38.643581" lon="-90.275863">
				 <ele>142.1</ele>
			 </trkpt>
			 <trkpt lat="38.643643" lon="-90.276041">
				 <ele>142.1</ele>
			 </trkpt>
			 <trkpt lat="38.64388" lon="-90.276808">
				 <ele>142.2</ele>
			 </trkpt>
			 <trkpt lat="38.643921" lon="-90.276953">
				 <ele>142.2</ele>
			 </trkpt>
			 <trkpt lat="38.643952" lon="-90.277106">
				 <ele>142.3</ele>
			 </trkpt>
			 <trkpt lat="38.643967" lon="-90.277211">
				 <ele>142.4</ele>
			 </trkpt>
			 <trkpt lat="38.643982" lon="-90.277355">
				 <ele>142.5</ele>
			 </trkpt>
			 <trkpt lat="38.643982" lon="-90.277508">
				 <ele>142.7</ele>
			 </trkpt>
			 <trkpt lat="38.643969" lon="-90.277685">
				 <ele>142.9</ele>
			 </trkpt>
			 <trkpt lat="38.643899" lon="-90.278267">
				 <ele>143.1</ele>
			 </trkpt>
			 <trkpt lat="38.643883" lon="-90.278407">
				 <ele>143.2</ele>
			 </trkpt>
			 <trkpt lat="38.64387" lon="-90.278594">
				 <ele>143.3</ele>
			 </trkpt>
			 <trkpt lat="38.643818" lon="-90.278586">
				 <ele>143.4</ele>
			 </trkpt>
			 <trkpt lat="38.643781" lon="-90.27859">
				 <ele>143.4</ele>
			 </trkpt>
			 <trkpt lat="38.643621" lon="-90.278634">
				 <ele>143.4</ele>
			 </trkpt>
			 <trkpt lat="38.643475" lon="-90.278634">
				 <ele>143.4</ele>
			 </trkpt>
			 <trkpt lat="38.643408" lon="-90.278648">
				 <ele>143.4</ele>
			 </trkpt>
			 <trkpt lat="38.643325" lon="-90.278675">
				 <ele>143.2</ele>
			 </trkpt>
			 <trkpt lat="38.643231" lon="-90.278724">
				 <ele>143</ele>
			 </trkpt>
			 <trkpt lat="38.643092" lon="-90.278843">
				 <ele>142.8</ele>
			 </trkpt>
			 <trkpt lat="38.643043" lon="-90.278902">
				 <ele>142.6</ele>
			 </trkpt>
			 <trkpt lat="38.642986" lon="-90.278988">
				 <ele>142.5</ele>
			 </trkpt>
			 <trkpt lat="38.642866" lon="-90.279202">
				 <ele>142.5</ele>
			 </trkpt>
			 <trkpt lat="38.642754" lon="-90.279428">
				 <ele>142.4</ele>
			 </trkpt>
			 <trkpt lat="38.64246" lon="-90.280104">
				 <ele>142.3</ele>
			 </trkpt>
			 <trkpt lat="38.642397" lon="-90.28021">
				 <ele>142.2</ele>
			 </trkpt>
			 <trkpt lat="38.642363" lon="-90.280256">
				 <ele>142</ele>
			 </trkpt>
			 <trkpt lat="38.642207" lon="-90.280425">
				 <ele>141.8</ele>
			 </trkpt>
			 <trkpt lat="38.642041" lon="-90.280256">
				 <ele>141.7</ele>
			 </trkpt>
			 <trkpt lat="38.64184" lon="-90.280136">
				 <ele>141.6</ele>
			 </trkpt>
			 <trkpt lat="38.641696" lon="-90.280107">
				 <ele>141.5</ele>
			 </trkpt>
			 <trkpt lat="38.641688" lon="-90.279854">
				 <ele>141.3</ele>
			 </trkpt>
			 <trkpt lat="38.641652" lon="-90.27928">
				 <ele>141.2</ele>
			 </trkpt>
			 <trkpt lat="38.641601" lon="-90.278707">
				 <ele>141.2</ele>
			 </trkpt>
			 <trkpt lat="38.641588" lon="-90.278554">
				 <ele>141.2</ele>
			 </trkpt>
			 <trkpt lat="38.641533" lon="-90.278307">
				 <ele>141.2</ele>
			 </trkpt>
			 <trkpt lat="38.641344" lon="-90.277785">
				 <ele>141.2</ele>
			 </trkpt>
			 <trkpt lat="38.641256" lon="-90.277542">
				 <ele>141.3</ele>
			 </trkpt>
			 <trkpt lat="38.641165" lon="-90.277075">
				 <ele>141.4</ele>
			 </trkpt>
			 <trkpt lat="38.641098" lon="-90.276506">
				 <ele>141.5</ele>
			 </trkpt>
			 <trkpt lat="38.641031" lon="-90.275937">
				 <ele>141.5</ele>
			 </trkpt>
			 <trkpt lat="38.641004" lon="-90.275706">
				 <ele>141.7</ele>
			 </trkpt>
			 <trkpt lat="38.640956" lon="-90.275189">
				 <ele>141.8</ele>
			 </trkpt>
			 <trkpt lat="38.641004" lon="-90.275694">
				 <ele>141.7</ele>
			 </trkpt>
			 <trkpt lat="38.641068" lon="-90.276264">
				 <ele>141.5</ele>
			 </trkpt>
			 <trkpt lat="38.641132" lon="-90.276834">
				 <ele>141.5</ele>
			 </trkpt>
			 <trkpt lat="38.641155" lon="-90.277047">
				 <ele>141.4</ele>
			 </trkpt>
			 <trkpt lat="38.641262" lon="-90.277538">
				 <ele>141.3</ele>
			 </trkpt>
			 <trkpt lat="38.641449" lon="-90.278062">
				 <ele>141.2</ele>
			 </trkpt>
			 <trkpt lat="38.641533" lon="-90.278295">
				 <ele>141.2</ele>
			 </trkpt>
			 <trkpt lat="38.641586" lon="-90.27855">
				 <ele>141.2</ele>
			 </trkpt>
			 <trkpt lat="38.641638" lon="-90.279122">
				 <ele>141.2</ele>
			 </trkpt>
			 <trkpt lat="38.641653" lon="-90.279282">
				 <ele>141.2</ele>
			 </trkpt>
			 <trkpt lat="38.641687" lon="-90.27985">
				 <ele>141.3</ele>
			 </trkpt>
			 <trkpt lat="38.641696" lon="-90.280095">
				 <ele>141.5</ele>
			 </trkpt>
			 <trkpt lat="38.641839" lon="-90.280139">
				 <ele>141.6</ele>
			 </trkpt>
			 <trkpt lat="38.642041" lon="-90.280252">
				 <ele>141.7</ele>
			 </trkpt>
			 <trkpt lat="38.642198" lon="-90.280429">
				 <ele>141.8</ele>
			 </trkpt>
			 <trkpt lat="38.642297" lon="-90.280338">
				 <ele>141.9</ele>
			 </trkpt>
			 <trkpt lat="38.642327" lon="-90.280304">
				 <ele>142.1</ele>
			 </trkpt>
			 <trkpt lat="38.642397" lon="-90.28021">
				 <ele>142.2</ele>
			 </trkpt>
			 <trkpt lat="38.64246" lon="-90.280104">
				 <ele>142.3</ele>
			 </trkpt>
			 <trkpt lat="38.642754" lon="-90.279428">
				 <ele>142.4</ele>
			 </trkpt>
			 <trkpt lat="38.642866" lon="-90.279202">
				 <ele>142.5</ele>
			 </trkpt>
			 <trkpt lat="38.642986" lon="-90.278988">
				 <ele>142.5</ele>
			 </trkpt>
			 <trkpt lat="38.643043" lon="-90.278902">
				 <ele>142.6</ele>
			 </trkpt>
			 <trkpt lat="38.643092" lon="-90.278843">
				 <ele>142.8</ele>
			 </trkpt>
			 <trkpt lat="38.643216" lon="-90.278732">
				 <ele>143</ele>
			 </trkpt>
			 <trkpt lat="38.643325" lon="-90.278675">
				 <ele>143.2</ele>
			 </trkpt>
			 <trkpt lat="38.643408" lon="-90.278648">
				 <ele>143.4</ele>
			 </trkpt>
			 <trkpt lat="38.643475" lon="-90.278634">
				 <ele>143.4</ele>
			 </trkpt>
			 <trkpt lat="38.643621" lon="-90.278634">
				 <ele>143.4</ele>
			 </trkpt>
			 <trkpt lat="38.643781" lon="-90.27859">
				 <ele>143.4</ele>
			 </trkpt>
			 <trkpt lat="38.643818" lon="-90.278586">
				 <ele>143.4</ele>
			 </trkpt>
			 <trkpt lat="38.64387" lon="-90.278594">
				 <ele>143.3</ele>
			 </trkpt>
			 <trkpt lat="38.643883" lon="-90.278407">
				 <ele>143.2</ele>
			 </trkpt>
			 <trkpt lat="38.643902" lon="-90.278246">
				 <ele>143.1</ele>
			 </trkpt>
			 <trkpt lat="38.643969" lon="-90.277685">
				 <ele>142.9</ele>
			 </trkpt>
			 <trkpt lat="38.643982" lon="-90.277508">
				 <ele>142.7</ele>
			 </trkpt>
			 <trkpt lat="38.643982" lon="-90.277355">
				 <ele>142.5</ele>
			 </trkpt>
			 <trkpt lat="38.643967" lon="-90.277211">
				 <ele>142.4</ele>
			 </trkpt>
			 <trkpt lat="38.643952" lon="-90.277106">
				 <ele>142.3</ele>
			 </trkpt>
			 <trkpt lat="38.643921" lon="-90.276953">
				 <ele>142.2</ele>
			 </trkpt>
			 <trkpt lat="38.64388" lon="-90.276808">
				 <ele>142.2</ele>
			 </trkpt>
			 <trkpt lat="38.643643" lon="-90.276041">
				 <ele>142.1</ele>
			 </trkpt>
			 <trkpt lat="38.643581" lon="-90.275863">
				 <ele>142.1</ele>
			 </trkpt>
			 <trkpt lat="38.643557" lon="-90.275809">
				 <ele>142.1</ele>
			 </trkpt>
			 <trkpt lat="38.643495" lon="-90.275697">
				 <ele>141.9</ele>
			 </trkpt>
			 <trkpt lat="38.643401" lon="-90.275586">
				 <ele>141.7</ele>
			 </trkpt>
			 <trkpt lat="38.643338" lon="-90.275531">
				 <ele>141.5</ele>
			 </trkpt>
			 <trkpt lat="38.643298" lon="-90.275499">
				 <ele>141.4</ele>
			 </trkpt>
			 <trkpt lat="38.643198" lon="-90.275426">
				 <ele>141.3</ele>
			 </trkpt>
			 <trkpt lat="38.643018" lon="-90.275326">
				 <ele>141.2</ele>
			 </trkpt>
			 <trkpt lat="38.642823" lon="-90.275234">
				 <ele>141.1</ele>
			 </trkpt>
			 <trkpt lat="38.64253" lon="-90.275106">
				 <ele>140.8</ele>
			 </trkpt>
			 <trkpt lat="38.64235" lon="-90.275043">
				 <ele>140.6</ele>
			 </trkpt>
			 <trkpt lat="38.641931" lon="-90.274923">
				 <ele>140.5</ele>
			 </trkpt>
			 <trkpt lat="38.641795" lon="-90.274842">
				 <ele>140.3</ele>
			 </trkpt>
			 <trkpt lat="38.641559" lon="-90.27467">
				 <ele>140.4</ele>
			 </trkpt>
			 <trkpt lat="38.641371" lon="-90.274505">
				 <ele>140.4</ele>
			 </trkpt>
			 <trkpt lat="38.641288" lon="-90.274419">
				 <ele>140.4</ele>
			 </trkpt>
			 <trkpt lat="38.641186" lon="-90.274291">
				 <ele>140.4</ele>
			 </trkpt>
			 <trkpt lat="38.641167" lon="-90.274266">
				 <ele>140.3</ele>
			 </trkpt>
			 <trkpt lat="38.641057" lon="-90.274087">
				 <ele>140.3</ele>
			 </trkpt>
			 <trkpt lat="38.641002" lon="-90.273877">
				 <ele>140.4</ele>
			 </trkpt>
			 <trkpt lat="38.640977" lon="-90.27372">
				 <ele>140.6</ele>
			 </trkpt>
			 <trkpt lat="38.640956" lon="-90.273532">
				 <ele>141.2</ele>
			 </trkpt>
			 <trkpt lat="38.640952" lon="-90.273369">
				 <ele>141.8</ele>
			 </trkpt>
			 <trkpt lat="38.640829" lon="-90.27312">
				 <ele>142.5</ele>
			 </trkpt>
			 <trkpt lat="38.640769" lon="-90.273002">
				 <ele>143</ele>
			 </trkpt>
			 <trkpt lat="38.640664" lon="-90.272822">
				 <ele>143.6</ele>
			 </trkpt>
			 <trkpt lat="38.640461" lon="-90.272526">
				 <ele>144.3</ele>
			 </trkpt>
			 <trkpt lat="38.640309" lon="-90.272346">
				 <ele>144.9</ele>
			 </trkpt>
			 <trkpt lat="38.640221" lon="-90.27224">
				 <ele>145.5</ele>
			 </trkpt>
			 <trkpt lat="38.639961" lon="-90.271982">
				 <ele>145.6</ele>
			 </trkpt>
			 <trkpt lat="38.639842" lon="-90.271889">
				 <ele>145.7</ele>
			 </trkpt>
			 <trkpt lat="38.639603" lon="-90.271723">
				 <ele>145.6</ele>
			 </trkpt>
			 <trkpt lat="38.639167" lon="-90.271486">
				 <ele>145.3</ele>
			 </trkpt>
			 <trkpt lat="38.638883" lon="-90.271299">
				 <ele>144.6</ele>
			 </trkpt>
			 <trkpt lat="38.638366" lon="-90.270936">
				 <ele>144.1</ele>
			 </trkpt>
			 <trkpt lat="38.638331" lon="-90.270912">
				 <ele>143.5</ele>
			 </trkpt>
			 <trkpt lat="38.638226" lon="-90.270842">
				 <ele>143</ele>
			 </trkpt>
			 <trkpt lat="38.638143" lon="-90.270784">
				 <ele>142.5</ele>
			 </trkpt>
			 <trkpt lat="38.63745" lon="-90.270355">
				 <ele>141.9</ele>
			 </trkpt>
			 <trkpt lat="38.637263" lon="-90.270251">
				 <ele>141.5</ele>
			 </trkpt>
			 <trkpt lat="38.637166" lon="-90.270214">
				 <ele>141.4</ele>
			 </trkpt>
			 <trkpt lat="38.637068" lon="-90.270191">
				 <ele>141.2</ele>
			 </trkpt>
			 <trkpt lat="38.636967" lon="-90.270178">
				 <ele>141.1</ele>
			 </trkpt>
			 <trkpt lat="38.636863" lon="-90.27018">
				 <ele>141</ele>
			 </trkpt>
			 <trkpt lat="38.636761" lon="-90.270198">
				 <ele>141</ele>
			 </trkpt>
			 <trkpt lat="38.636664" lon="-90.270231">
				 <ele>141</ele>
			 </trkpt>
			 <trkpt lat="38.636362" lon="-90.270361">
				 <ele>141</ele>
			 </trkpt>
			 <trkpt lat="38.636243" lon="-90.270398">
				 <ele>141.2</ele>
			 </trkpt>
			 <trkpt lat="38.63599" lon="-90.270448">
				 <ele>141.5</ele>
			 </trkpt>
			 <trkpt lat="38.635815" lon="-90.27048">
				 <ele>141.7</ele>
			 </trkpt>
			 <trkpt lat="38.635372" lon="-90.270562">
				 <ele>142.2</ele>
			 </trkpt>
			 <trkpt lat="38.635322" lon="-90.270567">
				 <ele>142.6</ele>
			 </trkpt>
			 <trkpt lat="38.63519" lon="-90.270578">
				 <ele>143.2</ele>
			 </trkpt>
			 <trkpt lat="38.634989" lon="-90.270575">
				 <ele>143.7</ele>
			 </trkpt>
			 <trkpt lat="38.634259" lon="-90.270524">
				 <ele>144.4</ele>
			 </trkpt>
			 <trkpt lat="38.633696" lon="-90.270423">
				 <ele>145.2</ele>
			 </trkpt>
			 <trkpt lat="38.633507" lon="-90.270405">
				 <ele>145.9</ele>
			 </trkpt>
			 <trkpt lat="38.633353" lon="-90.270409">
				 <ele>146.5</ele>
			 </trkpt>
			 <trkpt lat="38.633223" lon="-90.270426">
				 <ele>146.9</ele>
			 </trkpt>
			 <trkpt lat="38.63277" lon="-90.270539">
				 <ele>147</ele>
			 </trkpt>
			 <trkpt lat="38.632704" lon="-90.270556">
				 <ele>147</ele>
			 </trkpt>
			 <trkpt lat="38.632707" lon="-90.270505">
				 <ele>146.5</ele>
			 </trkpt>
			 <trkpt lat="38.632716" lon="-90.27039">
				 <ele>146.3</ele>
			 </trkpt>
			 <trkpt lat="38.632738" lon="-90.270202">
				 <ele>146.1</ele>
			 </trkpt>
			 <trkpt lat="38.632805" lon="-90.269631">
				 <ele>146.1</ele>
			 </trkpt>
			 <trkpt lat="38.632839" lon="-90.269347">
				 <ele>146.1</ele>
			 </trkpt>
			 <trkpt lat="38.632913" lon="-90.26878">
				 <ele>146.1</ele>
			 </trkpt>
			 <trkpt lat="38.632988" lon="-90.268212">
				 <ele>146.3</ele>
			 </trkpt>
			 <trkpt lat="38.633017" lon="-90.267996">
				 <ele>146.6</ele>
			 </trkpt>
			 <trkpt lat="38.633081" lon="-90.267427">
				 <ele>147.4</ele>
			 </trkpt>
			 <trkpt lat="38.633105" lon="-90.267062">
				 <ele>148.3</ele>
			 </trkpt>
			 <trkpt lat="38.633151" lon="-90.266726">
				 <ele>149.5</ele>
			 </trkpt>
			 <trkpt lat="38.633187" lon="-90.266208">
				 <ele>151.1</ele>
			 </trkpt>
			 <trkpt lat="38.633157" lon="-90.265633">
				 <ele>152.4</ele>
			 </trkpt>
			 <trkpt lat="38.633128" lon="-90.265082">
				 <ele>153.5</ele>
			 </trkpt>
			 <trkpt lat="38.633106" lon="-90.264507">
				 <ele>154.5</ele>
			 </trkpt>
			 <trkpt lat="38.633083" lon="-90.263932">
				 <ele>155.5</ele>
			 </trkpt>
			 <trkpt lat="38.633081" lon="-90.263884">
				 <ele>156.2</ele>
			 </trkpt>
			 <trkpt lat="38.633073" lon="-90.263308">
				 <ele>156.6</ele>
			 </trkpt>
			 <trkpt lat="38.633064" lon="-90.262733">
				 <ele>156.9</ele>
			 </trkpt>
			 <trkpt lat="38.633061" lon="-90.262538">
				 <ele>156.9</ele>
			 </trkpt>
			 <trkpt lat="38.633052" lon="-90.261962">
				 <ele>156.8</ele>
			 </trkpt>
			 <trkpt lat="38.633043" lon="-90.261387">
				 <ele>156.4</ele>
			 </trkpt>
			 <trkpt lat="38.633033" lon="-90.260811">
				 <ele>155.9</ele>
			 </trkpt>
			 <trkpt lat="38.633024" lon="-90.260236">
				 <ele>155.4</ele>
			 </trkpt>
			 <trkpt lat="38.633013" lon="-90.259639">
				 <ele>154.8</ele>
			 </trkpt>
			 <trkpt lat="38.633002" lon="-90.259064">
				 <ele>154.3</ele>
			 </trkpt>
			 <trkpt lat="38.632991" lon="-90.258489">
				 <ele>153.7</ele>
			 </trkpt>
			 <trkpt lat="38.632983" lon="-90.258052">
				 <ele>153.3</ele>
			 </trkpt>
			 <trkpt lat="38.632967" lon="-90.257476">
				 <ele>152.9</ele>
			 </trkpt>
			 <trkpt lat="38.63295" lon="-90.256901">
				 <ele>152.6</ele>
			 </trkpt>
			 <trkpt lat="38.632949" lon="-90.256864">
				 <ele>152.4</ele>
			 </trkpt>
			 <trkpt lat="38.632878" lon="-90.25688">
				 <ele>152.1</ele>
			 </trkpt>
			 <trkpt lat="38.632468" lon="-90.257016">
				 <ele>152</ele>
			 </trkpt>
			 <trkpt lat="38.632425" lon="-90.25703">
				 <ele>151.9</ele>
			 </trkpt>
			 <trkpt lat="38.632306" lon="-90.257069">
				 <ele>151.9</ele>
			 </trkpt>
			 <trkpt lat="38.631653" lon="-90.257313">
				 <ele>151.9</ele>
			 </trkpt>
			 <trkpt lat="38.631444" lon="-90.257388">
				 <ele>151.9</ele>
			 </trkpt>
			 <trkpt lat="38.63094" lon="-90.257557">
				 <ele>151.8</ele>
			 </trkpt>
			 <trkpt lat="38.630582" lon="-90.257678">
				 <ele>151.6</ele>
			 </trkpt>
			 <trkpt lat="38.630015" lon="-90.257874">
				 <ele>151.5</ele>
			 </trkpt>
			 <trkpt lat="38.629925" lon="-90.257905">
				 <ele>151.2</ele>
			 </trkpt>
			 <trkpt lat="38.629836" lon="-90.257934">
				 <ele>150.9</ele>
			 </trkpt>
			 <trkpt lat="38.629438" lon="-90.258066">
				 <ele>150.7</ele>
			 </trkpt>
			 <trkpt lat="38.629063" lon="-90.258192">
				 <ele>150.5</ele>
			 </trkpt>
			 <trkpt lat="38.628996" lon="-90.258214">
				 <ele>150.2</ele>
			 </trkpt>
			 <trkpt lat="38.628537" lon="-90.258374">
				 <ele>149.9</ele>
			 </trkpt>
			 <trkpt lat="38.628126" lon="-90.258521">
				 <ele>149.6</ele>
			 </trkpt>
			 <trkpt lat="38.627674" lon="-90.258676">
				 <ele>149.4</ele>
			 </trkpt>
			 <trkpt lat="38.627385" lon="-90.258777">
				 <ele>149.2</ele>
			 </trkpt>
			 <trkpt lat="38.626947" lon="-90.258893">
				 <ele>149.1</ele>
			 </trkpt>
			 <trkpt lat="38.626697" lon="-90.258959">
				 <ele>149</ele>
			 </trkpt>
			 <trkpt lat="38.62677" lon="-90.258455">
				 <ele>149</ele>
			 </trkpt>
			 <trkpt lat="38.626779" lon="-90.258332">
				 <ele>149</ele>
			 </trkpt>
			 <trkpt lat="38.626857" lon="-90.257765">
				 <ele>149.1</ele>
			 </trkpt>
			 <trkpt lat="38.626935" lon="-90.257198">
				 <ele>149.2</ele>
			 </trkpt>
			 <trkpt lat="38.627013" lon="-90.256631">
				 <ele>149.3</ele>
			 </trkpt>
			 <trkpt lat="38.62709" lon="-90.256064">
				 <ele>149.4</ele>
			 </trkpt>
			 <trkpt lat="38.627168" lon="-90.255498">
				 <ele>149.4</ele>
			 </trkpt>
			 <trkpt lat="38.627246" lon="-90.254931">
				 <ele>149.4</ele>
			 </trkpt>
			 <trkpt lat="38.627324" lon="-90.254364">
				 <ele>149.4</ele>
			 </trkpt>
			 <trkpt lat="38.627402" lon="-90.253797">
				 <ele>149.4</ele>
			 </trkpt>
			 <trkpt lat="38.62748" lon="-90.25323">
				 <ele>149.4</ele>
			 </trkpt>
			 <trkpt lat="38.627558" lon="-90.252663">
				 <ele>149.4</ele>
			 </trkpt>
			 <trkpt lat="38.627635" lon="-90.252096">
				 <ele>149.4</ele>
			 </trkpt>
			 <trkpt lat="38.627713" lon="-90.251529">
				 <ele>149.3</ele>
			 </trkpt>
			 <trkpt lat="38.627791" lon="-90.250962">
				 <ele>149.2</ele>
			 </trkpt>
			 <trkpt lat="38.627869" lon="-90.250396">
				 <ele>149.1</ele>
			 </trkpt>
			 <trkpt lat="38.627895" lon="-90.25021">
				 <ele>148.8</ele>
			 </trkpt>
			 <trkpt lat="38.628329" lon="-90.250063">
				 <ele>148.7</ele>
			 </trkpt>
			 <trkpt lat="38.628764" lon="-90.249916">
				 <ele>148.7</ele>
			 </trkpt>
			 <trkpt lat="38.629199" lon="-90.249769">
				 <ele>148.7</ele>
			 </trkpt>
			 <trkpt lat="38.629633" lon="-90.249621">
				 <ele>148.9</ele>
			 </trkpt>
			 <trkpt lat="38.630068" lon="-90.249474">
				 <ele>149.1</ele>
			 </trkpt>
			 <trkpt lat="38.630503" lon="-90.249327">
				 <ele>149.3</ele>
			 </trkpt>
			 <trkpt lat="38.630937" lon="-90.24918">
				 <ele>149.5</ele>
			 </trkpt>
			 <trkpt lat="38.631221" lon="-90.249084">
				 <ele>149.5</ele>
			 </trkpt>
			 <trkpt lat="38.631655" lon="-90.248934">
				 <ele>149.5</ele>
			 </trkpt>
			 <trkpt lat="38.632089" lon="-90.248784">
				 <ele>149.4</ele>
			 </trkpt>
			 <trkpt lat="38.632151" lon="-90.248762">
				 <ele>149.3</ele>
			 </trkpt>
			 <trkpt lat="38.632033" lon="-90.248207">
				 <ele>149</ele>
			 </trkpt>
			 <trkpt lat="38.631914" lon="-90.247652">
				 <ele>148.5</ele>
			 </trkpt>
			 <trkpt lat="38.631795" lon="-90.247097">
				 <ele>147.9</ele>
			 </trkpt>
			 <trkpt lat="38.631677" lon="-90.246541">
				 <ele>147.2</ele>
			 </trkpt>
			 <trkpt lat="38.631558" lon="-90.245986">
				 <ele>146.5</ele>
			 </trkpt>
			 <trkpt lat="38.631439" lon="-90.245431">
				 <ele>145.7</ele>
			 </trkpt>
			 <trkpt lat="38.631321" lon="-90.244876">
				 <ele>144.9</ele>
			 </trkpt>
			 <trkpt lat="38.631202" lon="-90.244321">
				 <ele>144.2</ele>
			 </trkpt>
			 <trkpt lat="38.631191" lon="-90.244267">
				 <ele>143.6</ele>
			 </trkpt>
			 <trkpt lat="38.631503" lon="-90.243853">
				 <ele>143.4</ele>
			 </trkpt>
			 <trkpt lat="38.631669" lon="-90.243632">
				 <ele>144.7</ele>
			 </trkpt>
			 <trkpt lat="38.63192" lon="-90.243342">
				 <ele>145.2</ele>
			 </trkpt>
			 <trkpt lat="38.632108" lon="-90.243192">
				 <ele>145.8</ele>
			 </trkpt>
			 <trkpt lat="38.634103" lon="-90.242489">
				 <ele>146.5</ele>
			 </trkpt>
			 <trkpt lat="38.636051" lon="-90.241824">
				 <ele>147.1</ele>
			 </trkpt>
			 <trkpt lat="38.634857" lon="-90.236025">
				 <ele>148.6</ele>
			 </trkpt>
			 <trkpt lat="38.632967" lon="-90.226991">
				 <ele>149.9</ele>
			 </trkpt>
			 <trkpt lat="38.633101" lon="-90.226841">
				 <ele>151.1</ele>
			 </trkpt>
			 <trkpt lat="38.633089" lon="-90.226509">
				 <ele>151.7</ele>
			 </trkpt>
			 <trkpt lat="38.631157" lon="-90.22719">
				 <ele>152.1</ele>
			 </trkpt>
			 <trkpt lat="38.631291" lon="-90.217346">
				 <ele>152.4</ele>
			 </trkpt>
			 <trkpt lat="38.631224" lon="-90.215737">
				 <ele>151.4</ele>
			 </trkpt>
			 <trkpt lat="38.631132" lon="-90.215082">
				 <ele>151.4</ele>
			 </trkpt>
			 <trkpt lat="38.630554" lon="-90.212121">
				 <ele>151.4</ele>
			 </trkpt>
			 <trkpt lat="38.631339" lon="-90.211492">
				 <ele>151.3</ele>
			 </trkpt>
			 <trkpt lat="38.632487" lon="-90.211127">
				 <ele>151.3</ele>
			 </trkpt>
			 <trkpt lat="38.632523" lon="-90.211141">
				 <ele>150</ele>
			 </trkpt>
			 <trkpt lat="38.632493" lon="-90.211">
				 <ele>149</ele>
			 </trkpt>
			 <trkpt lat="38.632481" lon="-90.210941">
				 <ele>148.1</ele>
			 </trkpt>
			 <trkpt lat="38.632397" lon="-90.210539">
				 <ele>147.8</ele>
			 </trkpt>
			 <trkpt lat="38.632247" lon="-90.209797">
				 <ele>147.6</ele>
			 </trkpt>
			 <trkpt lat="38.632102" lon="-90.209125">
				 <ele>147.8</ele>
			 </trkpt>
			 <trkpt lat="38.632049" lon="-90.208871">
				 <ele>147.8</ele>
			 </trkpt>
			 <trkpt lat="38.631981" lon="-90.208548">
				 <ele>147.8</ele>
			 </trkpt>
			 <trkpt lat="38.631962" lon="-90.208461">
				 <ele>147.7</ele>
			 </trkpt>
			 <trkpt lat="38.631944" lon="-90.208366">
				 <ele>147.9</ele>
			 </trkpt>
			 <trkpt lat="38.631775" lon="-90.207523">
				 <ele>148.2</ele>
			 </trkpt>
			 <trkpt lat="38.631705" lon="-90.207178">
				 <ele>148.8</ele>
			 </trkpt>
			 <trkpt lat="38.63169" lon="-90.207099">
				 <ele>149.5</ele>
			 </trkpt>
			 <trkpt lat="38.631674" lon="-90.207026">
				 <ele>150.5</ele>
			 </trkpt>
			 <trkpt lat="38.631485" lon="-90.206132">
				 <ele>151.9</ele>
			 </trkpt>
			 <trkpt lat="38.631454" lon="-90.205978">
				 <ele>152.5</ele>
			 </trkpt>
			 <trkpt lat="38.631417" lon="-90.205794">
				 <ele>152.7</ele>
			 </trkpt>
			 <trkpt lat="38.6314" lon="-90.20571">
				 <ele>152.8</ele>
			 </trkpt>
			 <trkpt lat="38.631385" lon="-90.205639">
				 <ele>152.8</ele>
			 </trkpt>
			 <trkpt lat="38.63128" lon="-90.205142">
				 <ele>152.8</ele>
			 </trkpt>
			 <trkpt lat="38.631165" lon="-90.204586">
				 <ele>152.5</ele>
			 </trkpt>
			 <trkpt lat="38.63105" lon="-90.204029">
				 <ele>152</ele>
			 </trkpt>
			 <trkpt lat="38.630934" lon="-90.203473">
				 <ele>151.5</ele>
			 </trkpt>
			 <trkpt lat="38.630819" lon="-90.202916">
				 <ele>150.8</ele>
			 </trkpt>
			 <trkpt lat="38.630704" lon="-90.20236">
				 <ele>150.1</ele>
			 </trkpt>
			 <trkpt lat="38.630589" lon="-90.201804">
				 <ele>148.7</ele>
			 </trkpt>
			 <trkpt lat="38.630564" lon="-90.201684">
				 <ele>148.3</ele>
			 </trkpt>
			 <trkpt lat="38.630128" lon="-90.201827">
				 <ele>147.9</ele>
			 </trkpt>
			 <trkpt lat="38.629693" lon="-90.201971">
				 <ele>147.7</ele>
			 </trkpt>
			 <trkpt lat="38.629257" lon="-90.202114">
				 <ele>147.7</ele>
			 </trkpt>
			 <trkpt lat="38.629119" lon="-90.20216">
				 <ele>147.7</ele>
			 </trkpt>
			 <trkpt lat="38.629076" lon="-90.202307">
				 <ele>147.8</ele>
			 </trkpt>
			 <trkpt lat="38.629194" lon="-90.202863">
				 <ele>147.8</ele>
			 </trkpt>
			 <trkpt lat="38.629312" lon="-90.203418">
				 <ele>147.6</ele>
			 </trkpt>
			 <trkpt lat="38.629429" lon="-90.203974">
				 <ele>147.7</ele>
			 </trkpt>
			 <trkpt lat="38.629547" lon="-90.204529">
				 <ele>147.8</ele>
			 </trkpt>
			 <trkpt lat="38.629665" lon="-90.205085">
				 <ele>148</ele>
			 </trkpt>
			 <trkpt lat="38.629783" lon="-90.20564">
				 <ele>148.1</ele>
			 </trkpt>
			 <trkpt lat="38.629879" lon="-90.206094">
				 <ele>148.2</ele>
			 </trkpt>
		 </trkseg>
	 </trk>
</gpx>