<?xml version="1.0" encoding="UTF-8"?>
 <gpx creator="Garmin Connect" version="1.1"
	 xsi:schemaLocation="http://www.topografix.com/GPX/1/1 http://www.topografix.com/GPX/11.xsd"
	 xmlns:ns3="http://www.garmin.com/xmlschemas/TrackPointExtension/v1"
	 xmlns="http://www.topografix.com/GPX/1/1"
	 xmlns:xsi="http://www.w3.org/2001/XMLSchema-instance" xmlns:ns2="http://www.garmin.com/xmlschemas/GpxExtensions/v3">
	 <metadata>
		<name>Swedbank Tallinn Marathon - 42.195 km</name>
		 <link href="https://www.goandrace.com">
		 <text>Garmin Connect</text>
		 </link>
	 <time>2026-08-09T15:53:05</time>
	 </metadata>
	 <trk>
		 <name>Swedbank Tallinn Marathon - 42.195 km</name>
		 <trkseg>
			 <trkpt lat="59.434836" lon="24.73459">
				 <ele>25</ele>
			 </trkpt>
			 <trkpt lat="59.434853" lon="24.733668">
				 <ele>24.4</ele>
			 </trkpt>
			 <trkpt lat="59.434871" lon="24.732746">
				 <ele>24</ele>
			 </trkpt>
			 <trkpt lat="59.434925" lon="24.731965">
				 <ele>23.7</ele>
			 </trkpt>
			 <trkpt lat="59.434979" lon="24.731183">
				 <ele>23.3</ele>
			 </trkpt>
			 <trkpt lat="59.435" lon="24.73088">
				 <ele>23.1</ele>
			 </trkpt>
			 <trkpt lat="59.435021" lon="24.730577">
				 <ele>22.4</ele>
			 </trkpt>
			 <trkpt lat="59.435021" lon="24.730372">
				 <ele>21.8</ele>
			 </trkpt>
			 <trkpt lat="59.435021" lon="24.730167">
				 <ele>21.1</ele>
			 </trkpt>
			 <trkpt lat="59.434986" lon="24.729453">
				 <ele>20.3</ele>
			 </trkpt>
			 <trkpt lat="59.43495" lon="24.72874">
				 <ele>19.5</ele>
			 </trkpt>
			 <trkpt lat="59.434809" lon="24.7275">
				 <ele>18.9</ele>
			 </trkpt>
			 <trkpt lat="59.434669" lon="24.72626">
				 <ele>18.3</ele>
			 </trkpt>
			 <trkpt lat="59.434631" lon="24.725934">
				 <ele>17.6</ele>
			 </trkpt>
			 <trkpt lat="59.434539" lon="24.725258">
				 <ele>16.9</ele>
			 </trkpt>
			 <trkpt lat="59.434446" lon="24.724583">
				 <ele>16.3</ele>
			 </trkpt>
			 <trkpt lat="59.434356" lon="24.724177">
				 <ele>15.6</ele>
			 </trkpt>
			 <trkpt lat="59.434265" lon="24.723772">
				 <ele>15.1</ele>
			 </trkpt>
			 <trkpt lat="59.434197" lon="24.723332">
				 <ele>14.5</ele>
			 </trkpt>
			 <trkpt lat="59.43413" lon="24.722891">
				 <ele>14.1</ele>
			 </trkpt>
			 <trkpt lat="59.43415" lon="24.722661">
				 <ele>13.9</ele>
			 </trkpt>
			 <trkpt lat="59.43417" lon="24.72243">
				 <ele>13.8</ele>
			 </trkpt>
			 <trkpt lat="59.43436" lon="24.72205">
				 <ele>13.7</ele>
			 </trkpt>
			 <trkpt lat="59.43517" lon="24.72116">
				 <ele>13.6</ele>
			 </trkpt>
			 <trkpt lat="59.43555" lon="24.72074">
				 <ele>13.6</ele>
			 </trkpt>
			 <trkpt lat="59.43591" lon="24.72028">
				 <ele>13.8</ele>
			 </trkpt>
			 <trkpt lat="59.43716" lon="24.71842">
				 <ele>13.9</ele>
			 </trkpt>
			 <trkpt lat="59.43799" lon="24.71705">
				 <ele>14</ele>
			 </trkpt>
			 <trkpt lat="59.43812" lon="24.71692">
				 <ele>14.1</ele>
			 </trkpt>
			 <trkpt lat="59.44044" lon="24.7146">
				 <ele>14.3</ele>
			 </trkpt>
			 <trkpt lat="59.4412" lon="24.71387">
				 <ele>14.5</ele>
			 </trkpt>
			 <trkpt lat="59.44134" lon="24.71374">
				 <ele>14.7</ele>
			 </trkpt>
			 <trkpt lat="59.44187" lon="24.71319">
				 <ele>14.9</ele>
			 </trkpt>
			 <trkpt lat="59.44225" lon="24.71314">
				 <ele>15.2</ele>
			 </trkpt>
			 <trkpt lat="59.44248" lon="24.71303">
				 <ele>15.6</ele>
			 </trkpt>
			 <trkpt lat="59.44268" lon="24.7128">
				 <ele>16</ele>
			 </trkpt>
			 <trkpt lat="59.44301" lon="24.71252">
				 <ele>16.2</ele>
			 </trkpt>
			 <trkpt lat="59.44439" lon="24.71163">
				 <ele>16.5</ele>
			 </trkpt>
			 <trkpt lat="59.44533" lon="24.71101">
				 <ele>16.7</ele>
			 </trkpt>
			 <trkpt lat="59.44667" lon="24.71009">
				 <ele>16.9</ele>
			 </trkpt>
			 <trkpt lat="59.44686" lon="24.71008">
				 <ele>17.1</ele>
			 </trkpt>
			 <trkpt lat="59.44776" lon="24.7112">
				 <ele>17.3</ele>
			 </trkpt>
			 <trkpt lat="59.44834" lon="24.71192">
				 <ele>17.5</ele>
			 </trkpt>
			 <trkpt lat="59.44822" lon="24.71218">
				 <ele>17.6</ele>
			 </trkpt>
			 <trkpt lat="59.44791" lon="24.71286">
				 <ele>17.6</ele>
			 </trkpt>
			 <trkpt lat="59.44774" lon="24.71316">
				 <ele>17.6</ele>
			 </trkpt>
			 <trkpt lat="59.44734" lon="24.7141">
				 <ele>17.6</ele>
			 </trkpt>
			 <trkpt lat="59.44632" lon="24.71688">
				 <ele>17.8</ele>
			 </trkpt>
			 <trkpt lat="59.44541" lon="24.71947">
				 <ele>18.1</ele>
			 </trkpt>
			 <trkpt lat="59.44506" lon="24.720328">
				 <ele>18.3</ele>
			 </trkpt>
			 <trkpt lat="59.44471" lon="24.721186">
				 <ele>18.4</ele>
			 </trkpt>
			 <trkpt lat="59.444284" lon="24.722142">
				 <ele>18.5</ele>
			 </trkpt>
			 <trkpt lat="59.443859" lon="24.723098">
				 <ele>18.6</ele>
			 </trkpt>
			 <trkpt lat="59.443434" lon="24.724054">
				 <ele>18.6</ele>
			 </trkpt>
			 <trkpt lat="59.44308" lon="24.72485">
				 <ele>18.9</ele>
			 </trkpt>
			 <trkpt lat="59.44289" lon="24.72559">
				 <ele>19.3</ele>
			 </trkpt>
			 <trkpt lat="59.44236" lon="24.72754">
				 <ele>19.6</ele>
			 </trkpt>
			 <trkpt lat="59.44199" lon="24.72927">
				 <ele>19.9</ele>
			 </trkpt>
			 <trkpt lat="59.4418" lon="24.73001">
				 <ele>20</ele>
			 </trkpt>
			 <trkpt lat="59.44162" lon="24.73082">
				 <ele>20</ele>
			 </trkpt>
			 <trkpt lat="59.44153" lon="24.73111">
				 <ele>19.8</ele>
			 </trkpt>
			 <trkpt lat="59.44159" lon="24.73136">
				 <ele>19.9</ele>
			 </trkpt>
			 <trkpt lat="59.4416" lon="24.73146">
				 <ele>19.9</ele>
			 </trkpt>
			 <trkpt lat="59.44173" lon="24.73227">
				 <ele>19.9</ele>
			 </trkpt>
			 <trkpt lat="59.44176" lon="24.73389">
				 <ele>19.9</ele>
			 </trkpt>
			 <trkpt lat="59.44181" lon="24.73472">
				 <ele>19.8</ele>
			 </trkpt>
			 <trkpt lat="59.441772" lon="24.734962">
				 <ele>19.6</ele>
			 </trkpt>
			 <trkpt lat="59.441733" lon="24.735204">
				 <ele>19.4</ele>
			 </trkpt>
			 <trkpt lat="59.441475" lon="24.736065">
				 <ele>19.2</ele>
			 </trkpt>
			 <trkpt lat="59.441216" lon="24.736926">
				 <ele>19.1</ele>
			 </trkpt>
			 <trkpt lat="59.441193" lon="24.737213">
				 <ele>19.1</ele>
			 </trkpt>
			 <trkpt lat="59.44117" lon="24.7375">
				 <ele>19.3</ele>
			 </trkpt>
			 <trkpt lat="59.441189" lon="24.738089">
				 <ele>19.3</ele>
			 </trkpt>
			 <trkpt lat="59.441209" lon="24.738679">
				 <ele>19.5</ele>
			 </trkpt>
			 <trkpt lat="59.441379" lon="24.739239">
				 <ele>19.7</ele>
			 </trkpt>
			 <trkpt lat="59.44155" lon="24.7398">
				 <ele>20.2</ele>
			 </trkpt>
			 <trkpt lat="59.441613" lon="24.740036">
				 <ele>20.4</ele>
			 </trkpt>
			 <trkpt lat="59.441675" lon="24.740272">
				 <ele>20.5</ele>
			 </trkpt>
			 <trkpt lat="59.441959" lon="24.740602">
				 <ele>20.7</ele>
			 </trkpt>
			 <trkpt lat="59.442242" lon="24.740932">
				 <ele>20.7</ele>
			 </trkpt>
			 <trkpt lat="59.442481" lon="24.741606">
				 <ele>20.8</ele>
			 </trkpt>
			 <trkpt lat="59.44272" lon="24.74228">
				 <ele>20.9</ele>
			 </trkpt>
			 <trkpt lat="59.443299" lon="24.742842">
				 <ele>20.8</ele>
			 </trkpt>
			 <trkpt lat="59.443879" lon="24.743403">
				 <ele>21</ele>
			 </trkpt>
			 <trkpt lat="59.444209" lon="24.743724">
				 <ele>20.6</ele>
			 </trkpt>
			 <trkpt lat="59.444371" lon="24.743967">
				 <ele>19.5</ele>
			 </trkpt>
			 <trkpt lat="59.444533" lon="24.744209">
				 <ele>18.3</ele>
			 </trkpt>
			 <trkpt lat="59.444407" lon="24.745455">
				 <ele>17.2</ele>
			 </trkpt>
			 <trkpt lat="59.444282" lon="24.746702">
				 <ele>16.2</ele>
			 </trkpt>
			 <trkpt lat="59.44418" lon="24.74771">
				 <ele>15.4</ele>
			 </trkpt>
			 <trkpt lat="59.44449" lon="24.74784">
				 <ele>14.8</ele>
			 </trkpt>
			 <trkpt lat="59.44522" lon="24.74851">
				 <ele>14.4</ele>
			 </trkpt>
			 <trkpt lat="59.44529" lon="24.74848">
				 <ele>13.5</ele>
			 </trkpt>
			 <trkpt lat="59.44542" lon="24.74842">
				 <ele>12.8</ele>
			 </trkpt>
			 <trkpt lat="59.44561" lon="24.74802">
				 <ele>12</ele>
			 </trkpt>
			 <trkpt lat="59.44593" lon="24.74716">
				 <ele>11.6</ele>
			 </trkpt>
			 <trkpt lat="59.44613" lon="24.74681">
				 <ele>12</ele>
			 </trkpt>
			 <trkpt lat="59.44684" lon="24.74612">
				 <ele>12.5</ele>
			 </trkpt>
			 <trkpt lat="59.44813" lon="24.74491">
				 <ele>12.9</ele>
			 </trkpt>
			 <trkpt lat="59.44836" lon="24.74452">
				 <ele>13.4</ele>
			 </trkpt>
			 <trkpt lat="59.44873" lon="24.74354">
				 <ele>13.7</ele>
			 </trkpt>
			 <trkpt lat="59.44918" lon="24.74162">
				 <ele>14.4</ele>
			 </trkpt>
			 <trkpt lat="59.44935" lon="24.74054">
				 <ele>14.8</ele>
			 </trkpt>
			 <trkpt lat="59.44952" lon="24.73986">
				 <ele>15.5</ele>
			 </trkpt>
			 <trkpt lat="59.44974" lon="24.73882">
				 <ele>16.5</ele>
			 </trkpt>
			 <trkpt lat="59.4501" lon="24.737">
				 <ele>17.4</ele>
			 </trkpt>
			 <trkpt lat="59.45059" lon="24.73408">
				 <ele>18</ele>
			 </trkpt>
			 <trkpt lat="59.45089" lon="24.73071">
				 <ele>18.2</ele>
			 </trkpt>
			 <trkpt lat="59.45108" lon="24.72757">
				 <ele>18.3</ele>
			 </trkpt>
			 <trkpt lat="59.45119" lon="24.72636">
				 <ele>18.5</ele>
			 </trkpt>
			 <trkpt lat="59.45116" lon="24.72528">
				 <ele>18.5</ele>
			 </trkpt>
			 <trkpt lat="59.45096" lon="24.7235">
				 <ele>18.5</ele>
			 </trkpt>
			 <trkpt lat="59.45078" lon="24.72273">
				 <ele>18.1</ele>
			 </trkpt>
			 <trkpt lat="59.45063" lon="24.72213">
				 <ele>17.6</ele>
			 </trkpt>
			 <trkpt lat="59.45238" lon="24.71822">
				 <ele>17.2</ele>
			 </trkpt>
			 <trkpt lat="59.45254" lon="24.71786">
				 <ele>16.5</ele>
			 </trkpt>
			 <trkpt lat="59.45269" lon="24.71752">
				 <ele>15.7</ele>
			 </trkpt>
			 <trkpt lat="59.45225" lon="24.71693">
				 <ele>15.1</ele>
			 </trkpt>
			 <trkpt lat="59.45029" lon="24.71437">
				 <ele>14.8</ele>
			 </trkpt>
			 <trkpt lat="59.44971" lon="24.71375">
				 <ele>14.5</ele>
			 </trkpt>
			 <trkpt lat="59.4488" lon="24.71259">
				 <ele>14.2</ele>
			 </trkpt>
			 <trkpt lat="59.44834" lon="24.71192">
				 <ele>13.6</ele>
			 </trkpt>
			 <trkpt lat="59.44817" lon="24.71173">
				 <ele>13.1</ele>
			 </trkpt>
			 <trkpt lat="59.44686" lon="24.71008">
				 <ele>12.7</ele>
			 </trkpt>
			 <trkpt lat="59.44678" lon="24.71005">
				 <ele>12.4</ele>
			 </trkpt>
			 <trkpt lat="59.4467" lon="24.71007">
				 <ele>11.9</ele>
			 </trkpt>
			 <trkpt lat="59.4463" lon="24.71035">
				 <ele>11.5</ele>
			 </trkpt>
			 <trkpt lat="59.44447" lon="24.71158">
				 <ele>11.4</ele>
			 </trkpt>
			 <trkpt lat="59.44301" lon="24.71252">
				 <ele>11.2</ele>
			 </trkpt>
			 <trkpt lat="59.44282" lon="24.71268">
				 <ele>10.8</ele>
			 </trkpt>
			 <trkpt lat="59.44243" lon="24.71308">
				 <ele>10.7</ele>
			 </trkpt>
			 <trkpt lat="59.44205" lon="24.71312">
				 <ele>10.9</ele>
			 </trkpt>
			 <trkpt lat="59.44193" lon="24.71315">
				 <ele>11.4</ele>
			 </trkpt>
			 <trkpt lat="59.44181" lon="24.71324">
				 <ele>11.8</ele>
			 </trkpt>
			 <trkpt lat="59.44127" lon="24.71381">
				 <ele>11.8</ele>
			 </trkpt>
			 <trkpt lat="59.44096" lon="24.71332">
				 <ele>11.7</ele>
			 </trkpt>
			 <trkpt lat="59.44085" lon="24.71293">
				 <ele>11.8</ele>
			 </trkpt>
			 <trkpt lat="59.44051" lon="24.71167">
				 <ele>11.7</ele>
			 </trkpt>
			 <trkpt lat="59.44029" lon="24.71071">
				 <ele>11.5</ele>
			 </trkpt>
			 <trkpt lat="59.43996" lon="24.70951">
				 <ele>11.5</ele>
			 </trkpt>
			 <trkpt lat="59.43979" lon="24.70883">
				 <ele>11.5</ele>
			 </trkpt>
			 <trkpt lat="59.43966" lon="24.70795">
				 <ele>11.3</ele>
			 </trkpt>
			 <trkpt lat="59.4394" lon="24.70697">
				 <ele>11</ele>
			 </trkpt>
			 <trkpt lat="59.43933" lon="24.70668">
				 <ele>10.5</ele>
			 </trkpt>
			 <trkpt lat="59.43955" lon="24.70479">
				 <ele>9.8</ele>
			 </trkpt>
			 <trkpt lat="59.44046" lon="24.69788">
				 <ele>9.5</ele>
			 </trkpt>
			 <trkpt lat="59.44075" lon="24.69559">
				 <ele>9.4</ele>
			 </trkpt>
			 <trkpt lat="59.44105" lon="24.69345">
				 <ele>9.1</ele>
			 </trkpt>
			 <trkpt lat="59.44144" lon="24.69048">
				 <ele>9</ele>
			 </trkpt>
			 <trkpt lat="59.44191" lon="24.68671">
				 <ele>8.9</ele>
			 </trkpt>
			 <trkpt lat="59.44184" lon="24.68647">
				 <ele>8.6</ele>
			 </trkpt>
			 <trkpt lat="59.43902" lon="24.68497">
				 <ele>8.3</ele>
			 </trkpt>
			 <trkpt lat="59.43792" lon="24.68438">
				 <ele>8</ele>
			 </trkpt>
			 <trkpt lat="59.43724" lon="24.68399">
				 <ele>7.7</ele>
			 </trkpt>
			 <trkpt lat="59.43572" lon="24.68319">
				 <ele>7.7</ele>
			 </trkpt>
			 <trkpt lat="59.43534" lon="24.68281">
				 <ele>7.6</ele>
			 </trkpt>
			 <trkpt lat="59.43517" lon="24.68319">
				 <ele>7.6</ele>
			 </trkpt>
			 <trkpt lat="59.43485" lon="24.6836">
				 <ele>7.6</ele>
			 </trkpt>
			 <trkpt lat="59.43449" lon="24.684">
				 <ele>7.6</ele>
			 </trkpt>
			 <trkpt lat="59.43401" lon="24.68433">
				 <ele>7.6</ele>
			 </trkpt>
			 <trkpt lat="59.43307" lon="24.6853">
				 <ele>7.7</ele>
			 </trkpt>
			 <trkpt lat="59.43123" lon="24.68651">
				 <ele>8</ele>
			 </trkpt>
			 <trkpt lat="59.43124" lon="24.68703">
				 <ele>8.4</ele>
			 </trkpt>
			 <trkpt lat="59.43095" lon="24.68584">
				 <ele>8.5</ele>
			 </trkpt>
			 <trkpt lat="59.43088" lon="24.68553">
				 <ele>8.5</ele>
			 </trkpt>
			 <trkpt lat="59.43055" lon="24.68422">
				 <ele>8.3</ele>
			 </trkpt>
			 <trkpt lat="59.43037" lon="24.68427">
				 <ele>8.2</ele>
			 </trkpt>
			 <trkpt lat="59.4302" lon="24.68441">
				 <ele>8</ele>
			 </trkpt>
			 <trkpt lat="59.43006" lon="24.68453">
				 <ele>7.9</ele>
			 </trkpt>
			 <trkpt lat="59.42951" lon="24.68496">
				 <ele>7.9</ele>
			 </trkpt>
			 <trkpt lat="59.42961" lon="24.686215">
				 <ele>8.1</ele>
			 </trkpt>
			 <trkpt lat="59.429711" lon="24.68747">
				 <ele>8.4</ele>
			 </trkpt>
			 <trkpt lat="59.429729" lon="24.687696">
				 <ele>8.8</ele>
			 </trkpt>
			 <trkpt lat="59.429576" lon="24.687711">
				 <ele>9.5</ele>
			 </trkpt>
			 <trkpt lat="59.429423" lon="24.687727">
				 <ele>10.7</ele>
			 </trkpt>
			 <trkpt lat="59.42926" lon="24.68566">
				 <ele>12.4</ele>
			 </trkpt>
			 <trkpt lat="59.42923" lon="24.68542">
				 <ele>14</ele>
			 </trkpt>
			 <trkpt lat="59.42913" lon="24.68446">
				 <ele>15.5</ele>
			 </trkpt>
			 <trkpt lat="59.429" lon="24.6844">
				 <ele>17</ele>
			 </trkpt>
			 <trkpt lat="59.42885" lon="24.68455">
				 <ele>18.1</ele>
			 </trkpt>
			 <trkpt lat="59.42875" lon="24.68477">
				 <ele>18.7</ele>
			 </trkpt>
			 <trkpt lat="59.42864" lon="24.68491">
				 <ele>18.8</ele>
			 </trkpt>
			 <trkpt lat="59.42817" lon="24.68429">
				 <ele>18.6</ele>
			 </trkpt>
			 <trkpt lat="59.42808" lon="24.6842">
				 <ele>18.3</ele>
			 </trkpt>
			 <trkpt lat="59.42795" lon="24.68408">
				 <ele>17.6</ele>
			 </trkpt>
			 <trkpt lat="59.42738" lon="24.68337">
				 <ele>16.4</ele>
			 </trkpt>
			 <trkpt lat="59.42738" lon="24.68316">
				 <ele>14.9</ele>
			 </trkpt>
			 <trkpt lat="59.42696" lon="24.68266">
				 <ele>13.4</ele>
			 </trkpt>
			 <trkpt lat="59.42298" lon="24.67803">
				 <ele>12</ele>
			 </trkpt>
			 <trkpt lat="59.41952" lon="24.67397">
				 <ele>10.6</ele>
			 </trkpt>
			 <trkpt lat="59.41934" lon="24.6735">
				 <ele>9.6</ele>
			 </trkpt>
			 <trkpt lat="59.41926" lon="24.6734">
				 <ele>9</ele>
			 </trkpt>
			 <trkpt lat="59.42012" lon="24.67113">
				 <ele>10.3</ele>
			 </trkpt>
			 <trkpt lat="59.42028" lon="24.67043">
				 <ele>11.5</ele>
			 </trkpt>
			 <trkpt lat="59.4205" lon="24.66965">
				 <ele>12.6</ele>
			 </trkpt>
			 <trkpt lat="59.42108" lon="24.66796">
				 <ele>13.6</ele>
			 </trkpt>
			 <trkpt lat="59.42145" lon="24.66755">
				 <ele>14.7</ele>
			 </trkpt>
			 <trkpt lat="59.42205" lon="24.66726">
				 <ele>15.5</ele>
			 </trkpt>
			 <trkpt lat="59.422381" lon="24.667294">
				 <ele>16</ele>
			 </trkpt>
			 <trkpt lat="59.422712" lon="24.667328">
				 <ele>16.2</ele>
			 </trkpt>
			 <trkpt lat="59.422925" lon="24.667473">
				 <ele>16.5</ele>
			 </trkpt>
			 <trkpt lat="59.423137" lon="24.667617">
				 <ele>16.9</ele>
			 </trkpt>
			 <trkpt lat="59.423726" lon="24.668139">
				 <ele>17.3</ele>
			 </trkpt>
			 <trkpt lat="59.424315" lon="24.668661">
				 <ele>15.7</ele>
			 </trkpt>
			 <trkpt lat="59.424904" lon="24.669183">
				 <ele>14.3</ele>
			 </trkpt>
			 <trkpt lat="59.425493" lon="24.669705">
				 <ele>12.9</ele>
			 </trkpt>
			 <trkpt lat="59.426083" lon="24.670227">
				 <ele>11.8</ele>
			 </trkpt>
			 <trkpt lat="59.426672" lon="24.670749">
				 <ele>11.3</ele>
			 </trkpt>
			 <trkpt lat="59.427261" lon="24.671271">
				 <ele>11</ele>
			 </trkpt>
			 <trkpt lat="59.427792" lon="24.671742">
				 <ele>11.3</ele>
			 </trkpt>
			 <trkpt lat="59.427921" lon="24.671746">
				 <ele>11.8</ele>
			 </trkpt>
			 <trkpt lat="59.42805" lon="24.67175">
				 <ele>12.2</ele>
			 </trkpt>
			 <trkpt lat="59.42778" lon="24.66782">
				 <ele>12.2</ele>
			 </trkpt>
			 <trkpt lat="59.4277" lon="24.6669">
				 <ele>12.5</ele>
			 </trkpt>
			 <trkpt lat="59.4276" lon="24.66585">
				 <ele>13</ele>
			 </trkpt>
			 <trkpt lat="59.42734" lon="24.66384">
				 <ele>13.4</ele>
			 </trkpt>
			 <trkpt lat="59.42679" lon="24.66004">
				 <ele>13.7</ele>
			 </trkpt>
			 <trkpt lat="59.42634" lon="24.6579">
				 <ele>13.9</ele>
			 </trkpt>
			 <trkpt lat="59.42628" lon="24.65779">
				 <ele>13.4</ele>
			 </trkpt>
			 <trkpt lat="59.42597" lon="24.65639">
				 <ele>12.9</ele>
			 </trkpt>
			 <trkpt lat="59.42501" lon="24.65227">
				 <ele>12.5</ele>
			 </trkpt>
			 <trkpt lat="59.42493" lon="24.65208">
				 <ele>12.1</ele>
			 </trkpt>
			 <trkpt lat="59.42464" lon="24.65092">
				 <ele>11.8</ele>
			 </trkpt>
			 <trkpt lat="59.42407" lon="24.64873">
				 <ele>11.5</ele>
			 </trkpt>
			 <trkpt lat="59.42378" lon="24.64781">
				 <ele>10.9</ele>
			 </trkpt>
			 <trkpt lat="59.42342" lon="24.6468">
				 <ele>10.3</ele>
			 </trkpt>
			 <trkpt lat="59.42319" lon="24.64632">
				 <ele>9.8</ele>
			 </trkpt>
			 <trkpt lat="59.42317" lon="24.64628">
				 <ele>9.5</ele>
			 </trkpt>
			 <trkpt lat="59.42275" lon="24.64532">
				 <ele>9.2</ele>
			 </trkpt>
			 <trkpt lat="59.4211" lon="24.64182">
				 <ele>8.9</ele>
			 </trkpt>
			 <trkpt lat="59.42067" lon="24.64088">
				 <ele>8.6</ele>
			 </trkpt>
			 <trkpt lat="59.4204" lon="24.6403">
				 <ele>8.4</ele>
			 </trkpt>
			 <trkpt lat="59.42009" lon="24.63982">
				 <ele>7.9</ele>
			 </trkpt>
			 <trkpt lat="59.41973" lon="24.6392">
				 <ele>7.5</ele>
			 </trkpt>
			 <trkpt lat="59.41948" lon="24.63871">
				 <ele>7.3</ele>
			 </trkpt>
			 <trkpt lat="59.41894" lon="24.63798">
				 <ele>7.4</ele>
			 </trkpt>
			 <trkpt lat="59.41808" lon="24.63727">
				 <ele>7.6</ele>
			 </trkpt>
			 <trkpt lat="59.41608" lon="24.63554">
				 <ele>7.9</ele>
			 </trkpt>
			 <trkpt lat="59.41582" lon="24.6353">
				 <ele>8.1</ele>
			 </trkpt>
			 <trkpt lat="59.41504" lon="24.63463">
				 <ele>8.4</ele>
			 </trkpt>
			 <trkpt lat="59.41404" lon="24.63395">
				 <ele>8.8</ele>
			 </trkpt>
			 <trkpt lat="59.41365" lon="24.63386">
				 <ele>9.2</ele>
			 </trkpt>
			 <trkpt lat="59.41253" lon="24.63368">
				 <ele>9.5</ele>
			 </trkpt>
			 <trkpt lat="59.412" lon="24.63351">
				 <ele>9.9</ele>
			 </trkpt>
			 <trkpt lat="59.41171" lon="24.63335">
				 <ele>10.6</ele>
			 </trkpt>
			 <trkpt lat="59.41147" lon="24.6332">
				 <ele>11.6</ele>
			 </trkpt>
			 <trkpt lat="59.41102" lon="24.63297">
				 <ele>12.6</ele>
			 </trkpt>
			 <trkpt lat="59.41053" lon="24.63243">
				 <ele>13.8</ele>
			 </trkpt>
			 <trkpt lat="59.41044" lon="24.63222">
				 <ele>15.4</ele>
			 </trkpt>
			 <trkpt lat="59.40995" lon="24.6314">
				 <ele>17.2</ele>
			 </trkpt>
			 <trkpt lat="59.40929" lon="24.62994">
				 <ele>19.2</ele>
			 </trkpt>
			 <trkpt lat="59.40888" lon="24.62877">
				 <ele>21.4</ele>
			 </trkpt>
			 <trkpt lat="59.4085" lon="24.62751">
				 <ele>23.5</ele>
			 </trkpt>
			 <trkpt lat="59.40822" lon="24.62655">
				 <ele>25.8</ele>
			 </trkpt>
			 <trkpt lat="59.40775" lon="24.62415">
				 <ele>28</ele>
			 </trkpt>
			 <trkpt lat="59.40761" lon="24.62239">
				 <ele>29.9</ele>
			 </trkpt>
			 <trkpt lat="59.40754" lon="24.62173">
				 <ele>31.5</ele>
			 </trkpt>
			 <trkpt lat="59.40725" lon="24.61985">
				 <ele>32.8</ele>
			 </trkpt>
			 <trkpt lat="59.40712" lon="24.61907">
				 <ele>33.7</ele>
			 </trkpt>
			 <trkpt lat="59.40696" lon="24.61851">
				 <ele>34.2</ele>
			 </trkpt>
			 <trkpt lat="59.40652" lon="24.61733">
				 <ele>33.3</ele>
			 </trkpt>
			 <trkpt lat="59.40626" lon="24.61673">
				 <ele>32.3</ele>
			 </trkpt>
			 <trkpt lat="59.40596" lon="24.61617">
				 <ele>31.3</ele>
			 </trkpt>
			 <trkpt lat="59.40505" lon="24.61457">
				 <ele>30.5</ele>
			 </trkpt>
			 <trkpt lat="59.40418" lon="24.61283">
				 <ele>29.9</ele>
			 </trkpt>
			 <trkpt lat="59.4031" lon="24.6106">
				 <ele>29.4</ele>
			 </trkpt>
			 <trkpt lat="59.402875" lon="24.610318">
				 <ele>28.8</ele>
			 </trkpt>
			 <trkpt lat="59.40265" lon="24.610036">
				 <ele>28.4</ele>
			 </trkpt>
			 <trkpt lat="59.402135" lon="24.609406">
				 <ele>28.1</ele>
			 </trkpt>
			 <trkpt lat="59.401619" lon="24.608776">
				 <ele>28.1</ele>
			 </trkpt>
			 <trkpt lat="59.401499" lon="24.608625">
				 <ele>28.3</ele>
			 </trkpt>
			 <trkpt lat="59.40138" lon="24.608473">
				 <ele>29.5</ele>
			 </trkpt>
			 <trkpt lat="59.401291" lon="24.608321">
				 <ele>30.7</ele>
			 </trkpt>
			 <trkpt lat="59.401202" lon="24.608169">
				 <ele>31.7</ele>
			 </trkpt>
			 <trkpt lat="59.400795" lon="24.607456">
				 <ele>32.5</ele>
			 </trkpt>
			 <trkpt lat="59.400387" lon="24.606743">
				 <ele>33.2</ele>
			 </trkpt>
			 <trkpt lat="59.399965" lon="24.605781">
				 <ele>33.8</ele>
			 </trkpt>
			 <trkpt lat="59.399543" lon="24.604819">
				 <ele>34.5</ele>
			 </trkpt>
			 <trkpt lat="59.399445" lon="24.604596">
				 <ele>35</ele>
			 </trkpt>
			 <trkpt lat="59.399217" lon="24.604003">
				 <ele>35.4</ele>
			 </trkpt>
			 <trkpt lat="59.39899" lon="24.60341">
				 <ele>35.5</ele>
			 </trkpt>
			 <trkpt lat="59.398635" lon="24.602348">
				 <ele>35.6</ele>
			 </trkpt>
			 <trkpt lat="59.39828" lon="24.601287">
				 <ele>35.5</ele>
			 </trkpt>
			 <trkpt lat="59.398175" lon="24.600974">
				 <ele>35.3</ele>
			 </trkpt>
			 <trkpt lat="59.397786" lon="24.599959">
				 <ele>34.9</ele>
			 </trkpt>
			 <trkpt lat="59.397397" lon="24.598944">
				 <ele>34.4</ele>
			 </trkpt>
			 <trkpt lat="59.397328" lon="24.598764">
				 <ele>33.9</ele>
			 </trkpt>
			 <trkpt lat="59.396917" lon="24.597785">
				 <ele>33.4</ele>
			 </trkpt>
			 <trkpt lat="59.396505" lon="24.596805">
				 <ele>32.8</ele>
			 </trkpt>
			 <trkpt lat="59.396093" lon="24.595825">
				 <ele>32.3</ele>
			 </trkpt>
			 <trkpt lat="59.395777" lon="24.595073">
				 <ele>31.8</ele>
			 </trkpt>
			 <trkpt lat="59.395673" lon="24.594907">
				 <ele>31.5</ele>
			 </trkpt>
			 <trkpt lat="59.39557" lon="24.594741">
				 <ele>31.1</ele>
			 </trkpt>
			 <trkpt lat="59.395474" lon="24.594778">
				 <ele>31.1</ele>
			 </trkpt>
			 <trkpt lat="59.395379" lon="24.594816">
				 <ele>31.1</ele>
			 </trkpt>
			 <trkpt lat="59.395209" lon="24.595245">
				 <ele>31.5</ele>
			 </trkpt>
			 <trkpt lat="59.39504" lon="24.595674">
				 <ele>31.9</ele>
			 </trkpt>
			 <trkpt lat="59.394738" lon="24.596797">
				 <ele>32.3</ele>
			 </trkpt>
			 <trkpt lat="59.394435" lon="24.597921">
				 <ele>32.6</ele>
			 </trkpt>
			 <trkpt lat="59.394311" lon="24.598196">
				 <ele>33</ele>
			 </trkpt>
			 <trkpt lat="59.394188" lon="24.598464">
				 <ele>33.1</ele>
			 </trkpt>
			 <trkpt lat="59.39415" lon="24.598662">
				 <ele>33.4</ele>
			 </trkpt>
			 <trkpt lat="59.394111" lon="24.598861">
				 <ele>33.5</ele>
			 </trkpt>
			 <trkpt lat="59.394111" lon="24.599038">
				 <ele>33.8</ele>
			 </trkpt>
			 <trkpt lat="59.394111" lon="24.599215">
				 <ele>34</ele>
			 </trkpt>
			 <trkpt lat="59.393818" lon="24.600347">
				 <ele>34.1</ele>
			 </trkpt>
			 <trkpt lat="59.393525" lon="24.60148">
				 <ele>34</ele>
			 </trkpt>
			 <trkpt lat="59.393232" lon="24.602612">
				 <ele>33.9</ele>
			 </trkpt>
			 <trkpt lat="59.392938" lon="24.603744">
				 <ele>33.8</ele>
			 </trkpt>
			 <trkpt lat="59.392645" lon="24.604877">
				 <ele>33.7</ele>
			 </trkpt>
			 <trkpt lat="59.3925" lon="24.605438">
				 <ele>33.5</ele>
			 </trkpt>
			 <trkpt lat="59.392437" lon="24.605647">
				 <ele>33.6</ele>
			 </trkpt>
			 <trkpt lat="59.392374" lon="24.605856">
				 <ele>33.6</ele>
			 </trkpt>
			 <trkpt lat="59.3923" lon="24.606215">
				 <ele>33.7</ele>
			 </trkpt>
			 <trkpt lat="59.392227" lon="24.606575">
				 <ele>33.6</ele>
			 </trkpt>
			 <trkpt lat="59.392188" lon="24.606757">
				 <ele>33.5</ele>
			 </trkpt>
			 <trkpt lat="59.39215" lon="24.60694">
				 <ele>33.5</ele>
			 </trkpt>
			 <trkpt lat="59.392074" lon="24.607058">
				 <ele>33.4</ele>
			 </trkpt>
			 <trkpt lat="59.391997" lon="24.607176">
				 <ele>33.2</ele>
			 </trkpt>
			 <trkpt lat="59.39197" lon="24.607428">
				 <ele>33.3</ele>
			 </trkpt>
			 <trkpt lat="59.391943" lon="24.60768">
				 <ele>33.3</ele>
			 </trkpt>
			 <trkpt lat="59.391891" lon="24.607943">
				 <ele>33.4</ele>
			 </trkpt>
			 <trkpt lat="59.391839" lon="24.608206">
				 <ele>33.6</ele>
			 </trkpt>
			 <trkpt lat="59.39153" lon="24.609321">
				 <ele>34.2</ele>
			 </trkpt>
			 <trkpt lat="59.39122" lon="24.610437">
				 <ele>34.7</ele>
			 </trkpt>
			 <trkpt lat="59.390911" lon="24.611553">
				 <ele>35.5</ele>
			 </trkpt>
			 <trkpt lat="59.390866" lon="24.611714">
				 <ele>36.4</ele>
			 </trkpt>
			 <trkpt lat="59.390585" lon="24.612858">
				 <ele>37.2</ele>
			 </trkpt>
			 <trkpt lat="59.390304" lon="24.614002">
				 <ele>38</ele>
			 </trkpt>
			 <trkpt lat="59.390023" lon="24.615146">
				 <ele>39</ele>
			 </trkpt>
			 <trkpt lat="59.389742" lon="24.61629">
				 <ele>39.8</ele>
			 </trkpt>
			 <trkpt lat="59.389722" lon="24.61637">
				 <ele>40.7</ele>
			 </trkpt>
			 <trkpt lat="59.389637" lon="24.616593">
				 <ele>41.6</ele>
			 </trkpt>
			 <trkpt lat="59.389553" lon="24.616815">
				 <ele>42.3</ele>
			 </trkpt>
			 <trkpt lat="59.38946" lon="24.617207">
				 <ele>42.8</ele>
			 </trkpt>
			 <trkpt lat="59.389367" lon="24.617599">
				 <ele>43.3</ele>
			 </trkpt>
			 <trkpt lat="59.389333" lon="24.61769">
				 <ele>43.5</ele>
			 </trkpt>
			 <trkpt lat="59.389299" lon="24.617781">
				 <ele>43.8</ele>
			 </trkpt>
			 <trkpt lat="59.389243" lon="24.617878">
				 <ele>44.1</ele>
			 </trkpt>
			 <trkpt lat="59.389187" lon="24.617974">
				 <ele>44.5</ele>
			 </trkpt>
			 <trkpt lat="59.38918" lon="24.618111">
				 <ele>44.7</ele>
			 </trkpt>
			 <trkpt lat="59.389173" lon="24.618248">
				 <ele>44.7</ele>
			 </trkpt>
			 <trkpt lat="59.389121" lon="24.618604">
				 <ele>44.7</ele>
			 </trkpt>
			 <trkpt lat="59.389069" lon="24.618961">
				 <ele>44.8</ele>
			 </trkpt>
			 <trkpt lat="59.388913" lon="24.619492">
				 <ele>44.8</ele>
			 </trkpt>
			 <trkpt lat="59.388758" lon="24.620023">
				 <ele>44.6</ele>
			 </trkpt>
			 <trkpt lat="59.388472" lon="24.621164">
				 <ele>44.5</ele>
			 </trkpt>
			 <trkpt lat="59.388187" lon="24.622304">
				 <ele>44.4</ele>
			 </trkpt>
			 <trkpt lat="59.387902" lon="24.623444">
				 <ele>44.5</ele>
			 </trkpt>
			 <trkpt lat="59.387617" lon="24.624584">
				 <ele>44.6</ele>
			 </trkpt>
			 <trkpt lat="59.38757" lon="24.62477">
				 <ele>44.7</ele>
			 </trkpt>
			 <trkpt lat="59.387379" lon="24.625316">
				 <ele>44.7</ele>
			 </trkpt>
			 <trkpt lat="59.387189" lon="24.625861">
				 <ele>44.8</ele>
			 </trkpt>
			 <trkpt lat="59.386961" lon="24.626316">
				 <ele>44.9</ele>
			 </trkpt>
			 <trkpt lat="59.386733" lon="24.626771">
				 <ele>44.9</ele>
			 </trkpt>
			 <trkpt lat="59.386677" lon="24.626976">
				 <ele>45</ele>
			 </trkpt>
			 <trkpt lat="59.386621" lon="24.627181">
				 <ele>45.2</ele>
			 </trkpt>
			 <trkpt lat="59.386586" lon="24.627428">
				 <ele>45.4</ele>
			 </trkpt>
			 <trkpt lat="59.386552" lon="24.627674">
				 <ele>45.7</ele>
			 </trkpt>
			 <trkpt lat="59.386559" lon="24.627871">
				 <ele>45.8</ele>
			 </trkpt>
			 <trkpt lat="59.386567" lon="24.628069">
				 <ele>45.7</ele>
			 </trkpt>
			 <trkpt lat="59.386584" lon="24.628254">
				 <ele>45.4</ele>
			 </trkpt>
			 <trkpt lat="59.3866" lon="24.62844">
				 <ele>45.1</ele>
			 </trkpt>
			 <trkpt lat="59.38668" lon="24.62809">
				 <ele>44.8</ele>
			 </trkpt>
			 <trkpt lat="59.387" lon="24.62699">
				 <ele>44.6</ele>
			 </trkpt>
			 <trkpt lat="59.38729" lon="24.62631">
				 <ele>44.5</ele>
			 </trkpt>
			 <trkpt lat="59.38745" lon="24.62601">
				 <ele>44.5</ele>
			 </trkpt>
			 <trkpt lat="59.387685" lon="24.6257">
				 <ele>44.5</ele>
			 </trkpt>
			 <trkpt lat="59.387919" lon="24.625391">
				 <ele>44.4</ele>
			 </trkpt>
			 <trkpt lat="59.388182" lon="24.625152">
				 <ele>44.2</ele>
			 </trkpt>
			 <trkpt lat="59.388445" lon="24.624913">
				 <ele>44</ele>
			 </trkpt>
			 <trkpt lat="59.388627" lon="24.624836">
				 <ele>43.6</ele>
			 </trkpt>
			 <trkpt lat="59.38881" lon="24.62476">
				 <ele>43.4</ele>
			 </trkpt>
			 <trkpt lat="59.38907" lon="24.6247">
				 <ele>42.7</ele>
			 </trkpt>
			 <trkpt lat="59.38977" lon="24.62484">
				 <ele>42.2</ele>
			 </trkpt>
			 <trkpt lat="59.39038" lon="24.62518">
				 <ele>41.4</ele>
			 </trkpt>
			 <trkpt lat="59.39075" lon="24.6254">
				 <ele>40.2</ele>
			 </trkpt>
			 <trkpt lat="59.39125" lon="24.62579">
				 <ele>39</ele>
			 </trkpt>
			 <trkpt lat="59.39193" lon="24.62645">
				 <ele>37.9</ele>
			 </trkpt>
			 <trkpt lat="59.39269" lon="24.62762">
				 <ele>36.8</ele>
			 </trkpt>
			 <trkpt lat="59.39282" lon="24.62792">
				 <ele>35.5</ele>
			 </trkpt>
			 <trkpt lat="59.39327" lon="24.62904">
				 <ele>34.1</ele>
			 </trkpt>
			 <trkpt lat="59.39378" lon="24.63105">
				 <ele>33</ele>
			 </trkpt>
			 <trkpt lat="59.39509" lon="24.63817">
				 <ele>32.2</ele>
			 </trkpt>
			 <trkpt lat="59.39539" lon="24.63972">
				 <ele>31.7</ele>
			 </trkpt>
			 <trkpt lat="59.39612" lon="24.6418">
				 <ele>31.2</ele>
			 </trkpt>
			 <trkpt lat="59.39704" lon="24.64326">
				 <ele>30.5</ele>
			 </trkpt>
			 <trkpt lat="59.39726" lon="24.64351">
				 <ele>29.5</ele>
			 </trkpt>
			 <trkpt lat="59.39786" lon="24.64402">
				 <ele>28.5</ele>
			 </trkpt>
			 <trkpt lat="59.39828" lon="24.6443">
				 <ele>27.1</ele>
			 </trkpt>
			 <trkpt lat="59.39875" lon="24.64446">
				 <ele>25.6</ele>
			 </trkpt>
			 <trkpt lat="59.39892" lon="24.64451">
				 <ele>24.2</ele>
			 </trkpt>
			 <trkpt lat="59.39985" lon="24.64452">
				 <ele>23</ele>
			 </trkpt>
			 <trkpt lat="59.40039" lon="24.64433">
				 <ele>21.6</ele>
			 </trkpt>
			 <trkpt lat="59.40072" lon="24.64416">
				 <ele>20.2</ele>
			 </trkpt>
			 <trkpt lat="59.40089" lon="24.64407">
				 <ele>18.7</ele>
			 </trkpt>
			 <trkpt lat="59.40163" lon="24.64372">
				 <ele>17.4</ele>
			 </trkpt>
			 <trkpt lat="59.40231" lon="24.64356">
				 <ele>16.3</ele>
			 </trkpt>
			 <trkpt lat="59.40266" lon="24.64355">
				 <ele>15.6</ele>
			 </trkpt>
			 <trkpt lat="59.40334" lon="24.64371">
				 <ele>15.2</ele>
			 </trkpt>
			 <trkpt lat="59.40378" lon="24.64391">
				 <ele>14.6</ele>
			 </trkpt>
			 <trkpt lat="59.40408" lon="24.64409">
				 <ele>14.4</ele>
			 </trkpt>
			 <trkpt lat="59.40535" lon="24.64519">
				 <ele>14.2</ele>
			 </trkpt>
			 <trkpt lat="59.40611" lon="24.64607">
				 <ele>13.9</ele>
			 </trkpt>
			 <trkpt lat="59.40601" lon="24.64555">
				 <ele>13.5</ele>
			 </trkpt>
			 <trkpt lat="59.40575" lon="24.64407">
				 <ele>13.1</ele>
			 </trkpt>
			 <trkpt lat="59.40571" lon="24.64363">
				 <ele>12.8</ele>
			 </trkpt>
			 <trkpt lat="59.405776" lon="24.642366">
				 <ele>12.5</ele>
			 </trkpt>
			 <trkpt lat="59.405843" lon="24.641103">
				 <ele>12.2</ele>
			 </trkpt>
			 <trkpt lat="59.405909" lon="24.639839">
				 <ele>11.9</ele>
			 </trkpt>
			 <trkpt lat="59.405975" lon="24.638575">
				 <ele>11.7</ele>
			 </trkpt>
			 <trkpt lat="59.406042" lon="24.637311">
				 <ele>11.8</ele>
			 </trkpt>
			 <trkpt lat="59.406108" lon="24.636048">
				 <ele>11.5</ele>
			 </trkpt>
			 <trkpt lat="59.406175" lon="24.634784">
				 <ele>11.1</ele>
			 </trkpt>
			 <trkpt lat="59.406241" lon="24.63352">
				 <ele>10.7</ele>
			 </trkpt>
			 <trkpt lat="59.406307" lon="24.632257">
				 <ele>10.6</ele>
			 </trkpt>
			 <trkpt lat="59.406374" lon="24.630993">
				 <ele>10.5</ele>
			 </trkpt>
			 <trkpt lat="59.40644" lon="24.629729">
				 <ele>10.5</ele>
			 </trkpt>
			 <trkpt lat="59.406506" lon="24.628466">
				 <ele>10.2</ele>
			 </trkpt>
			 <trkpt lat="59.406573" lon="24.627202">
				 <ele>10.1</ele>
			 </trkpt>
			 <trkpt lat="59.406639" lon="24.625938">
				 <ele>9.9</ele>
			 </trkpt>
			 <trkpt lat="59.406705" lon="24.624674">
				 <ele>9.6</ele>
			 </trkpt>
			 <trkpt lat="59.406772" lon="24.623411">
				 <ele>9.4</ele>
			 </trkpt>
			 <trkpt lat="59.406838" lon="24.622147">
				 <ele>9.3</ele>
			 </trkpt>
			 <trkpt lat="59.406905" lon="24.620883">
				 <ele>9.3</ele>
			 </trkpt>
			 <trkpt lat="59.406967" lon="24.619693">
				 <ele>9.3</ele>
			 </trkpt>
			 <trkpt lat="59.40699" lon="24.619784">
				 <ele>9.3</ele>
			 </trkpt>
			 <trkpt lat="59.407013" lon="24.619875">
				 <ele>9.2</ele>
			 </trkpt>
			 <trkpt lat="59.40706" lon="24.620042">
				 <ele>9</ele>
			 </trkpt>
			 <trkpt lat="59.407106" lon="24.620209">
				 <ele>9.3</ele>
			 </trkpt>
			 <trkpt lat="59.407118" lon="24.620384">
				 <ele>9.4</ele>
			 </trkpt>
			 <trkpt lat="59.407129" lon="24.620558">
				 <ele>9.5</ele>
			 </trkpt>
			 <trkpt lat="59.407251" lon="24.620748">
				 <ele>9.6</ele>
			 </trkpt>
			 <trkpt lat="59.407372" lon="24.620937">
				 <ele>9.7</ele>
			 </trkpt>
			 <trkpt lat="59.407454" lon="24.621742">
				 <ele>9.7</ele>
			 </trkpt>
			 <trkpt lat="59.407535" lon="24.622546">
				 <ele>9.6</ele>
			 </trkpt>
			 <trkpt lat="59.407565" lon="24.623191">
				 <ele>9.5</ele>
			 </trkpt>
			 <trkpt lat="59.407596" lon="24.623835">
				 <ele>9.4</ele>
			 </trkpt>
			 <trkpt lat="59.407688" lon="24.624598">
				 <ele>9.2</ele>
			 </trkpt>
			 <trkpt lat="59.40778" lon="24.62536">
				 <ele>9</ele>
			 </trkpt>
			 <trkpt lat="59.407833" lon="24.625728">
				 <ele>8.6</ele>
			 </trkpt>
			 <trkpt lat="59.407886" lon="24.626096">
				 <ele>8.2</ele>
			 </trkpt>
			 <trkpt lat="59.408073" lon="24.626764">
				 <ele>7.8</ele>
			 </trkpt>
			 <trkpt lat="59.40826" lon="24.627431">
				 <ele>7.4</ele>
			 </trkpt>
			 <trkpt lat="59.408301" lon="24.62753">
				 <ele>7</ele>
			 </trkpt>
			 <trkpt lat="59.408342" lon="24.627629">
				 <ele>6.9</ele>
			 </trkpt>
			 <trkpt lat="59.408475" lon="24.628069">
				 <ele>6.9</ele>
			 </trkpt>
			 <trkpt lat="59.408608" lon="24.628509">
				 <ele>6.9</ele>
			 </trkpt>
			 <trkpt lat="59.408669" lon="24.628844">
				 <ele>7.1</ele>
			 </trkpt>
			 <trkpt lat="59.40873" lon="24.62918">
				 <ele>7.1</ele>
			 </trkpt>
			 <trkpt lat="59.40892" lon="24.62975">
				 <ele>7.1</ele>
			 </trkpt>
			 <trkpt lat="59.4093" lon="24.63078">
				 <ele>7.3</ele>
			 </trkpt>
			 <trkpt lat="59.40946" lon="24.6311">
				 <ele>7.5</ele>
			 </trkpt>
			 <trkpt lat="59.40963" lon="24.63143">
				 <ele>7.7</ele>
			 </trkpt>
			 <trkpt lat="59.40993" lon="24.63178">
				 <ele>7.8</ele>
			 </trkpt>
			 <trkpt lat="59.40993" lon="24.63205">
				 <ele>8</ele>
			 </trkpt>
			 <trkpt lat="59.41015" lon="24.6325">
				 <ele>7.9</ele>
			 </trkpt>
			 <trkpt lat="59.411016" lon="24.633589">
				 <ele>7.8</ele>
			 </trkpt>
			 <trkpt lat="59.411599" lon="24.633836">
				 <ele>7.7</ele>
			 </trkpt>
			 <trkpt lat="59.412181" lon="24.634084">
				 <ele>7.6</ele>
			 </trkpt>
			 <trkpt lat="59.412564" lon="24.634212">
				 <ele>7.9</ele>
			 </trkpt>
			 <trkpt lat="59.412946" lon="24.634341">
				 <ele>8.3</ele>
			 </trkpt>
			 <trkpt lat="59.413044" lon="24.634271">
				 <ele>8.5</ele>
			 </trkpt>
			 <trkpt lat="59.413142" lon="24.634202">
				 <ele>8.5</ele>
			 </trkpt>
			 <trkpt lat="59.413636" lon="24.634293">
				 <ele>8.8</ele>
			 </trkpt>
			 <trkpt lat="59.41413" lon="24.634384">
				 <ele>9.3</ele>
			 </trkpt>
			 <trkpt lat="59.414337" lon="24.634548">
				 <ele>9.5</ele>
			 </trkpt>
			 <trkpt lat="59.414543" lon="24.634712">
				 <ele>10</ele>
			 </trkpt>
			 <trkpt lat="59.415917" lon="24.635933">
				 <ele>10.5</ele>
			 </trkpt>
			 <trkpt lat="59.416917" lon="24.636745">
				 <ele>11.1</ele>
			 </trkpt>
			 <trkpt lat="59.417342" lon="24.63742">
				 <ele>11.6</ele>
			 </trkpt>
			 <trkpt lat="59.418706" lon="24.638553">
				 <ele>11.9</ele>
			 </trkpt>
			 <trkpt lat="59.418921" lon="24.638952">
				 <ele>12.2</ele>
			 </trkpt>
			 <trkpt lat="59.419136" lon="24.639351">
				 <ele>12.5</ele>
			 </trkpt>
			 <trkpt lat="59.419559" lon="24.639775">
				 <ele>13</ele>
			 </trkpt>
			 <trkpt lat="59.419982" lon="24.640199">
				 <ele>13.4</ele>
			 </trkpt>
			 <trkpt lat="59.420263" lon="24.640784">
				 <ele>13.6</ele>
			 </trkpt>
			 <trkpt lat="59.420544" lon="24.641368">
				 <ele>13.9</ele>
			 </trkpt>
			 <trkpt lat="59.420932" lon="24.642232">
				 <ele>14</ele>
			 </trkpt>
			 <trkpt lat="59.421319" lon="24.643096">
				 <ele>14</ele>
			 </trkpt>
			 <trkpt lat="59.421486" lon="24.64353">
				 <ele>14</ele>
			 </trkpt>
			 <trkpt lat="59.421652" lon="24.643965">
				 <ele>14</ele>
			 </trkpt>
			 <trkpt lat="59.421879" lon="24.644469">
				 <ele>14.1</ele>
			 </trkpt>
			 <trkpt lat="59.422105" lon="24.644973">
				 <ele>14.2</ele>
			 </trkpt>
			 <trkpt lat="59.422234" lon="24.645311">
				 <ele>14.4</ele>
			 </trkpt>
			 <trkpt lat="59.422362" lon="24.645649">
				 <ele>14.5</ele>
			 </trkpt>
			 <trkpt lat="59.422506" lon="24.64579">
				 <ele>14.7</ele>
			 </trkpt>
			 <trkpt lat="59.42265" lon="24.64593">
				 <ele>14.9</ele>
			 </trkpt>
			 <trkpt lat="59.422825" lon="24.646621">
				 <ele>15.1</ele>
			 </trkpt>
			 <trkpt lat="59.423" lon="24.647312">
				 <ele>15.4</ele>
			 </trkpt>
			 <trkpt lat="59.42324" lon="24.647516">
				 <ele>15.5</ele>
			 </trkpt>
			 <trkpt lat="59.423481" lon="24.64772">
				 <ele>15.6</ele>
			 </trkpt>
			 <trkpt lat="59.423661" lon="24.64757">
				 <ele>15.6</ele>
			 </trkpt>
			 <trkpt lat="59.423841" lon="24.647419">
				 <ele>15.6</ele>
			 </trkpt>
			 <trkpt lat="59.423792" lon="24.646937">
				 <ele>15.6</ele>
			 </trkpt>
			 <trkpt lat="59.423743" lon="24.646454">
				 <ele>15.6</ele>
			 </trkpt>
			 <trkpt lat="59.423759" lon="24.645778">
				 <ele>15.5</ele>
			 </trkpt>
			 <trkpt lat="59.423775" lon="24.645102">
				 <ele>15.2</ele>
			 </trkpt>
			 <trkpt lat="59.423971" lon="24.643891">
				 <ele>15</ele>
			 </trkpt>
			 <trkpt lat="59.424166" lon="24.64268">
				 <ele>15</ele>
			 </trkpt>
			 <trkpt lat="59.424354" lon="24.641519">
				 <ele>15.1</ele>
			 </trkpt>
			 <trkpt lat="59.424578" lon="24.640327">
				 <ele>15.3</ele>
			 </trkpt>
			 <trkpt lat="59.424801" lon="24.639135">
				 <ele>15.5</ele>
			 </trkpt>
			 <trkpt lat="59.425025" lon="24.637943">
				 <ele>16</ele>
			 </trkpt>
			 <trkpt lat="59.42514" lon="24.63733">
				 <ele>16.4</ele>
			 </trkpt>
			 <trkpt lat="59.425452" lon="24.636218">
				 <ele>16.6</ele>
			 </trkpt>
			 <trkpt lat="59.425765" lon="24.635106">
				 <ele>16.8</ele>
			 </trkpt>
			 <trkpt lat="59.426077" lon="24.633994">
				 <ele>17.6</ele>
			 </trkpt>
			 <trkpt lat="59.42639" lon="24.632882">
				 <ele>18.5</ele>
			 </trkpt>
			 <trkpt lat="59.426646" lon="24.63197">
				 <ele>19.4</ele>
			 </trkpt>
			 <trkpt lat="59.426808" lon="24.63181">
				 <ele>20.2</ele>
			 </trkpt>
			 <trkpt lat="59.42697" lon="24.63165">
				 <ele>20.9</ele>
			 </trkpt>
			 <trkpt lat="59.4273" lon="24.6321">
				 <ele>21.6</ele>
			 </trkpt>
			 <trkpt lat="59.42951" lon="24.63514">
				 <ele>22.5</ele>
			 </trkpt>
			 <trkpt lat="59.43106" lon="24.63723">
				 <ele>23.3</ele>
			 </trkpt>
			 <trkpt lat="59.43089" lon="24.63869">
				 <ele>24</ele>
			 </trkpt>
			 <trkpt lat="59.43087" lon="24.63898">
				 <ele>24.5</ele>
			 </trkpt>
			 <trkpt lat="59.43077" lon="24.64132">
				 <ele>24.8</ele>
			 </trkpt>
			 <trkpt lat="59.43051" lon="24.64867">
				 <ele>24.5</ele>
			 </trkpt>
			 <trkpt lat="59.43057" lon="24.65001">
				 <ele>23.2</ele>
			 </trkpt>
			 <trkpt lat="59.43057" lon="24.65017">
				 <ele>21.6</ele>
			 </trkpt>
			 <trkpt lat="59.43062" lon="24.65062">
				 <ele>19.8</ele>
			 </trkpt>
			 <trkpt lat="59.43071" lon="24.65128">
				 <ele>17.9</ele>
			 </trkpt>
			 <trkpt lat="59.43072" lon="24.6517">
				 <ele>16.1</ele>
			 </trkpt>
			 <trkpt lat="59.43066" lon="24.65196">
				 <ele>14</ele>
			 </trkpt>
			 <trkpt lat="59.43049" lon="24.6521">
				 <ele>11.9</ele>
			 </trkpt>
			 <trkpt lat="59.43032" lon="24.65238">
				 <ele>10</ele>
			 </trkpt>
			 <trkpt lat="59.42978" lon="24.65293">
				 <ele>8.4</ele>
			 </trkpt>
			 <trkpt lat="59.42953" lon="24.65319">
				 <ele>6.9</ele>
			 </trkpt>
			 <trkpt lat="59.42948" lon="24.65342">
				 <ele>5.5</ele>
			 </trkpt>
			 <trkpt lat="59.4295" lon="24.65381">
				 <ele>5.1</ele>
			 </trkpt>
			 <trkpt lat="59.42952" lon="24.65422">
				 <ele>5</ele>
			 </trkpt>
			 <trkpt lat="59.42931" lon="24.65514">
				 <ele>5</ele>
			 </trkpt>
			 <trkpt lat="59.4292" lon="24.65536">
				 <ele>5.1</ele>
			 </trkpt>
			 <trkpt lat="59.42913" lon="24.65568">
				 <ele>5.1</ele>
			 </trkpt>
			 <trkpt lat="59.42912" lon="24.65611">
				 <ele>5.2</ele>
			 </trkpt>
			 <trkpt lat="59.42908" lon="24.65621">
				 <ele>5.4</ele>
			 </trkpt>
			 <trkpt lat="59.42893" lon="24.65646">
				 <ele>5.5</ele>
			 </trkpt>
			 <trkpt lat="59.42887" lon="24.65695">
				 <ele>5.5</ele>
			 </trkpt>
			 <trkpt lat="59.42903" lon="24.66009">
				 <ele>5.5</ele>
			 </trkpt>
			 <trkpt lat="59.42901" lon="24.66021">
				 <ele>5.5</ele>
			 </trkpt>
			 <trkpt lat="59.42839" lon="24.66199">
				 <ele>5.5</ele>
			 </trkpt>
			 <trkpt lat="59.42834" lon="24.66236">
				 <ele>5.5</ele>
			 </trkpt>
			 <trkpt lat="59.42829" lon="24.66253">
				 <ele>5.5</ele>
			 </trkpt>
			 <trkpt lat="59.42801" lon="24.66312">
				 <ele>5.5</ele>
			 </trkpt>
			 <trkpt lat="59.42795" lon="24.66337">
				 <ele>5.7</ele>
			 </trkpt>
			 <trkpt lat="59.42799" lon="24.66394">
				 <ele>6</ele>
			 </trkpt>
			 <trkpt lat="59.42812" lon="24.66503">
				 <ele>5.9</ele>
			 </trkpt>
			 <trkpt lat="59.42855" lon="24.66902">
				 <ele>5.9</ele>
			 </trkpt>
			 <trkpt lat="59.42876" lon="24.66968">
				 <ele>5.9</ele>
			 </trkpt>
			 <trkpt lat="59.4291" lon="24.67045">
				 <ele>6</ele>
			 </trkpt>
			 <trkpt lat="59.42942" lon="24.67152">
				 <ele>6.2</ele>
			 </trkpt>
			 <trkpt lat="59.42961" lon="24.6719">
				 <ele>6.4</ele>
			 </trkpt>
			 <trkpt lat="59.43011" lon="24.67233">
				 <ele>6.5</ele>
			 </trkpt>
			 <trkpt lat="59.43068" lon="24.67284">
				 <ele>6.5</ele>
			 </trkpt>
			 <trkpt lat="59.43092" lon="24.67331">
				 <ele>6.4</ele>
			 </trkpt>
			 <trkpt lat="59.431" lon="24.67363">
				 <ele>6.4</ele>
			 </trkpt>
			 <trkpt lat="59.43155" lon="24.67676">
				 <ele>6.3</ele>
			 </trkpt>
			 <trkpt lat="59.4319" lon="24.67738">
				 <ele>6.5</ele>
			 </trkpt>
			 <trkpt lat="59.43222" lon="24.67749">
				 <ele>6.5</ele>
			 </trkpt>
			 <trkpt lat="59.4326" lon="24.67745">
				 <ele>6.6</ele>
			 </trkpt>
			 <trkpt lat="59.43287" lon="24.6774">
				 <ele>6.9</ele>
			 </trkpt>
			 <trkpt lat="59.43314" lon="24.67747">
				 <ele>7.2</ele>
			 </trkpt>
			 <trkpt lat="59.43324" lon="24.67783">
				 <ele>7.5</ele>
			 </trkpt>
			 <trkpt lat="59.43328" lon="24.67821">
				 <ele>7.6</ele>
			 </trkpt>
			 <trkpt lat="59.43345" lon="24.67852">
				 <ele>7.9</ele>
			 </trkpt>
			 <trkpt lat="59.43388" lon="24.6795">
				 <ele>8.1</ele>
			 </trkpt>
			 <trkpt lat="59.43408" lon="24.67998">
				 <ele>8.1</ele>
			 </trkpt>
			 <trkpt lat="59.43438" lon="24.68051">
				 <ele>8.2</ele>
			 </trkpt>
			 <trkpt lat="59.43462" lon="24.68062">
				 <ele>8.6</ele>
			 </trkpt>
			 <trkpt lat="59.43516" lon="24.68121">
				 <ele>9.4</ele>
			 </trkpt>
			 <trkpt lat="59.43586" lon="24.68178">
				 <ele>10</ele>
			 </trkpt>
			 <trkpt lat="59.4368" lon="24.68233">
				 <ele>10.4</ele>
			 </trkpt>
			 <trkpt lat="59.43787" lon="24.68291">
				 <ele>10.5</ele>
			 </trkpt>
			 <trkpt lat="59.43793" lon="24.68278">
				 <ele>10.5</ele>
			 </trkpt>
			 <trkpt lat="59.43801" lon="24.68278">
				 <ele>10.7</ele>
			 </trkpt>
			 <trkpt lat="59.43806" lon="24.68283">
				 <ele>11</ele>
			 </trkpt>
			 <trkpt lat="59.4381" lon="24.683">
				 <ele>11.3</ele>
			 </trkpt>
			 <trkpt lat="59.43863" lon="24.68334">
				 <ele>11.5</ele>
			 </trkpt>
			 <trkpt lat="59.4395" lon="24.68376">
				 <ele>11.8</ele>
			 </trkpt>
			 <trkpt lat="59.44044" lon="24.68425">
				 <ele>11.7</ele>
			 </trkpt>
			 <trkpt lat="59.44154" lon="24.68477">
				 <ele>11.3</ele>
			 </trkpt>
			 <trkpt lat="59.44233" lon="24.68512">
				 <ele>10.8</ele>
			 </trkpt>
			 <trkpt lat="59.44266" lon="24.68526">
				 <ele>10.3</ele>
			 </trkpt>
			 <trkpt lat="59.44407" lon="24.68586">
				 <ele>9.9</ele>
			 </trkpt>
			 <trkpt lat="59.44509" lon="24.68589">
				 <ele>9.7</ele>
			 </trkpt>
			 <trkpt lat="59.44653" lon="24.68582">
				 <ele>9.5</ele>
			 </trkpt>
			 <trkpt lat="59.44706" lon="24.68577">
				 <ele>9.4</ele>
			 </trkpt>
			 <trkpt lat="59.44775" lon="24.68568">
				 <ele>9.7</ele>
			 </trkpt>
			 <trkpt lat="59.448016" lon="24.68561">
				 <ele>10.1</ele>
			 </trkpt>
			 <trkpt lat="59.448282" lon="24.685539">
				 <ele>10.5</ele>
			 </trkpt>
			 <trkpt lat="59.448311" lon="24.68584">
				 <ele>10.8</ele>
			 </trkpt>
			 <trkpt lat="59.44834" lon="24.68614">
				 <ele>11.3</ele>
			 </trkpt>
			 <trkpt lat="59.44836" lon="24.68642">
				 <ele>11.7</ele>
			 </trkpt>
			 <trkpt lat="59.4484" lon="24.68664">
				 <ele>12.4</ele>
			 </trkpt>
			 <trkpt lat="59.44814" lon="24.68668">
				 <ele>13.2</ele>
			 </trkpt>
			 <trkpt lat="59.44732" lon="24.68685">
				 <ele>13.9</ele>
			 </trkpt>
			 <trkpt lat="59.44646" lon="24.68702">
				 <ele>14.5</ele>
			 </trkpt>
			 <trkpt lat="59.44486" lon="24.68736">
				 <ele>15.3</ele>
			 </trkpt>
			 <trkpt lat="59.44416" lon="24.68744">
				 <ele>15.6</ele>
			 </trkpt>
			 <trkpt lat="59.44371" lon="24.68732">
				 <ele>16</ele>
			 </trkpt>
			 <trkpt lat="59.44327" lon="24.68709">
				 <ele>16.3</ele>
			 </trkpt>
			 <trkpt lat="59.44238" lon="24.68667">
				 <ele>16.5</ele>
			 </trkpt>
			 <trkpt lat="59.44231" lon="24.68664">
				 <ele>16.6</ele>
			 </trkpt>
			 <trkpt lat="59.44222" lon="24.68685">
				 <ele>16.9</ele>
			 </trkpt>
			 <trkpt lat="59.44207" lon="24.68686">
				 <ele>17.1</ele>
			 </trkpt>
			 <trkpt lat="59.44196" lon="24.68755">
				 <ele>17.3</ele>
			 </trkpt>
			 <trkpt lat="59.44176" lon="24.68818">
				 <ele>17.5</ele>
			 </trkpt>
			 <trkpt lat="59.44177" lon="24.68877">
				 <ele>17.7</ele>
			 </trkpt>
			 <trkpt lat="59.440045" lon="24.702056">
				 <ele>18</ele>
			 </trkpt>
			 <trkpt lat="59.439449" lon="24.706647">
				 <ele>18.2</ele>
			 </trkpt>
			 <trkpt lat="59.440025" lon="24.708611">
				 <ele>18.4</ele>
			 </trkpt>
			 <trkpt lat="59.441354" lon="24.713736">
				 <ele>18.5</ele>
			 </trkpt>
			 <trkpt lat="59.44191" lon="24.71317">
				 <ele>18.7</ele>
			 </trkpt>
			 <trkpt lat="59.44225" lon="24.71314">
				 <ele>19</ele>
			 </trkpt>
			 <trkpt lat="59.443043" lon="24.712618">
				 <ele>19</ele>
			 </trkpt>
			 <trkpt lat="59.44426" lon="24.711854">
				 <ele>19.2</ele>
			 </trkpt>
			 <trkpt lat="59.446754" lon="24.710111">
				 <ele>19.4</ele>
			 </trkpt>
			 <trkpt lat="59.448277" lon="24.711994">
				 <ele>19.5</ele>
			 </trkpt>
			 <trkpt lat="59.447607" lon="24.71363">
				 <ele>19.5</ele>
			 </trkpt>
			 <trkpt lat="59.444701" lon="24.721332">
				 <ele>19.5</ele>
			 </trkpt>
			 <trkpt lat="59.44305" lon="24.724818">
				 <ele>19.4</ele>
			 </trkpt>
			 <trkpt lat="59.441551" lon="24.731141">
				 <ele>19.3</ele>
			 </trkpt>
			 <trkpt lat="59.441693" lon="24.732289">
				 <ele>19.2</ele>
			 </trkpt>
			 <trkpt lat="59.441802" lon="24.735068">
				 <ele>19.2</ele>
			 </trkpt>
			 <trkpt lat="59.44148" lon="24.736103">
				 <ele>19.1</ele>
			 </trkpt>
			 <trkpt lat="59.441158" lon="24.737139">
				 <ele>19.3</ele>
			 </trkpt>
			 <trkpt lat="59.441185" lon="24.737874">
				 <ele>19.5</ele>
			 </trkpt>
			 <trkpt lat="59.441212" lon="24.738609">
				 <ele>19.8</ele>
			 </trkpt>
			 <trkpt lat="59.44161" lon="24.740229">
				 <ele>20.3</ele>
			 </trkpt>
			 <trkpt lat="59.441739" lon="24.740391">
				 <ele>20.5</ele>
			 </trkpt>
			 <trkpt lat="59.441868" lon="24.740553">
				 <ele>20.6</ele>
			 </trkpt>
			 <trkpt lat="59.442063" lon="24.740792">
				 <ele>20.8</ele>
			 </trkpt>
			 <trkpt lat="59.442258" lon="24.741031">
				 <ele>21.1</ele>
			 </trkpt>
			 <trkpt lat="59.442463" lon="24.741745">
				 <ele>21.4</ele>
			 </trkpt>
			 <trkpt lat="59.442668" lon="24.74246">
				 <ele>21.5</ele>
			 </trkpt>
			 <trkpt lat="59.44256" lon="24.74278">
				 <ele>21.7</ele>
			 </trkpt>
			 <trkpt lat="59.44197" lon="24.74384">
				 <ele>21.8</ele>
			 </trkpt>
			 <trkpt lat="59.44138" lon="24.74236">
				 <ele>21.7</ele>
			 </trkpt>
			 <trkpt lat="59.44091" lon="24.74115">
				 <ele>21.5</ele>
			 </trkpt>
			 <trkpt lat="59.44026" lon="24.73928">
				 <ele>21.2</ele>
			 </trkpt>
			 <trkpt lat="59.43999" lon="24.73861">
				 <ele>21.3</ele>
			 </trkpt>
			 <trkpt lat="59.43953" lon="24.73712">
				 <ele>21.6</ele>
			 </trkpt>
			 <trkpt lat="59.43939" lon="24.73688">
				 <ele>22.1</ele>
			 </trkpt>
			 <trkpt lat="59.43872" lon="24.73532">
				 <ele>22.5</ele>
			 </trkpt>
			 <trkpt lat="59.43856" lon="24.73501">
				 <ele>22.8</ele>
			 </trkpt>
			 <trkpt lat="59.437402" lon="24.733686">
				 <ele>23.3</ele>
			 </trkpt>
			 <trkpt lat="59.43594" lon="24.732699">
				 <ele>23.9</ele>
			 </trkpt>
			 <trkpt lat="59.435285" lon="24.73287">
				 <ele>24.2</ele>
			 </trkpt>
			 <trkpt lat="59.435074" lon="24.732937">
				 <ele>24.7</ele>
			 </trkpt>
			 <trkpt lat="59.434863" lon="24.733004">
				 <ele>25.1</ele>
			 </trkpt>
			 <trkpt lat="59.434842" lon="24.733782">
				 <ele>25.7</ele>
			 </trkpt>
			 <trkpt lat="59.434821" lon="24.734559">
				 <ele>26.2</ele>
			 </trkpt>
		 </trkseg>
	 </trk>
</gpx>