<?xml version="1.0" encoding="UTF-8"?>
 <gpx creator="Garmin Connect" version="1.1"
	 xsi:schemaLocation="http://www.topografix.com/GPX/1/1 http://www.topografix.com/GPX/11.xsd"
	 xmlns:ns3="http://www.garmin.com/xmlschemas/TrackPointExtension/v1"
	 xmlns="http://www.topografix.com/GPX/1/1"
	 xmlns:xsi="http://www.w3.org/2001/XMLSchema-instance" xmlns:ns2="http://www.garmin.com/xmlschemas/GpxExtensions/v3">
	 <metadata>
		<name>The Woodlands Marathon 2025 - 42.195 km</name>
		 <link href="https://www.goandrace.com">
		 <text>Garmin Connect</text>
		 </link>
	 <time>2026-08-09T18:03:36</time>
	 </metadata>
	 <trk>
		 <name>The Woodlands Marathon 2025 - 42.195 km</name>
		 <trkseg>
			 <trkpt lat="30.162638" lon="-95.465752">
				 <ele>44</ele>
			 </trkpt>
			 <trkpt lat="30.162645" lon="-95.466143">
				 <ele>44</ele>
			 </trkpt>
			 <trkpt lat="30.162727" lon="-95.466481">
				 <ele>44</ele>
			 </trkpt>
			 <trkpt lat="30.162878" lon="-95.466971">
				 <ele>44</ele>
			 </trkpt>
			 <trkpt lat="30.162888" lon="-95.467003">
				 <ele>44</ele>
			 </trkpt>
			 <trkpt lat="30.163064" lon="-95.467482">
				 <ele>44</ele>
			 </trkpt>
			 <trkpt lat="30.163217" lon="-95.467901">
				 <ele>44</ele>
			 </trkpt>
			 <trkpt lat="30.163387" lon="-95.468083">
				 <ele>44</ele>
			 </trkpt>
			 <trkpt lat="30.163779" lon="-95.467829">
				 <ele>44</ele>
			 </trkpt>
			 <trkpt lat="30.164172" lon="-95.467576">
				 <ele>44.1</ele>
			 </trkpt>
			 <trkpt lat="30.164564" lon="-95.467322">
				 <ele>44.2</ele>
			 </trkpt>
			 <trkpt lat="30.164957" lon="-95.467068">
				 <ele>44.3</ele>
			 </trkpt>
			 <trkpt lat="30.16535" lon="-95.466815">
				 <ele>44.4</ele>
			 </trkpt>
			 <trkpt lat="30.165484" lon="-95.466728">
				 <ele>44.5</ele>
			 </trkpt>
			 <trkpt lat="30.165875" lon="-95.466472">
				 <ele>44.5</ele>
			 </trkpt>
			 <trkpt lat="30.166266" lon="-95.466216">
				 <ele>44.6</ele>
			 </trkpt>
			 <trkpt lat="30.166579" lon="-95.466011">
				 <ele>44.7</ele>
			 </trkpt>
			 <trkpt lat="30.166992" lon="-95.465805">
				 <ele>44.8</ele>
			 </trkpt>
			 <trkpt lat="30.167404" lon="-95.465599">
				 <ele>44.9</ele>
			 </trkpt>
			 <trkpt lat="30.16753" lon="-95.465536">
				 <ele>44.9</ele>
			 </trkpt>
			 <trkpt lat="30.167964" lon="-95.4654">
				 <ele>44.8</ele>
			 </trkpt>
			 <trkpt lat="30.168172" lon="-95.465334">
				 <ele>44.6</ele>
			 </trkpt>
			 <trkpt lat="30.168293" lon="-95.465301">
				 <ele>44.5</ele>
			 </trkpt>
			 <trkpt lat="30.168615" lon="-95.465227">
				 <ele>44.4</ele>
			 </trkpt>
			 <trkpt lat="30.16891" lon="-95.46523">
				 <ele>44.3</ele>
			 </trkpt>
			 <trkpt lat="30.1712" lon="-95.46522">
				 <ele>44.2</ele>
			 </trkpt>
			 <trkpt lat="30.17187" lon="-95.46531">
				 <ele>44.1</ele>
			 </trkpt>
			 <trkpt lat="30.17229" lon="-95.46542">
				 <ele>43.9</ele>
			 </trkpt>
			 <trkpt lat="30.17296" lon="-95.46568">
				 <ele>43.7</ele>
			 </trkpt>
			 <trkpt lat="30.17339" lon="-95.46585">
				 <ele>43.5</ele>
			 </trkpt>
			 <trkpt lat="30.17418" lon="-95.46608">
				 <ele>43.5</ele>
			 </trkpt>
			 <trkpt lat="30.17529" lon="-95.46617">
				 <ele>43.3</ele>
			 </trkpt>
			 <trkpt lat="30.17575" lon="-95.46625">
				 <ele>43.2</ele>
			 </trkpt>
			 <trkpt lat="30.1764" lon="-95.46647">
				 <ele>43.1</ele>
			 </trkpt>
			 <trkpt lat="30.17642" lon="-95.46664">
				 <ele>42.8</ele>
			 </trkpt>
			 <trkpt lat="30.17656" lon="-95.46731">
				 <ele>42.5</ele>
			 </trkpt>
			 <trkpt lat="30.1766" lon="-95.46762">
				 <ele>42.3</ele>
			 </trkpt>
			 <trkpt lat="30.17667" lon="-95.46836">
				 <ele>42.1</ele>
			 </trkpt>
			 <trkpt lat="30.17657" lon="-95.47222">
				 <ele>42.1</ele>
			 </trkpt>
			 <trkpt lat="30.1765" lon="-95.47464">
				 <ele>42.1</ele>
			 </trkpt>
			 <trkpt lat="30.17652" lon="-95.47653">
				 <ele>42.2</ele>
			 </trkpt>
			 <trkpt lat="30.17663" lon="-95.4772">
				 <ele>42.8</ele>
			 </trkpt>
			 <trkpt lat="30.17686" lon="-95.47805">
				 <ele>43.5</ele>
			 </trkpt>
			 <trkpt lat="30.17726" lon="-95.47896">
				 <ele>44.2</ele>
			 </trkpt>
			 <trkpt lat="30.17746" lon="-95.47932">
				 <ele>44.8</ele>
			 </trkpt>
			 <trkpt lat="30.17811" lon="-95.48019">
				 <ele>45.4</ele>
			 </trkpt>
			 <trkpt lat="30.18437" lon="-95.48732">
				 <ele>45.8</ele>
			 </trkpt>
			 <trkpt lat="30.18489" lon="-95.48802">
				 <ele>46.2</ele>
			 </trkpt>
			 <trkpt lat="30.18504" lon="-95.48809">
				 <ele>46.5</ele>
			 </trkpt>
			 <trkpt lat="30.18552" lon="-95.48863">
				 <ele>46.5</ele>
			 </trkpt>
			 <trkpt lat="30.18644" lon="-95.48937">
				 <ele>46.5</ele>
			 </trkpt>
			 <trkpt lat="30.18716" lon="-95.48978">
				 <ele>46.4</ele>
			 </trkpt>
			 <trkpt lat="30.18833" lon="-95.49031">
				 <ele>45.7</ele>
			 </trkpt>
			 <trkpt lat="30.19074" lon="-95.49143">
				 <ele>45.1</ele>
			 </trkpt>
			 <trkpt lat="30.19295" lon="-95.49244">
				 <ele>44.6</ele>
			 </trkpt>
			 <trkpt lat="30.19338" lon="-95.49268">
				 <ele>44.3</ele>
			 </trkpt>
			 <trkpt lat="30.19428" lon="-95.49337">
				 <ele>44.1</ele>
			 </trkpt>
			 <trkpt lat="30.19458" lon="-95.49368">
				 <ele>44</ele>
			 </trkpt>
			 <trkpt lat="30.19512" lon="-95.49438">
				 <ele>44</ele>
			 </trkpt>
			 <trkpt lat="30.19561" lon="-95.49524">
				 <ele>44</ele>
			 </trkpt>
			 <trkpt lat="30.19592" lon="-95.49603">
				 <ele>44.1</ele>
			 </trkpt>
			 <trkpt lat="30.19616" lon="-95.49704">
				 <ele>44.2</ele>
			 </trkpt>
			 <trkpt lat="30.19619" lon="-95.49725">
				 <ele>44.4</ele>
			 </trkpt>
			 <trkpt lat="30.19622" lon="-95.49855">
				 <ele>44.5</ele>
			 </trkpt>
			 <trkpt lat="30.19607" lon="-95.49974">
				 <ele>44.5</ele>
			 </trkpt>
			 <trkpt lat="30.19575" lon="-95.50196">
				 <ele>44.5</ele>
			 </trkpt>
			 <trkpt lat="30.19575" lon="-95.50252">
				 <ele>44.5</ele>
			 </trkpt>
			 <trkpt lat="30.19589" lon="-95.50371">
				 <ele>44.4</ele>
			 </trkpt>
			 <trkpt lat="30.1963" lon="-95.50504">
				 <ele>44.4</ele>
			 </trkpt>
			 <trkpt lat="30.19659" lon="-95.50565">
				 <ele>44.5</ele>
			 </trkpt>
			 <trkpt lat="30.19711" lon="-95.50646">
				 <ele>45.4</ele>
			 </trkpt>
			 <trkpt lat="30.19726" lon="-95.50666">
				 <ele>46.4</ele>
			 </trkpt>
			 <trkpt lat="30.19817" lon="-95.50764">
				 <ele>47.5</ele>
			 </trkpt>
			 <trkpt lat="30.19896" lon="-95.50848">
				 <ele>48.8</ele>
			 </trkpt>
			 <trkpt lat="30.20088" lon="-95.51044">
				 <ele>50.2</ele>
			 </trkpt>
			 <trkpt lat="30.20352" lon="-95.51294">
				 <ele>51.5</ele>
			 </trkpt>
			 <trkpt lat="30.20368" lon="-95.51313">
				 <ele>52.9</ele>
			 </trkpt>
			 <trkpt lat="30.20443" lon="-95.51423">
				 <ele>54.3</ele>
			 </trkpt>
			 <trkpt lat="30.205015" lon="-95.515633">
				 <ele>55.6</ele>
			 </trkpt>
			 <trkpt lat="30.205103" lon="-95.516143">
				 <ele>56.9</ele>
			 </trkpt>
			 <trkpt lat="30.205192" lon="-95.516653">
				 <ele>58</ele>
			 </trkpt>
			 <trkpt lat="30.205202" lon="-95.516713">
				 <ele>58.5</ele>
			 </trkpt>
			 <trkpt lat="30.205221" lon="-95.517233">
				 <ele>58.7</ele>
			 </trkpt>
			 <trkpt lat="30.20524" lon="-95.517753">
				 <ele>58.8</ele>
			 </trkpt>
			 <trkpt lat="30.205259" lon="-95.518272">
				 <ele>58.7</ele>
			 </trkpt>
			 <trkpt lat="30.205273" lon="-95.518663">
				 <ele>58.5</ele>
			 </trkpt>
			 <trkpt lat="30.205308" lon="-95.519181">
				 <ele>58.4</ele>
			 </trkpt>
			 <trkpt lat="30.205343" lon="-95.5197">
				 <ele>58.2</ele>
			 </trkpt>
			 <trkpt lat="30.205377" lon="-95.520219">
				 <ele>58</ele>
			 </trkpt>
			 <trkpt lat="30.20538" lon="-95.520253">
				 <ele>57.8</ele>
			 </trkpt>
			 <trkpt lat="30.205465" lon="-95.520764">
				 <ele>57.6</ele>
			 </trkpt>
			 <trkpt lat="30.205521" lon="-95.521105">
				 <ele>57.5</ele>
			 </trkpt>
			 <trkpt lat="30.205645" lon="-95.521605">
				 <ele>57.3</ele>
			 </trkpt>
			 <trkpt lat="30.20577" lon="-95.522105">
				 <ele>57.3</ele>
			 </trkpt>
			 <trkpt lat="30.205796" lon="-95.522213">
				 <ele>57.3</ele>
			 </trkpt>
			 <trkpt lat="30.205969" lon="-95.522694">
				 <ele>57.3</ele>
			 </trkpt>
			 <trkpt lat="30.206141" lon="-95.523174">
				 <ele>57.5</ele>
			 </trkpt>
			 <trkpt lat="30.206187" lon="-95.523301">
				 <ele>57.6</ele>
			 </trkpt>
			 <trkpt lat="30.206402" lon="-95.523758">
				 <ele>57.9</ele>
			 </trkpt>
			 <trkpt lat="30.206618" lon="-95.524214">
				 <ele>58.2</ele>
			 </trkpt>
			 <trkpt lat="30.20671" lon="-95.524409">
				 <ele>58.5</ele>
			 </trkpt>
			 <trkpt lat="30.206916" lon="-95.524872">
				 <ele>58.7</ele>
			 </trkpt>
			 <trkpt lat="30.207122" lon="-95.525334">
				 <ele>58.9</ele>
			 </trkpt>
			 <trkpt lat="30.207328" lon="-95.525797">
				 <ele>59</ele>
			 </trkpt>
			 <trkpt lat="30.207455" lon="-95.526082">
				 <ele>58.9</ele>
			 </trkpt>
			 <trkpt lat="30.207481" lon="-95.526067">
				 <ele>58.8</ele>
			 </trkpt>
			 <trkpt lat="30.207496" lon="-95.5261">
				 <ele>58.7</ele>
			 </trkpt>
			 <trkpt lat="30.206694" lon="-95.52658">
				 <ele>58.5</ele>
			 </trkpt>
			 <trkpt lat="30.206355" lon="-95.526802">
				 <ele>58.3</ele>
			 </trkpt>
			 <trkpt lat="30.20574" lon="-95.527203">
				 <ele>58</ele>
			 </trkpt>
			 <trkpt lat="30.205482" lon="-95.527407">
				 <ele>57.7</ele>
			 </trkpt>
			 <trkpt lat="30.205374" lon="-95.527502">
				 <ele>57.4</ele>
			 </trkpt>
			 <trkpt lat="30.20513" lon="-95.527716">
				 <ele>56.6</ele>
			 </trkpt>
			 <trkpt lat="30.204836" lon="-95.528044">
				 <ele>55.9</ele>
			 </trkpt>
			 <trkpt lat="30.204758" lon="-95.528132">
				 <ele>55.4</ele>
			 </trkpt>
			 <trkpt lat="30.204691" lon="-95.528222">
				 <ele>55</ele>
			 </trkpt>
			 <trkpt lat="30.204069" lon="-95.529066">
				 <ele>54.7</ele>
			 </trkpt>
			 <trkpt lat="30.203288" lon="-95.530128">
				 <ele>54.5</ele>
			 </trkpt>
			 <trkpt lat="30.202474" lon="-95.531234">
				 <ele>53.9</ele>
			 </trkpt>
			 <trkpt lat="30.202073" lon="-95.531689">
				 <ele>53.2</ele>
			 </trkpt>
			 <trkpt lat="30.201826" lon="-95.531946">
				 <ele>52.5</ele>
			 </trkpt>
			 <trkpt lat="30.201486" lon="-95.532247">
				 <ele>52</ele>
			 </trkpt>
			 <trkpt lat="30.200862" lon="-95.532677">
				 <ele>51.8</ele>
			 </trkpt>
			 <trkpt lat="30.197093" lon="-95.535002">
				 <ele>52.3</ele>
			 </trkpt>
			 <trkpt lat="30.196416" lon="-95.535424">
				 <ele>52.8</ele>
			 </trkpt>
			 <trkpt lat="30.195319" lon="-95.536076">
				 <ele>53.2</ele>
			 </trkpt>
			 <trkpt lat="30.195085" lon="-95.536173">
				 <ele>53.3</ele>
			 </trkpt>
			 <trkpt lat="30.19449" lon="-95.536421">
				 <ele>53.1</ele>
			 </trkpt>
			 <trkpt lat="30.193599" lon="-95.536575">
				 <ele>52.7</ele>
			 </trkpt>
			 <trkpt lat="30.19265" lon="-95.53657">
				 <ele>52.5</ele>
			 </trkpt>
			 <trkpt lat="30.19196" lon="-95.53646">
				 <ele>52.5</ele>
			 </trkpt>
			 <trkpt lat="30.19141" lon="-95.53629">
				 <ele>52.4</ele>
			 </trkpt>
			 <trkpt lat="30.19062" lon="-95.53593">
				 <ele>52.3</ele>
			 </trkpt>
			 <trkpt lat="30.19021" lon="-95.5357">
				 <ele>51.9</ele>
			 </trkpt>
			 <trkpt lat="30.18767" lon="-95.5343">
				 <ele>51.4</ele>
			 </trkpt>
			 <trkpt lat="30.18608" lon="-95.53343">
				 <ele>50.7</ele>
			 </trkpt>
			 <trkpt lat="30.18532" lon="-95.5331">
				 <ele>50.2</ele>
			 </trkpt>
			 <trkpt lat="30.18498" lon="-95.53298">
				 <ele>49.7</ele>
			 </trkpt>
			 <trkpt lat="30.18483" lon="-95.53296">
				 <ele>49.5</ele>
			 </trkpt>
			 <trkpt lat="30.18427" lon="-95.53289">
				 <ele>49.5</ele>
			 </trkpt>
			 <trkpt lat="30.184309" lon="-95.532654">
				 <ele>49.7</ele>
			 </trkpt>
			 <trkpt lat="30.184325" lon="-95.532284">
				 <ele>49.9</ele>
			 </trkpt>
			 <trkpt lat="30.184371" lon="-95.531383">
				 <ele>50</ele>
			 </trkpt>
			 <trkpt lat="30.184388" lon="-95.530841">
				 <ele>50.1</ele>
			 </trkpt>
			 <trkpt lat="30.184373" lon="-95.530312">
				 <ele>50.1</ele>
			 </trkpt>
			 <trkpt lat="30.184371" lon="-95.53024">
				 <ele>49.9</ele>
			 </trkpt>
			 <trkpt lat="30.184333" lon="-95.529828">
				 <ele>49.8</ele>
			 </trkpt>
			 <trkpt lat="30.184326" lon="-95.529757">
				 <ele>49.7</ele>
			 </trkpt>
			 <trkpt lat="30.184314" lon="-95.529632">
				 <ele>49.7</ele>
			 </trkpt>
			 <trkpt lat="30.184256" lon="-95.529169">
				 <ele>49.6</ele>
			 </trkpt>
			 <trkpt lat="30.184133" lon="-95.528574">
				 <ele>49.5</ele>
			 </trkpt>
			 <trkpt lat="30.18401" lon="-95.528049">
				 <ele>49.5</ele>
			 </trkpt>
			 <trkpt lat="30.18378" lon="-95.527314">
				 <ele>49.3</ele>
			 </trkpt>
			 <trkpt lat="30.183643" lon="-95.526969">
				 <ele>49.1</ele>
			 </trkpt>
			 <trkpt lat="30.18353" lon="-95.526681">
				 <ele>48.8</ele>
			 </trkpt>
			 <trkpt lat="30.1832" lon="-95.525986">
				 <ele>48.7</ele>
			 </trkpt>
			 <trkpt lat="30.182744" lon="-95.525055">
				 <ele>48.7</ele>
			 </trkpt>
			 <trkpt lat="30.182611" lon="-95.524783">
				 <ele>48.7</ele>
			 </trkpt>
			 <trkpt lat="30.18259" lon="-95.524741">
				 <ele>48.7</ele>
			 </trkpt>
			 <trkpt lat="30.18255" lon="-95.524658">
				 <ele>48.7</ele>
			 </trkpt>
			 <trkpt lat="30.182467" lon="-95.524517">
				 <ele>48.7</ele>
			 </trkpt>
			 <trkpt lat="30.181993" lon="-95.52361">
				 <ele>48.6</ele>
			 </trkpt>
			 <trkpt lat="30.181712" lon="-95.523054">
				 <ele>48.5</ele>
			 </trkpt>
			 <trkpt lat="30.181474" lon="-95.522499">
				 <ele>48.5</ele>
			 </trkpt>
			 <trkpt lat="30.181292" lon="-95.521947">
				 <ele>48.4</ele>
			 </trkpt>
			 <trkpt lat="30.181167" lon="-95.52141">
				 <ele>48.3</ele>
			 </trkpt>
			 <trkpt lat="30.181074" lon="-95.520874">
				 <ele>48.1</ele>
			 </trkpt>
			 <trkpt lat="30.180991" lon="-95.520326">
				 <ele>47.9</ele>
			 </trkpt>
			 <trkpt lat="30.180905" lon="-95.519698">
				 <ele>47.7</ele>
			 </trkpt>
			 <trkpt lat="30.180884" lon="-95.51957">
				 <ele>47.5</ele>
			 </trkpt>
			 <trkpt lat="30.180796" lon="-95.519039">
				 <ele>47.4</ele>
			 </trkpt>
			 <trkpt lat="30.180683" lon="-95.518578">
				 <ele>47.3</ele>
			 </trkpt>
			 <trkpt lat="30.180556" lon="-95.518119">
				 <ele>47.3</ele>
			 </trkpt>
			 <trkpt lat="30.180437" lon="-95.517764">
				 <ele>47.3</ele>
			 </trkpt>
			 <trkpt lat="30.180233" lon="-95.517256">
				 <ele>47.4</ele>
			 </trkpt>
			 <trkpt lat="30.179978" lon="-95.516743">
				 <ele>47.5</ele>
			 </trkpt>
			 <trkpt lat="30.179646" lon="-95.516167">
				 <ele>47.5</ele>
			 </trkpt>
			 <trkpt lat="30.179138" lon="-95.515332">
				 <ele>47.5</ele>
			 </trkpt>
			 <trkpt lat="30.178888" lon="-95.514892">
				 <ele>47.5</ele>
			 </trkpt>
			 <trkpt lat="30.178627" lon="-95.514341">
				 <ele>47.5</ele>
			 </trkpt>
			 <trkpt lat="30.178566" lon="-95.514212">
				 <ele>47.6</ele>
			 </trkpt>
			 <trkpt lat="30.178533" lon="-95.514124">
				 <ele>47.7</ele>
			 </trkpt>
			 <trkpt lat="30.178408" lon="-95.513779">
				 <ele>47.7</ele>
			 </trkpt>
			 <trkpt lat="30.178297" lon="-95.513417">
				 <ele>47.7</ele>
			 </trkpt>
			 <trkpt lat="30.178197" lon="-95.513023">
				 <ele>47.7</ele>
			 </trkpt>
			 <trkpt lat="30.178116" lon="-95.512538">
				 <ele>47.6</ele>
			 </trkpt>
			 <trkpt lat="30.178111" lon="-95.512495">
				 <ele>47.5</ele>
			 </trkpt>
			 <trkpt lat="30.178058" lon="-95.512028">
				 <ele>47.5</ele>
			 </trkpt>
			 <trkpt lat="30.178018" lon="-95.5114">
				 <ele>47.5</ele>
			 </trkpt>
			 <trkpt lat="30.178023" lon="-95.510899">
				 <ele>47.5</ele>
			 </trkpt>
			 <trkpt lat="30.178065" lon="-95.510445">
				 <ele>47.5</ele>
			 </trkpt>
			 <trkpt lat="30.178144" lon="-95.509959">
				 <ele>47.3</ele>
			 </trkpt>
			 <trkpt lat="30.178269" lon="-95.509383">
				 <ele>47.2</ele>
			 </trkpt>
			 <trkpt lat="30.178413" lon="-95.508903">
				 <ele>47.1</ele>
			 </trkpt>
			 <trkpt lat="30.178603" lon="-95.508396">
				 <ele>47</ele>
			 </trkpt>
			 <trkpt lat="30.178786" lon="-95.508034">
				 <ele>46.8</ele>
			 </trkpt>
			 <trkpt lat="30.179026" lon="-95.507589">
				 <ele>46.7</ele>
			 </trkpt>
			 <trkpt lat="30.179837" lon="-95.506176">
				 <ele>46.6</ele>
			 </trkpt>
			 <trkpt lat="30.18008" lon="-95.505751">
				 <ele>46.5</ele>
			 </trkpt>
			 <trkpt lat="30.180212" lon="-95.505464">
				 <ele>46.5</ele>
			 </trkpt>
			 <trkpt lat="30.180403" lon="-95.504968">
				 <ele>46.4</ele>
			 </trkpt>
			 <trkpt lat="30.180552" lon="-95.504506">
				 <ele>46.2</ele>
			 </trkpt>
			 <trkpt lat="30.180656" lon="-95.504106">
				 <ele>46.1</ele>
			 </trkpt>
			 <trkpt lat="30.180686" lon="-95.503952">
				 <ele>46</ele>
			 </trkpt>
			 <trkpt lat="30.180703" lon="-95.503863">
				 <ele>45.9</ele>
			 </trkpt>
			 <trkpt lat="30.180746" lon="-95.503645">
				 <ele>45.8</ele>
			 </trkpt>
			 <trkpt lat="30.180791" lon="-95.503147">
				 <ele>45.8</ele>
			 </trkpt>
			 <trkpt lat="30.180815" lon="-95.502616">
				 <ele>45.8</ele>
			 </trkpt>
			 <trkpt lat="30.180796" lon="-95.502093">
				 <ele>45.8</ele>
			 </trkpt>
			 <trkpt lat="30.180761" lon="-95.501736">
				 <ele>45.8</ele>
			 </trkpt>
			 <trkpt lat="30.180756" lon="-95.501684">
				 <ele>45.9</ele>
			 </trkpt>
			 <trkpt lat="30.180738" lon="-95.501577">
				 <ele>46</ele>
			 </trkpt>
			 <trkpt lat="30.180715" lon="-95.501475">
				 <ele>46.2</ele>
			 </trkpt>
			 <trkpt lat="30.180604" lon="-95.500995">
				 <ele>46.4</ele>
			 </trkpt>
			 <trkpt lat="30.18049" lon="-95.500562">
				 <ele>46.5</ele>
			 </trkpt>
			 <trkpt lat="30.180345" lon="-95.50011">
				 <ele>46.7</ele>
			 </trkpt>
			 <trkpt lat="30.180205" lon="-95.499777">
				 <ele>46.9</ele>
			 </trkpt>
			 <trkpt lat="30.180157" lon="-95.499662">
				 <ele>47.1</ele>
			 </trkpt>
			 <trkpt lat="30.17998" lon="-95.499317">
				 <ele>47.4</ele>
			 </trkpt>
			 <trkpt lat="30.179788" lon="-95.498993">
				 <ele>47.6</ele>
			 </trkpt>
			 <trkpt lat="30.179577" lon="-95.498655">
				 <ele>47.9</ele>
			 </trkpt>
			 <trkpt lat="30.179426" lon="-95.498463">
				 <ele>48</ele>
			 </trkpt>
			 <trkpt lat="30.179314" lon="-95.498321">
				 <ele>48.1</ele>
			 </trkpt>
			 <trkpt lat="30.17929" lon="-95.498289">
				 <ele>48.3</ele>
			 </trkpt>
			 <trkpt lat="30.179225" lon="-95.498208">
				 <ele>48.5</ele>
			 </trkpt>
			 <trkpt lat="30.179114" lon="-95.498059">
				 <ele>48.5</ele>
			 </trkpt>
			 <trkpt lat="30.179048" lon="-95.497976">
				 <ele>48.6</ele>
			 </trkpt>
			 <trkpt lat="30.17893" lon="-95.497825">
				 <ele>48.7</ele>
			 </trkpt>
			 <trkpt lat="30.177695" lon="-95.496245">
				 <ele>48.8</ele>
			 </trkpt>
			 <trkpt lat="30.177659" lon="-95.496194">
				 <ele>48.7</ele>
			 </trkpt>
			 <trkpt lat="30.177612" lon="-95.496143">
				 <ele>48.6</ele>
			 </trkpt>
			 <trkpt lat="30.177181" lon="-95.495696">
				 <ele>48.6</ele>
			 </trkpt>
			 <trkpt lat="30.177079" lon="-95.495591">
				 <ele>48.7</ele>
			 </trkpt>
			 <trkpt lat="30.176994" lon="-95.495517">
				 <ele>48.8</ele>
			 </trkpt>
			 <trkpt lat="30.176382" lon="-95.49499">
				 <ele>48.7</ele>
			 </trkpt>
			 <trkpt lat="30.175902" lon="-95.494637">
				 <ele>48.6</ele>
			 </trkpt>
			 <trkpt lat="30.175503" lon="-95.494366">
				 <ele>48.5</ele>
			 </trkpt>
			 <trkpt lat="30.17507" lon="-95.494105">
				 <ele>48.5</ele>
			 </trkpt>
			 <trkpt lat="30.174634" lon="-95.493877">
				 <ele>48.4</ele>
			 </trkpt>
			 <trkpt lat="30.173395" lon="-95.493249">
				 <ele>48.3</ele>
			 </trkpt>
			 <trkpt lat="30.173068" lon="-95.493059">
				 <ele>48.3</ele>
			 </trkpt>
			 <trkpt lat="30.172989" lon="-95.493005">
				 <ele>48.3</ele>
			 </trkpt>
			 <trkpt lat="30.172825" lon="-95.492896">
				 <ele>48.1</ele>
			 </trkpt>
			 <trkpt lat="30.172689" lon="-95.492795">
				 <ele>47.8</ele>
			 </trkpt>
			 <trkpt lat="30.172613" lon="-95.492739">
				 <ele>47.5</ele>
			 </trkpt>
			 <trkpt lat="30.172532" lon="-95.492679">
				 <ele>47.3</ele>
			 </trkpt>
			 <trkpt lat="30.172479" lon="-95.492634">
				 <ele>46.9</ele>
			 </trkpt>
			 <trkpt lat="30.172073" lon="-95.492271">
				 <ele>46.5</ele>
			 </trkpt>
			 <trkpt lat="30.171863" lon="-95.492058">
				 <ele>46.3</ele>
			 </trkpt>
			 <trkpt lat="30.171623" lon="-95.491785">
				 <ele>46</ele>
			 </trkpt>
			 <trkpt lat="30.171403" lon="-95.491498">
				 <ele>45.7</ele>
			 </trkpt>
			 <trkpt lat="30.171234" lon="-95.491241">
				 <ele>45.4</ele>
			 </trkpt>
			 <trkpt lat="30.170689" lon="-95.490326">
				 <ele>45</ele>
			 </trkpt>
			 <trkpt lat="30.169192" lon="-95.487705">
				 <ele>44.6</ele>
			 </trkpt>
			 <trkpt lat="30.168903" lon="-95.487218">
				 <ele>44.4</ele>
			 </trkpt>
			 <trkpt lat="30.168667" lon="-95.486748">
				 <ele>44.1</ele>
			 </trkpt>
			 <trkpt lat="30.16837" lon="-95.485986">
				 <ele>43.9</ele>
			 </trkpt>
			 <trkpt lat="30.168273" lon="-95.485608">
				 <ele>43.8</ele>
			 </trkpt>
			 <trkpt lat="30.168216" lon="-95.485315">
				 <ele>43.6</ele>
			 </trkpt>
			 <trkpt lat="30.168148" lon="-95.48496">
				 <ele>43.4</ele>
			 </trkpt>
			 <trkpt lat="30.168121" lon="-95.484819">
				 <ele>43.1</ele>
			 </trkpt>
			 <trkpt lat="30.168105" lon="-95.484719">
				 <ele>42.9</ele>
			 </trkpt>
			 <trkpt lat="30.16805" lon="-95.484332">
				 <ele>42.7</ele>
			 </trkpt>
			 <trkpt lat="30.168032" lon="-95.483746">
				 <ele>42.5</ele>
			 </trkpt>
			 <trkpt lat="30.168066" lon="-95.483157">
				 <ele>42.4</ele>
			 </trkpt>
			 <trkpt lat="30.168127" lon="-95.482661">
				 <ele>42.2</ele>
			 </trkpt>
			 <trkpt lat="30.16821" lon="-95.482167">
				 <ele>42</ele>
			 </trkpt>
			 <trkpt lat="30.168326" lon="-95.481727">
				 <ele>41.8</ele>
			 </trkpt>
			 <trkpt lat="30.168352" lon="-95.48166">
				 <ele>41.5</ele>
			 </trkpt>
			 <trkpt lat="30.168589" lon="-95.481058">
				 <ele>41.4</ele>
			 </trkpt>
			 <trkpt lat="30.16862" lon="-95.480981">
				 <ele>41.1</ele>
			 </trkpt>
			 <trkpt lat="30.168671" lon="-95.480852">
				 <ele>40.8</ele>
			 </trkpt>
			 <trkpt lat="30.168723" lon="-95.480713">
				 <ele>40.5</ele>
			 </trkpt>
			 <trkpt lat="30.168818" lon="-95.480471">
				 <ele>40.3</ele>
			 </trkpt>
			 <trkpt lat="30.169234" lon="-95.47952">
				 <ele>40.1</ele>
			 </trkpt>
			 <trkpt lat="30.16939" lon="-95.479056">
				 <ele>40</ele>
			 </trkpt>
			 <trkpt lat="30.169485" lon="-95.478688">
				 <ele>39.9</ele>
			 </trkpt>
			 <trkpt lat="30.169567" lon="-95.478301">
				 <ele>39.8</ele>
			 </trkpt>
			 <trkpt lat="30.169622" lon="-95.477972">
				 <ele>39.7</ele>
			 </trkpt>
			 <trkpt lat="30.169655" lon="-95.477687">
				 <ele>39.7</ele>
			 </trkpt>
			 <trkpt lat="30.169664" lon="-95.477609">
				 <ele>39.7</ele>
			 </trkpt>
			 <trkpt lat="30.16969" lon="-95.477163">
				 <ele>39.9</ele>
			 </trkpt>
			 <trkpt lat="30.169688" lon="-95.477043">
				 <ele>40.2</ele>
			 </trkpt>
			 <trkpt lat="30.169689" lon="-95.476918">
				 <ele>40.2</ele>
			 </trkpt>
			 <trkpt lat="30.169688" lon="-95.476822">
				 <ele>40.1</ele>
			 </trkpt>
			 <trkpt lat="30.169667" lon="-95.476558">
				 <ele>40.3</ele>
			 </trkpt>
			 <trkpt lat="30.169614" lon="-95.476163">
				 <ele>40.5</ele>
			 </trkpt>
			 <trkpt lat="30.169586" lon="-95.475949">
				 <ele>40.6</ele>
			 </trkpt>
			 <trkpt lat="30.16947" lon="-95.475362">
				 <ele>40.7</ele>
			 </trkpt>
			 <trkpt lat="30.169126" lon="-95.47399">
				 <ele>40.8</ele>
			 </trkpt>
			 <trkpt lat="30.169089" lon="-95.473838">
				 <ele>40.9</ele>
			 </trkpt>
			 <trkpt lat="30.168982" lon="-95.473444">
				 <ele>41</ele>
			 </trkpt>
			 <trkpt lat="30.168886" lon="-95.473132">
				 <ele>41</ele>
			 </trkpt>
			 <trkpt lat="30.168814" lon="-95.472963">
				 <ele>40.9</ele>
			 </trkpt>
			 <trkpt lat="30.168709" lon="-95.472716">
				 <ele>41.1</ele>
			 </trkpt>
			 <trkpt lat="30.168609" lon="-95.472519">
				 <ele>41.4</ele>
			 </trkpt>
			 <trkpt lat="30.168568" lon="-95.472429">
				 <ele>41.4</ele>
			 </trkpt>
			 <trkpt lat="30.168354" lon="-95.472041">
				 <ele>41.4</ele>
			 </trkpt>
			 <trkpt lat="30.168232" lon="-95.471844">
				 <ele>41.3</ele>
			 </trkpt>
			 <trkpt lat="30.168076" lon="-95.471593">
				 <ele>41.3</ele>
			 </trkpt>
			 <trkpt lat="30.167834" lon="-95.471297">
				 <ele>41.3</ele>
			 </trkpt>
			 <trkpt lat="30.167789" lon="-95.471243">
				 <ele>41.3</ele>
			 </trkpt>
			 <trkpt lat="30.167746" lon="-95.471189">
				 <ele>41.3</ele>
			 </trkpt>
			 <trkpt lat="30.167679" lon="-95.471245">
				 <ele>41.3</ele>
			 </trkpt>
			 <trkpt lat="30.16751" lon="-95.471406">
				 <ele>41.2</ele>
			 </trkpt>
			 <trkpt lat="30.167408" lon="-95.471515">
				 <ele>41.1</ele>
			 </trkpt>
			 <trkpt lat="30.167366" lon="-95.471547">
				 <ele>40.9</ele>
			 </trkpt>
			 <trkpt lat="30.167315" lon="-95.471544">
				 <ele>40.7</ele>
			 </trkpt>
			 <trkpt lat="30.167276" lon="-95.471507">
				 <ele>40.5</ele>
			 </trkpt>
			 <trkpt lat="30.167226" lon="-95.471556">
				 <ele>40.5</ele>
			 </trkpt>
			 <trkpt lat="30.166967" lon="-95.471806">
				 <ele>40.4</ele>
			 </trkpt>
			 <trkpt lat="30.166857" lon="-95.471879">
				 <ele>40.3</ele>
			 </trkpt>
			 <trkpt lat="30.166762" lon="-95.471918">
				 <ele>40.2</ele>
			 </trkpt>
			 <trkpt lat="30.166689" lon="-95.471932">
				 <ele>40.1</ele>
			 </trkpt>
			 <trkpt lat="30.166614" lon="-95.471926">
				 <ele>40</ele>
			 </trkpt>
			 <trkpt lat="30.16651" lon="-95.471883">
				 <ele>40</ele>
			 </trkpt>
			 <trkpt lat="30.166398" lon="-95.471816">
				 <ele>40.1</ele>
			 </trkpt>
			 <trkpt lat="30.166276" lon="-95.471772">
				 <ele>40.2</ele>
			 </trkpt>
			 <trkpt lat="30.166089" lon="-95.471729">
				 <ele>40.2</ele>
			 </trkpt>
			 <trkpt lat="30.165929" lon="-95.471675">
				 <ele>40.3</ele>
			 </trkpt>
			 <trkpt lat="30.16579" lon="-95.471594">
				 <ele>40.4</ele>
			 </trkpt>
			 <trkpt lat="30.165692" lon="-95.471517">
				 <ele>40.5</ele>
			 </trkpt>
			 <trkpt lat="30.16533" lon="-95.471209">
				 <ele>40.5</ele>
			 </trkpt>
			 <trkpt lat="30.165188" lon="-95.471087">
				 <ele>40.6</ele>
			 </trkpt>
			 <trkpt lat="30.164822" lon="-95.470785">
				 <ele>40.6</ele>
			 </trkpt>
			 <trkpt lat="30.164456" lon="-95.470484">
				 <ele>40.7</ele>
			 </trkpt>
			 <trkpt lat="30.164371" lon="-95.470414">
				 <ele>40.7</ele>
			 </trkpt>
			 <trkpt lat="30.164333" lon="-95.470472">
				 <ele>40.6</ele>
			 </trkpt>
			 <trkpt lat="30.164705" lon="-95.470764">
				 <ele>40.5</ele>
			 </trkpt>
			 <trkpt lat="30.165077" lon="-95.471057">
				 <ele>40.4</ele>
			 </trkpt>
			 <trkpt lat="30.165425" lon="-95.471332">
				 <ele>40.1</ele>
			 </trkpt>
			 <trkpt lat="30.165169" lon="-95.471759">
				 <ele>39.8</ele>
			 </trkpt>
			 <trkpt lat="30.164965" lon="-95.471567">
				 <ele>39.5</ele>
			 </trkpt>
			 <trkpt lat="30.164873" lon="-95.47145">
				 <ele>39.3</ele>
			 </trkpt>
			 <trkpt lat="30.164771" lon="-95.471293">
				 <ele>39</ele>
			 </trkpt>
			 <trkpt lat="30.16474" lon="-95.471259">
				 <ele>38.8</ele>
			 </trkpt>
			 <trkpt lat="30.164696" lon="-95.471209">
				 <ele>38.5</ele>
			 </trkpt>
			 <trkpt lat="30.164249" lon="-95.470835">
				 <ele>38.4</ele>
			 </trkpt>
			 <trkpt lat="30.164052" lon="-95.47069">
				 <ele>38.3</ele>
			 </trkpt>
			 <trkpt lat="30.163846" lon="-95.470558">
				 <ele>38.2</ele>
			 </trkpt>
			 <trkpt lat="30.163586" lon="-95.470416">
				 <ele>38.2</ele>
			 </trkpt>
			 <trkpt lat="30.163242" lon="-95.470252">
				 <ele>38.2</ele>
			 </trkpt>
			 <trkpt lat="30.162956" lon="-95.470153">
				 <ele>38.3</ele>
			 </trkpt>
			 <trkpt lat="30.162708" lon="-95.470051">
				 <ele>38.4</ele>
			 </trkpt>
			 <trkpt lat="30.162619" lon="-95.470007">
				 <ele>38.5</ele>
			 </trkpt>
			 <trkpt lat="30.162408" lon="-95.469869">
				 <ele>38.5</ele>
			 </trkpt>
			 <trkpt lat="30.162309" lon="-95.469782">
				 <ele>38.5</ele>
			 </trkpt>
			 <trkpt lat="30.16223" lon="-95.46969">
				 <ele>38.5</ele>
			 </trkpt>
			 <trkpt lat="30.162145" lon="-95.46954">
				 <ele>38.5</ele>
			 </trkpt>
			 <trkpt lat="30.161971" lon="-95.469144">
				 <ele>38.5</ele>
			 </trkpt>
			 <trkpt lat="30.161889" lon="-95.468943">
				 <ele>38.4</ele>
			 </trkpt>
			 <trkpt lat="30.161807" lon="-95.468799">
				 <ele>38.4</ele>
			 </trkpt>
			 <trkpt lat="30.161771" lon="-95.468734">
				 <ele>38.5</ele>
			 </trkpt>
			 <trkpt lat="30.161691" lon="-95.468648">
				 <ele>38.4</ele>
			 </trkpt>
			 <trkpt lat="30.161607" lon="-95.46856">
				 <ele>38.4</ele>
			 </trkpt>
			 <trkpt lat="30.16149" lon="-95.46848">
				 <ele>38.4</ele>
			 </trkpt>
			 <trkpt lat="30.16144" lon="-95.468427">
				 <ele>38.5</ele>
			 </trkpt>
			 <trkpt lat="30.161363" lon="-95.468317">
				 <ele>38.5</ele>
			 </trkpt>
			 <trkpt lat="30.160683" lon="-95.467141">
				 <ele>38.6</ele>
			 </trkpt>
			 <trkpt lat="30.160628" lon="-95.467079">
				 <ele>38.7</ele>
			 </trkpt>
			 <trkpt lat="30.160555" lon="-95.467045">
				 <ele>38.8</ele>
			 </trkpt>
			 <trkpt lat="30.160348" lon="-95.467013">
				 <ele>38.9</ele>
			 </trkpt>
			 <trkpt lat="30.160354" lon="-95.46696">
				 <ele>39</ele>
			 </trkpt>
			 <trkpt lat="30.16034" lon="-95.466912">
				 <ele>38.9</ele>
			 </trkpt>
			 <trkpt lat="30.160313" lon="-95.46689">
				 <ele>38.9</ele>
			 </trkpt>
			 <trkpt lat="30.160258" lon="-95.466872">
				 <ele>38.8</ele>
			 </trkpt>
			 <trkpt lat="30.160217" lon="-95.466849">
				 <ele>38.7</ele>
			 </trkpt>
			 <trkpt lat="30.160188" lon="-95.466822">
				 <ele>38.6</ele>
			 </trkpt>
			 <trkpt lat="30.160155" lon="-95.466774">
				 <ele>38.7</ele>
			 </trkpt>
			 <trkpt lat="30.160118" lon="-95.466695">
				 <ele>38.7</ele>
			 </trkpt>
			 <trkpt lat="30.160097" lon="-95.46662">
				 <ele>38.8</ele>
			 </trkpt>
			 <trkpt lat="30.160089" lon="-95.466588">
				 <ele>38.9</ele>
			 </trkpt>
			 <trkpt lat="30.16009" lon="-95.466482">
				 <ele>39.1</ele>
			 </trkpt>
			 <trkpt lat="30.160107" lon="-95.466408">
				 <ele>39.3</ele>
			 </trkpt>
			 <trkpt lat="30.160199" lon="-95.466431">
				 <ele>39.5</ele>
			 </trkpt>
			 <trkpt lat="30.16024" lon="-95.466254">
				 <ele>39.8</ele>
			 </trkpt>
			 <trkpt lat="30.160172" lon="-95.466201">
				 <ele>40.1</ele>
			 </trkpt>
			 <trkpt lat="30.160121" lon="-95.466159">
				 <ele>40.4</ele>
			 </trkpt>
			 <trkpt lat="30.160065" lon="-95.466092">
				 <ele>40.6</ele>
			 </trkpt>
			 <trkpt lat="30.160048" lon="-95.466064">
				 <ele>40.8</ele>
			 </trkpt>
			 <trkpt lat="30.160025" lon="-95.466024">
				 <ele>41.1</ele>
			 </trkpt>
			 <trkpt lat="30.159994" lon="-95.465892">
				 <ele>41.3</ele>
			 </trkpt>
			 <trkpt lat="30.159994" lon="-95.46586">
				 <ele>41.5</ele>
			 </trkpt>
			 <trkpt lat="30.159997" lon="-95.465795">
				 <ele>41.5</ele>
			 </trkpt>
			 <trkpt lat="30.160023" lon="-95.465693">
				 <ele>41.5</ele>
			 </trkpt>
			 <trkpt lat="30.160072" lon="-95.465601">
				 <ele>41.5</ele>
			 </trkpt>
			 <trkpt lat="30.160164" lon="-95.465499">
				 <ele>41.5</ele>
			 </trkpt>
			 <trkpt lat="30.160185" lon="-95.465463">
				 <ele>41.5</ele>
			 </trkpt>
			 <trkpt lat="30.160187" lon="-95.465416">
				 <ele>41.5</ele>
			 </trkpt>
			 <trkpt lat="30.160185" lon="-95.465374">
				 <ele>41.4</ele>
			 </trkpt>
			 <trkpt lat="30.160159" lon="-95.465323">
				 <ele>41.3</ele>
			 </trkpt>
			 <trkpt lat="30.160021" lon="-95.465112">
				 <ele>41.3</ele>
			 </trkpt>
			 <trkpt lat="30.159982" lon="-95.465053">
				 <ele>41.2</ele>
			 </trkpt>
			 <trkpt lat="30.15996" lon="-95.464939">
				 <ele>41.2</ele>
			 </trkpt>
			 <trkpt lat="30.159761" lon="-95.464546">
				 <ele>41.3</ele>
			 </trkpt>
			 <trkpt lat="30.159631" lon="-95.464161">
				 <ele>41.4</ele>
			 </trkpt>
			 <trkpt lat="30.15959" lon="-95.463896">
				 <ele>41.5</ele>
			 </trkpt>
			 <trkpt lat="30.159596" lon="-95.463825">
				 <ele>41.5</ele>
			 </trkpt>
			 <trkpt lat="30.15961" lon="-95.463685">
				 <ele>41.5</ele>
			 </trkpt>
			 <trkpt lat="30.159675" lon="-95.463422">
				 <ele>41.5</ele>
			 </trkpt>
			 <trkpt lat="30.159775" lon="-95.463113">
				 <ele>41.5</ele>
			 </trkpt>
			 <trkpt lat="30.15985" lon="-95.462842">
				 <ele>41.5</ele>
			 </trkpt>
			 <trkpt lat="30.159892" lon="-95.4626">
				 <ele>41.5</ele>
			 </trkpt>
			 <trkpt lat="30.159905" lon="-95.462351">
				 <ele>41.5</ele>
			 </trkpt>
			 <trkpt lat="30.159889" lon="-95.461922">
				 <ele>41.5</ele>
			 </trkpt>
			 <trkpt lat="30.159866" lon="-95.461714">
				 <ele>41.5</ele>
			 </trkpt>
			 <trkpt lat="30.159877" lon="-95.461572">
				 <ele>41.5</ele>
			 </trkpt>
			 <trkpt lat="30.159876" lon="-95.461426">
				 <ele>41.4</ele>
			 </trkpt>
			 <trkpt lat="30.159857" lon="-95.46122">
				 <ele>41.4</ele>
			 </trkpt>
			 <trkpt lat="30.159862" lon="-95.461182">
				 <ele>41.4</ele>
			 </trkpt>
			 <trkpt lat="30.15987" lon="-95.461145">
				 <ele>41.4</ele>
			 </trkpt>
			 <trkpt lat="30.159945" lon="-95.461034">
				 <ele>41.3</ele>
			 </trkpt>
			 <trkpt lat="30.159982" lon="-95.460961">
				 <ele>41.3</ele>
			 </trkpt>
			 <trkpt lat="30.159989" lon="-95.460818">
				 <ele>41.3</ele>
			 </trkpt>
			 <trkpt lat="30.159993" lon="-95.460677">
				 <ele>41.2</ele>
			 </trkpt>
			 <trkpt lat="30.160006" lon="-95.460564">
				 <ele>41.1</ele>
			 </trkpt>
			 <trkpt lat="30.160039" lon="-95.460447">
				 <ele>41</ele>
			 </trkpt>
			 <trkpt lat="30.160047" lon="-95.460339">
				 <ele>41</ele>
			 </trkpt>
			 <trkpt lat="30.160037" lon="-95.460271">
				 <ele>41</ele>
			 </trkpt>
			 <trkpt lat="30.160027" lon="-95.460242">
				 <ele>41</ele>
			 </trkpt>
			 <trkpt lat="30.160018" lon="-95.460212">
				 <ele>41</ele>
			 </trkpt>
			 <trkpt lat="30.159985" lon="-95.460138">
				 <ele>41</ele>
			 </trkpt>
			 <trkpt lat="30.159921" lon="-95.460007">
				 <ele>41</ele>
			 </trkpt>
			 <trkpt lat="30.15991" lon="-95.459927">
				 <ele>41</ele>
			 </trkpt>
			 <trkpt lat="30.159916" lon="-95.459886">
				 <ele>41</ele>
			 </trkpt>
			 <trkpt lat="30.159801" lon="-95.45956">
				 <ele>41</ele>
			 </trkpt>
			 <trkpt lat="30.159767" lon="-95.459421">
				 <ele>41</ele>
			 </trkpt>
			 <trkpt lat="30.159729" lon="-95.459217">
				 <ele>41</ele>
			 </trkpt>
			 <trkpt lat="30.159718" lon="-95.459014">
				 <ele>41</ele>
			 </trkpt>
			 <trkpt lat="30.159717" lon="-95.458876">
				 <ele>41.1</ele>
			 </trkpt>
			 <trkpt lat="30.159715" lon="-95.458433">
				 <ele>41.2</ele>
			 </trkpt>
			 <trkpt lat="30.159703" lon="-95.458241">
				 <ele>41.3</ele>
			 </trkpt>
			 <trkpt lat="30.159665" lon="-95.457958">
				 <ele>41.4</ele>
			 </trkpt>
			 <trkpt lat="30.159628" lon="-95.457736">
				 <ele>41.5</ele>
			 </trkpt>
			 <trkpt lat="30.159613" lon="-95.457319">
				 <ele>41.5</ele>
			 </trkpt>
			 <trkpt lat="30.159651" lon="-95.457237">
				 <ele>41.5</ele>
			 </trkpt>
			 <trkpt lat="30.159724" lon="-95.457127">
				 <ele>41.5</ele>
			 </trkpt>
			 <trkpt lat="30.159793" lon="-95.457022">
				 <ele>41.5</ele>
			 </trkpt>
			 <trkpt lat="30.15983" lon="-95.456901">
				 <ele>41.5</ele>
			 </trkpt>
			 <trkpt lat="30.159863" lon="-95.456759">
				 <ele>41.5</ele>
			 </trkpt>
			 <trkpt lat="30.159876" lon="-95.456622">
				 <ele>41.4</ele>
			 </trkpt>
			 <trkpt lat="30.159878" lon="-95.456508">
				 <ele>41.3</ele>
			 </trkpt>
			 <trkpt lat="30.159832" lon="-95.45614">
				 <ele>41.2</ele>
			 </trkpt>
			 <trkpt lat="30.159795" lon="-95.455588">
				 <ele>41.1</ele>
			 </trkpt>
			 <trkpt lat="30.159828" lon="-95.455172">
				 <ele>41.1</ele>
			 </trkpt>
			 <trkpt lat="30.159793" lon="-95.455019">
				 <ele>41.2</ele>
			 </trkpt>
			 <trkpt lat="30.159775" lon="-95.454252">
				 <ele>41.3</ele>
			 </trkpt>
			 <trkpt lat="30.159759" lon="-95.454006">
				 <ele>41.4</ele>
			 </trkpt>
			 <trkpt lat="30.159743" lon="-95.453953">
				 <ele>41.4</ele>
			 </trkpt>
			 <trkpt lat="30.159659" lon="-95.45383">
				 <ele>41.4</ele>
			 </trkpt>
			 <trkpt lat="30.159646" lon="-95.4538">
				 <ele>41.4</ele>
			 </trkpt>
			 <trkpt lat="30.159628" lon="-95.453708">
				 <ele>41.4</ele>
			 </trkpt>
			 <trkpt lat="30.15961" lon="-95.453668">
				 <ele>41.4</ele>
			 </trkpt>
			 <trkpt lat="30.159524" lon="-95.45357">
				 <ele>41.4</ele>
			 </trkpt>
			 <trkpt lat="30.159492" lon="-95.453499">
				 <ele>41.4</ele>
			 </trkpt>
			 <trkpt lat="30.159425" lon="-95.45343">
				 <ele>41.3</ele>
			 </trkpt>
			 <trkpt lat="30.159272" lon="-95.45327">
				 <ele>41.2</ele>
			 </trkpt>
			 <trkpt lat="30.159151" lon="-95.453212">
				 <ele>41.1</ele>
			 </trkpt>
			 <trkpt lat="30.159043" lon="-95.453083">
				 <ele>41.2</ele>
			 </trkpt>
			 <trkpt lat="30.158973" lon="-95.452925">
				 <ele>41.4</ele>
			 </trkpt>
			 <trkpt lat="30.158962" lon="-95.452768">
				 <ele>41.5</ele>
			 </trkpt>
			 <trkpt lat="30.158954" lon="-95.452691">
				 <ele>41.6</ele>
			 </trkpt>
			 <trkpt lat="30.158916" lon="-95.452644">
				 <ele>41.8</ele>
			 </trkpt>
			 <trkpt lat="30.15873" lon="-95.45261">
				 <ele>42.1</ele>
			 </trkpt>
			 <trkpt lat="30.1587" lon="-95.45276">
				 <ele>42.4</ele>
			 </trkpt>
			 <trkpt lat="30.15859" lon="-95.45359">
				 <ele>42.6</ele>
			 </trkpt>
			 <trkpt lat="30.15857" lon="-95.45474">
				 <ele>42.9</ele>
			 </trkpt>
			 <trkpt lat="30.15856" lon="-95.45582">
				 <ele>43.3</ele>
			 </trkpt>
			 <trkpt lat="30.15857" lon="-95.45965">
				 <ele>43.6</ele>
			 </trkpt>
			 <trkpt lat="30.15856" lon="-95.46249">
				 <ele>43.8</ele>
			 </trkpt>
			 <trkpt lat="30.15856" lon="-95.4632">
				 <ele>44</ele>
			 </trkpt>
			 <trkpt lat="30.158544" lon="-95.463274">
				 <ele>44.1</ele>
			 </trkpt>
			 <trkpt lat="30.158534" lon="-95.463569">
				 <ele>44.3</ele>
			 </trkpt>
			 <trkpt lat="30.158493" lon="-95.464399">
				 <ele>44.4</ele>
			 </trkpt>
			 <trkpt lat="30.158417" lon="-95.465102">
				 <ele>44.4</ele>
			 </trkpt>
			 <trkpt lat="30.158384" lon="-95.465392">
				 <ele>44.4</ele>
			 </trkpt>
			 <trkpt lat="30.158368" lon="-95.465526">
				 <ele>44.4</ele>
			 </trkpt>
			 <trkpt lat="30.158349" lon="-95.465661">
				 <ele>44.4</ele>
			 </trkpt>
			 <trkpt lat="30.158338" lon="-95.465761">
				 <ele>44.3</ele>
			 </trkpt>
			 <trkpt lat="30.15824" lon="-95.466643">
				 <ele>44.2</ele>
			 </trkpt>
			 <trkpt lat="30.158186" lon="-95.467134">
				 <ele>44.1</ele>
			 </trkpt>
			 <trkpt lat="30.158111" lon="-95.46778">
				 <ele>44</ele>
			 </trkpt>
			 <trkpt lat="30.15808" lon="-95.468024">
				 <ele>44</ele>
			 </trkpt>
			 <trkpt lat="30.158036" lon="-95.468411">
				 <ele>44</ele>
			 </trkpt>
			 <trkpt lat="30.158032" lon="-95.468543">
				 <ele>44</ele>
			 </trkpt>
			 <trkpt lat="30.158043" lon="-95.468776">
				 <ele>44</ele>
			 </trkpt>
			 <trkpt lat="30.158053" lon="-95.468878">
				 <ele>44</ele>
			 </trkpt>
			 <trkpt lat="30.158075" lon="-95.468974">
				 <ele>44</ele>
			 </trkpt>
			 <trkpt lat="30.158099" lon="-95.469076">
				 <ele>44</ele>
			 </trkpt>
			 <trkpt lat="30.158138" lon="-95.469205">
				 <ele>44</ele>
			 </trkpt>
			 <trkpt lat="30.158203" lon="-95.469379">
				 <ele>44.1</ele>
			 </trkpt>
			 <trkpt lat="30.158239" lon="-95.46946">
				 <ele>44.1</ele>
			 </trkpt>
			 <trkpt lat="30.158272" lon="-95.46953">
				 <ele>44.2</ele>
			 </trkpt>
			 <trkpt lat="30.158442" lon="-95.469887">
				 <ele>44.3</ele>
			 </trkpt>
			 <trkpt lat="30.158674" lon="-95.470342">
				 <ele>44.3</ele>
			 </trkpt>
			 <trkpt lat="30.158832" lon="-95.470653">
				 <ele>44.3</ele>
			 </trkpt>
			 <trkpt lat="30.15889" lon="-95.470767">
				 <ele>44.3</ele>
			 </trkpt>
			 <trkpt lat="30.158482" lon="-95.471026">
				 <ele>44.3</ele>
			 </trkpt>
			 <trkpt lat="30.158088" lon="-95.471278">
				 <ele>44.3</ele>
			 </trkpt>
			 <trkpt lat="30.157695" lon="-95.471529">
				 <ele>44.3</ele>
			 </trkpt>
			 <trkpt lat="30.157525" lon="-95.471637">
				 <ele>44.4</ele>
			 </trkpt>
			 <trkpt lat="30.157127" lon="-95.471879">
				 <ele>44.3</ele>
			 </trkpt>
			 <trkpt lat="30.156729" lon="-95.472121">
				 <ele>44.3</ele>
			 </trkpt>
			 <trkpt lat="30.156331" lon="-95.472363">
				 <ele>44.2</ele>
			 </trkpt>
			 <trkpt lat="30.155981" lon="-95.472593">
				 <ele>44.1</ele>
			 </trkpt>
			 <trkpt lat="30.155564" lon="-95.472791">
				 <ele>44.1</ele>
			 </trkpt>
			 <trkpt lat="30.155193" lon="-95.472967">
				 <ele>44</ele>
			 </trkpt>
			 <trkpt lat="30.154888" lon="-95.473106">
				 <ele>44</ele>
			 </trkpt>
			 <trkpt lat="30.15445" lon="-95.473224">
				 <ele>44</ele>
			 </trkpt>
			 <trkpt lat="30.154408" lon="-95.473236">
				 <ele>44</ele>
			 </trkpt>
			 <trkpt lat="30.154069" lon="-95.473335">
				 <ele>44</ele>
			 </trkpt>
			 <trkpt lat="30.153674" lon="-95.473397">
				 <ele>43.9</ele>
			 </trkpt>
			 <trkpt lat="30.153226" lon="-95.473442">
				 <ele>43.9</ele>
			 </trkpt>
			 <trkpt lat="30.153102" lon="-95.473455">
				 <ele>43.9</ele>
			 </trkpt>
			 <trkpt lat="30.152653" lon="-95.473435">
				 <ele>43.9</ele>
			 </trkpt>
			 <trkpt lat="30.152303" lon="-95.47342">
				 <ele>43.9</ele>
			 </trkpt>
			 <trkpt lat="30.151857" lon="-95.473357">
				 <ele>43.9</ele>
			 </trkpt>
			 <trkpt lat="30.151452" lon="-95.473264">
				 <ele>44</ele>
			 </trkpt>
			 <trkpt lat="30.151019" lon="-95.473123">
				 <ele>44</ele>
			 </trkpt>
			 <trkpt lat="30.150644" lon="-95.473001">
				 <ele>44</ele>
			 </trkpt>
			 <trkpt lat="30.150227" lon="-95.472805">
				 <ele>44</ele>
			 </trkpt>
			 <trkpt lat="30.149854" lon="-95.472629">
				 <ele>44</ele>
			 </trkpt>
			 <trkpt lat="30.149455" lon="-95.472389">
				 <ele>44</ele>
			 </trkpt>
			 <trkpt lat="30.149087" lon="-95.472168">
				 <ele>43.9</ele>
			 </trkpt>
			 <trkpt lat="30.148701" lon="-95.471901">
				 <ele>43.8</ele>
			 </trkpt>
			 <trkpt lat="30.148315" lon="-95.471634">
				 <ele>43.6</ele>
			 </trkpt>
			 <trkpt lat="30.147929" lon="-95.471367">
				 <ele>43.5</ele>
			 </trkpt>
			 <trkpt lat="30.147746" lon="-95.471241">
				 <ele>43.3</ele>
			 </trkpt>
			 <trkpt lat="30.147354" lon="-95.470987">
				 <ele>43.1</ele>
			 </trkpt>
			 <trkpt lat="30.146962" lon="-95.470733">
				 <ele>43</ele>
			 </trkpt>
			 <trkpt lat="30.14657" lon="-95.470478">
				 <ele>42.8</ele>
			 </trkpt>
			 <trkpt lat="30.146178" lon="-95.470224">
				 <ele>42.7</ele>
			 </trkpt>
			 <trkpt lat="30.145785" lon="-95.46997">
				 <ele>42.5</ele>
			 </trkpt>
			 <trkpt lat="30.145393" lon="-95.469715">
				 <ele>42.4</ele>
			 </trkpt>
			 <trkpt lat="30.145125" lon="-95.469541">
				 <ele>42.3</ele>
			 </trkpt>
			 <trkpt lat="30.144724" lon="-95.469306">
				 <ele>42.2</ele>
			 </trkpt>
			 <trkpt lat="30.144324" lon="-95.46907">
				 <ele>42.2</ele>
			 </trkpt>
			 <trkpt lat="30.143923" lon="-95.468834">
				 <ele>42.2</ele>
			 </trkpt>
			 <trkpt lat="30.14389" lon="-95.468814">
				 <ele>42.3</ele>
			 </trkpt>
			 <trkpt lat="30.143473" lon="-95.468621">
				 <ele>42.4</ele>
			 </trkpt>
			 <trkpt lat="30.143055" lon="-95.468428">
				 <ele>42.4</ele>
			 </trkpt>
			 <trkpt lat="30.142638" lon="-95.468234">
				 <ele>42.5</ele>
			 </trkpt>
			 <trkpt lat="30.142458" lon="-95.468151">
				 <ele>42.5</ele>
			 </trkpt>
			 <trkpt lat="30.142033" lon="-95.467979">
				 <ele>42.5</ele>
			 </trkpt>
			 <trkpt lat="30.141609" lon="-95.467808">
				 <ele>42.6</ele>
			 </trkpt>
			 <trkpt lat="30.141415" lon="-95.46773">
				 <ele>42.6</ele>
			 </trkpt>
			 <trkpt lat="30.141313" lon="-95.467773">
				 <ele>42.6</ele>
			 </trkpt>
			 <trkpt lat="30.141367" lon="-95.467903">
				 <ele>42.6</ele>
			 </trkpt>
			 <trkpt lat="30.141733" lon="-95.468205">
				 <ele>42.6</ele>
			 </trkpt>
			 <trkpt lat="30.141816" lon="-95.468274">
				 <ele>42.6</ele>
			 </trkpt>
			 <trkpt lat="30.142227" lon="-95.468485">
				 <ele>42.5</ele>
			 </trkpt>
			 <trkpt lat="30.142638" lon="-95.468696">
				 <ele>42.5</ele>
			 </trkpt>
			 <trkpt lat="30.142826" lon="-95.468792">
				 <ele>42.4</ele>
			 </trkpt>
			 <trkpt lat="30.143239" lon="-95.468998">
				 <ele>42.3</ele>
			 </trkpt>
			 <trkpt lat="30.143652" lon="-95.469204">
				 <ele>42.2</ele>
			 </trkpt>
			 <trkpt lat="30.144065" lon="-95.46941">
				 <ele>42.1</ele>
			 </trkpt>
			 <trkpt lat="30.144181" lon="-95.469468">
				 <ele>42.2</ele>
			 </trkpt>
			 <trkpt lat="30.144582" lon="-95.469703">
				 <ele>42.3</ele>
			 </trkpt>
			 <trkpt lat="30.144983" lon="-95.469938">
				 <ele>42.4</ele>
			 </trkpt>
			 <trkpt lat="30.145346" lon="-95.470151">
				 <ele>42.5</ele>
			 </trkpt>
			 <trkpt lat="30.145742" lon="-95.470397">
				 <ele>42.5</ele>
			 </trkpt>
			 <trkpt lat="30.146138" lon="-95.470644">
				 <ele>42.7</ele>
			 </trkpt>
			 <trkpt lat="30.146534" lon="-95.47089">
				 <ele>42.9</ele>
			 </trkpt>
			 <trkpt lat="30.14693" lon="-95.471136">
				 <ele>43.1</ele>
			 </trkpt>
			 <trkpt lat="30.147326" lon="-95.471383">
				 <ele>43.3</ele>
			 </trkpt>
			 <trkpt lat="30.147722" lon="-95.471629">
				 <ele>43.5</ele>
			 </trkpt>
			 <trkpt lat="30.148118" lon="-95.471876">
				 <ele>43.6</ele>
			 </trkpt>
			 <trkpt lat="30.148514" lon="-95.472122">
				 <ele>43.7</ele>
			 </trkpt>
			 <trkpt lat="30.14891" lon="-95.472368">
				 <ele>43.8</ele>
			 </trkpt>
			 <trkpt lat="30.149306" lon="-95.472615">
				 <ele>43.9</ele>
			 </trkpt>
			 <trkpt lat="30.149702" lon="-95.472861">
				 <ele>44</ele>
			 </trkpt>
			 <trkpt lat="30.14992" lon="-95.472997">
				 <ele>44</ele>
			 </trkpt>
			 <trkpt lat="30.150342" lon="-95.473175">
				 <ele>44</ele>
			 </trkpt>
			 <trkpt lat="30.150649" lon="-95.473304">
				 <ele>44</ele>
			 </trkpt>
			 <trkpt lat="30.151084" lon="-95.473433">
				 <ele>44</ele>
			 </trkpt>
			 <trkpt lat="30.151289" lon="-95.473494">
				 <ele>44</ele>
			 </trkpt>
			 <trkpt lat="30.151729" lon="-95.473599">
				 <ele>44</ele>
			 </trkpt>
			 <trkpt lat="30.151923" lon="-95.473644">
				 <ele>44</ele>
			 </trkpt>
			 <trkpt lat="30.152264" lon="-95.473679">
				 <ele>44</ele>
			 </trkpt>
			 <trkpt lat="30.152713" lon="-95.473687">
				 <ele>44</ele>
			 </trkpt>
			 <trkpt lat="30.153163" lon="-95.473695">
				 <ele>44</ele>
			 </trkpt>
			 <trkpt lat="30.153235" lon="-95.473696">
				 <ele>44</ele>
			 </trkpt>
			 <trkpt lat="30.153683" lon="-95.473649">
				 <ele>44</ele>
			 </trkpt>
			 <trkpt lat="30.153818" lon="-95.473635">
				 <ele>44</ele>
			 </trkpt>
			 <trkpt lat="30.154257" lon="-95.473522">
				 <ele>44</ele>
			 </trkpt>
			 <trkpt lat="30.154696" lon="-95.473409">
				 <ele>44</ele>
			 </trkpt>
			 <trkpt lat="30.15483" lon="-95.473375">
				 <ele>44</ele>
			 </trkpt>
			 <trkpt lat="30.155257" lon="-95.473212">
				 <ele>44</ele>
			 </trkpt>
			 <trkpt lat="30.15532" lon="-95.473188">
				 <ele>44</ele>
			 </trkpt>
			 <trkpt lat="30.155732" lon="-95.47298">
				 <ele>44</ele>
			 </trkpt>
			 <trkpt lat="30.156104" lon="-95.472793">
				 <ele>44</ele>
			 </trkpt>
			 <trkpt lat="30.15638" lon="-95.47307">
				 <ele>44</ele>
			 </trkpt>
			 <trkpt lat="30.156427" lon="-95.473122">
				 <ele>43.9</ele>
			 </trkpt>
			 <trkpt lat="30.15645" lon="-95.473243">
				 <ele>43.8</ele>
			 </trkpt>
			 <trkpt lat="30.156333" lon="-95.473516">
				 <ele>43.7</ele>
			 </trkpt>
			 <trkpt lat="30.156341" lon="-95.473863">
				 <ele>43.5</ele>
			 </trkpt>
			 <trkpt lat="30.156322" lon="-95.473904">
				 <ele>43.3</ele>
			 </trkpt>
			 <trkpt lat="30.156237" lon="-95.474083">
				 <ele>43</ele>
			 </trkpt>
			 <trkpt lat="30.156175" lon="-95.474495">
				 <ele>42.7</ele>
			 </trkpt>
			 <trkpt lat="30.155919" lon="-95.475032">
				 <ele>42.5</ele>
			 </trkpt>
			 <trkpt lat="30.155852" lon="-95.475319">
				 <ele>42.2</ele>
			 </trkpt>
			 <trkpt lat="30.15562" lon="-95.475992">
				 <ele>42</ele>
			 </trkpt>
			 <trkpt lat="30.15549" lon="-95.47622">
				 <ele>41.8</ele>
			 </trkpt>
			 <trkpt lat="30.155444" lon="-95.476545">
				 <ele>41.7</ele>
			 </trkpt>
			 <trkpt lat="30.155299" lon="-95.477022">
				 <ele>41.6</ele>
			 </trkpt>
			 <trkpt lat="30.155242" lon="-95.477165">
				 <ele>41.5</ele>
			 </trkpt>
			 <trkpt lat="30.155194" lon="-95.477258">
				 <ele>41.5</ele>
			 </trkpt>
			 <trkpt lat="30.155155" lon="-95.477301">
				 <ele>41.4</ele>
			 </trkpt>
			 <trkpt lat="30.155119" lon="-95.477473">
				 <ele>41.4</ele>
			 </trkpt>
			 <trkpt lat="30.155135" lon="-95.477551">
				 <ele>41.4</ele>
			 </trkpt>
			 <trkpt lat="30.155144" lon="-95.477596">
				 <ele>41.4</ele>
			 </trkpt>
			 <trkpt lat="30.155144" lon="-95.477733">
				 <ele>41.4</ele>
			 </trkpt>
			 <trkpt lat="30.155148" lon="-95.477888">
				 <ele>41.3</ele>
			 </trkpt>
			 <trkpt lat="30.155041" lon="-95.478148">
				 <ele>41.2</ele>
			 </trkpt>
			 <trkpt lat="30.155034" lon="-95.478333">
				 <ele>41.1</ele>
			 </trkpt>
			 <trkpt lat="30.154955" lon="-95.478572">
				 <ele>40.9</ele>
			 </trkpt>
			 <trkpt lat="30.154902" lon="-95.478934">
				 <ele>40.7</ele>
			 </trkpt>
			 <trkpt lat="30.15476" lon="-95.480213">
				 <ele>40.5</ele>
			 </trkpt>
			 <trkpt lat="30.154703" lon="-95.480654">
				 <ele>40.5</ele>
			 </trkpt>
			 <trkpt lat="30.154692" lon="-95.480767">
				 <ele>40.3</ele>
			 </trkpt>
			 <trkpt lat="30.154711" lon="-95.481298">
				 <ele>40.1</ele>
			 </trkpt>
			 <trkpt lat="30.154743" lon="-95.481561">
				 <ele>39.5</ele>
			 </trkpt>
			 <trkpt lat="30.154749" lon="-95.481668">
				 <ele>39.3</ele>
			 </trkpt>
			 <trkpt lat="30.154702" lon="-95.481792">
				 <ele>39.1</ele>
			 </trkpt>
			 <trkpt lat="30.154563" lon="-95.482017">
				 <ele>38.9</ele>
			 </trkpt>
			 <trkpt lat="30.15453" lon="-95.482108">
				 <ele>38.7</ele>
			 </trkpt>
			 <trkpt lat="30.154543" lon="-95.482349">
				 <ele>38.6</ele>
			 </trkpt>
			 <trkpt lat="30.154604" lon="-95.483449">
				 <ele>38.5</ele>
			 </trkpt>
			 <trkpt lat="30.154665" lon="-95.483546">
				 <ele>38.5</ele>
			 </trkpt>
			 <trkpt lat="30.154832" lon="-95.48376">
				 <ele>38.5</ele>
			 </trkpt>
			 <trkpt lat="30.154967" lon="-95.483905">
				 <ele>38.5</ele>
			 </trkpt>
			 <trkpt lat="30.155004" lon="-95.483991">
				 <ele>38.5</ele>
			 </trkpt>
			 <trkpt lat="30.155032" lon="-95.484109">
				 <ele>38.9</ele>
			 </trkpt>
			 <trkpt lat="30.155036" lon="-95.484334">
				 <ele>39</ele>
			 </trkpt>
			 <trkpt lat="30.155092" lon="-95.484645">
				 <ele>39</ele>
			 </trkpt>
			 <trkpt lat="30.155129" lon="-95.484716">
				 <ele>39</ele>
			 </trkpt>
			 <trkpt lat="30.155176" lon="-95.484769">
				 <ele>39</ele>
			 </trkpt>
			 <trkpt lat="30.155301" lon="-95.484817">
				 <ele>39</ele>
			 </trkpt>
			 <trkpt lat="30.155352" lon="-95.484876">
				 <ele>39</ele>
			 </trkpt>
			 <trkpt lat="30.155412" lon="-95.484983">
				 <ele>39</ele>
			 </trkpt>
			 <trkpt lat="30.155426" lon="-95.485101">
				 <ele>39</ele>
			 </trkpt>
			 <trkpt lat="30.15537" lon="-95.485321">
				 <ele>39</ele>
			 </trkpt>
			 <trkpt lat="30.155259" lon="-95.485488">
				 <ele>39.1</ele>
			 </trkpt>
			 <trkpt lat="30.155231" lon="-95.485547">
				 <ele>39.5</ele>
			 </trkpt>
			 <trkpt lat="30.155222" lon="-95.485611">
				 <ele>40</ele>
			 </trkpt>
			 <trkpt lat="30.155232" lon="-95.485682">
				 <ele>40.5</ele>
			 </trkpt>
			 <trkpt lat="30.1557" lon="-95.4871">
				 <ele>41.1</ele>
			 </trkpt>
			 <trkpt lat="30.15613" lon="-95.48813">
				 <ele>41.6</ele>
			 </trkpt>
			 <trkpt lat="30.15739" lon="-95.49088">
				 <ele>42.3</ele>
			 </trkpt>
			 <trkpt lat="30.15748" lon="-95.49106">
				 <ele>42.8</ele>
			 </trkpt>
			 <trkpt lat="30.15795" lon="-95.49207">
				 <ele>43.3</ele>
			 </trkpt>
			 <trkpt lat="30.15787" lon="-95.49222">
				 <ele>43.5</ele>
			 </trkpt>
			 <trkpt lat="30.15782" lon="-95.49228">
				 <ele>44</ele>
			 </trkpt>
			 <trkpt lat="30.15804" lon="-95.49276">
				 <ele>44.4</ele>
			 </trkpt>
			 <trkpt lat="30.1584" lon="-95.49354">
				 <ele>44.4</ele>
			 </trkpt>
			 <trkpt lat="30.15993" lon="-95.49686">
				 <ele>44.5</ele>
			 </trkpt>
			 <trkpt lat="30.16024" lon="-95.49751">
				 <ele>44.8</ele>
			 </trkpt>
			 <trkpt lat="30.16088" lon="-95.49862">
				 <ele>45.2</ele>
			 </trkpt>
			 <trkpt lat="30.16116" lon="-95.49906">
				 <ele>45.5</ele>
			 </trkpt>
			 <trkpt lat="30.16141" lon="-95.4994">
				 <ele>45.7</ele>
			 </trkpt>
			 <trkpt lat="30.16253" lon="-95.50075">
				 <ele>46</ele>
			 </trkpt>
			 <trkpt lat="30.16433" lon="-95.50285">
				 <ele>46.4</ele>
			 </trkpt>
			 <trkpt lat="30.16536" lon="-95.50384">
				 <ele>46.9</ele>
			 </trkpt>
			 <trkpt lat="30.165335" lon="-95.503816">
				 <ele>47.3</ele>
			 </trkpt>
			 <trkpt lat="30.165953" lon="-95.503029">
				 <ele>47.6</ele>
			 </trkpt>
			 <trkpt lat="30.166167" lon="-95.502753">
				 <ele>48</ele>
			 </trkpt>
			 <trkpt lat="30.166217" lon="-95.502686">
				 <ele>48.2</ele>
			 </trkpt>
			 <trkpt lat="30.166363" lon="-95.502467">
				 <ele>48.2</ele>
			 </trkpt>
			 <trkpt lat="30.16653" lon="-95.502257">
				 <ele>48.1</ele>
			 </trkpt>
			 <trkpt lat="30.16667" lon="-95.50208">
				 <ele>47.9</ele>
			 </trkpt>
			 <trkpt lat="30.166745" lon="-95.501987">
				 <ele>47.8</ele>
			 </trkpt>
			 <trkpt lat="30.166817" lon="-95.501887">
				 <ele>47.8</ele>
			 </trkpt>
			 <trkpt lat="30.166989" lon="-95.501651">
				 <ele>47.8</ele>
			 </trkpt>
			 <trkpt lat="30.167106" lon="-95.501491">
				 <ele>47.8</ele>
			 </trkpt>
			 <trkpt lat="30.167361" lon="-95.501159">
				 <ele>47.8</ele>
			 </trkpt>
			 <trkpt lat="30.167429" lon="-95.501067">
				 <ele>47.8</ele>
			 </trkpt>
			 <trkpt lat="30.167818" lon="-95.500601">
				 <ele>47.9</ele>
			 </trkpt>
			 <trkpt lat="30.167945" lon="-95.500536">
				 <ele>48</ele>
			 </trkpt>
			 <trkpt lat="30.167992" lon="-95.500512">
				 <ele>48.1</ele>
			 </trkpt>
			 <trkpt lat="30.168083" lon="-95.500443">
				 <ele>48.2</ele>
			 </trkpt>
			 <trkpt lat="30.168288" lon="-95.500305">
				 <ele>48.3</ele>
			 </trkpt>
			 <trkpt lat="30.16851" lon="-95.500131">
				 <ele>48.4</ele>
			 </trkpt>
			 <trkpt lat="30.168652" lon="-95.500034">
				 <ele>48.4</ele>
			 </trkpt>
			 <trkpt lat="30.16875" lon="-95.499967">
				 <ele>48.4</ele>
			 </trkpt>
			 <trkpt lat="30.169626" lon="-95.499596">
				 <ele>48.4</ele>
			 </trkpt>
			 <trkpt lat="30.170006" lon="-95.499471">
				 <ele>48.4</ele>
			 </trkpt>
			 <trkpt lat="30.170105" lon="-95.499437">
				 <ele>48.5</ele>
			 </trkpt>
			 <trkpt lat="30.171456" lon="-95.498963">
				 <ele>48.5</ele>
			 </trkpt>
			 <trkpt lat="30.171559" lon="-95.498927">
				 <ele>48.5</ele>
			 </trkpt>
			 <trkpt lat="30.172073" lon="-95.49875">
				 <ele>48.5</ele>
			 </trkpt>
			 <trkpt lat="30.172325" lon="-95.498663">
				 <ele>48.4</ele>
			 </trkpt>
			 <trkpt lat="30.173083" lon="-95.49839">
				 <ele>48.4</ele>
			 </trkpt>
			 <trkpt lat="30.173461" lon="-95.498214">
				 <ele>48.4</ele>
			 </trkpt>
			 <trkpt lat="30.173579" lon="-95.498155">
				 <ele>48.4</ele>
			 </trkpt>
			 <trkpt lat="30.173928" lon="-95.497974">
				 <ele>48.5</ele>
			 </trkpt>
			 <trkpt lat="30.174428" lon="-95.497688">
				 <ele>48.5</ele>
			 </trkpt>
			 <trkpt lat="30.174754" lon="-95.497492">
				 <ele>48.6</ele>
			 </trkpt>
			 <trkpt lat="30.174895" lon="-95.497402">
				 <ele>48.6</ele>
			 </trkpt>
			 <trkpt lat="30.175417" lon="-95.497052">
				 <ele>48.6</ele>
			 </trkpt>
			 <trkpt lat="30.175644" lon="-95.496889">
				 <ele>48.6</ele>
			 </trkpt>
			 <trkpt lat="30.175908" lon="-95.496681">
				 <ele>48.6</ele>
			 </trkpt>
			 <trkpt lat="30.176102" lon="-95.496536">
				 <ele>48.7</ele>
			 </trkpt>
			 <trkpt lat="30.176616" lon="-95.496089">
				 <ele>48.8</ele>
			 </trkpt>
			 <trkpt lat="30.176788" lon="-95.495928">
				 <ele>48.8</ele>
			 </trkpt>
			 <trkpt lat="30.177006" lon="-95.49568">
				 <ele>48.8</ele>
			 </trkpt>
			 <trkpt lat="30.177026" lon="-95.495656">
				 <ele>48.8</ele>
			 </trkpt>
			 <trkpt lat="30.177079" lon="-95.495591">
				 <ele>48.8</ele>
			 </trkpt>
			 <trkpt lat="30.176994" lon="-95.495517">
				 <ele>48.8</ele>
			 </trkpt>
			 <trkpt lat="30.176382" lon="-95.49499">
				 <ele>48.7</ele>
			 </trkpt>
			 <trkpt lat="30.175902" lon="-95.494637">
				 <ele>48.6</ele>
			 </trkpt>
			 <trkpt lat="30.175503" lon="-95.494366">
				 <ele>48.5</ele>
			 </trkpt>
			 <trkpt lat="30.17507" lon="-95.494105">
				 <ele>48.5</ele>
			 </trkpt>
			 <trkpt lat="30.174634" lon="-95.493877">
				 <ele>48.4</ele>
			 </trkpt>
			 <trkpt lat="30.173395" lon="-95.493249">
				 <ele>48.3</ele>
			 </trkpt>
			 <trkpt lat="30.173068" lon="-95.493059">
				 <ele>48.3</ele>
			 </trkpt>
			 <trkpt lat="30.172989" lon="-95.493005">
				 <ele>48.3</ele>
			 </trkpt>
			 <trkpt lat="30.172825" lon="-95.492896">
				 <ele>48.1</ele>
			 </trkpt>
			 <trkpt lat="30.172689" lon="-95.492795">
				 <ele>47.8</ele>
			 </trkpt>
			 <trkpt lat="30.172613" lon="-95.492739">
				 <ele>47.5</ele>
			 </trkpt>
			 <trkpt lat="30.172532" lon="-95.492679">
				 <ele>47.4</ele>
			 </trkpt>
			 <trkpt lat="30.172479" lon="-95.492634">
				 <ele>47.1</ele>
			 </trkpt>
			 <trkpt lat="30.172073" lon="-95.492271">
				 <ele>46.7</ele>
			 </trkpt>
			 <trkpt lat="30.171863" lon="-95.492058">
				 <ele>46.4</ele>
			 </trkpt>
			 <trkpt lat="30.171673" lon="-95.491843">
				 <ele>46.1</ele>
			 </trkpt>
			 <trkpt lat="30.171623" lon="-95.491785">
				 <ele>45.8</ele>
			 </trkpt>
			 <trkpt lat="30.171403" lon="-95.491498">
				 <ele>45.5</ele>
			 </trkpt>
			 <trkpt lat="30.171234" lon="-95.491241">
				 <ele>45.2</ele>
			 </trkpt>
			 <trkpt lat="30.170689" lon="-95.490326">
				 <ele>44.9</ele>
			 </trkpt>
			 <trkpt lat="30.169192" lon="-95.487705">
				 <ele>44.6</ele>
			 </trkpt>
			 <trkpt lat="30.168903" lon="-95.487218">
				 <ele>44.4</ele>
			 </trkpt>
			 <trkpt lat="30.168667" lon="-95.486748">
				 <ele>44.1</ele>
			 </trkpt>
			 <trkpt lat="30.16837" lon="-95.485986">
				 <ele>43.9</ele>
			 </trkpt>
			 <trkpt lat="30.168273" lon="-95.485608">
				 <ele>43.8</ele>
			 </trkpt>
			 <trkpt lat="30.168216" lon="-95.485315">
				 <ele>43.6</ele>
			 </trkpt>
			 <trkpt lat="30.168148" lon="-95.48496">
				 <ele>43.4</ele>
			 </trkpt>
			 <trkpt lat="30.168121" lon="-95.484819">
				 <ele>43.1</ele>
			 </trkpt>
			 <trkpt lat="30.168105" lon="-95.484719">
				 <ele>42.9</ele>
			 </trkpt>
			 <trkpt lat="30.16805" lon="-95.484332">
				 <ele>42.7</ele>
			 </trkpt>
			 <trkpt lat="30.168032" lon="-95.483746">
				 <ele>42.5</ele>
			 </trkpt>
			 <trkpt lat="30.168066" lon="-95.483157">
				 <ele>42.4</ele>
			 </trkpt>
			 <trkpt lat="30.168127" lon="-95.482661">
				 <ele>42.2</ele>
			 </trkpt>
			 <trkpt lat="30.16821" lon="-95.482167">
				 <ele>42</ele>
			 </trkpt>
			 <trkpt lat="30.168326" lon="-95.481727">
				 <ele>41.8</ele>
			 </trkpt>
			 <trkpt lat="30.168352" lon="-95.48166">
				 <ele>41.5</ele>
			 </trkpt>
			 <trkpt lat="30.168589" lon="-95.481058">
				 <ele>41.4</ele>
			 </trkpt>
			 <trkpt lat="30.16862" lon="-95.480981">
				 <ele>41.1</ele>
			 </trkpt>
			 <trkpt lat="30.168671" lon="-95.480852">
				 <ele>40.8</ele>
			 </trkpt>
			 <trkpt lat="30.168723" lon="-95.480713">
				 <ele>40.5</ele>
			 </trkpt>
			 <trkpt lat="30.168818" lon="-95.480471">
				 <ele>40.3</ele>
			 </trkpt>
			 <trkpt lat="30.169234" lon="-95.47952">
				 <ele>40.1</ele>
			 </trkpt>
			 <trkpt lat="30.16939" lon="-95.479056">
				 <ele>40</ele>
			 </trkpt>
			 <trkpt lat="30.169485" lon="-95.478688">
				 <ele>39.9</ele>
			 </trkpt>
			 <trkpt lat="30.169567" lon="-95.478301">
				 <ele>39.8</ele>
			 </trkpt>
			 <trkpt lat="30.169622" lon="-95.477972">
				 <ele>39.7</ele>
			 </trkpt>
			 <trkpt lat="30.169655" lon="-95.477687">
				 <ele>39.7</ele>
			 </trkpt>
			 <trkpt lat="30.169664" lon="-95.477609">
				 <ele>39.7</ele>
			 </trkpt>
			 <trkpt lat="30.16969" lon="-95.477163">
				 <ele>40</ele>
			 </trkpt>
			 <trkpt lat="30.169688" lon="-95.477043">
				 <ele>40</ele>
			 </trkpt>
			 <trkpt lat="30.169689" lon="-95.476918">
				 <ele>40.3</ele>
			 </trkpt>
			 <trkpt lat="30.169688" lon="-95.476822">
				 <ele>40.5</ele>
			 </trkpt>
			 <trkpt lat="30.169667" lon="-95.476558">
				 <ele>40.6</ele>
			 </trkpt>
			 <trkpt lat="30.169586" lon="-95.475949">
				 <ele>40.7</ele>
			 </trkpt>
			 <trkpt lat="30.16947" lon="-95.475362">
				 <ele>40.8</ele>
			 </trkpt>
			 <trkpt lat="30.169089" lon="-95.473838">
				 <ele>40.9</ele>
			 </trkpt>
			 <trkpt lat="30.168982" lon="-95.473444">
				 <ele>41</ele>
			 </trkpt>
			 <trkpt lat="30.168886" lon="-95.473132">
				 <ele>41.1</ele>
			 </trkpt>
			 <trkpt lat="30.168814" lon="-95.472963">
				 <ele>41.2</ele>
			 </trkpt>
			 <trkpt lat="30.168709" lon="-95.472716">
				 <ele>41.1</ele>
			 </trkpt>
			 <trkpt lat="30.168609" lon="-95.472519">
				 <ele>41.3</ele>
			 </trkpt>
			 <trkpt lat="30.168568" lon="-95.472429">
				 <ele>41.3</ele>
			 </trkpt>
			 <trkpt lat="30.168474" lon="-95.47226">
				 <ele>41.3</ele>
			 </trkpt>
			 <trkpt lat="30.168354" lon="-95.472041">
				 <ele>41.3</ele>
			 </trkpt>
			 <trkpt lat="30.168232" lon="-95.471844">
				 <ele>41.3</ele>
			 </trkpt>
			 <trkpt lat="30.168076" lon="-95.471593">
				 <ele>41.3</ele>
			 </trkpt>
			 <trkpt lat="30.167834" lon="-95.471297">
				 <ele>41.3</ele>
			 </trkpt>
			 <trkpt lat="30.167746" lon="-95.471189">
				 <ele>41.3</ele>
			 </trkpt>
			 <trkpt lat="30.167724" lon="-95.471207">
				 <ele>41.3</ele>
			 </trkpt>
			 <trkpt lat="30.167679" lon="-95.471245">
				 <ele>41.3</ele>
			 </trkpt>
			 <trkpt lat="30.16751" lon="-95.471406">
				 <ele>41.2</ele>
			 </trkpt>
			 <trkpt lat="30.167408" lon="-95.471515">
				 <ele>41.1</ele>
			 </trkpt>
			 <trkpt lat="30.167366" lon="-95.471547">
				 <ele>40.9</ele>
			 </trkpt>
			 <trkpt lat="30.167315" lon="-95.471544">
				 <ele>40.7</ele>
			 </trkpt>
			 <trkpt lat="30.167276" lon="-95.471507">
				 <ele>40.5</ele>
			 </trkpt>
			 <trkpt lat="30.167226" lon="-95.471556">
				 <ele>40.5</ele>
			 </trkpt>
			 <trkpt lat="30.166967" lon="-95.471806">
				 <ele>40.4</ele>
			 </trkpt>
			 <trkpt lat="30.166857" lon="-95.471879">
				 <ele>40.3</ele>
			 </trkpt>
			 <trkpt lat="30.166762" lon="-95.471918">
				 <ele>40.2</ele>
			 </trkpt>
			 <trkpt lat="30.166689" lon="-95.471932">
				 <ele>40.1</ele>
			 </trkpt>
			 <trkpt lat="30.166614" lon="-95.471926">
				 <ele>40</ele>
			 </trkpt>
			 <trkpt lat="30.16651" lon="-95.471883">
				 <ele>40</ele>
			 </trkpt>
			 <trkpt lat="30.166398" lon="-95.471816">
				 <ele>40.1</ele>
			 </trkpt>
			 <trkpt lat="30.166276" lon="-95.471772">
				 <ele>40.2</ele>
			 </trkpt>
			 <trkpt lat="30.166089" lon="-95.471729">
				 <ele>40.3</ele>
			 </trkpt>
			 <trkpt lat="30.165929" lon="-95.471675">
				 <ele>40.4</ele>
			 </trkpt>
			 <trkpt lat="30.165792" lon="-95.471596">
				 <ele>40.5</ele>
			 </trkpt>
			 <trkpt lat="30.165427" lon="-95.471294">
				 <ele>40.5</ele>
			 </trkpt>
			 <trkpt lat="30.165063" lon="-95.470989">
				 <ele>40.5</ele>
			 </trkpt>
			 <trkpt lat="30.164698" lon="-95.470684">
				 <ele>40.6</ele>
			 </trkpt>
			 <trkpt lat="30.164376" lon="-95.470414">
				 <ele>40.6</ele>
			 </trkpt>
			 <trkpt lat="30.164333" lon="-95.470474">
				 <ele>40.6</ele>
			 </trkpt>
			 <trkpt lat="30.164705" lon="-95.470766">
				 <ele>40.6</ele>
			 </trkpt>
			 <trkpt lat="30.165076" lon="-95.471059">
				 <ele>40.4</ele>
			 </trkpt>
			 <trkpt lat="30.165422" lon="-95.471331">
				 <ele>40.1</ele>
			 </trkpt>
			 <trkpt lat="30.165168" lon="-95.47176">
				 <ele>39.8</ele>
			 </trkpt>
			 <trkpt lat="30.164965" lon="-95.471567">
				 <ele>39.5</ele>
			 </trkpt>
			 <trkpt lat="30.164873" lon="-95.47145">
				 <ele>39.3</ele>
			 </trkpt>
			 <trkpt lat="30.164771" lon="-95.471293">
				 <ele>39</ele>
			 </trkpt>
			 <trkpt lat="30.164696" lon="-95.471209">
				 <ele>38.8</ele>
			 </trkpt>
			 <trkpt lat="30.164249" lon="-95.470835">
				 <ele>38.5</ele>
			 </trkpt>
			 <trkpt lat="30.16405" lon="-95.470688">
				 <ele>38.4</ele>
			 </trkpt>
			 <trkpt lat="30.163846" lon="-95.470558">
				 <ele>38.3</ele>
			 </trkpt>
			 <trkpt lat="30.163712" lon="-95.470486">
				 <ele>38.2</ele>
			 </trkpt>
			 <trkpt lat="30.163586" lon="-95.470416">
				 <ele>38.2</ele>
			 </trkpt>
			 <trkpt lat="30.163242" lon="-95.470252">
				 <ele>38.2</ele>
			 </trkpt>
			 <trkpt lat="30.162956" lon="-95.470153">
				 <ele>38.2</ele>
			 </trkpt>
			 <trkpt lat="30.162708" lon="-95.470051">
				 <ele>38.3</ele>
			 </trkpt>
			 <trkpt lat="30.162619" lon="-95.470007">
				 <ele>38.4</ele>
			 </trkpt>
			 <trkpt lat="30.162408" lon="-95.469869">
				 <ele>38.5</ele>
			 </trkpt>
			 <trkpt lat="30.162376" lon="-95.469842">
				 <ele>38.5</ele>
			 </trkpt>
			 <trkpt lat="30.162309" lon="-95.469782">
				 <ele>38.5</ele>
			 </trkpt>
			 <trkpt lat="30.16223" lon="-95.46969">
				 <ele>38.5</ele>
			 </trkpt>
			 <trkpt lat="30.162145" lon="-95.46954">
				 <ele>38.5</ele>
			 </trkpt>
			 <trkpt lat="30.161971" lon="-95.469144">
				 <ele>38.4</ele>
			 </trkpt>
			 <trkpt lat="30.161889" lon="-95.468943">
				 <ele>38.4</ele>
			 </trkpt>
			 <trkpt lat="30.161807" lon="-95.468799">
				 <ele>38.4</ele>
			 </trkpt>
			 <trkpt lat="30.161771" lon="-95.468734">
				 <ele>38.5</ele>
			 </trkpt>
			 <trkpt lat="30.161691" lon="-95.468648">
				 <ele>38.4</ele>
			 </trkpt>
			 <trkpt lat="30.161607" lon="-95.46856">
				 <ele>38.4</ele>
			 </trkpt>
			 <trkpt lat="30.16149" lon="-95.46848">
				 <ele>38.4</ele>
			 </trkpt>
			 <trkpt lat="30.16144" lon="-95.468427">
				 <ele>38.5</ele>
			 </trkpt>
			 <trkpt lat="30.161363" lon="-95.468317">
				 <ele>38.5</ele>
			 </trkpt>
			 <trkpt lat="30.160683" lon="-95.467141">
				 <ele>38.6</ele>
			 </trkpt>
			 <trkpt lat="30.160628" lon="-95.467079">
				 <ele>38.7</ele>
			 </trkpt>
			 <trkpt lat="30.160562" lon="-95.467049">
				 <ele>38.8</ele>
			 </trkpt>
			 <trkpt lat="30.160348" lon="-95.467013">
				 <ele>38.9</ele>
			 </trkpt>
			 <trkpt lat="30.160354" lon="-95.46696">
				 <ele>39</ele>
			 </trkpt>
			 <trkpt lat="30.16034" lon="-95.466912">
				 <ele>38.9</ele>
			 </trkpt>
			 <trkpt lat="30.160313" lon="-95.46689">
				 <ele>38.9</ele>
			 </trkpt>
			 <trkpt lat="30.160258" lon="-95.466872">
				 <ele>38.8</ele>
			 </trkpt>
			 <trkpt lat="30.160217" lon="-95.466849">
				 <ele>38.8</ele>
			 </trkpt>
			 <trkpt lat="30.160188" lon="-95.466822">
				 <ele>38.8</ele>
			 </trkpt>
			 <trkpt lat="30.160155" lon="-95.466774">
				 <ele>38.7</ele>
			 </trkpt>
			 <trkpt lat="30.160118" lon="-95.466695">
				 <ele>38.8</ele>
			 </trkpt>
			 <trkpt lat="30.160089" lon="-95.466588">
				 <ele>38.9</ele>
			 </trkpt>
			 <trkpt lat="30.16009" lon="-95.466482">
				 <ele>39.1</ele>
			 </trkpt>
			 <trkpt lat="30.160106" lon="-95.466412">
				 <ele>39.3</ele>
			 </trkpt>
			 <trkpt lat="30.160194" lon="-95.466437">
				 <ele>39.5</ele>
			 </trkpt>
			 <trkpt lat="30.16025" lon="-95.46625">
				 <ele>39.7</ele>
			 </trkpt>
			 <trkpt lat="30.160172" lon="-95.466201">
				 <ele>40.1</ele>
			 </trkpt>
			 <trkpt lat="30.160121" lon="-95.466159">
				 <ele>40.5</ele>
			 </trkpt>
			 <trkpt lat="30.160065" lon="-95.466092">
				 <ele>40.7</ele>
			 </trkpt>
			 <trkpt lat="30.160035" lon="-95.466042">
				 <ele>40.9</ele>
			 </trkpt>
			 <trkpt lat="30.159994" lon="-95.465892">
				 <ele>41.3</ele>
			 </trkpt>
			 <trkpt lat="30.159997" lon="-95.465795">
				 <ele>41.5</ele>
			 </trkpt>
			 <trkpt lat="30.160007" lon="-95.465752">
				 <ele>41.5</ele>
			 </trkpt>
			 <trkpt lat="30.160023" lon="-95.465693">
				 <ele>41.5</ele>
			 </trkpt>
			 <trkpt lat="30.160072" lon="-95.465601">
				 <ele>41.5</ele>
			 </trkpt>
			 <trkpt lat="30.160164" lon="-95.465499">
				 <ele>41.5</ele>
			 </trkpt>
			 <trkpt lat="30.160185" lon="-95.465463">
				 <ele>41.5</ele>
			 </trkpt>
			 <trkpt lat="30.160187" lon="-95.465416">
				 <ele>41.5</ele>
			 </trkpt>
			 <trkpt lat="30.160185" lon="-95.465374">
				 <ele>41.4</ele>
			 </trkpt>
			 <trkpt lat="30.160161" lon="-95.465328">
				 <ele>41.3</ele>
			 </trkpt>
			 <trkpt lat="30.160021" lon="-95.465112">
				 <ele>41.3</ele>
			 </trkpt>
			 <trkpt lat="30.159982" lon="-95.465053">
				 <ele>41.2</ele>
			 </trkpt>
			 <trkpt lat="30.15996" lon="-95.464939">
				 <ele>41.2</ele>
			 </trkpt>
			 <trkpt lat="30.159761" lon="-95.464546">
				 <ele>41.3</ele>
			 </trkpt>
			 <trkpt lat="30.159631" lon="-95.464161">
				 <ele>41.4</ele>
			 </trkpt>
			 <trkpt lat="30.15959" lon="-95.463896">
				 <ele>41.5</ele>
			 </trkpt>
			 <trkpt lat="30.159597" lon="-95.463816">
				 <ele>41.5</ele>
			 </trkpt>
			 <trkpt lat="30.15961" lon="-95.463685">
				 <ele>41.5</ele>
			 </trkpt>
			 <trkpt lat="30.159675" lon="-95.463422">
				 <ele>41.5</ele>
			 </trkpt>
			 <trkpt lat="30.159775" lon="-95.463113">
				 <ele>41.5</ele>
			 </trkpt>
			 <trkpt lat="30.15985" lon="-95.462842">
				 <ele>41.5</ele>
			 </trkpt>
			 <trkpt lat="30.159892" lon="-95.4626">
				 <ele>41.5</ele>
			 </trkpt>
			 <trkpt lat="30.159905" lon="-95.462351">
				 <ele>41.5</ele>
			 </trkpt>
			 <trkpt lat="30.159889" lon="-95.461922">
				 <ele>41.5</ele>
			 </trkpt>
			 <trkpt lat="30.159866" lon="-95.461714">
				 <ele>41.5</ele>
			 </trkpt>
			 <trkpt lat="30.159877" lon="-95.461572">
				 <ele>41.5</ele>
			 </trkpt>
			 <trkpt lat="30.159876" lon="-95.461426">
				 <ele>41.4</ele>
			 </trkpt>
			 <trkpt lat="30.159857" lon="-95.46122">
				 <ele>41.4</ele>
			 </trkpt>
			 <trkpt lat="30.159862" lon="-95.461182">
				 <ele>41.4</ele>
			 </trkpt>
			 <trkpt lat="30.15987" lon="-95.461145">
				 <ele>41.4</ele>
			 </trkpt>
			 <trkpt lat="30.159945" lon="-95.461034">
				 <ele>41.3</ele>
			 </trkpt>
			 <trkpt lat="30.159982" lon="-95.460961">
				 <ele>41.3</ele>
			 </trkpt>
			 <trkpt lat="30.159989" lon="-95.460818">
				 <ele>41.3</ele>
			 </trkpt>
			 <trkpt lat="30.159993" lon="-95.460677">
				 <ele>41.2</ele>
			 </trkpt>
			 <trkpt lat="30.160006" lon="-95.460564">
				 <ele>41.1</ele>
			 </trkpt>
			 <trkpt lat="30.160039" lon="-95.460447">
				 <ele>41</ele>
			 </trkpt>
			 <trkpt lat="30.160047" lon="-95.460339">
				 <ele>41</ele>
			 </trkpt>
			 <trkpt lat="30.160037" lon="-95.460271">
				 <ele>41</ele>
			 </trkpt>
			 <trkpt lat="30.160023" lon="-95.460231">
				 <ele>41</ele>
			 </trkpt>
			 <trkpt lat="30.159985" lon="-95.460138">
				 <ele>41</ele>
			 </trkpt>
			 <trkpt lat="30.159921" lon="-95.460007">
				 <ele>41</ele>
			 </trkpt>
			 <trkpt lat="30.15991" lon="-95.459927">
				 <ele>41</ele>
			 </trkpt>
			 <trkpt lat="30.159916" lon="-95.459886">
				 <ele>41</ele>
			 </trkpt>
			 <trkpt lat="30.159801" lon="-95.45956">
				 <ele>41</ele>
			 </trkpt>
			 <trkpt lat="30.159767" lon="-95.459421">
				 <ele>41</ele>
			 </trkpt>
			 <trkpt lat="30.159729" lon="-95.459217">
				 <ele>41</ele>
			 </trkpt>
			 <trkpt lat="30.159722" lon="-95.459096">
				 <ele>41</ele>
			 </trkpt>
			 <trkpt lat="30.159718" lon="-95.459014">
				 <ele>41.1</ele>
			 </trkpt>
			 <trkpt lat="30.159715" lon="-95.458433">
				 <ele>41.2</ele>
			 </trkpt>
			 <trkpt lat="30.159703" lon="-95.458241">
				 <ele>41.3</ele>
			 </trkpt>
			 <trkpt lat="30.159665" lon="-95.457958">
				 <ele>41.4</ele>
			 </trkpt>
			 <trkpt lat="30.159628" lon="-95.457736">
				 <ele>41.5</ele>
			 </trkpt>
			 <trkpt lat="30.159613" lon="-95.457319">
				 <ele>41.5</ele>
			 </trkpt>
			 <trkpt lat="30.159651" lon="-95.457237">
				 <ele>41.5</ele>
			 </trkpt>
			 <trkpt lat="30.15967" lon="-95.457209">
				 <ele>41.5</ele>
			 </trkpt>
			 <trkpt lat="30.159793" lon="-95.457022">
				 <ele>41.5</ele>
			 </trkpt>
			 <trkpt lat="30.15983" lon="-95.456901">
				 <ele>41.5</ele>
			 </trkpt>
			 <trkpt lat="30.159863" lon="-95.456759">
				 <ele>41.5</ele>
			 </trkpt>
			 <trkpt lat="30.159876" lon="-95.456622">
				 <ele>41.4</ele>
			 </trkpt>
			 <trkpt lat="30.159878" lon="-95.456508">
				 <ele>41.3</ele>
			 </trkpt>
			 <trkpt lat="30.159832" lon="-95.45614">
				 <ele>41.2</ele>
			 </trkpt>
			 <trkpt lat="30.159795" lon="-95.455588">
				 <ele>41.1</ele>
			 </trkpt>
			 <trkpt lat="30.159828" lon="-95.455172">
				 <ele>41.1</ele>
			 </trkpt>
			 <trkpt lat="30.159793" lon="-95.455019">
				 <ele>41.2</ele>
			 </trkpt>
			 <trkpt lat="30.159775" lon="-95.454252">
				 <ele>41.3</ele>
			 </trkpt>
			 <trkpt lat="30.159759" lon="-95.454006">
				 <ele>41.4</ele>
			 </trkpt>
			 <trkpt lat="30.159741" lon="-95.453943">
				 <ele>41.5</ele>
			 </trkpt>
			 <trkpt lat="30.159718" lon="-95.453912">
				 <ele>41.5</ele>
			 </trkpt>
			 <trkpt lat="30.159659" lon="-95.45383">
				 <ele>41.5</ele>
			 </trkpt>
			 <trkpt lat="30.159646" lon="-95.4538">
				 <ele>41.5</ele>
			 </trkpt>
			 <trkpt lat="30.159628" lon="-95.453708">
				 <ele>41.5</ele>
			 </trkpt>
			 <trkpt lat="30.15961" lon="-95.453668">
				 <ele>41.5</ele>
			 </trkpt>
			 <trkpt lat="30.159524" lon="-95.45357">
				 <ele>41.5</ele>
			 </trkpt>
			 <trkpt lat="30.159492" lon="-95.453499">
				 <ele>41.4</ele>
			 </trkpt>
			 <trkpt lat="30.159469" lon="-95.453476">
				 <ele>41.3</ele>
			 </trkpt>
			 <trkpt lat="30.159272" lon="-95.45327">
				 <ele>41.2</ele>
			 </trkpt>
			 <trkpt lat="30.159151" lon="-95.453212">
				 <ele>41.1</ele>
			 </trkpt>
			 <trkpt lat="30.159043" lon="-95.453083">
				 <ele>41.2</ele>
			 </trkpt>
			 <trkpt lat="30.158971" lon="-95.452926">
				 <ele>41.4</ele>
			 </trkpt>
			 <trkpt lat="30.158961" lon="-95.45277">
				 <ele>41.5</ele>
			 </trkpt>
			 <trkpt lat="30.15895" lon="-95.452686">
				 <ele>41.7</ele>
			 </trkpt>
			 <trkpt lat="30.158916" lon="-95.452648">
				 <ele>41.8</ele>
			 </trkpt>
			 <trkpt lat="30.15873" lon="-95.45261">
				 <ele>41.9</ele>
			 </trkpt>
			 <trkpt lat="30.158684" lon="-95.45293">
				 <ele>42.1</ele>
			 </trkpt>
			 <trkpt lat="30.158653" lon="-95.453117">
				 <ele>42.3</ele>
			 </trkpt>
			 <trkpt lat="30.158616" lon="-95.453428">
				 <ele>42.5</ele>
			 </trkpt>
			 <trkpt lat="30.158585" lon="-95.453831">
				 <ele>42.6</ele>
			 </trkpt>
			 <trkpt lat="30.158579" lon="-95.454284">
				 <ele>42.8</ele>
			 </trkpt>
			 <trkpt lat="30.158573" lon="-95.455311">
				 <ele>42.8</ele>
			 </trkpt>
			 <trkpt lat="30.158572" lon="-95.455706">
				 <ele>42.8</ele>
			 </trkpt>
			 <trkpt lat="30.15857" lon="-95.455751">
				 <ele>42.9</ele>
			 </trkpt>
			 <trkpt lat="30.15857" lon="-95.455821">
				 <ele>42.9</ele>
			 </trkpt>
			 <trkpt lat="30.15857" lon="-95.456019">
				 <ele>43</ele>
			 </trkpt>
			 <trkpt lat="30.15857" lon="-95.456133">
				 <ele>43.1</ele>
			 </trkpt>
			 <trkpt lat="30.15857" lon="-95.456216">
				 <ele>43.2</ele>
			 </trkpt>
			 <trkpt lat="30.15857" lon="-95.457063">
				 <ele>43.3</ele>
			 </trkpt>
			 <trkpt lat="30.158567" lon="-95.458185">
				 <ele>43.4</ele>
			 </trkpt>
			 <trkpt lat="30.158564" lon="-95.459005">
				 <ele>43.5</ele>
			 </trkpt>
			 <trkpt lat="30.158564" lon="-95.459118">
				 <ele>43.5</ele>
			 </trkpt>
			 <trkpt lat="30.158568" lon="-95.460847">
				 <ele>43.6</ele>
			 </trkpt>
			 <trkpt lat="30.158566" lon="-95.460941">
				 <ele>43.7</ele>
			 </trkpt>
			 <trkpt lat="30.158565" lon="-95.461038">
				 <ele>43.7</ele>
			 </trkpt>
			 <trkpt lat="30.158561" lon="-95.461479">
				 <ele>43.8</ele>
			 </trkpt>
			 <trkpt lat="30.158558" lon="-95.461814">
				 <ele>43.9</ele>
			 </trkpt>
			 <trkpt lat="30.158557" lon="-95.461858">
				 <ele>44</ele>
			 </trkpt>
			 <trkpt lat="30.158556" lon="-95.46196">
				 <ele>44</ele>
			 </trkpt>
			 <trkpt lat="30.158555" lon="-95.462143">
				 <ele>44.1</ele>
			 </trkpt>
			 <trkpt lat="30.158556" lon="-95.46225">
				 <ele>44.2</ele>
			 </trkpt>
			 <trkpt lat="30.158558" lon="-95.462797">
				 <ele>44.3</ele>
			 </trkpt>
			 <trkpt lat="30.158547" lon="-95.463149">
				 <ele>44.4</ele>
			 </trkpt>
			 <trkpt lat="30.158544" lon="-95.463274">
				 <ele>44.4</ele>
			 </trkpt>
			 <trkpt lat="30.158534" lon="-95.463569">
				 <ele>44.4</ele>
			 </trkpt>
			 <trkpt lat="30.158493" lon="-95.464399">
				 <ele>44.4</ele>
			 </trkpt>
			 <trkpt lat="30.158417" lon="-95.465102">
				 <ele>44.4</ele>
			 </trkpt>
			 <trkpt lat="30.158384" lon="-95.465392">
				 <ele>44.4</ele>
			 </trkpt>
			 <trkpt lat="30.158368" lon="-95.465526">
				 <ele>44.4</ele>
			 </trkpt>
			 <trkpt lat="30.158349" lon="-95.465661">
				 <ele>44.4</ele>
			 </trkpt>
			 <trkpt lat="30.158338" lon="-95.465761">
				 <ele>44.3</ele>
			 </trkpt>
			 <trkpt lat="30.15824" lon="-95.466643">
				 <ele>44.2</ele>
			 </trkpt>
			 <trkpt lat="30.158186" lon="-95.467134">
				 <ele>44.1</ele>
			 </trkpt>
			 <trkpt lat="30.158111" lon="-95.46778">
				 <ele>44</ele>
			 </trkpt>
			 <trkpt lat="30.15808" lon="-95.468024">
				 <ele>44</ele>
			 </trkpt>
			 <trkpt lat="30.158036" lon="-95.468411">
				 <ele>44</ele>
			 </trkpt>
			 <trkpt lat="30.158032" lon="-95.468543">
				 <ele>44</ele>
			 </trkpt>
			 <trkpt lat="30.158041" lon="-95.468734">
				 <ele>44</ele>
			 </trkpt>
			 <trkpt lat="30.158043" lon="-95.468776">
				 <ele>44</ele>
			 </trkpt>
			 <trkpt lat="30.158053" lon="-95.468878">
				 <ele>44</ele>
			 </trkpt>
			 <trkpt lat="30.158099" lon="-95.469076">
				 <ele>44</ele>
			 </trkpt>
			 <trkpt lat="30.158138" lon="-95.469205">
				 <ele>44</ele>
			 </trkpt>
			 <trkpt lat="30.158203" lon="-95.469379">
				 <ele>44.1</ele>
			 </trkpt>
			 <trkpt lat="30.158272" lon="-95.46953">
				 <ele>44.1</ele>
			 </trkpt>
			 <trkpt lat="30.158368" lon="-95.469733">
				 <ele>44.1</ele>
			 </trkpt>
			 <trkpt lat="30.158442" lon="-95.469887">
				 <ele>44.1</ele>
			 </trkpt>
			 <trkpt lat="30.158674" lon="-95.470342">
				 <ele>44.1</ele>
			 </trkpt>
			 <trkpt lat="30.158832" lon="-95.470653">
				 <ele>44</ele>
			 </trkpt>
			 <trkpt lat="30.15889" lon="-95.470767">
				 <ele>43.9</ele>
			 </trkpt>
			 <trkpt lat="30.159284" lon="-95.470508">
				 <ele>43.8</ele>
			 </trkpt>
			 <trkpt lat="30.159675" lon="-95.470251">
				 <ele>43.7</ele>
			 </trkpt>
			 <trkpt lat="30.160065" lon="-95.469993">
				 <ele>43.5</ele>
			 </trkpt>
			 <trkpt lat="30.160456" lon="-95.469735">
				 <ele>43.4</ele>
			 </trkpt>
			 <trkpt lat="30.160846" lon="-95.469477">
				 <ele>43.2</ele>
			 </trkpt>
			 <trkpt lat="30.161237" lon="-95.46922">
				 <ele>43.2</ele>
			 </trkpt>
			 <trkpt lat="30.161627" lon="-95.468962">
				 <ele>43.2</ele>
			 </trkpt>
			 <trkpt lat="30.162018" lon="-95.468704">
				 <ele>43.2</ele>
			 </trkpt>
			 <trkpt lat="30.162408" lon="-95.468446">
				 <ele>43.2</ele>
			 </trkpt>
			 <trkpt lat="30.162799" lon="-95.468189">
				 <ele>43.3</ele>
			 </trkpt>
			 <trkpt lat="30.16313" lon="-95.46797">
				 <ele>43.4</ele>
			 </trkpt>
			 <trkpt lat="30.163011" lon="-95.467738">
				 <ele>43.5</ele>
			 </trkpt>
			 <trkpt lat="30.162795" lon="-95.467218">
				 <ele>43.5</ele>
			 </trkpt>
			 <trkpt lat="30.162728" lon="-95.467043">
				 <ele>43.8</ele>
			 </trkpt>
			 <trkpt lat="30.162619" lon="-95.466735">
				 <ele>43.9</ele>
			 </trkpt>
			 <trkpt lat="30.162575" lon="-95.466566">
				 <ele>44</ele>
			 </trkpt>
			 <trkpt lat="30.162546" lon="-95.466425">
				 <ele>44</ele>
			 </trkpt>
			 <trkpt lat="30.162529" lon="-95.46634">
				 <ele>44</ele>
			 </trkpt>
			 <trkpt lat="30.162509" lon="-95.466201">
				 <ele>44.1</ele>
			 </trkpt>
			 <trkpt lat="30.162495" lon="-95.466067">
				 <ele>44.1</ele>
			 </trkpt>
			 <trkpt lat="30.162484" lon="-95.465914">
				 <ele>44.1</ele>
			 </trkpt>
			 <trkpt lat="30.162481" lon="-95.465793">
				 <ele>44.1</ele>
			 </trkpt>
			 <trkpt lat="30.16248" lon="-95.465708">
				 <ele>44.2</ele>
			 </trkpt>
			 <trkpt lat="30.162572" lon="-95.463742">
				 <ele>44.3</ele>
			 </trkpt>
			 <trkpt lat="30.162599" lon="-95.463171">
				 <ele>44.4</ele>
			 </trkpt>
			 <trkpt lat="30.162616" lon="-95.462816">
				 <ele>44.4</ele>
			 </trkpt>
			 <trkpt lat="30.162619" lon="-95.462743">
				 <ele>44.4</ele>
			 </trkpt>
			 <trkpt lat="30.162628" lon="-95.462466">
				 <ele>44.4</ele>
			 </trkpt>
			 <trkpt lat="30.16264" lon="-95.462231">
				 <ele>44.4</ele>
			 </trkpt>
			 <trkpt lat="30.162642" lon="-95.462025">
				 <ele>44.3</ele>
			 </trkpt>
			 <trkpt lat="30.162626" lon="-95.461717">
				 <ele>44.3</ele>
			 </trkpt>
			 <trkpt lat="30.162617" lon="-95.461654">
				 <ele>44.3</ele>
			 </trkpt>
			 <trkpt lat="30.1626" lon="-95.461551">
				 <ele>44.3</ele>
			 </trkpt>
			 <trkpt lat="30.162569" lon="-95.461393">
				 <ele>44.2</ele>
			 </trkpt>
			 <trkpt lat="30.162537" lon="-95.461286">
				 <ele>44.1</ele>
			 </trkpt>
			 <trkpt lat="30.162524" lon="-95.461245">
				 <ele>43.9</ele>
			 </trkpt>
			 <trkpt lat="30.162501" lon="-95.461164">
				 <ele>43.8</ele>
			 </trkpt>
			 <trkpt lat="30.162405" lon="-95.460931">
				 <ele>43.7</ele>
			 </trkpt>
			 <trkpt lat="30.162345" lon="-95.46081">
				 <ele>43.7</ele>
			 </trkpt>
			 <trkpt lat="30.162262" lon="-95.460665">
				 <ele>43.7</ele>
			 </trkpt>
			 <trkpt lat="30.161825" lon="-95.459951">
				 <ele>43.6</ele>
			 </trkpt>
			 <trkpt lat="30.161791" lon="-95.459895">
				 <ele>43.5</ele>
			 </trkpt>
			 <trkpt lat="30.161737" lon="-95.459806">
				 <ele>43.5</ele>
			 </trkpt>
			 <trkpt lat="30.161699" lon="-95.45974">
				 <ele>43.4</ele>
			 </trkpt>
			 <trkpt lat="30.161619" lon="-95.459581">
				 <ele>43.3</ele>
			 </trkpt>
			 <trkpt lat="30.161573" lon="-95.459471">
				 <ele>43.2</ele>
			 </trkpt>
			 <trkpt lat="30.161529" lon="-95.459356">
				 <ele>43.3</ele>
			 </trkpt>
			 <trkpt lat="30.161443" lon="-95.459075">
				 <ele>43.5</ele>
			 </trkpt>
			 <trkpt lat="30.161414" lon="-95.458959">
				 <ele>43.7</ele>
			 </trkpt>
			 <trkpt lat="30.161332" lon="-95.458956">
				 <ele>43.8</ele>
			 </trkpt>
			 <trkpt lat="30.161295" lon="-95.458967">
				 <ele>43.9</ele>
			 </trkpt>
			 <trkpt lat="30.160935" lon="-95.459075">
				 <ele>43.9</ele>
			 </trkpt>
			 <trkpt lat="30.160564" lon="-95.459137">
				 <ele>43.9</ele>
			 </trkpt>
			 <trkpt lat="30.160478" lon="-95.459138">
				 <ele>43.9</ele>
			 </trkpt>
			 <trkpt lat="30.16053" lon="-95.459329">
				 <ele>43.9</ele>
			 </trkpt>
			 <trkpt lat="30.160575" lon="-95.459489">
				 <ele>43.9</ele>
			 </trkpt>
			 <trkpt lat="30.160326" lon="-95.459638">
				 <ele>43.9</ele>
			 </trkpt>
			 <trkpt lat="30.160248" lon="-95.459706">
				 <ele>43.8</ele>
			 </trkpt>
			 <trkpt lat="30.160225" lon="-95.459737">
				 <ele>43.5</ele>
			 </trkpt>
			 <trkpt lat="30.160213" lon="-95.459792">
				 <ele>43.2</ele>
			 </trkpt>
			 <trkpt lat="30.160327" lon="-95.460217">
				 <ele>42.8</ele>
			 </trkpt>
			 <trkpt lat="30.160337" lon="-95.460277">
				 <ele>42.5</ele>
			 </trkpt>
			 <trkpt lat="30.160339" lon="-95.460369">
				 <ele>42.3</ele>
			 </trkpt>
			 <trkpt lat="30.160333" lon="-95.460432">
				 <ele>42.1</ele>
			 </trkpt>
			 <trkpt lat="30.160331" lon="-95.460466">
				 <ele>41.9</ele>
			 </trkpt>
			 <trkpt lat="30.160088" lon="-95.461543">
				 <ele>41.7</ele>
			 </trkpt>
			 <trkpt lat="30.160065" lon="-95.461658">
				 <ele>41.5</ele>
			 </trkpt>
			 <trkpt lat="30.160052" lon="-95.461762">
				 <ele>41.4</ele>
			 </trkpt>
			 <trkpt lat="30.160045" lon="-95.46185">
				 <ele>41.2</ele>
			 </trkpt>
			 <trkpt lat="30.160043" lon="-95.462049">
				 <ele>41.1</ele>
			 </trkpt>
			 <trkpt lat="30.160061" lon="-95.462375">
				 <ele>41</ele>
			 </trkpt>
			 <trkpt lat="30.160086" lon="-95.462668">
				 <ele>41.1</ele>
			 </trkpt>
			 <trkpt lat="30.16008" lon="-95.462917">
				 <ele>41.2</ele>
			 </trkpt>
			 <trkpt lat="30.160053" lon="-95.463131">
				 <ele>41.2</ele>
			 </trkpt>
			 <trkpt lat="30.159999" lon="-95.463315">
				 <ele>41.2</ele>
			 </trkpt>
			 <trkpt lat="30.159937" lon="-95.463569">
				 <ele>41.2</ele>
			 </trkpt>
			 <trkpt lat="30.159933" lon="-95.463791">
				 <ele>41.3</ele>
			 </trkpt>
			 <trkpt lat="30.159977" lon="-95.463961">
				 <ele>41.3</ele>
			 </trkpt>
			 <trkpt lat="30.160052" lon="-95.464176">
				 <ele>41.3</ele>
			 </trkpt>
		 </trkseg>
	 </trk>
</gpx>