<?xml version="1.0" encoding="UTF-8"?>
 <gpx creator="Garmin Connect" version="1.1"
	 xsi:schemaLocation="http://www.topografix.com/GPX/1/1 http://www.topografix.com/GPX/11.xsd"
	 xmlns:ns3="http://www.garmin.com/xmlschemas/TrackPointExtension/v1"
	 xmlns="http://www.topografix.com/GPX/1/1"
	 xmlns:xsi="http://www.w3.org/2001/XMLSchema-instance" xmlns:ns2="http://www.garmin.com/xmlschemas/GpxExtensions/v3">
	 <metadata>
		<name>Township Marathon 2025 - 42.195 km</name>
		 <link href="https://www.goandrace.com">
		 <text>Garmin Connect</text>
		 </link>
	 <time>2026-08-09T18:03:17</time>
	 </metadata>
	 <trk>
		 <name>Township Marathon 2025 - 42.195 km</name>
		 <trkseg>
			 <trkpt lat="-26.299868" lon="27.891308">
				 <ele>1566.3</ele>
			 </trkpt>
			 <trkpt lat="-26.2999" lon="27.89123">
				 <ele>1566.6</ele>
			 </trkpt>
			 <trkpt lat="-26.30194" lon="27.89106">
				 <ele>1566.8</ele>
			 </trkpt>
			 <trkpt lat="-26.30256" lon="27.891">
				 <ele>1567</ele>
			 </trkpt>
			 <trkpt lat="-26.30265" lon="27.89209">
				 <ele>1567.1</ele>
			 </trkpt>
			 <trkpt lat="-26.30265" lon="27.89209">
				 <ele>1567.3</ele>
			 </trkpt>
			 <trkpt lat="-26.30271" lon="27.89284">
				 <ele>1567.4</ele>
			 </trkpt>
			 <trkpt lat="-26.30283" lon="27.89438">
				 <ele>1567.5</ele>
			 </trkpt>
			 <trkpt lat="-26.30253" lon="27.89441">
				 <ele>1567.9</ele>
			 </trkpt>
			 <trkpt lat="-26.30219" lon="27.89445">
				 <ele>1568.4</ele>
			 </trkpt>
			 <trkpt lat="-26.30191" lon="27.89507">
				 <ele>1568.5</ele>
			 </trkpt>
			 <trkpt lat="-26.30165" lon="27.89556">
				 <ele>1568.7</ele>
			 </trkpt>
			 <trkpt lat="-26.30165" lon="27.89556">
				 <ele>1568.9</ele>
			 </trkpt>
			 <trkpt lat="-26.30117" lon="27.89646">
				 <ele>1569.2</ele>
			 </trkpt>
			 <trkpt lat="-26.30114" lon="27.89655">
				 <ele>1569.6</ele>
			 </trkpt>
			 <trkpt lat="-26.30107" lon="27.89694">
				 <ele>1570.2</ele>
			 </trkpt>
			 <trkpt lat="-26.30047" lon="27.89681">
				 <ele>1570.8</ele>
			 </trkpt>
			 <trkpt lat="-26.29764" lon="27.89615">
				 <ele>1571.6</ele>
			 </trkpt>
			 <trkpt lat="-26.29626" lon="27.89585">
				 <ele>1572.5</ele>
			 </trkpt>
			 <trkpt lat="-26.29522" lon="27.89593">
				 <ele>1573.3</ele>
			 </trkpt>
			 <trkpt lat="-26.29522" lon="27.89593">
				 <ele>1574.3</ele>
			 </trkpt>
			 <trkpt lat="-26.29401" lon="27.89603">
				 <ele>1575.3</ele>
			 </trkpt>
			 <trkpt lat="-26.29358" lon="27.89607">
				 <ele>1576.4</ele>
			 </trkpt>
			 <trkpt lat="-26.29349" lon="27.89606">
				 <ele>1577.4</ele>
			 </trkpt>
			 <trkpt lat="-26.29332" lon="27.89599">
				 <ele>1578.3</ele>
			 </trkpt>
			 <trkpt lat="-26.29233" lon="27.8954">
				 <ele>1578.9</ele>
			 </trkpt>
			 <trkpt lat="-26.29217" lon="27.89539">
				 <ele>1579.5</ele>
			 </trkpt>
			 <trkpt lat="-26.29164" lon="27.89544">
				 <ele>1579.8</ele>
			 </trkpt>
			 <trkpt lat="-26.29168" lon="27.89598">
				 <ele>1579.8</ele>
			 </trkpt>
			 <trkpt lat="-26.29177" lon="27.89717">
				 <ele>1579.8</ele>
			 </trkpt>
			 <trkpt lat="-26.29183" lon="27.89826">
				 <ele>1579.8</ele>
			 </trkpt>
			 <trkpt lat="-26.29183" lon="27.89826">
				 <ele>1579.6</ele>
			 </trkpt>
			 <trkpt lat="-26.29197" lon="27.90012">
				 <ele>1579.4</ele>
			 </trkpt>
			 <trkpt lat="-26.29203" lon="27.90131">
				 <ele>1579</ele>
			 </trkpt>
			 <trkpt lat="-26.29204" lon="27.90174">
				 <ele>1578.5</ele>
			 </trkpt>
			 <trkpt lat="-26.29208" lon="27.90199">
				 <ele>1578.1</ele>
			 </trkpt>
			 <trkpt lat="-26.29212" lon="27.90216">
				 <ele>1577.7</ele>
			 </trkpt>
			 <trkpt lat="-26.29226" lon="27.90256">
				 <ele>1577.5</ele>
			 </trkpt>
			 <trkpt lat="-26.2925" lon="27.90297">
				 <ele>1577.4</ele>
			 </trkpt>
			 <trkpt lat="-26.29274" lon="27.90326">
				 <ele>1577.5</ele>
			 </trkpt>
			 <trkpt lat="-26.29299" lon="27.9035">
				 <ele>1577.8</ele>
			 </trkpt>
			 <trkpt lat="-26.29376" lon="27.90429">
				 <ele>1578.3</ele>
			 </trkpt>
			 <trkpt lat="-26.29402" lon="27.90463">
				 <ele>1578.8</ele>
			 </trkpt>
			 <trkpt lat="-26.29415" lon="27.90481">
				 <ele>1579.8</ele>
			 </trkpt>
			 <trkpt lat="-26.29426" lon="27.90508">
				 <ele>1580.8</ele>
			 </trkpt>
			 <trkpt lat="-26.29445" lon="27.90563">
				 <ele>1582.1</ele>
			 </trkpt>
			 <trkpt lat="-26.29451" lon="27.90602">
				 <ele>1583.9</ele>
			 </trkpt>
			 <trkpt lat="-26.29457" lon="27.90663">
				 <ele>1586.2</ele>
			 </trkpt>
			 <trkpt lat="-26.29474" lon="27.90822">
				 <ele>1588.7</ele>
			 </trkpt>
			 <trkpt lat="-26.29474" lon="27.90822">
				 <ele>1591.4</ele>
			 </trkpt>
			 <trkpt lat="-26.29485" lon="27.90927">
				 <ele>1593.9</ele>
			 </trkpt>
			 <trkpt lat="-26.29507" lon="27.91188">
				 <ele>1596.6</ele>
			 </trkpt>
			 <trkpt lat="-26.29531" lon="27.91514">
				 <ele>1599.3</ele>
			 </trkpt>
			 <trkpt lat="-26.29548" lon="27.91767">
				 <ele>1601.9</ele>
			 </trkpt>
			 <trkpt lat="-26.29554" lon="27.91863">
				 <ele>1604.2</ele>
			 </trkpt>
			 <trkpt lat="-26.29556" lon="27.91949">
				 <ele>1606.5</ele>
			 </trkpt>
			 <trkpt lat="-26.29563" lon="27.92077">
				 <ele>1608.8</ele>
			 </trkpt>
			 <trkpt lat="-26.2957" lon="27.9216">
				 <ele>1610.6</ele>
			 </trkpt>
			 <trkpt lat="-26.29572" lon="27.922">
				 <ele>1612.3</ele>
			 </trkpt>
			 <trkpt lat="-26.29572" lon="27.922">
				 <ele>1613.8</ele>
			 </trkpt>
			 <trkpt lat="-26.29575" lon="27.92264">
				 <ele>1615.4</ele>
			 </trkpt>
			 <trkpt lat="-26.2958" lon="27.92307">
				 <ele>1617</ele>
			 </trkpt>
			 <trkpt lat="-26.29549" lon="27.9231">
				 <ele>1618.5</ele>
			 </trkpt>
			 <trkpt lat="-26.2948" lon="27.92315">
				 <ele>1619.9</ele>
			 </trkpt>
			 <trkpt lat="-26.294" lon="27.92325">
				 <ele>1621.3</ele>
			 </trkpt>
			 <trkpt lat="-26.29364" lon="27.92329">
				 <ele>1622.6</ele>
			 </trkpt>
			 <trkpt lat="-26.29275" lon="27.92339">
				 <ele>1624</ele>
			 </trkpt>
			 <trkpt lat="-26.29126" lon="27.92362">
				 <ele>1625.5</ele>
			 </trkpt>
			 <trkpt lat="-26.29052" lon="27.92383">
				 <ele>1627</ele>
			 </trkpt>
			 <trkpt lat="-26.29052" lon="27.92383">
				 <ele>1628.4</ele>
			 </trkpt>
			 <trkpt lat="-26.28994" lon="27.92406">
				 <ele>1629.6</ele>
			 </trkpt>
			 <trkpt lat="-26.28924" lon="27.9244">
				 <ele>1631.1</ele>
			 </trkpt>
			 <trkpt lat="-26.2885" lon="27.92488">
				 <ele>1632.3</ele>
			 </trkpt>
			 <trkpt lat="-26.28797" lon="27.92529">
				 <ele>1633.4</ele>
			 </trkpt>
			 <trkpt lat="-26.28756" lon="27.92568">
				 <ele>1634</ele>
			 </trkpt>
			 <trkpt lat="-26.28721" lon="27.92603">
				 <ele>1634.5</ele>
			 </trkpt>
			 <trkpt lat="-26.28649" lon="27.92687">
				 <ele>1635</ele>
			 </trkpt>
			 <trkpt lat="-26.28631" lon="27.92635">
				 <ele>1635.4</ele>
			 </trkpt>
			 <trkpt lat="-26.28626" lon="27.92619">
				 <ele>1635.4</ele>
			 </trkpt>
			 <trkpt lat="-26.28596" lon="27.92509">
				 <ele>1635.1</ele>
			 </trkpt>
			 <trkpt lat="-26.28585" lon="27.92478">
				 <ele>1634.5</ele>
			 </trkpt>
			 <trkpt lat="-26.28573" lon="27.92446">
				 <ele>1633.7</ele>
			 </trkpt>
			 <trkpt lat="-26.28573" lon="27.92446">
				 <ele>1632.6</ele>
			 </trkpt>
			 <trkpt lat="-26.28559" lon="27.92409">
				 <ele>1631.5</ele>
			 </trkpt>
			 <trkpt lat="-26.28529" lon="27.92353">
				 <ele>1630.4</ele>
			 </trkpt>
			 <trkpt lat="-26.28519" lon="27.92336">
				 <ele>1629.4</ele>
			 </trkpt>
			 <trkpt lat="-26.28489" lon="27.92286">
				 <ele>1628.2</ele>
			 </trkpt>
			 <trkpt lat="-26.28478" lon="27.9227">
				 <ele>1627.1</ele>
			 </trkpt>
			 <trkpt lat="-26.28446" lon="27.92224">
				 <ele>1625.8</ele>
			 </trkpt>
			 <trkpt lat="-26.28469" lon="27.92208">
				 <ele>1624.6</ele>
			 </trkpt>
			 <trkpt lat="-26.28533" lon="27.92176">
				 <ele>1623.5</ele>
			 </trkpt>
			 <trkpt lat="-26.28612" lon="27.92167">
				 <ele>1621.9</ele>
			 </trkpt>
			 <trkpt lat="-26.28612" lon="27.92167">
				 <ele>1620.2</ele>
			 </trkpt>
			 <trkpt lat="-26.28694" lon="27.92158">
				 <ele>1617.5</ele>
			 </trkpt>
			 <trkpt lat="-26.28715" lon="27.92156">
				 <ele>1615</ele>
			 </trkpt>
			 <trkpt lat="-26.28714" lon="27.92132">
				 <ele>1612.5</ele>
			 </trkpt>
			 <trkpt lat="-26.28703" lon="27.9198">
				 <ele>1610</ele>
			 </trkpt>
			 <trkpt lat="-26.28698" lon="27.91905">
				 <ele>1607.7</ele>
			 </trkpt>
			 <trkpt lat="-26.28671" lon="27.91537">
				 <ele>1605.5</ele>
			 </trkpt>
			 <trkpt lat="-26.28671" lon="27.91537">
				 <ele>1603.5</ele>
			 </trkpt>
			 <trkpt lat="-26.28667" lon="27.91473">
				 <ele>1601.1</ele>
			 </trkpt>
			 <trkpt lat="-26.28577" lon="27.91481">
				 <ele>1598.7</ele>
			 </trkpt>
			 <trkpt lat="-26.2846" lon="27.91491">
				 <ele>1596.7</ele>
			 </trkpt>
			 <trkpt lat="-26.28287" lon="27.91504">
				 <ele>1595.5</ele>
			 </trkpt>
			 <trkpt lat="-26.28286" lon="27.91456">
				 <ele>1595.1</ele>
			 </trkpt>
			 <trkpt lat="-26.28276" lon="27.91368">
				 <ele>1595.4</ele>
			 </trkpt>
			 <trkpt lat="-26.28269" lon="27.91347">
				 <ele>1596</ele>
			 </trkpt>
			 <trkpt lat="-26.28247" lon="27.91212">
				 <ele>1597</ele>
			 </trkpt>
			 <trkpt lat="-26.28212" lon="27.91012">
				 <ele>1598.2</ele>
			 </trkpt>
			 <trkpt lat="-26.28212" lon="27.91012">
				 <ele>1599.3</ele>
			 </trkpt>
			 <trkpt lat="-26.28178" lon="27.90805">
				 <ele>1600.5</ele>
			 </trkpt>
			 <trkpt lat="-26.28165" lon="27.90703">
				 <ele>1602.2</ele>
			 </trkpt>
			 <trkpt lat="-26.28141" lon="27.90576">
				 <ele>1603.9</ele>
			 </trkpt>
			 <trkpt lat="-26.28129" lon="27.90505">
				 <ele>1605.7</ele>
			 </trkpt>
			 <trkpt lat="-26.28129" lon="27.90505">
				 <ele>1606.8</ele>
			 </trkpt>
			 <trkpt lat="-26.28101" lon="27.90341">
				 <ele>1607.8</ele>
			 </trkpt>
			 <trkpt lat="-26.28101" lon="27.90341">
				 <ele>1608.1</ele>
			 </trkpt>
			 <trkpt lat="-26.28051" lon="27.90043">
				 <ele>1608.1</ele>
			 </trkpt>
			 <trkpt lat="-26.28051" lon="27.90043">
				 <ele>1607.5</ele>
			 </trkpt>
			 <trkpt lat="-26.28021" lon="27.89868">
				 <ele>1606.8</ele>
			 </trkpt>
			 <trkpt lat="-26.28074" lon="27.89862">
				 <ele>1606.1</ele>
			 </trkpt>
			 <trkpt lat="-26.28104" lon="27.8986">
				 <ele>1605.2</ele>
			 </trkpt>
			 <trkpt lat="-26.28104" lon="27.8986">
				 <ele>1604.2</ele>
			 </trkpt>
			 <trkpt lat="-26.28212" lon="27.89852">
				 <ele>1603.2</ele>
			 </trkpt>
			 <trkpt lat="-26.28239" lon="27.89851">
				 <ele>1602.2</ele>
			 </trkpt>
			 <trkpt lat="-26.2827" lon="27.89855">
				 <ele>1601.5</ele>
			 </trkpt>
			 <trkpt lat="-26.28307" lon="27.89866">
				 <ele>1600.7</ele>
			 </trkpt>
			 <trkpt lat="-26.28318" lon="27.89871">
				 <ele>1600</ele>
			 </trkpt>
			 <trkpt lat="-26.28335" lon="27.8988">
				 <ele>1599.2</ele>
			 </trkpt>
			 <trkpt lat="-26.28366" lon="27.89903">
				 <ele>1598.6</ele>
			 </trkpt>
			 <trkpt lat="-26.28366" lon="27.89903">
				 <ele>1598.1</ele>
			 </trkpt>
			 <trkpt lat="-26.28399" lon="27.89938">
				 <ele>1597.5</ele>
			 </trkpt>
			 <trkpt lat="-26.2846" lon="27.90008">
				 <ele>1596.8</ele>
			 </trkpt>
			 <trkpt lat="-26.28485" lon="27.90031">
				 <ele>1596</ele>
			 </trkpt>
			 <trkpt lat="-26.28513" lon="27.90047">
				 <ele>1595</ele>
			 </trkpt>
			 <trkpt lat="-26.28546" lon="27.90061">
				 <ele>1594.1</ele>
			 </trkpt>
			 <trkpt lat="-26.2858" lon="27.90066">
				 <ele>1593.2</ele>
			 </trkpt>
			 <trkpt lat="-26.28603" lon="27.90066">
				 <ele>1592.3</ele>
			 </trkpt>
			 <trkpt lat="-26.28725" lon="27.90055">
				 <ele>1591.3</ele>
			 </trkpt>
			 <trkpt lat="-26.28775" lon="27.90051">
				 <ele>1590.2</ele>
			 </trkpt>
			 <trkpt lat="-26.28771" lon="27.8999">
				 <ele>1589</ele>
			 </trkpt>
			 <trkpt lat="-26.28771" lon="27.8999">
				 <ele>1587.9</ele>
			 </trkpt>
			 <trkpt lat="-26.2875" lon="27.89711">
				 <ele>1586.7</ele>
			 </trkpt>
			 <trkpt lat="-26.28742" lon="27.8958">
				 <ele>1585.6</ele>
			 </trkpt>
			 <trkpt lat="-26.2895" lon="27.8956">
				 <ele>1584.7</ele>
			 </trkpt>
			 <trkpt lat="-26.28994" lon="27.89557">
				 <ele>1583.8</ele>
			 </trkpt>
			 <trkpt lat="-26.28994" lon="27.89557">
				 <ele>1582.7</ele>
			 </trkpt>
			 <trkpt lat="-26.29137" lon="27.89546">
				 <ele>1581.5</ele>
			 </trkpt>
			 <trkpt lat="-26.29156" lon="27.89544">
				 <ele>1580</ele>
			 </trkpt>
			 <trkpt lat="-26.29151" lon="27.89479">
				 <ele>1578.7</ele>
			 </trkpt>
			 <trkpt lat="-26.29144" lon="27.8937">
				 <ele>1577.6</ele>
			 </trkpt>
			 <trkpt lat="-26.29138" lon="27.8928">
				 <ele>1576.5</ele>
			 </trkpt>
			 <trkpt lat="-26.29129" lon="27.89163">
				 <ele>1575.5</ele>
			 </trkpt>
			 <trkpt lat="-26.29125" lon="27.89072">
				 <ele>1574.5</ele>
			 </trkpt>
			 <trkpt lat="-26.29125" lon="27.89066">
				 <ele>1573.5</ele>
			 </trkpt>
			 <trkpt lat="-26.29128" lon="27.89062">
				 <ele>1572.4</ele>
			 </trkpt>
			 <trkpt lat="-26.29126" lon="27.8904">
				 <ele>1571.4</ele>
			 </trkpt>
			 <trkpt lat="-26.2912" lon="27.8901">
				 <ele>1570.4</ele>
			 </trkpt>
			 <trkpt lat="-26.29104" lon="27.88972">
				 <ele>1569.4</ele>
			 </trkpt>
			 <trkpt lat="-26.29084" lon="27.88947">
				 <ele>1568.5</ele>
			 </trkpt>
			 <trkpt lat="-26.29028" lon="27.88897">
				 <ele>1567.6</ele>
			 </trkpt>
			 <trkpt lat="-26.29006" lon="27.88873">
				 <ele>1566.6</ele>
			 </trkpt>
			 <trkpt lat="-26.28988" lon="27.88846">
				 <ele>1565.7</ele>
			 </trkpt>
			 <trkpt lat="-26.28965" lon="27.88797">
				 <ele>1564.7</ele>
			 </trkpt>
			 <trkpt lat="-26.28957" lon="27.8876">
				 <ele>1563.8</ele>
			 </trkpt>
			 <trkpt lat="-26.28954" lon="27.8874">
				 <ele>1562.9</ele>
			 </trkpt>
			 <trkpt lat="-26.28955" lon="27.88703">
				 <ele>1562.1</ele>
			 </trkpt>
			 <trkpt lat="-26.28957" lon="27.88684">
				 <ele>1561.7</ele>
			 </trkpt>
			 <trkpt lat="-26.28969" lon="27.88636">
				 <ele>1561.5</ele>
			 </trkpt>
			 <trkpt lat="-26.28975" lon="27.88618">
				 <ele>1561.5</ele>
			 </trkpt>
			 <trkpt lat="-26.28975" lon="27.88618">
				 <ele>1561.6</ele>
			 </trkpt>
			 <trkpt lat="-26.29039" lon="27.88442">
				 <ele>1561.8</ele>
			 </trkpt>
			 <trkpt lat="-26.29128" lon="27.88203">
				 <ele>1562.2</ele>
			 </trkpt>
			 <trkpt lat="-26.29149" lon="27.88149">
				 <ele>1562.5</ele>
			 </trkpt>
			 <trkpt lat="-26.29149" lon="27.88149">
				 <ele>1563</ele>
			 </trkpt>
			 <trkpt lat="-26.29165" lon="27.88104">
				 <ele>1563.5</ele>
			 </trkpt>
			 <trkpt lat="-26.29181" lon="27.88067">
				 <ele>1563.9</ele>
			 </trkpt>
			 <trkpt lat="-26.29213" lon="27.87969">
				 <ele>1564.5</ele>
			 </trkpt>
			 <trkpt lat="-26.29219" lon="27.87951">
				 <ele>1564.6</ele>
			 </trkpt>
			 <trkpt lat="-26.2924" lon="27.87895">
				 <ele>1564.8</ele>
			 </trkpt>
			 <trkpt lat="-26.29295" lon="27.87762">
				 <ele>1565</ele>
			 </trkpt>
			 <trkpt lat="-26.29314" lon="27.87721">
				 <ele>1565.2</ele>
			 </trkpt>
			 <trkpt lat="-26.29349" lon="27.87663">
				 <ele>1565.5</ele>
			 </trkpt>
			 <trkpt lat="-26.29406" lon="27.87588">
				 <ele>1565.6</ele>
			 </trkpt>
			 <trkpt lat="-26.29354" lon="27.87536">
				 <ele>1565.8</ele>
			 </trkpt>
			 <trkpt lat="-26.29353" lon="27.87535">
				 <ele>1566</ele>
			 </trkpt>
			 <trkpt lat="-26.29353" lon="27.87535">
				 <ele>1566.2</ele>
			 </trkpt>
			 <trkpt lat="-26.2931" lon="27.87501">
				 <ele>1566.4</ele>
			 </trkpt>
			 <trkpt lat="-26.29306" lon="27.87511">
				 <ele>1566.5</ele>
			 </trkpt>
			 <trkpt lat="-26.29283" lon="27.87557">
				 <ele>1566.7</ele>
			 </trkpt>
			 <trkpt lat="-26.29307" lon="27.8757">
				 <ele>1566.7</ele>
			 </trkpt>
			 <trkpt lat="-26.29315" lon="27.87577">
				 <ele>1566.7</ele>
			 </trkpt>
			 <trkpt lat="-26.29318" lon="27.8759">
				 <ele>1566.6</ele>
			 </trkpt>
			 <trkpt lat="-26.29318" lon="27.8759">
				 <ele>1566.5</ele>
			 </trkpt>
			 <trkpt lat="-26.29313" lon="27.87605">
				 <ele>1566.5</ele>
			 </trkpt>
			 <trkpt lat="-26.29264" lon="27.87709">
				 <ele>1566.4</ele>
			 </trkpt>
			 <trkpt lat="-26.29264" lon="27.87709">
				 <ele>1566.3</ele>
			 </trkpt>
			 <trkpt lat="-26.29221" lon="27.87795">
				 <ele>1566.2</ele>
			 </trkpt>
			 <trkpt lat="-26.29209" lon="27.87785">
				 <ele>1566.2</ele>
			 </trkpt>
			 <trkpt lat="-26.29198" lon="27.87779">
				 <ele>1566.2</ele>
			 </trkpt>
			 <trkpt lat="-26.29194" lon="27.87768">
				 <ele>1566.2</ele>
			 </trkpt>
			 <trkpt lat="-26.29194" lon="27.87764">
				 <ele>1566.3</ele>
			 </trkpt>
			 <trkpt lat="-26.29194" lon="27.87764">
				 <ele>1566.4</ele>
			 </trkpt>
			 <trkpt lat="-26.29196" lon="27.87749">
				 <ele>1566.6</ele>
			 </trkpt>
			 <trkpt lat="-26.29202" lon="27.87725">
				 <ele>1566.9</ele>
			 </trkpt>
			 <trkpt lat="-26.29211" lon="27.87686">
				 <ele>1567.2</ele>
			 </trkpt>
			 <trkpt lat="-26.29222" lon="27.87657">
				 <ele>1567.5</ele>
			 </trkpt>
			 <trkpt lat="-26.29254" lon="27.87604">
				 <ele>1567.8</ele>
			 </trkpt>
			 <trkpt lat="-26.29222" lon="27.87579">
				 <ele>1568.2</ele>
			 </trkpt>
			 <trkpt lat="-26.29197" lon="27.87608">
				 <ele>1568.5</ele>
			 </trkpt>
			 <trkpt lat="-26.29197" lon="27.87608">
				 <ele>1568.8</ele>
			 </trkpt>
			 <trkpt lat="-26.29156" lon="27.87661">
				 <ele>1569.2</ele>
			 </trkpt>
			 <trkpt lat="-26.29093" lon="27.87715">
				 <ele>1569.8</ele>
			 </trkpt>
			 <trkpt lat="-26.29063" lon="27.87737">
				 <ele>1570.5</ele>
			 </trkpt>
			 <trkpt lat="-26.29058" lon="27.87738">
				 <ele>1571.1</ele>
			 </trkpt>
			 <trkpt lat="-26.2905" lon="27.87731">
				 <ele>1571.6</ele>
			 </trkpt>
			 <trkpt lat="-26.29027" lon="27.87687">
				 <ele>1572.3</ele>
			 </trkpt>
			 <trkpt lat="-26.2898" lon="27.87599">
				 <ele>1572.9</ele>
			 </trkpt>
			 <trkpt lat="-26.2898" lon="27.87599">
				 <ele>1573.5</ele>
			 </trkpt>
			 <trkpt lat="-26.28944" lon="27.87533">
				 <ele>1574</ele>
			 </trkpt>
			 <trkpt lat="-26.28934" lon="27.87511">
				 <ele>1574.5</ele>
			 </trkpt>
			 <trkpt lat="-26.28932" lon="27.87497">
				 <ele>1574.9</ele>
			 </trkpt>
			 <trkpt lat="-26.28929" lon="27.87489">
				 <ele>1575.2</ele>
			 </trkpt>
			 <trkpt lat="-26.28928" lon="27.8748">
				 <ele>1575.1</ele>
			 </trkpt>
			 <trkpt lat="-26.2893" lon="27.8747">
				 <ele>1575</ele>
			 </trkpt>
			 <trkpt lat="-26.28948" lon="27.87444">
				 <ele>1574.6</ele>
			 </trkpt>
			 <trkpt lat="-26.29027" lon="27.87382">
				 <ele>1574.3</ele>
			 </trkpt>
			 <trkpt lat="-26.29116" lon="27.87306">
				 <ele>1573.8</ele>
			 </trkpt>
			 <trkpt lat="-26.29194" lon="27.87241">
				 <ele>1573.4</ele>
			 </trkpt>
			 <trkpt lat="-26.29194" lon="27.87241">
				 <ele>1572.9</ele>
			 </trkpt>
			 <trkpt lat="-26.2934" lon="27.87118">
				 <ele>1572.4</ele>
			 </trkpt>
			 <trkpt lat="-26.29357" lon="27.87101">
				 <ele>1571.7</ele>
			 </trkpt>
			 <trkpt lat="-26.29368" lon="27.87096">
				 <ele>1571.2</ele>
			 </trkpt>
			 <trkpt lat="-26.29377" lon="27.87093">
				 <ele>1570.7</ele>
			 </trkpt>
			 <trkpt lat="-26.29385" lon="27.87093">
				 <ele>1570.3</ele>
			 </trkpt>
			 <trkpt lat="-26.29393" lon="27.87098">
				 <ele>1569.8</ele>
			 </trkpt>
			 <trkpt lat="-26.29467" lon="27.87153">
				 <ele>1569.5</ele>
			 </trkpt>
			 <trkpt lat="-26.29484" lon="27.87164">
				 <ele>1569.2</ele>
			 </trkpt>
			 <trkpt lat="-26.29484" lon="27.87164">
				 <ele>1568.8</ele>
			 </trkpt>
			 <trkpt lat="-26.29518" lon="27.87185">
				 <ele>1568.5</ele>
			 </trkpt>
			 <trkpt lat="-26.29525" lon="27.87192">
				 <ele>1568.1</ele>
			 </trkpt>
			 <trkpt lat="-26.29551" lon="27.87211">
				 <ele>1567.8</ele>
			 </trkpt>
			 <trkpt lat="-26.29561" lon="27.87215">
				 <ele>1567.6</ele>
			 </trkpt>
			 <trkpt lat="-26.29584" lon="27.87216">
				 <ele>1567.5</ele>
			 </trkpt>
			 <trkpt lat="-26.29657" lon="27.87216">
				 <ele>1567.3</ele>
			 </trkpt>
			 <trkpt lat="-26.29657" lon="27.87216">
				 <ele>1567</ele>
			 </trkpt>
			 <trkpt lat="-26.29692" lon="27.87215">
				 <ele>1566.7</ele>
			 </trkpt>
			 <trkpt lat="-26.29799" lon="27.87204">
				 <ele>1566.3</ele>
			 </trkpt>
			 <trkpt lat="-26.29803" lon="27.87219">
				 <ele>1565.7</ele>
			 </trkpt>
			 <trkpt lat="-26.2982" lon="27.87293">
				 <ele>1565.4</ele>
			 </trkpt>
			 <trkpt lat="-26.29843" lon="27.87383">
				 <ele>1565</ele>
			 </trkpt>
			 <trkpt lat="-26.29843" lon="27.87383">
				 <ele>1564.7</ele>
			 </trkpt>
			 <trkpt lat="-26.29888" lon="27.87553">
				 <ele>1564.6</ele>
			 </trkpt>
			 <trkpt lat="-26.29894" lon="27.87575">
				 <ele>1564.5</ele>
			 </trkpt>
			 <trkpt lat="-26.29924" lon="27.87564">
				 <ele>1564.5</ele>
			 </trkpt>
			 <trkpt lat="-26.29924" lon="27.87564">
				 <ele>1564.5</ele>
			 </trkpt>
			 <trkpt lat="-26.29958" lon="27.87551">
				 <ele>1564.6</ele>
			 </trkpt>
			 <trkpt lat="-26.29928" lon="27.87437">
				 <ele>1564.8</ele>
			 </trkpt>
			 <trkpt lat="-26.29921" lon="27.87411">
				 <ele>1565.2</ele>
			 </trkpt>
			 <trkpt lat="-26.29921" lon="27.87411">
				 <ele>1565.8</ele>
			 </trkpt>
			 <trkpt lat="-26.29916" lon="27.87391">
				 <ele>1566.3</ele>
			 </trkpt>
			 <trkpt lat="-26.29918" lon="27.87379">
				 <ele>1566.9</ele>
			 </trkpt>
			 <trkpt lat="-26.29922" lon="27.87369">
				 <ele>1567.5</ele>
			 </trkpt>
			 <trkpt lat="-26.2993" lon="27.87362">
				 <ele>1568.1</ele>
			 </trkpt>
			 <trkpt lat="-26.29948" lon="27.87355">
				 <ele>1568.8</ele>
			 </trkpt>
			 <trkpt lat="-26.29977" lon="27.87352">
				 <ele>1569.5</ele>
			 </trkpt>
			 <trkpt lat="-26.30055" lon="27.87353">
				 <ele>1570.3</ele>
			 </trkpt>
			 <trkpt lat="-26.30055" lon="27.87353">
				 <ele>1571</ele>
			 </trkpt>
			 <trkpt lat="-26.30232" lon="27.87355">
				 <ele>1571.7</ele>
			 </trkpt>
			 <trkpt lat="-26.30241" lon="27.8736">
				 <ele>1572.5</ele>
			 </trkpt>
			 <trkpt lat="-26.30246" lon="27.87367">
				 <ele>1573.1</ele>
			 </trkpt>
			 <trkpt lat="-26.30257" lon="27.87419">
				 <ele>1573.7</ele>
			 </trkpt>
			 <trkpt lat="-26.30224" lon="27.87419">
				 <ele>1574.4</ele>
			 </trkpt>
			 <trkpt lat="-26.30224" lon="27.87419">
				 <ele>1575</ele>
			 </trkpt>
			 <trkpt lat="-26.30167" lon="27.8742">
				 <ele>1575.4</ele>
			 </trkpt>
			 <trkpt lat="-26.30162" lon="27.87423">
				 <ele>1575.6</ele>
			 </trkpt>
			 <trkpt lat="-26.30159" lon="27.87427">
				 <ele>1575.9</ele>
			 </trkpt>
			 <trkpt lat="-26.3015" lon="27.87483">
				 <ele>1576.1</ele>
			 </trkpt>
			 <trkpt lat="-26.30146" lon="27.87513">
				 <ele>1576.3</ele>
			 </trkpt>
			 <trkpt lat="-26.30146" lon="27.87513">
				 <ele>1576.5</ele>
			 </trkpt>
			 <trkpt lat="-26.30145" lon="27.87523">
				 <ele>1576.5</ele>
			 </trkpt>
			 <trkpt lat="-26.30148" lon="27.87532">
				 <ele>1576.5</ele>
			 </trkpt>
			 <trkpt lat="-26.30185" lon="27.87571">
				 <ele>1576.4</ele>
			 </trkpt>
			 <trkpt lat="-26.30193" lon="27.87575">
				 <ele>1575.9</ele>
			 </trkpt>
			 <trkpt lat="-26.30201" lon="27.87576">
				 <ele>1575.2</ele>
			 </trkpt>
			 <trkpt lat="-26.30262" lon="27.87559">
				 <ele>1574.5</ele>
			 </trkpt>
			 <trkpt lat="-26.30262" lon="27.87559">
				 <ele>1573.6</ele>
			 </trkpt>
			 <trkpt lat="-26.30286" lon="27.87552">
				 <ele>1572.6</ele>
			 </trkpt>
			 <trkpt lat="-26.30299" lon="27.87614">
				 <ele>1571.6</ele>
			 </trkpt>
			 <trkpt lat="-26.30309" lon="27.87668">
				 <ele>1570.6</ele>
			 </trkpt>
			 <trkpt lat="-26.30305" lon="27.87678">
				 <ele>1569.5</ele>
			 </trkpt>
			 <trkpt lat="-26.30288" lon="27.87684">
				 <ele>1568.5</ele>
			 </trkpt>
			 <trkpt lat="-26.30245" lon="27.87695">
				 <ele>1567.2</ele>
			 </trkpt>
			 <trkpt lat="-26.30237" lon="27.87697">
				 <ele>1565.9</ele>
			 </trkpt>
			 <trkpt lat="-26.30237" lon="27.87697">
				 <ele>1564.6</ele>
			 </trkpt>
			 <trkpt lat="-26.30229" lon="27.87699">
				 <ele>1563.5</ele>
			 </trkpt>
			 <trkpt lat="-26.30191" lon="27.87709">
				 <ele>1562.2</ele>
			 </trkpt>
			 <trkpt lat="-26.30165" lon="27.87712">
				 <ele>1561</ele>
			 </trkpt>
			 <trkpt lat="-26.30139" lon="27.87712">
				 <ele>1559.9</ele>
			 </trkpt>
			 <trkpt lat="-26.30064" lon="27.87714">
				 <ele>1558.8</ele>
			 </trkpt>
			 <trkpt lat="-26.29905" lon="27.87716">
				 <ele>1557.7</ele>
			 </trkpt>
			 <trkpt lat="-26.29907" lon="27.87742">
				 <ele>1556.9</ele>
			 </trkpt>
			 <trkpt lat="-26.29907" lon="27.87742">
				 <ele>1556.5</ele>
			 </trkpt>
			 <trkpt lat="-26.2991" lon="27.87782">
				 <ele>1556.4</ele>
			 </trkpt>
			 <trkpt lat="-26.29714" lon="27.87806">
				 <ele>1556.5</ele>
			 </trkpt>
			 <trkpt lat="-26.2964" lon="27.87811">
				 <ele>1556.9</ele>
			 </trkpt>
			 <trkpt lat="-26.29609" lon="27.87782">
				 <ele>1557.7</ele>
			 </trkpt>
			 <trkpt lat="-26.29555" lon="27.87728">
				 <ele>1558.6</ele>
			 </trkpt>
			 <trkpt lat="-26.29506" lon="27.87685">
				 <ele>1559.5</ele>
			 </trkpt>
			 <trkpt lat="-26.29483" lon="27.87662">
				 <ele>1560.5</ele>
			 </trkpt>
			 <trkpt lat="-26.29483" lon="27.87662">
				 <ele>1561.5</ele>
			 </trkpt>
			 <trkpt lat="-26.29406" lon="27.87588">
				 <ele>1562.5</ele>
			 </trkpt>
			 <trkpt lat="-26.29349" lon="27.87663">
				 <ele>1563.4</ele>
			 </trkpt>
			 <trkpt lat="-26.29314" lon="27.87721">
				 <ele>1564</ele>
			 </trkpt>
			 <trkpt lat="-26.29295" lon="27.87762">
				 <ele>1564.4</ele>
			 </trkpt>
			 <trkpt lat="-26.2924" lon="27.87895">
				 <ele>1564.5</ele>
			 </trkpt>
			 <trkpt lat="-26.29224" lon="27.87935">
				 <ele>1564.7</ele>
			 </trkpt>
			 <trkpt lat="-26.29225" lon="27.87935">
				 <ele>1564.4</ele>
			 </trkpt>
			 <trkpt lat="-26.29213" lon="27.87969">
				 <ele>1563.9</ele>
			 </trkpt>
			 <trkpt lat="-26.29181" lon="27.88067">
				 <ele>1563.4</ele>
			 </trkpt>
			 <trkpt lat="-26.29165" lon="27.88104">
				 <ele>1563</ele>
			 </trkpt>
			 <trkpt lat="-26.29145" lon="27.8816">
				 <ele>1562.6</ele>
			 </trkpt>
			 <trkpt lat="-26.29082" lon="27.88326">
				 <ele>1562.3</ele>
			 </trkpt>
			 <trkpt lat="-26.29058" lon="27.88391">
				 <ele>1561.9</ele>
			 </trkpt>
			 <trkpt lat="-26.28979" lon="27.88606">
				 <ele>1561.6</ele>
			 </trkpt>
			 <trkpt lat="-26.28962" lon="27.8866">
				 <ele>1561.5</ele>
			 </trkpt>
			 <trkpt lat="-26.28962" lon="27.8866">
				 <ele>1561.5</ele>
			 </trkpt>
			 <trkpt lat="-26.28957" lon="27.88684">
				 <ele>1561.7</ele>
			 </trkpt>
			 <trkpt lat="-26.28955" lon="27.88703">
				 <ele>1562.3</ele>
			 </trkpt>
			 <trkpt lat="-26.28954" lon="27.8874">
				 <ele>1563</ele>
			 </trkpt>
			 <trkpt lat="-26.28957" lon="27.8876">
				 <ele>1564</ele>
			 </trkpt>
			 <trkpt lat="-26.28965" lon="27.88797">
				 <ele>1564.8</ele>
			 </trkpt>
			 <trkpt lat="-26.28988" lon="27.88846">
				 <ele>1565.7</ele>
			 </trkpt>
			 <trkpt lat="-26.29006" lon="27.88873">
				 <ele>1566.6</ele>
			 </trkpt>
			 <trkpt lat="-26.29028" lon="27.88897">
				 <ele>1567.6</ele>
			 </trkpt>
			 <trkpt lat="-26.29084" lon="27.88947">
				 <ele>1568.5</ele>
			 </trkpt>
			 <trkpt lat="-26.29104" lon="27.88972">
				 <ele>1569.4</ele>
			 </trkpt>
			 <trkpt lat="-26.2912" lon="27.8901">
				 <ele>1570.4</ele>
			 </trkpt>
			 <trkpt lat="-26.29126" lon="27.8904">
				 <ele>1571.2</ele>
			 </trkpt>
			 <trkpt lat="-26.29128" lon="27.89062">
				 <ele>1571.9</ele>
			 </trkpt>
			 <trkpt lat="-26.29132" lon="27.89065">
				 <ele>1572.3</ele>
			 </trkpt>
			 <trkpt lat="-26.29132" lon="27.89071">
				 <ele>1572.5</ele>
			 </trkpt>
			 <trkpt lat="-26.29139" lon="27.89196">
				 <ele>1572.5</ele>
			 </trkpt>
			 <trkpt lat="-26.29233" lon="27.89188">
				 <ele>1572.5</ele>
			 </trkpt>
			 <trkpt lat="-26.29233" lon="27.89188">
				 <ele>1572.5</ele>
			 </trkpt>
			 <trkpt lat="-26.2942" lon="27.8917">
				 <ele>1572.4</ele>
			 </trkpt>
			 <trkpt lat="-26.2942" lon="27.8917">
				 <ele>1572.3</ele>
			 </trkpt>
			 <trkpt lat="-26.29509" lon="27.89162">
				 <ele>1572.2</ele>
			 </trkpt>
			 <trkpt lat="-26.29596" lon="27.89158">
				 <ele>1571.8</ele>
			 </trkpt>
			 <trkpt lat="-26.29598" lon="27.89196">
				 <ele>1571.4</ele>
			 </trkpt>
			 <trkpt lat="-26.29598" lon="27.89196">
				 <ele>1571</ele>
			 </trkpt>
			 <trkpt lat="-26.29615" lon="27.89434">
				 <ele>1571</ele>
			 </trkpt>
			 <trkpt lat="-26.29615" lon="27.89434">
				 <ele>1571</ele>
			 </trkpt>
			 <trkpt lat="-26.29626" lon="27.89585">
				 <ele>1571.1</ele>
			 </trkpt>
			 <trkpt lat="-26.29764" lon="27.89615">
				 <ele>1571.3</ele>
			 </trkpt>
			 <trkpt lat="-26.29751" lon="27.89681">
				 <ele>1571.4</ele>
			 </trkpt>
			 <trkpt lat="-26.29701" lon="27.89669">
				 <ele>1571.5</ele>
			 </trkpt>
			 <trkpt lat="-26.29689" lon="27.8967">
				 <ele>1571.6</ele>
			 </trkpt>
			 <trkpt lat="-26.29684" lon="27.8968">
				 <ele>1571.7</ele>
			 </trkpt>
			 <trkpt lat="-26.29676" lon="27.89717">
				 <ele>1571.8</ele>
			 </trkpt>
			 <trkpt lat="-26.29676" lon="27.89717">
				 <ele>1572</ele>
			 </trkpt>
			 <trkpt lat="-26.29662" lon="27.89788">
				 <ele>1572.1</ele>
			 </trkpt>
			 <trkpt lat="-26.29664" lon="27.89823">
				 <ele>1572.1</ele>
			 </trkpt>
			 <trkpt lat="-26.2968" lon="27.90032">
				 <ele>1572.2</ele>
			 </trkpt>
			 <trkpt lat="-26.29676" lon="27.90043">
				 <ele>1572.5</ele>
			 </trkpt>
			 <trkpt lat="-26.29667" lon="27.90048">
				 <ele>1572.7</ele>
			 </trkpt>
			 <trkpt lat="-26.29649" lon="27.90049">
				 <ele>1572.9</ele>
			 </trkpt>
			 <trkpt lat="-26.29649" lon="27.90049">
				 <ele>1573.2</ele>
			 </trkpt>
			 <trkpt lat="-26.29565" lon="27.90057">
				 <ele>1573.5</ele>
			 </trkpt>
			 <trkpt lat="-26.29553" lon="27.89885">
				 <ele>1573.8</ele>
			 </trkpt>
			 <trkpt lat="-26.29553" lon="27.89885">
				 <ele>1574.1</ele>
			 </trkpt>
			 <trkpt lat="-26.29547" lon="27.89796">
				 <ele>1574.4</ele>
			 </trkpt>
			 <trkpt lat="-26.29491" lon="27.89801">
				 <ele>1574.7</ele>
			 </trkpt>
			 <trkpt lat="-26.29486" lon="27.89739">
				 <ele>1575.2</ele>
			 </trkpt>
			 <trkpt lat="-26.29486" lon="27.89739">
				 <ele>1575.5</ele>
			 </trkpt>
			 <trkpt lat="-26.29481" lon="27.89672">
				 <ele>1575.7</ele>
			 </trkpt>
			 <trkpt lat="-26.29479" lon="27.89668">
				 <ele>1575.8</ele>
			 </trkpt>
			 <trkpt lat="-26.29475" lon="27.89665">
				 <ele>1576.2</ele>
			 </trkpt>
			 <trkpt lat="-26.29407" lon="27.8967">
				 <ele>1576.5</ele>
			 </trkpt>
			 <trkpt lat="-26.29404" lon="27.89637">
				 <ele>1576.8</ele>
			 </trkpt>
			 <trkpt lat="-26.29404" lon="27.89637">
				 <ele>1577.2</ele>
			 </trkpt>
			 <trkpt lat="-26.29401" lon="27.89603">
				 <ele>1577.6</ele>
			 </trkpt>
			 <trkpt lat="-26.29358" lon="27.89607">
				 <ele>1578.2</ele>
			 </trkpt>
			 <trkpt lat="-26.29341" lon="27.89604">
				 <ele>1578.6</ele>
			 </trkpt>
			 <trkpt lat="-26.29245" lon="27.89547">
				 <ele>1579</ele>
			 </trkpt>
			 <trkpt lat="-26.29233" lon="27.8954">
				 <ele>1579.3</ele>
			 </trkpt>
			 <trkpt lat="-26.29224" lon="27.89539">
				 <ele>1579.5</ele>
			 </trkpt>
			 <trkpt lat="-26.29164" lon="27.89544">
				 <ele>1579.6</ele>
			 </trkpt>
			 <trkpt lat="-26.2917" lon="27.89617">
				 <ele>1579.6</ele>
			 </trkpt>
			 <trkpt lat="-26.2917" lon="27.89617">
				 <ele>1579.6</ele>
			 </trkpt>
			 <trkpt lat="-26.29187" lon="27.89886">
				 <ele>1579.4</ele>
			 </trkpt>
			 <trkpt lat="-26.29197" lon="27.90012">
				 <ele>1579.1</ele>
			 </trkpt>
			 <trkpt lat="-26.292" lon="27.90077">
				 <ele>1578.8</ele>
			 </trkpt>
			 <trkpt lat="-26.29204" lon="27.90174">
				 <ele>1578.5</ele>
			 </trkpt>
			 <trkpt lat="-26.2921" lon="27.90208">
				 <ele>1578</ele>
			 </trkpt>
			 <trkpt lat="-26.29217" lon="27.90234">
				 <ele>1577.5</ele>
			 </trkpt>
			 <trkpt lat="-26.29217" lon="27.90234">
				 <ele>1577.3</ele>
			 </trkpt>
			 <trkpt lat="-26.29226" lon="27.90256">
				 <ele>1577.2</ele>
			 </trkpt>
			 <trkpt lat="-26.2925" lon="27.90297">
				 <ele>1577.2</ele>
			 </trkpt>
			 <trkpt lat="-26.29274" lon="27.90326">
				 <ele>1577.4</ele>
			 </trkpt>
			 <trkpt lat="-26.29299" lon="27.9035">
				 <ele>1577.6</ele>
			 </trkpt>
			 <trkpt lat="-26.29376" lon="27.90429">
				 <ele>1578.2</ele>
			 </trkpt>
			 <trkpt lat="-26.29402" lon="27.90463">
				 <ele>1578.8</ele>
			 </trkpt>
			 <trkpt lat="-26.29415" lon="27.90481">
				 <ele>1579.9</ele>
			 </trkpt>
			 <trkpt lat="-26.29426" lon="27.90508">
				 <ele>1581.7</ele>
			 </trkpt>
			 <trkpt lat="-26.29445" lon="27.90563">
				 <ele>1583.6</ele>
			 </trkpt>
			 <trkpt lat="-26.29451" lon="27.90602">
				 <ele>1586.2</ele>
			 </trkpt>
			 <trkpt lat="-26.29457" lon="27.90663">
				 <ele>1588.9</ele>
			 </trkpt>
			 <trkpt lat="-26.2948" lon="27.90878">
				 <ele>1591.6</ele>
			 </trkpt>
			 <trkpt lat="-26.2951" lon="27.91234">
				 <ele>1594.6</ele>
			 </trkpt>
			 <trkpt lat="-26.2951" lon="27.91234">
				 <ele>1597.6</ele>
			 </trkpt>
			 <trkpt lat="-26.2954" lon="27.91646">
				 <ele>1600.6</ele>
			 </trkpt>
			 <trkpt lat="-26.29554" lon="27.91863">
				 <ele>1603.5</ele>
			 </trkpt>
			 <trkpt lat="-26.29556" lon="27.91949">
				 <ele>1606.5</ele>
			 </trkpt>
			 <trkpt lat="-26.29563" lon="27.92077">
				 <ele>1609.5</ele>
			 </trkpt>
			 <trkpt lat="-26.29572" lon="27.922">
				 <ele>1611.7</ele>
			 </trkpt>
			 <trkpt lat="-26.29575" lon="27.92264">
				 <ele>1614.4</ele>
			 </trkpt>
			 <trkpt lat="-26.2958" lon="27.92307">
				 <ele>1616.5</ele>
			 </trkpt>
			 <trkpt lat="-26.29549" lon="27.9231">
				 <ele>1618.3</ele>
			 </trkpt>
			 <trkpt lat="-26.29427" lon="27.92321">
				 <ele>1620</ele>
			 </trkpt>
			 <trkpt lat="-26.29427" lon="27.92322">
				 <ele>1621.5</ele>
			 </trkpt>
			 <trkpt lat="-26.29275" lon="27.92339">
				 <ele>1622.9</ele>
			 </trkpt>
			 <trkpt lat="-26.29204" lon="27.92349">
				 <ele>1624.2</ele>
			 </trkpt>
			 <trkpt lat="-26.29198" lon="27.9235">
				 <ele>1625.5</ele>
			 </trkpt>
			 <trkpt lat="-26.29126" lon="27.92362">
				 <ele>1626.7</ele>
			 </trkpt>
			 <trkpt lat="-26.29076" lon="27.92376">
				 <ele>1627.5</ele>
			 </trkpt>
			 <trkpt lat="-26.29043" lon="27.92386">
				 <ele>1628.5</ele>
			 </trkpt>
			 <trkpt lat="-26.29018" lon="27.92396">
				 <ele>1629.2</ele>
			 </trkpt>
			 <trkpt lat="-26.28946" lon="27.92429">
				 <ele>1630</ele>
			 </trkpt>
			 <trkpt lat="-26.28897" lon="27.92457">
				 <ele>1631.2</ele>
			 </trkpt>
			 <trkpt lat="-26.28851" lon="27.92488">
				 <ele>1632.4</ele>
			 </trkpt>
			 <trkpt lat="-26.2882" lon="27.9251">
				 <ele>1633.5</ele>
			 </trkpt>
			 <trkpt lat="-26.28774" lon="27.9255">
				 <ele>1634.5</ele>
			 </trkpt>
			 <trkpt lat="-26.28736" lon="27.92587">
				 <ele>1635.4</ele>
			 </trkpt>
			 <trkpt lat="-26.28665" lon="27.92668">
				 <ele>1636.2</ele>
			 </trkpt>
			 <trkpt lat="-26.28649" lon="27.92687">
				 <ele>1636.6</ele>
			 </trkpt>
			 <trkpt lat="-26.28643" lon="27.92673">
				 <ele>1636.9</ele>
			 </trkpt>
			 <trkpt lat="-26.2863" lon="27.9263">
				 <ele>1636.8</ele>
			 </trkpt>
			 <trkpt lat="-26.28622" lon="27.92602">
				 <ele>1636.4</ele>
			 </trkpt>
			 <trkpt lat="-26.28622" lon="27.92602">
				 <ele>1635.6</ele>
			 </trkpt>
			 <trkpt lat="-26.28596" lon="27.92509">
				 <ele>1634.5</ele>
			 </trkpt>
			 <trkpt lat="-26.28585" lon="27.92478">
				 <ele>1633.2</ele>
			 </trkpt>
			 <trkpt lat="-26.28559" lon="27.92409">
				 <ele>1631.8</ele>
			 </trkpt>
			 <trkpt lat="-26.28527" lon="27.92349">
				 <ele>1630.5</ele>
			 </trkpt>
			 <trkpt lat="-26.28489" lon="27.92286">
				 <ele>1629.3</ele>
			 </trkpt>
			 <trkpt lat="-26.28446" lon="27.92224">
				 <ele>1627.5</ele>
			 </trkpt>
			 <trkpt lat="-26.28469" lon="27.92208">
				 <ele>1626</ele>
			 </trkpt>
			 <trkpt lat="-26.28511" lon="27.92188">
				 <ele>1624.5</ele>
			 </trkpt>
			 <trkpt lat="-26.28511" lon="27.92188">
				 <ele>1623.4</ele>
			 </trkpt>
			 <trkpt lat="-26.28533" lon="27.92176">
				 <ele>1622.3</ele>
			 </trkpt>
			 <trkpt lat="-26.28694" lon="27.92158">
				 <ele>1620.8</ele>
			 </trkpt>
			 <trkpt lat="-26.28707" lon="27.92157">
				 <ele>1618.9</ele>
			 </trkpt>
			 <trkpt lat="-26.28707" lon="27.92157">
				 <ele>1617.1</ele>
			 </trkpt>
			 <trkpt lat="-26.28715" lon="27.92156">
				 <ele>1614.9</ele>
			 </trkpt>
			 <trkpt lat="-26.28714" lon="27.92132">
				 <ele>1612.5</ele>
			 </trkpt>
			 <trkpt lat="-26.28703" lon="27.9198">
				 <ele>1610</ele>
			 </trkpt>
			 <trkpt lat="-26.2869" lon="27.91798">
				 <ele>1607.9</ele>
			 </trkpt>
			 <trkpt lat="-26.2869" lon="27.91798">
				 <ele>1606</ele>
			 </trkpt>
			 <trkpt lat="-26.28675" lon="27.91584">
				 <ele>1604</ele>
			 </trkpt>
			 <trkpt lat="-26.28667" lon="27.91473">
				 <ele>1601.8</ele>
			 </trkpt>
			 <trkpt lat="-26.28577" lon="27.91481">
				 <ele>1599.5</ele>
			 </trkpt>
			 <trkpt lat="-26.2846" lon="27.91491">
				 <ele>1597.6</ele>
			 </trkpt>
			 <trkpt lat="-26.28287" lon="27.91504">
				 <ele>1596.2</ele>
			 </trkpt>
			 <trkpt lat="-26.28286" lon="27.91456">
				 <ele>1594.7</ele>
			 </trkpt>
			 <trkpt lat="-26.28281" lon="27.91414">
				 <ele>1593.8</ele>
			 </trkpt>
			 <trkpt lat="-26.28276" lon="27.91368">
				 <ele>1593.8</ele>
			 </trkpt>
			 <trkpt lat="-26.2827" lon="27.91355">
				 <ele>1593.9</ele>
			 </trkpt>
			 <trkpt lat="-26.28261" lon="27.91296">
				 <ele>1594.5</ele>
			 </trkpt>
			 <trkpt lat="-26.28255" lon="27.91258">
				 <ele>1595.2</ele>
			 </trkpt>
			 <trkpt lat="-26.28228" lon="27.911">
				 <ele>1596.3</ele>
			 </trkpt>
			 <trkpt lat="-26.28197" lon="27.90921">
				 <ele>1597.3</ele>
			 </trkpt>
			 <trkpt lat="-26.28197" lon="27.90921">
				 <ele>1598.5</ele>
			 </trkpt>
			 <trkpt lat="-26.28178" lon="27.90805">
				 <ele>1599.5</ele>
			 </trkpt>
			 <trkpt lat="-26.28165" lon="27.90703">
				 <ele>1600.6</ele>
			 </trkpt>
			 <trkpt lat="-26.28141" lon="27.90576">
				 <ele>1601.8</ele>
			 </trkpt>
			 <trkpt lat="-26.28214" lon="27.90569">
				 <ele>1602.9</ele>
			 </trkpt>
			 <trkpt lat="-26.28214" lon="27.90569">
				 <ele>1603.4</ele>
			 </trkpt>
			 <trkpt lat="-26.28291" lon="27.9056">
				 <ele>1603.8</ele>
			 </trkpt>
			 <trkpt lat="-26.28312" lon="27.90559">
				 <ele>1604.1</ele>
			 </trkpt>
			 <trkpt lat="-26.2831" lon="27.90527">
				 <ele>1604.2</ele>
			 </trkpt>
			 <trkpt lat="-26.28304" lon="27.90445">
				 <ele>1604</ele>
			 </trkpt>
			 <trkpt lat="-26.28304" lon="27.90443">
				 <ele>1604</ele>
			 </trkpt>
			 <trkpt lat="-26.283" lon="27.9038">
				 <ele>1604.4</ele>
			 </trkpt>
			 <trkpt lat="-26.28252" lon="27.90274">
				 <ele>1604.9</ele>
			 </trkpt>
			 <trkpt lat="-26.28218" lon="27.90184">
				 <ele>1605.6</ele>
			 </trkpt>
			 <trkpt lat="-26.28206" lon="27.90148">
				 <ele>1606.1</ele>
			 </trkpt>
			 <trkpt lat="-26.28204" lon="27.90097">
				 <ele>1606.5</ele>
			 </trkpt>
			 <trkpt lat="-26.28108" lon="27.90105">
				 <ele>1606.9</ele>
			 </trkpt>
			 <trkpt lat="-26.28108" lon="27.90105">
				 <ele>1607.2</ele>
			 </trkpt>
			 <trkpt lat="-26.28062" lon="27.9011">
				 <ele>1607.1</ele>
			 </trkpt>
			 <trkpt lat="-26.28028" lon="27.89906">
				 <ele>1606.7</ele>
			 </trkpt>
			 <trkpt lat="-26.28028" lon="27.89906">
				 <ele>1606.4</ele>
			 </trkpt>
			 <trkpt lat="-26.28021" lon="27.89868">
				 <ele>1606</ele>
			 </trkpt>
			 <trkpt lat="-26.28074" lon="27.89862">
				 <ele>1605.3</ele>
			 </trkpt>
			 <trkpt lat="-26.28147" lon="27.89857">
				 <ele>1604.5</ele>
			 </trkpt>
			 <trkpt lat="-26.28226" lon="27.89851">
				 <ele>1603.5</ele>
			 </trkpt>
			 <trkpt lat="-26.28226" lon="27.89851">
				 <ele>1602.6</ele>
			 </trkpt>
			 <trkpt lat="-26.28239" lon="27.89851">
				 <ele>1601.8</ele>
			 </trkpt>
			 <trkpt lat="-26.2827" lon="27.89855">
				 <ele>1601</ele>
			 </trkpt>
			 <trkpt lat="-26.28307" lon="27.89866">
				 <ele>1600.2</ele>
			 </trkpt>
			 <trkpt lat="-26.28318" lon="27.89871">
				 <ele>1599.5</ele>
			 </trkpt>
			 <trkpt lat="-26.28335" lon="27.8988">
				 <ele>1599</ele>
			 </trkpt>
			 <trkpt lat="-26.28366" lon="27.89903">
				 <ele>1598.5</ele>
			 </trkpt>
			 <trkpt lat="-26.28399" lon="27.89938">
				 <ele>1597.9</ele>
			 </trkpt>
			 <trkpt lat="-26.28443" lon="27.8999">
				 <ele>1597.3</ele>
			 </trkpt>
			 <trkpt lat="-26.28472" lon="27.90019">
				 <ele>1596.5</ele>
			 </trkpt>
			 <trkpt lat="-26.28496" lon="27.90039">
				 <ele>1595.7</ele>
			 </trkpt>
			 <trkpt lat="-26.28522" lon="27.90052">
				 <ele>1594.7</ele>
			 </trkpt>
			 <trkpt lat="-26.28549" lon="27.90062">
				 <ele>1593.8</ele>
			 </trkpt>
			 <trkpt lat="-26.2859" lon="27.90066">
				 <ele>1592.9</ele>
			 </trkpt>
			 <trkpt lat="-26.2868" lon="27.90059">
				 <ele>1592.1</ele>
			 </trkpt>
			 <trkpt lat="-26.2868" lon="27.90059">
				 <ele>1591.3</ele>
			 </trkpt>
			 <trkpt lat="-26.28775" lon="27.90051">
				 <ele>1590.4</ele>
			 </trkpt>
			 <trkpt lat="-26.28763" lon="27.89892">
				 <ele>1589.5</ele>
			 </trkpt>
			 <trkpt lat="-26.2876" lon="27.89851">
				 <ele>1588.8</ele>
			 </trkpt>
			 <trkpt lat="-26.2876" lon="27.89851">
				 <ele>1587.7</ele>
			 </trkpt>
			 <trkpt lat="-26.2875" lon="27.89711">
				 <ele>1586.8</ele>
			 </trkpt>
			 <trkpt lat="-26.28742" lon="27.8958">
				 <ele>1585.6</ele>
			 </trkpt>
			 <trkpt lat="-26.28787" lon="27.89576">
				 <ele>1584.5</ele>
			 </trkpt>
			 <trkpt lat="-26.28787" lon="27.89576">
				 <ele>1583.4</ele>
			 </trkpt>
			 <trkpt lat="-26.29042" lon="27.89553">
				 <ele>1582.2</ele>
			 </trkpt>
			 <trkpt lat="-26.29156" lon="27.89544">
				 <ele>1580.7</ele>
			 </trkpt>
			 <trkpt lat="-26.29142" lon="27.89338">
				 <ele>1579.3</ele>
			 </trkpt>
			 <trkpt lat="-26.29134" lon="27.89225">
				 <ele>1578</ele>
			 </trkpt>
			 <trkpt lat="-26.29134" lon="27.89225">
				 <ele>1576.5</ele>
			 </trkpt>
			 <trkpt lat="-26.29129" lon="27.89163">
				 <ele>1575.1</ele>
			 </trkpt>
			 <trkpt lat="-26.29125" lon="27.89072">
				 <ele>1574</ele>
			 </trkpt>
			 <trkpt lat="-26.29125" lon="27.89066">
				 <ele>1573</ele>
			 </trkpt>
			 <trkpt lat="-26.29128" lon="27.89062">
				 <ele>1572.1</ele>
			 </trkpt>
			 <trkpt lat="-26.29126" lon="27.8904">
				 <ele>1571.3</ele>
			 </trkpt>
			 <trkpt lat="-26.2912" lon="27.8901">
				 <ele>1570.4</ele>
			 </trkpt>
			 <trkpt lat="-26.29104" lon="27.88972">
				 <ele>1569.4</ele>
			 </trkpt>
			 <trkpt lat="-26.29084" lon="27.88947">
				 <ele>1568.5</ele>
			 </trkpt>
			 <trkpt lat="-26.29028" lon="27.88897">
				 <ele>1567.6</ele>
			 </trkpt>
			 <trkpt lat="-26.29006" lon="27.88873">
				 <ele>1566.6</ele>
			 </trkpt>
			 <trkpt lat="-26.28988" lon="27.88846">
				 <ele>1565.7</ele>
			 </trkpt>
			 <trkpt lat="-26.28965" lon="27.88797">
				 <ele>1564.7</ele>
			 </trkpt>
			 <trkpt lat="-26.28957" lon="27.8876">
				 <ele>1563.5</ele>
			 </trkpt>
			 <trkpt lat="-26.28954" lon="27.8874">
				 <ele>1562.5</ele>
			 </trkpt>
			 <trkpt lat="-26.28955" lon="27.88703">
				 <ele>1562</ele>
			 </trkpt>
			 <trkpt lat="-26.28957" lon="27.88684">
				 <ele>1561.7</ele>
			 </trkpt>
			 <trkpt lat="-26.28969" lon="27.88636">
				 <ele>1561.5</ele>
			 </trkpt>
			 <trkpt lat="-26.29" lon="27.8855">
				 <ele>1561.5</ele>
			 </trkpt>
			 <trkpt lat="-26.29039" lon="27.88442">
				 <ele>1561.7</ele>
			 </trkpt>
			 <trkpt lat="-26.29128" lon="27.88203">
				 <ele>1562</ele>
			 </trkpt>
			 <trkpt lat="-26.29166" lon="27.88102">
				 <ele>1562.4</ele>
			 </trkpt>
			 <trkpt lat="-26.29166" lon="27.88102">
				 <ele>1562.7</ele>
			 </trkpt>
			 <trkpt lat="-26.29181" lon="27.88067">
				 <ele>1563.2</ele>
			 </trkpt>
			 <trkpt lat="-26.29213" lon="27.87969">
				 <ele>1564</ele>
			 </trkpt>
			 <trkpt lat="-26.29219" lon="27.87951">
				 <ele>1564.5</ele>
			 </trkpt>
			 <trkpt lat="-26.2924" lon="27.87895">
				 <ele>1564.7</ele>
			 </trkpt>
			 <trkpt lat="-26.29295" lon="27.87762">
				 <ele>1564.8</ele>
			 </trkpt>
			 <trkpt lat="-26.29314" lon="27.87721">
				 <ele>1565</ele>
			 </trkpt>
			 <trkpt lat="-26.29349" lon="27.87663">
				 <ele>1565.3</ele>
			 </trkpt>
			 <trkpt lat="-26.29406" lon="27.87588">
				 <ele>1565.5</ele>
			 </trkpt>
			 <trkpt lat="-26.29375" lon="27.87556">
				 <ele>1565.6</ele>
			 </trkpt>
			 <trkpt lat="-26.29375" lon="27.87556">
				 <ele>1565.8</ele>
			 </trkpt>
			 <trkpt lat="-26.29354" lon="27.87536">
				 <ele>1566</ele>
			 </trkpt>
			 <trkpt lat="-26.2931" lon="27.87501">
				 <ele>1566.2</ele>
			 </trkpt>
			 <trkpt lat="-26.29293" lon="27.87536">
				 <ele>1566.4</ele>
			 </trkpt>
			 <trkpt lat="-26.29293" lon="27.87536">
				 <ele>1566.5</ele>
			 </trkpt>
			 <trkpt lat="-26.29283" lon="27.87557">
				 <ele>1566.7</ele>
			 </trkpt>
			 <trkpt lat="-26.29307" lon="27.8757">
				 <ele>1566.8</ele>
			 </trkpt>
			 <trkpt lat="-26.29315" lon="27.87577">
				 <ele>1566.8</ele>
			 </trkpt>
			 <trkpt lat="-26.29318" lon="27.8759">
				 <ele>1566.6</ele>
			 </trkpt>
			 <trkpt lat="-26.29317" lon="27.87595">
				 <ele>1566.5</ele>
			 </trkpt>
			 <trkpt lat="-26.29317" lon="27.87595">
				 <ele>1566.5</ele>
			 </trkpt>
			 <trkpt lat="-26.29252" lon="27.87732">
				 <ele>1566.4</ele>
			 </trkpt>
			 <trkpt lat="-26.29252" lon="27.87732">
				 <ele>1566.3</ele>
			 </trkpt>
			 <trkpt lat="-26.29221" lon="27.87795">
				 <ele>1566.2</ele>
			 </trkpt>
			 <trkpt lat="-26.29209" lon="27.87785">
				 <ele>1566.2</ele>
			 </trkpt>
			 <trkpt lat="-26.29203" lon="27.87783">
				 <ele>1566.2</ele>
			 </trkpt>
			 <trkpt lat="-26.29203" lon="27.87783">
				 <ele>1566.2</ele>
			 </trkpt>
			 <trkpt lat="-26.29198" lon="27.87779">
				 <ele>1566.3</ele>
			 </trkpt>
			 <trkpt lat="-26.29194" lon="27.87768">
				 <ele>1566.4</ele>
			 </trkpt>
			 <trkpt lat="-26.29196" lon="27.87749">
				 <ele>1566.5</ele>
			 </trkpt>
			 <trkpt lat="-26.29202" lon="27.87725">
				 <ele>1566.7</ele>
			 </trkpt>
			 <trkpt lat="-26.29211" lon="27.87686">
				 <ele>1567</ele>
			 </trkpt>
			 <trkpt lat="-26.29222" lon="27.87659">
				 <ele>1567.3</ele>
			 </trkpt>
			 <trkpt lat="-26.29222" lon="27.87659">
				 <ele>1567.5</ele>
			 </trkpt>
			 <trkpt lat="-26.29254" lon="27.87604">
				 <ele>1567.9</ele>
			 </trkpt>
			 <trkpt lat="-26.29222" lon="27.87579">
				 <ele>1568.2</ele>
			 </trkpt>
			 <trkpt lat="-26.29204" lon="27.876">
				 <ele>1568.5</ele>
			 </trkpt>
			 <trkpt lat="-26.29204" lon="27.876">
				 <ele>1568.8</ele>
			 </trkpt>
			 <trkpt lat="-26.29156" lon="27.87661">
				 <ele>1569.2</ele>
			 </trkpt>
			 <trkpt lat="-26.29093" lon="27.87715">
				 <ele>1569.7</ele>
			 </trkpt>
			 <trkpt lat="-26.29063" lon="27.87737">
				 <ele>1570.3</ele>
			 </trkpt>
			 <trkpt lat="-26.29058" lon="27.87738">
				 <ele>1570.9</ele>
			 </trkpt>
			 <trkpt lat="-26.2905" lon="27.87731">
				 <ele>1571.5</ele>
			 </trkpt>
			 <trkpt lat="-26.29027" lon="27.87687">
				 <ele>1572.1</ele>
			 </trkpt>
			 <trkpt lat="-26.28996" lon="27.87631">
				 <ele>1572.7</ele>
			 </trkpt>
			 <trkpt lat="-26.28996" lon="27.87631">
				 <ele>1573.3</ele>
			 </trkpt>
			 <trkpt lat="-26.28944" lon="27.87533">
				 <ele>1573.8</ele>
			 </trkpt>
			 <trkpt lat="-26.28934" lon="27.87511">
				 <ele>1574.4</ele>
			 </trkpt>
			 <trkpt lat="-26.28932" lon="27.87497">
				 <ele>1574.7</ele>
			 </trkpt>
			 <trkpt lat="-26.28929" lon="27.87489">
				 <ele>1575.1</ele>
			 </trkpt>
			 <trkpt lat="-26.28928" lon="27.8748">
				 <ele>1575.3</ele>
			 </trkpt>
			 <trkpt lat="-26.2893" lon="27.8747">
				 <ele>1575.2</ele>
			 </trkpt>
			 <trkpt lat="-26.28948" lon="27.87444">
				 <ele>1574.9</ele>
			 </trkpt>
			 <trkpt lat="-26.28996" lon="27.87405">
				 <ele>1574.5</ele>
			 </trkpt>
			 <trkpt lat="-26.28996" lon="27.87405">
				 <ele>1574.1</ele>
			 </trkpt>
			 <trkpt lat="-26.29038" lon="27.87372">
				 <ele>1573.6</ele>
			 </trkpt>
			 <trkpt lat="-26.29245" lon="27.87198">
				 <ele>1573.2</ele>
			 </trkpt>
			 <trkpt lat="-26.29245" lon="27.87198">
				 <ele>1572.7</ele>
			 </trkpt>
			 <trkpt lat="-26.2934" lon="27.87118">
				 <ele>1572.2</ele>
			 </trkpt>
			 <trkpt lat="-26.29357" lon="27.87101">
				 <ele>1571.6</ele>
			 </trkpt>
			 <trkpt lat="-26.29368" lon="27.87096">
				 <ele>1571.1</ele>
			 </trkpt>
			 <trkpt lat="-26.29377" lon="27.87093">
				 <ele>1570.5</ele>
			 </trkpt>
			 <trkpt lat="-26.29385" lon="27.87093">
				 <ele>1570.1</ele>
			 </trkpt>
			 <trkpt lat="-26.29393" lon="27.87098">
				 <ele>1569.7</ele>
			 </trkpt>
			 <trkpt lat="-26.29467" lon="27.87153">
				 <ele>1569.4</ele>
			 </trkpt>
			 <trkpt lat="-26.29467" lon="27.87153">
				 <ele>1569</ele>
			 </trkpt>
			 <trkpt lat="-26.29518" lon="27.87185">
				 <ele>1568.6</ele>
			 </trkpt>
			 <trkpt lat="-26.29525" lon="27.87192">
				 <ele>1568.3</ele>
			 </trkpt>
			 <trkpt lat="-26.29551" lon="27.87211">
				 <ele>1567.9</ele>
			 </trkpt>
			 <trkpt lat="-26.29561" lon="27.87215">
				 <ele>1567.6</ele>
			 </trkpt>
			 <trkpt lat="-26.29584" lon="27.87216">
				 <ele>1567.5</ele>
			 </trkpt>
			 <trkpt lat="-26.29669" lon="27.87215">
				 <ele>1567.3</ele>
			 </trkpt>
			 <trkpt lat="-26.29669" lon="27.87215">
				 <ele>1567</ele>
			 </trkpt>
			 <trkpt lat="-26.29692" lon="27.87215">
				 <ele>1566.7</ele>
			 </trkpt>
			 <trkpt lat="-26.29799" lon="27.87204">
				 <ele>1566.3</ele>
			 </trkpt>
			 <trkpt lat="-26.29803" lon="27.87219">
				 <ele>1565.7</ele>
			 </trkpt>
			 <trkpt lat="-26.2982" lon="27.87293">
				 <ele>1565.4</ele>
			 </trkpt>
			 <trkpt lat="-26.29834" lon="27.8735">
				 <ele>1565</ele>
			 </trkpt>
			 <trkpt lat="-26.29835" lon="27.8735">
				 <ele>1564.7</ele>
			 </trkpt>
			 <trkpt lat="-26.29888" lon="27.87553">
				 <ele>1564.6</ele>
			 </trkpt>
			 <trkpt lat="-26.29894" lon="27.87575">
				 <ele>1564.6</ele>
			 </trkpt>
			 <trkpt lat="-26.29937" lon="27.87559">
				 <ele>1564.6</ele>
			 </trkpt>
			 <trkpt lat="-26.29937" lon="27.87559">
				 <ele>1564.6</ele>
			 </trkpt>
			 <trkpt lat="-26.29958" lon="27.87551">
				 <ele>1564.8</ele>
			 </trkpt>
			 <trkpt lat="-26.29928" lon="27.87437">
				 <ele>1565.1</ele>
			 </trkpt>
			 <trkpt lat="-26.29916" lon="27.87391">
				 <ele>1565.5</ele>
			 </trkpt>
			 <trkpt lat="-26.29918" lon="27.87379">
				 <ele>1566.2</ele>
			 </trkpt>
			 <trkpt lat="-26.29922" lon="27.87369">
				 <ele>1566.6</ele>
			 </trkpt>
			 <trkpt lat="-26.2993" lon="27.87362">
				 <ele>1567.5</ele>
			 </trkpt>
			 <trkpt lat="-26.29948" lon="27.87355">
				 <ele>1568.5</ele>
			 </trkpt>
			 <trkpt lat="-26.29955" lon="27.87354">
				 <ele>1569.2</ele>
			 </trkpt>
			 <trkpt lat="-26.29955" lon="27.87354">
				 <ele>1569.8</ele>
			 </trkpt>
			 <trkpt lat="-26.29977" lon="27.87352">
				 <ele>1570.5</ele>
			 </trkpt>
			 <trkpt lat="-26.30232" lon="27.87355">
				 <ele>1571.2</ele>
			 </trkpt>
			 <trkpt lat="-26.30241" lon="27.8736">
				 <ele>1571.9</ele>
			 </trkpt>
			 <trkpt lat="-26.30246" lon="27.87367">
				 <ele>1572.5</ele>
			 </trkpt>
			 <trkpt lat="-26.30248" lon="27.87377">
				 <ele>1573.2</ele>
			 </trkpt>
			 <trkpt lat="-26.30249" lon="27.87377">
				 <ele>1573.8</ele>
			 </trkpt>
			 <trkpt lat="-26.30257" lon="27.87419">
				 <ele>1574.6</ele>
			 </trkpt>
			 <trkpt lat="-26.30171" lon="27.87419">
				 <ele>1574.8</ele>
			 </trkpt>
			 <trkpt lat="-26.30164" lon="27.87421">
				 <ele>1574.9</ele>
			 </trkpt>
			 <trkpt lat="-26.30161" lon="27.87424">
				 <ele>1575</ele>
			 </trkpt>
			 <trkpt lat="-26.30158" lon="27.87432">
				 <ele>1575.1</ele>
			 </trkpt>
			 <trkpt lat="-26.3015" lon="27.87483">
				 <ele>1575.1</ele>
			 </trkpt>
			 <trkpt lat="-26.30117" lon="27.87477">
				 <ele>1574.9</ele>
			 </trkpt>
			 <trkpt lat="-26.30117" lon="27.87477">
				 <ele>1574.7</ele>
			 </trkpt>
			 <trkpt lat="-26.30103" lon="27.87476">
				 <ele>1574.5</ele>
			 </trkpt>
			 <trkpt lat="-26.30094" lon="27.87482">
				 <ele>1574.2</ele>
			 </trkpt>
			 <trkpt lat="-26.30088" lon="27.87508">
				 <ele>1573.7</ele>
			 </trkpt>
			 <trkpt lat="-26.30084" lon="27.87542">
				 <ele>1573.1</ele>
			 </trkpt>
			 <trkpt lat="-26.30089" lon="27.87555">
				 <ele>1572.6</ele>
			 </trkpt>
			 <trkpt lat="-26.30132" lon="27.87602">
				 <ele>1572.4</ele>
			 </trkpt>
			 <trkpt lat="-26.30132" lon="27.87602">
				 <ele>1572.1</ele>
			 </trkpt>
			 <trkpt lat="-26.30167" lon="27.8764">
				 <ele>1571.8</ele>
			 </trkpt>
			 <trkpt lat="-26.30178" lon="27.87643">
				 <ele>1571.4</ele>
			 </trkpt>
			 <trkpt lat="-26.30187" lon="27.87643">
				 <ele>1571</ele>
			 </trkpt>
			 <trkpt lat="-26.30228" lon="27.87632">
				 <ele>1570.5</ele>
			 </trkpt>
			 <trkpt lat="-26.30228" lon="27.87632">
				 <ele>1570.1</ele>
			 </trkpt>
			 <trkpt lat="-26.30299" lon="27.87614">
				 <ele>1569.6</ele>
			 </trkpt>
			 <trkpt lat="-26.30309" lon="27.87668">
				 <ele>1569.2</ele>
			 </trkpt>
			 <trkpt lat="-26.30305" lon="27.87678">
				 <ele>1568.5</ele>
			 </trkpt>
			 <trkpt lat="-26.30288" lon="27.87684">
				 <ele>1567.7</ele>
			 </trkpt>
			 <trkpt lat="-26.30271" lon="27.87689">
				 <ele>1566.6</ele>
			 </trkpt>
			 <trkpt lat="-26.30271" lon="27.87689">
				 <ele>1565.2</ele>
			 </trkpt>
			 <trkpt lat="-26.30229" lon="27.87699">
				 <ele>1563.7</ele>
			 </trkpt>
			 <trkpt lat="-26.30191" lon="27.87709">
				 <ele>1562.5</ele>
			 </trkpt>
			 <trkpt lat="-26.30165" lon="27.87712">
				 <ele>1561.2</ele>
			 </trkpt>
			 <trkpt lat="-26.30139" lon="27.87712">
				 <ele>1559.9</ele>
			 </trkpt>
			 <trkpt lat="-26.29964" lon="27.87715">
				 <ele>1558.7</ele>
			 </trkpt>
			 <trkpt lat="-26.29964" lon="27.87715">
				 <ele>1557.5</ele>
			 </trkpt>
			 <trkpt lat="-26.29905" lon="27.87716">
				 <ele>1556.5</ele>
			 </trkpt>
			 <trkpt lat="-26.2991" lon="27.87782">
				 <ele>1556.1</ele>
			 </trkpt>
			 <trkpt lat="-26.29821" lon="27.87793">
				 <ele>1556</ele>
			 </trkpt>
			 <trkpt lat="-26.29821" lon="27.87793">
				 <ele>1556.3</ele>
			 </trkpt>
			 <trkpt lat="-26.29714" lon="27.87806">
				 <ele>1556.9</ele>
			 </trkpt>
			 <trkpt lat="-26.2964" lon="27.87811">
				 <ele>1557.7</ele>
			 </trkpt>
			 <trkpt lat="-26.29555" lon="27.87728">
				 <ele>1558.5</ele>
			 </trkpt>
			 <trkpt lat="-26.29506" lon="27.87685">
				 <ele>1559.5</ele>
			 </trkpt>
			 <trkpt lat="-26.29449" lon="27.87629">
				 <ele>1560.5</ele>
			 </trkpt>
			 <trkpt lat="-26.29449" lon="27.87629">
				 <ele>1561.5</ele>
			 </trkpt>
			 <trkpt lat="-26.29406" lon="27.87588">
				 <ele>1562.5</ele>
			 </trkpt>
			 <trkpt lat="-26.29349" lon="27.87663">
				 <ele>1563.5</ele>
			 </trkpt>
			 <trkpt lat="-26.29314" lon="27.87721">
				 <ele>1564.2</ele>
			 </trkpt>
			 <trkpt lat="-26.29295" lon="27.87762">
				 <ele>1564.5</ele>
			 </trkpt>
			 <trkpt lat="-26.2924" lon="27.87895">
				 <ele>1564.4</ele>
			 </trkpt>
			 <trkpt lat="-26.29219" lon="27.87951">
				 <ele>1563.7</ele>
			 </trkpt>
			 <trkpt lat="-26.29194" lon="27.88028">
				 <ele>1563.1</ele>
			 </trkpt>
			 <trkpt lat="-26.29194" lon="27.88028">
				 <ele>1562.5</ele>
			 </trkpt>
			 <trkpt lat="-26.29145" lon="27.8816">
				 <ele>1561.9</ele>
			 </trkpt>
			 <trkpt lat="-26.29082" lon="27.88326">
				 <ele>1561.5</ele>
			 </trkpt>
			 <trkpt lat="-26.29001" lon="27.88548">
				 <ele>1561.2</ele>
			 </trkpt>
			 <trkpt lat="-26.28983" lon="27.88596">
				 <ele>1560.9</ele>
			 </trkpt>
			 <trkpt lat="-26.28983" lon="27.88596">
				 <ele>1560.7</ele>
			 </trkpt>
			 <trkpt lat="-26.28979" lon="27.88606">
				 <ele>1560.6</ele>
			 </trkpt>
			 <trkpt lat="-26.28959" lon="27.88671">
				 <ele>1560.7</ele>
			 </trkpt>
			 <trkpt lat="-26.28955" lon="27.88705">
				 <ele>1561.2</ele>
			 </trkpt>
			 <trkpt lat="-26.28955" lon="27.88743">
				 <ele>1562.2</ele>
			 </trkpt>
			 <trkpt lat="-26.28958" lon="27.88767">
				 <ele>1563.1</ele>
			 </trkpt>
			 <trkpt lat="-26.28965" lon="27.88797">
				 <ele>1564.1</ele>
			 </trkpt>
			 <trkpt lat="-26.28976" lon="27.88824">
				 <ele>1565.1</ele>
			 </trkpt>
			 <trkpt lat="-26.28988" lon="27.88846">
				 <ele>1565.9</ele>
			 </trkpt>
			 <trkpt lat="-26.29006" lon="27.88873">
				 <ele>1566.8</ele>
			 </trkpt>
			 <trkpt lat="-26.29028" lon="27.88897">
				 <ele>1567.6</ele>
			 </trkpt>
			 <trkpt lat="-26.29055" lon="27.88921">
				 <ele>1568.4</ele>
			 </trkpt>
			 <trkpt lat="-26.29084" lon="27.88947">
				 <ele>1569</ele>
			 </trkpt>
			 <trkpt lat="-26.29096" lon="27.88962">
				 <ele>1569.6</ele>
			 </trkpt>
			 <trkpt lat="-26.29114" lon="27.88992">
				 <ele>1570.2</ele>
			 </trkpt>
			 <trkpt lat="-26.29117" lon="27.89001">
				 <ele>1570.6</ele>
			 </trkpt>
			 <trkpt lat="-26.29117" lon="27.89001">
				 <ele>1571</ele>
			 </trkpt>
			 <trkpt lat="-26.29123" lon="27.89024">
				 <ele>1571.3</ele>
			 </trkpt>
			 <trkpt lat="-26.29127" lon="27.89053">
				 <ele>1571.4</ele>
			 </trkpt>
			 <trkpt lat="-26.29128" lon="27.89062">
				 <ele>1571.4</ele>
			 </trkpt>
			 <trkpt lat="-26.29132" lon="27.89065">
				 <ele>1571.3</ele>
			 </trkpt>
			 <trkpt lat="-26.29132" lon="27.89071">
				 <ele>1571.1</ele>
			 </trkpt>
			 <trkpt lat="-26.29205" lon="27.89065">
				 <ele>1570.7</ele>
			 </trkpt>
			 <trkpt lat="-26.29499" lon="27.89041">
				 <ele>1570.5</ele>
			 </trkpt>
			 <trkpt lat="-26.29549" lon="27.89037">
				 <ele>1570.3</ele>
			 </trkpt>
			 <trkpt lat="-26.29549" lon="27.89037">
				 <ele>1570</ele>
			 </trkpt>
			 <trkpt lat="-26.29818" lon="27.89015">
				 <ele>1569.6</ele>
			 </trkpt>
			 <trkpt lat="-26.29884" lon="27.89009">
				 <ele>1569.3</ele>
			 </trkpt>
			 <trkpt lat="-26.29887" lon="27.89054">
				 <ele>1569</ele>
			 </trkpt>
			 <trkpt lat="-26.29896" lon="27.89053">
				 <ele>1568.8</ele>
			 </trkpt>
			 <trkpt lat="-26.29888" lon="27.89063">
				 <ele>1568.6</ele>
			 </trkpt>
			 <trkpt lat="-26.29893" lon="27.89131">
				 <ele>1568.4</ele>
			 </trkpt>
			 <trkpt lat="-26.2985" lon="27.89136">
				 <ele>1568.3</ele>
			 </trkpt>
		 </trkseg>
	 </trk>
</gpx>