<?xml version="1.0" encoding="UTF-8"?>
 <gpx creator="Garmin Connect" version="1.1"
	 xsi:schemaLocation="http://www.topografix.com/GPX/1/1 http://www.topografix.com/GPX/11.xsd"
	 xmlns:ns3="http://www.garmin.com/xmlschemas/TrackPointExtension/v1"
	 xmlns="http://www.topografix.com/GPX/1/1"
	 xmlns:xsi="http://www.w3.org/2001/XMLSchema-instance" xmlns:ns2="http://www.garmin.com/xmlschemas/GpxExtensions/v3">
	 <metadata>
		<name>Torino City Marathon 2023 - 42.195 km</name>
		 <link href="https://www.goandrace.com">
		 <text>Garmin Connect</text>
		 </link>
	 <time>2026-08-08T21:31:58</time>
	 </metadata>
	 <trk>
		 <name>Torino City Marathon 2023 - 42.195 km</name>
		 <trkseg>
			 <trkpt lat="45.070646" lon="7.682103">
				 <ele>239</ele>
			 </trkpt>
			 <trkpt lat="45.070616" lon="7.681812">
				 <ele>239</ele>
			 </trkpt>
			 <trkpt lat="45.07033" lon="7.678218">
				 <ele>242</ele>
			 </trkpt>
			 <trkpt lat="45.070316" lon="7.677854">
				 <ele>242</ele>
			 </trkpt>
			 <trkpt lat="45.07035" lon="7.677675">
				 <ele>242</ele>
			 </trkpt>
			 <trkpt lat="45.072803" lon="7.670504">
				 <ele>244</ele>
			 </trkpt>
			 <trkpt lat="45.072824" lon="7.670414">
				 <ele>244</ele>
			 </trkpt>
			 <trkpt lat="45.072822" lon="7.6703">
				 <ele>244</ele>
			 </trkpt>
			 <trkpt lat="45.072791" lon="7.670194">
				 <ele>244</ele>
			 </trkpt>
			 <trkpt lat="45.067213" lon="7.66615">
				 <ele>246</ele>
			 </trkpt>
			 <trkpt lat="45.054968" lon="7.657392">
				 <ele>247</ele>
			 </trkpt>
			 <trkpt lat="45.053287" lon="7.656141">
				 <ele>248</ele>
			 </trkpt>
			 <trkpt lat="45.0531" lon="7.655877">
				 <ele>248</ele>
			 </trkpt>
			 <trkpt lat="45.052833" lon="7.655722">
				 <ele>248</ele>
			 </trkpt>
			 <trkpt lat="45.052552" lon="7.655609">
				 <ele>249</ele>
			 </trkpt>
			 <trkpt lat="45.052304" lon="7.655516">
				 <ele>248</ele>
			 </trkpt>
			 <trkpt lat="45.05186" lon="7.655211">
				 <ele>249</ele>
			 </trkpt>
			 <trkpt lat="45.051667" lon="7.654957">
				 <ele>249</ele>
			 </trkpt>
			 <trkpt lat="45.051354" lon="7.654801">
				 <ele>248</ele>
			 </trkpt>
			 <trkpt lat="45.040225" lon="7.64687">
				 <ele>247</ele>
			 </trkpt>
			 <trkpt lat="45.030354" lon="7.639815">
				 <ele>246</ele>
			 </trkpt>
			 <trkpt lat="45.023324" lon="7.634725">
				 <ele>245</ele>
			 </trkpt>
			 <trkpt lat="45.023274" lon="7.634648">
				 <ele>245</ele>
			 </trkpt>
			 <trkpt lat="45.023257" lon="7.634553">
				 <ele>245</ele>
			 </trkpt>
			 <trkpt lat="45.023269" lon="7.634422">
				 <ele>245</ele>
			 </trkpt>
			 <trkpt lat="45.026646" lon="7.625633">
				 <ele>250</ele>
			 </trkpt>
			 <trkpt lat="45.030599" lon="7.615499">
				 <ele>256</ele>
			 </trkpt>
			 <trkpt lat="45.0309" lon="7.6151">
				 <ele>257</ele>
			 </trkpt>
			 <trkpt lat="45.031258" lon="7.614793">
				 <ele>257</ele>
			 </trkpt>
			 <trkpt lat="45.031299" lon="7.614658">
				 <ele>258</ele>
			 </trkpt>
			 <trkpt lat="45.031288" lon="7.614453">
				 <ele>258</ele>
			 </trkpt>
			 <trkpt lat="45.031208" lon="7.614191">
				 <ele>257</ele>
			 </trkpt>
			 <trkpt lat="45.03113" lon="7.614119">
				 <ele>257</ele>
			 </trkpt>
			 <trkpt lat="45.031029" lon="7.614108">
				 <ele>257</ele>
			 </trkpt>
			 <trkpt lat="45.030959" lon="7.614133">
				 <ele>257</ele>
			 </trkpt>
			 <trkpt lat="45.03088" lon="7.614202">
				 <ele>257</ele>
			 </trkpt>
			 <trkpt lat="45.030849" lon="7.614263">
				 <ele>257</ele>
			 </trkpt>
			 <trkpt lat="45.028975" lon="7.618949">
				 <ele>254</ele>
			 </trkpt>
			 <trkpt lat="45.023" lon="7.634305">
				 <ele>245</ele>
			 </trkpt>
			 <trkpt lat="45.022973" lon="7.634341">
				 <ele>245</ele>
			 </trkpt>
			 <trkpt lat="45.022918" lon="7.634356">
				 <ele>245</ele>
			 </trkpt>
			 <trkpt lat="45.0218" lon="7.633636">
				 <ele>244</ele>
			 </trkpt>
			 <trkpt lat="45.021305" lon="7.633313">
				 <ele>244</ele>
			 </trkpt>
			 <trkpt lat="45.021178" lon="7.633217">
				 <ele>244</ele>
			 </trkpt>
			 <trkpt lat="45.016413" lon="7.627929">
				 <ele>245</ele>
			 </trkpt>
			 <trkpt lat="45.0135" lon="7.624603">
				 <ele>244</ele>
			 </trkpt>
			 <trkpt lat="45.013317" lon="7.624263">
				 <ele>244</ele>
			 </trkpt>
			 <trkpt lat="45.013316" lon="7.624188">
				 <ele>244</ele>
			 </trkpt>
			 <trkpt lat="45.013344" lon="7.624095">
				 <ele>244</ele>
			 </trkpt>
			 <trkpt lat="45.014718" lon="7.618274">
				 <ele>247</ele>
			 </trkpt>
			 <trkpt lat="45.016287" lon="7.611525">
				 <ele>252</ele>
			 </trkpt>
			 <trkpt lat="45.018149" lon="7.603737">
				 <ele>256</ele>
			 </trkpt>
			 <trkpt lat="45.018204" lon="7.603572">
				 <ele>256</ele>
			 </trkpt>
			 <trkpt lat="45.01858" lon="7.601166">
				 <ele>255</ele>
			 </trkpt>
			 <trkpt lat="45.018755" lon="7.599863">
				 <ele>255</ele>
			 </trkpt>
			 <trkpt lat="45.019161" lon="7.596686">
				 <ele>257</ele>
			 </trkpt>
			 <trkpt lat="45.019182" lon="7.596452">
				 <ele>257</ele>
			 </trkpt>
			 <trkpt lat="45.019133" lon="7.596215">
				 <ele>257</ele>
			 </trkpt>
			 <trkpt lat="45.01912" lon="7.596119">
				 <ele>257</ele>
			 </trkpt>
			 <trkpt lat="45.019133" lon="7.596048">
				 <ele>257</ele>
			 </trkpt>
			 <trkpt lat="45.019273" lon="7.595822">
				 <ele>257</ele>
			 </trkpt>
			 <trkpt lat="45.019411" lon="7.595257">
				 <ele>258</ele>
			 </trkpt>
			 <trkpt lat="45.019483" lon="7.595048">
				 <ele>258</ele>
			 </trkpt>
			 <trkpt lat="45.019782" lon="7.594547">
				 <ele>252</ele>
			 </trkpt>
			 <trkpt lat="45.020413" lon="7.593738">
				 <ele>259</ele>
			 </trkpt>
			 <trkpt lat="45.020678" lon="7.593581">
				 <ele>259</ele>
			 </trkpt>
			 <trkpt lat="45.021145" lon="7.593256">
				 <ele>259</ele>
			 </trkpt>
			 <trkpt lat="45.021666" lon="7.592812">
				 <ele>260</ele>
			 </trkpt>
			 <trkpt lat="45.022368" lon="7.592107">
				 <ele>261</ele>
			 </trkpt>
			 <trkpt lat="45.022599" lon="7.59188">
				 <ele>261</ele>
			 </trkpt>
			 <trkpt lat="45.0227" lon="7.591788">
				 <ele>261</ele>
			 </trkpt>
			 <trkpt lat="45.023492" lon="7.590826">
				 <ele>262</ele>
			 </trkpt>
			 <trkpt lat="45.02364" lon="7.590524">
				 <ele>262</ele>
			 </trkpt>
			 <trkpt lat="45.023684" lon="7.590378">
				 <ele>263</ele>
			 </trkpt>
			 <trkpt lat="45.023722" lon="7.590179">
				 <ele>263</ele>
			 </trkpt>
			 <trkpt lat="45.0237" lon="7.589901">
				 <ele>263</ele>
			 </trkpt>
			 <trkpt lat="45.023658" lon="7.589681">
				 <ele>263</ele>
			 </trkpt>
			 <trkpt lat="45.023587" lon="7.589368">
				 <ele>263</ele>
			 </trkpt>
			 <trkpt lat="45.023022" lon="7.588241">
				 <ele>263</ele>
			 </trkpt>
			 <trkpt lat="45.022895" lon="7.588045">
				 <ele>262</ele>
			 </trkpt>
			 <trkpt lat="45.022744" lon="7.587823">
				 <ele>263</ele>
			 </trkpt>
			 <trkpt lat="45.022714" lon="7.587757">
				 <ele>263</ele>
			 </trkpt>
			 <trkpt lat="45.022651" lon="7.587449">
				 <ele>263</ele>
			 </trkpt>
			 <trkpt lat="45.022603" lon="7.587264">
				 <ele>263</ele>
			 </trkpt>
			 <trkpt lat="45.021972" lon="7.584037">
				 <ele>261</ele>
			 </trkpt>
			 <trkpt lat="45.021844" lon="7.583412">
				 <ele>259</ele>
			 </trkpt>
			 <trkpt lat="45.021788" lon="7.583069">
				 <ele>257</ele>
			 </trkpt>
			 <trkpt lat="45.021727" lon="7.582835">
				 <ele>257</ele>
			 </trkpt>
			 <trkpt lat="45.021658" lon="7.582658">
				 <ele>257</ele>
			 </trkpt>
			 <trkpt lat="45.02152" lon="7.582384">
				 <ele>256</ele>
			 </trkpt>
			 <trkpt lat="45.021315" lon="7.582133">
				 <ele>256</ele>
			 </trkpt>
			 <trkpt lat="45.021188" lon="7.58204">
				 <ele>256</ele>
			 </trkpt>
			 <trkpt lat="45.020185" lon="7.581459">
				 <ele>249</ele>
			 </trkpt>
			 <trkpt lat="45.019987" lon="7.581305">
				 <ele>253</ele>
			 </trkpt>
			 <trkpt lat="45.019864" lon="7.581164">
				 <ele>253</ele>
			 </trkpt>
			 <trkpt lat="45.019761" lon="7.581022">
				 <ele>253</ele>
			 </trkpt>
			 <trkpt lat="45.019683" lon="7.580862">
				 <ele>253</ele>
			 </trkpt>
			 <trkpt lat="45.018939" lon="7.578743">
				 <ele>252</ele>
			 </trkpt>
			 <trkpt lat="45.017013" lon="7.573176">
				 <ele>255</ele>
			 </trkpt>
			 <trkpt lat="45.016989" lon="7.573118">
				 <ele>255</ele>
			 </trkpt>
			 <trkpt lat="45.01697" lon="7.573114">
				 <ele>255</ele>
			 </trkpt>
			 <trkpt lat="45.016959" lon="7.573128">
				 <ele>255</ele>
			 </trkpt>
			 <trkpt lat="45.016963" lon="7.573162">
				 <ele>255</ele>
			 </trkpt>
			 <trkpt lat="45.016975" lon="7.573211">
				 <ele>255</ele>
			 </trkpt>
			 <trkpt lat="45.017555" lon="7.574856">
				 <ele>255</ele>
			 </trkpt>
			 <trkpt lat="45.01819" lon="7.576685">
				 <ele>253</ele>
			 </trkpt>
			 <trkpt lat="45.018848" lon="7.578561">
				 <ele>252</ele>
			 </trkpt>
			 <trkpt lat="45.019655" lon="7.580895">
				 <ele>252</ele>
			 </trkpt>
			 <trkpt lat="45.019733" lon="7.581049">
				 <ele>253</ele>
			 </trkpt>
			 <trkpt lat="45.019812" lon="7.58117">
				 <ele>253</ele>
			 </trkpt>
			 <trkpt lat="45.020003" lon="7.581366">
				 <ele>253</ele>
			 </trkpt>
			 <trkpt lat="45.020032" lon="7.581415">
				 <ele>252</ele>
			 </trkpt>
			 <trkpt lat="45.020038" lon="7.581473">
				 <ele>252</ele>
			 </trkpt>
			 <trkpt lat="45.020038" lon="7.581523">
				 <ele>252</ele>
			 </trkpt>
			 <trkpt lat="45.019408" lon="7.583542">
				 <ele>248</ele>
			 </trkpt>
			 <trkpt lat="45.01916" lon="7.584199">
				 <ele>249</ele>
			 </trkpt>
			 <trkpt lat="45.018897" lon="7.584786">
				 <ele>249</ele>
			 </trkpt>
			 <trkpt lat="45.018449" lon="7.58563">
				 <ele>248</ele>
			 </trkpt>
			 <trkpt lat="45.017983" lon="7.586304">
				 <ele>248</ele>
			 </trkpt>
			 <trkpt lat="45.017683" lon="7.586653">
				 <ele>248</ele>
			 </trkpt>
			 <trkpt lat="45.017328" lon="7.587013">
				 <ele>249</ele>
			 </trkpt>
			 <trkpt lat="45.017039" lon="7.587245">
				 <ele>249</ele>
			 </trkpt>
			 <trkpt lat="45.016797" lon="7.587402">
				 <ele>250</ele>
			 </trkpt>
			 <trkpt lat="45.016562" lon="7.587543">
				 <ele>250</ele>
			 </trkpt>
			 <trkpt lat="45.014828" lon="7.588241">
				 <ele>251</ele>
			 </trkpt>
			 <trkpt lat="45.012491" lon="7.58926">
				 <ele>249</ele>
			 </trkpt>
			 <trkpt lat="45.012331" lon="7.589315">
				 <ele>249</ele>
			 </trkpt>
			 <trkpt lat="45.012219" lon="7.589293">
				 <ele>249</ele>
			 </trkpt>
			 <trkpt lat="45.01215" lon="7.589297">
				 <ele>249</ele>
			 </trkpt>
			 <trkpt lat="45.012099" lon="7.589346">
				 <ele>249</ele>
			 </trkpt>
			 <trkpt lat="45.011957" lon="7.589545">
				 <ele>249</ele>
			 </trkpt>
			 <trkpt lat="45.010855" lon="7.590406">
				 <ele>248</ele>
			 </trkpt>
			 <trkpt lat="45.010225" lon="7.590941">
				 <ele>246</ele>
			 </trkpt>
			 <trkpt lat="45.009791" lon="7.591387">
				 <ele>246</ele>
			 </trkpt>
			 <trkpt lat="45.008221" lon="7.593339">
				 <ele>245</ele>
			 </trkpt>
			 <trkpt lat="45.007454" lon="7.594335">
				 <ele>246</ele>
			 </trkpt>
			 <trkpt lat="45.006845" lon="7.595133">
				 <ele>246</ele>
			 </trkpt>
			 <trkpt lat="45.006071" lon="7.596304">
				 <ele>245</ele>
			 </trkpt>
			 <trkpt lat="45.005793" lon="7.596543">
				 <ele>245</ele>
			 </trkpt>
			 <trkpt lat="45.005411" lon="7.596754">
				 <ele>245</ele>
			 </trkpt>
			 <trkpt lat="45.005328" lon="7.596779">
				 <ele>245</ele>
			 </trkpt>
			 <trkpt lat="45.005184" lon="7.59676">
				 <ele>245</ele>
			 </trkpt>
			 <trkpt lat="45.004876" lon="7.596541">
				 <ele>245</ele>
			 </trkpt>
			 <trkpt lat="45.004285" lon="7.596095">
				 <ele>245</ele>
			 </trkpt>
			 <trkpt lat="45.003913" lon="7.595786">
				 <ele>246</ele>
			 </trkpt>
			 <trkpt lat="45.003835" lon="7.595776">
				 <ele>246</ele>
			 </trkpt>
			 <trkpt lat="45.00376" lon="7.595814">
				 <ele>246</ele>
			 </trkpt>
			 <trkpt lat="45.003693" lon="7.595929">
				 <ele>246</ele>
			 </trkpt>
			 <trkpt lat="45.003427" lon="7.596409">
				 <ele>246</ele>
			 </trkpt>
			 <trkpt lat="45.002784" lon="7.598076">
				 <ele>245</ele>
			 </trkpt>
			 <trkpt lat="45.002775" lon="7.598145">
				 <ele>245</ele>
			 </trkpt>
			 <trkpt lat="45.002783" lon="7.598191">
				 <ele>245</ele>
			 </trkpt>
			 <trkpt lat="45.002873" lon="7.59832">
				 <ele>245</ele>
			 </trkpt>
			 <trkpt lat="45.002958" lon="7.598409">
				 <ele>245</ele>
			 </trkpt>
			 <trkpt lat="45.002989" lon="7.598431">
				 <ele>245</ele>
			 </trkpt>
			 <trkpt lat="45.003022" lon="7.598489">
				 <ele>245</ele>
			 </trkpt>
			 <trkpt lat="45.003047" lon="7.598564">
				 <ele>245</ele>
			 </trkpt>
			 <trkpt lat="45.003092" lon="7.598625">
				 <ele>245</ele>
			 </trkpt>
			 <trkpt lat="45.004563" lon="7.60002">
				 <ele>245</ele>
			 </trkpt>
			 <trkpt lat="45.004591" lon="7.600023">
				 <ele>244</ele>
			 </trkpt>
			 <trkpt lat="45.00462" lon="7.599997">
				 <ele>244</ele>
			 </trkpt>
			 <trkpt lat="45.004716" lon="7.599818">
				 <ele>244</ele>
			 </trkpt>
			 <trkpt lat="45.005025" lon="7.598839">
				 <ele>244</ele>
			 </trkpt>
			 <trkpt lat="45.005497" lon="7.597581">
				 <ele>244</ele>
			 </trkpt>
			 <trkpt lat="45.005804" lon="7.596901">
				 <ele>244</ele>
			 </trkpt>
			 <trkpt lat="45.005898" lon="7.596747">
				 <ele>245</ele>
			 </trkpt>
			 <trkpt lat="45.005929" lon="7.596729">
				 <ele>245</ele>
			 </trkpt>
			 <trkpt lat="45.005996" lon="7.596729">
				 <ele>245</ele>
			 </trkpt>
			 <trkpt lat="45.006051" lon="7.596749">
				 <ele>245</ele>
			 </trkpt>
			 <trkpt lat="45.006097" lon="7.596786">
				 <ele>245</ele>
			 </trkpt>
			 <trkpt lat="45.006511" lon="7.597189">
				 <ele>244</ele>
			 </trkpt>
			 <trkpt lat="45.006974" lon="7.597607">
				 <ele>244</ele>
			 </trkpt>
			 <trkpt lat="45.007127" lon="7.597756">
				 <ele>244</ele>
			 </trkpt>
			 <trkpt lat="45.007205" lon="7.597869">
				 <ele>244</ele>
			 </trkpt>
			 <trkpt lat="45.007293" lon="7.598029">
				 <ele>244</ele>
			 </trkpt>
			 <trkpt lat="45.007336" lon="7.598148">
				 <ele>244</ele>
			 </trkpt>
			 <trkpt lat="45.007371" lon="7.598307">
				 <ele>244</ele>
			 </trkpt>
			 <trkpt lat="45.007376" lon="7.598522">
				 <ele>244</ele>
			 </trkpt>
			 <trkpt lat="45.007359" lon="7.598736">
				 <ele>244</ele>
			 </trkpt>
			 <trkpt lat="45.007274" lon="7.599034">
				 <ele>243</ele>
			 </trkpt>
			 <trkpt lat="45.00552" lon="7.60378">
				 <ele>242</ele>
			 </trkpt>
			 <trkpt lat="45.005504" lon="7.603846">
				 <ele>242</ele>
			 </trkpt>
			 <trkpt lat="45.005509" lon="7.603886">
				 <ele>242</ele>
			 </trkpt>
			 <trkpt lat="45.005516" lon="7.603919">
				 <ele>242</ele>
			 </trkpt>
			 <trkpt lat="45.005538" lon="7.603953">
				 <ele>242</ele>
			 </trkpt>
			 <trkpt lat="45.006067" lon="7.604379">
				 <ele>241</ele>
			 </trkpt>
			 <trkpt lat="45.008898" lon="7.606495">
				 <ele>239</ele>
			 </trkpt>
			 <trkpt lat="45.008947" lon="7.606544">
				 <ele>239</ele>
			 </trkpt>
			 <trkpt lat="45.00896" lon="7.606576">
				 <ele>239</ele>
			 </trkpt>
			 <trkpt lat="45.008977" lon="7.60663">
				 <ele>239</ele>
			 </trkpt>
			 <trkpt lat="45.008979" lon="7.606719">
				 <ele>239</ele>
			 </trkpt>
			 <trkpt lat="45.00753" lon="7.610421">
				 <ele>239</ele>
			 </trkpt>
			 <trkpt lat="45.007357" lon="7.610622">
				 <ele>238</ele>
			 </trkpt>
			 <trkpt lat="45.007319" lon="7.610692">
				 <ele>238</ele>
			 </trkpt>
			 <trkpt lat="45.007304" lon="7.610755">
				 <ele>238</ele>
			 </trkpt>
			 <trkpt lat="45.007268" lon="7.611042">
				 <ele>238</ele>
			 </trkpt>
			 <trkpt lat="45.006071" lon="7.613933">
				 <ele>237</ele>
			 </trkpt>
			 <trkpt lat="45.005386" lon="7.61557">
				 <ele>237</ele>
			 </trkpt>
			 <trkpt lat="45.005353" lon="7.61562">
				 <ele>237</ele>
			 </trkpt>
			 <trkpt lat="45.005325" lon="7.615641">
				 <ele>237</ele>
			 </trkpt>
			 <trkpt lat="45.005294" lon="7.615633">
				 <ele>237</ele>
			 </trkpt>
			 <trkpt lat="45.005272" lon="7.615618">
				 <ele>237</ele>
			 </trkpt>
			 <trkpt lat="45.001519" lon="7.611467">
				 <ele>241</ele>
			 </trkpt>
			 <trkpt lat="45.000746" lon="7.610574">
				 <ele>241</ele>
			 </trkpt>
			 <trkpt lat="44.998395" lon="7.607917">
				 <ele>241</ele>
			 </trkpt>
			 <trkpt lat="44.997792" lon="7.607245">
				 <ele>241</ele>
			 </trkpt>
			 <trkpt lat="44.997547" lon="7.606954">
				 <ele>241</ele>
			 </trkpt>
			 <trkpt lat="44.997511" lon="7.606897">
				 <ele>241</ele>
			 </trkpt>
			 <trkpt lat="44.997483" lon="7.606827">
				 <ele>241</ele>
			 </trkpt>
			 <trkpt lat="44.997471" lon="7.606739">
				 <ele>241</ele>
			 </trkpt>
			 <trkpt lat="44.997512" lon="7.605993">
				 <ele>241</ele>
			 </trkpt>
			 <trkpt lat="44.997504" lon="7.605867">
				 <ele>241</ele>
			 </trkpt>
			 <trkpt lat="44.997476" lon="7.605691">
				 <ele>241</ele>
			 </trkpt>
			 <trkpt lat="44.997435" lon="7.60553">
				 <ele>241</ele>
			 </trkpt>
			 <trkpt lat="44.99736" lon="7.605355">
				 <ele>241</ele>
			 </trkpt>
			 <trkpt lat="44.99724" lon="7.605144">
				 <ele>241</ele>
			 </trkpt>
			 <trkpt lat="44.997213" lon="7.605123">
				 <ele>242</ele>
			 </trkpt>
			 <trkpt lat="44.997191" lon="7.605142">
				 <ele>242</ele>
			 </trkpt>
			 <trkpt lat="44.996631" lon="7.606105">
				 <ele>242</ele>
			 </trkpt>
			 <trkpt lat="44.996155" lon="7.606939">
				 <ele>241</ele>
			 </trkpt>
			 <trkpt lat="44.996155" lon="7.606996">
				 <ele>241</ele>
			 </trkpt>
			 <trkpt lat="44.996159" lon="7.607038">
				 <ele>241</ele>
			 </trkpt>
			 <trkpt lat="44.996204" lon="7.607104">
				 <ele>241</ele>
			 </trkpt>
			 <trkpt lat="44.996275" lon="7.607151">
				 <ele>241</ele>
			 </trkpt>
			 <trkpt lat="44.996373" lon="7.607203">
				 <ele>241</ele>
			 </trkpt>
			 <trkpt lat="44.99647" lon="7.607241">
				 <ele>241</ele>
			 </trkpt>
			 <trkpt lat="44.996571" lon="7.607263">
				 <ele>241</ele>
			 </trkpt>
			 <trkpt lat="44.996686" lon="7.607255">
				 <ele>241</ele>
			 </trkpt>
			 <trkpt lat="44.99677" lon="7.607244">
				 <ele>241</ele>
			 </trkpt>
			 <trkpt lat="44.996876" lon="7.607212">
				 <ele>240</ele>
			 </trkpt>
			 <trkpt lat="44.996986" lon="7.607165">
				 <ele>240</ele>
			 </trkpt>
			 <trkpt lat="44.997271" lon="7.60703">
				 <ele>241</ele>
			 </trkpt>
			 <trkpt lat="44.997363" lon="7.607012">
				 <ele>241</ele>
			 </trkpt>
			 <trkpt lat="44.997438" lon="7.607044">
				 <ele>241</ele>
			 </trkpt>
			 <trkpt lat="44.997567" lon="7.607164">
				 <ele>241</ele>
			 </trkpt>
			 <trkpt lat="45.000048" lon="7.609947">
				 <ele>241</ele>
			 </trkpt>
			 <trkpt lat="45.00079" lon="7.610776">
				 <ele>241</ele>
			 </trkpt>
			 <trkpt lat="45.000855" lon="7.61086">
				 <ele>241</ele>
			 </trkpt>
			 <trkpt lat="45.000897" lon="7.610975">
				 <ele>241</ele>
			 </trkpt>
			 <trkpt lat="45.000922" lon="7.61107">
				 <ele>241</ele>
			 </trkpt>
			 <trkpt lat="45.000981" lon="7.612463">
				 <ele>241</ele>
			 </trkpt>
			 <trkpt lat="45.001128" lon="7.616933">
				 <ele>240</ele>
			 </trkpt>
			 <trkpt lat="45.001156" lon="7.617499">
				 <ele>240</ele>
			 </trkpt>
			 <trkpt lat="45.001219" lon="7.618196">
				 <ele>239</ele>
			 </trkpt>
			 <trkpt lat="45.001297" lon="7.618744">
				 <ele>239</ele>
			 </trkpt>
			 <trkpt lat="45.001354" lon="7.619067">
				 <ele>239</ele>
			 </trkpt>
			 <trkpt lat="45.002317" lon="7.623385">
				 <ele>239</ele>
			 </trkpt>
			 <trkpt lat="45.002449" lon="7.624012">
				 <ele>239</ele>
			 </trkpt>
			 <trkpt lat="45.002497" lon="7.624467">
				 <ele>240</ele>
			 </trkpt>
			 <trkpt lat="45.002511" lon="7.624892">
				 <ele>238</ele>
			 </trkpt>
			 <trkpt lat="45.002501" lon="7.625207">
				 <ele>238</ele>
			 </trkpt>
			 <trkpt lat="45.002463" lon="7.625593">
				 <ele>236</ele>
			 </trkpt>
			 <trkpt lat="45.002248" lon="7.626759">
				 <ele>234</ele>
			 </trkpt>
			 <trkpt lat="45.002181" lon="7.62704">
				 <ele>234</ele>
			 </trkpt>
			 <trkpt lat="45.001932" lon="7.627639">
				 <ele>233</ele>
			 </trkpt>
			 <trkpt lat="45.001791" lon="7.628005">
				 <ele>233</ele>
			 </trkpt>
			 <trkpt lat="45.00172" lon="7.628245">
				 <ele>232</ele>
			 </trkpt>
			 <trkpt lat="45.001652" lon="7.628505">
				 <ele>232</ele>
			 </trkpt>
			 <trkpt lat="45.00161" lon="7.628697">
				 <ele>232</ele>
			 </trkpt>
			 <trkpt lat="45.001584" lon="7.628857">
				 <ele>232</ele>
			 </trkpt>
			 <trkpt lat="45.00156" lon="7.629049">
				 <ele>231</ele>
			 </trkpt>
			 <trkpt lat="45.00154" lon="7.629249">
				 <ele>231</ele>
			 </trkpt>
			 <trkpt lat="45.001532" lon="7.629562">
				 <ele>231</ele>
			 </trkpt>
			 <trkpt lat="45.001557" lon="7.631215">
				 <ele>231</ele>
			 </trkpt>
			 <trkpt lat="45.001573" lon="7.631747">
				 <ele>231</ele>
			 </trkpt>
			 <trkpt lat="45.001591" lon="7.631863">
				 <ele>231</ele>
			 </trkpt>
			 <trkpt lat="45.001627" lon="7.631962">
				 <ele>231</ele>
			 </trkpt>
			 <trkpt lat="45.001811" lon="7.63234">
				 <ele>232</ele>
			 </trkpt>
			 <trkpt lat="45.001836" lon="7.632431">
				 <ele>232</ele>
			 </trkpt>
			 <trkpt lat="45.001841" lon="7.632556">
				 <ele>232</ele>
			 </trkpt>
			 <trkpt lat="45.00182" lon="7.632685">
				 <ele>231</ele>
			 </trkpt>
			 <trkpt lat="45.001775" lon="7.632798">
				 <ele>231</ele>
			 </trkpt>
			 <trkpt lat="45.001614" lon="7.633044">
				 <ele>230</ele>
			 </trkpt>
			 <trkpt lat="45.001603" lon="7.633112">
				 <ele>230</ele>
			 </trkpt>
			 <trkpt lat="45.001614" lon="7.634177">
				 <ele>230</ele>
			 </trkpt>
			 <trkpt lat="45.001676" lon="7.637503">
				 <ele>229</ele>
			 </trkpt>
			 <trkpt lat="45.001741" lon="7.640423">
				 <ele>228</ele>
			 </trkpt>
			 <trkpt lat="45.00175" lon="7.640638">
				 <ele>228</ele>
			 </trkpt>
			 <trkpt lat="45.001742" lon="7.640814">
				 <ele>228</ele>
			 </trkpt>
			 <trkpt lat="45.00173" lon="7.640933">
				 <ele>228</ele>
			 </trkpt>
			 <trkpt lat="45.001896" lon="7.646642">
				 <ele>226</ele>
			 </trkpt>
			 <trkpt lat="45.001944" lon="7.649314">
				 <ele>225</ele>
			 </trkpt>
			 <trkpt lat="45.001937" lon="7.649632">
				 <ele>225</ele>
			 </trkpt>
			 <trkpt lat="45.001962" lon="7.650576">
				 <ele>225</ele>
			 </trkpt>
			 <trkpt lat="45.002068" lon="7.653135">
				 <ele>224</ele>
			 </trkpt>
			 <trkpt lat="45.002092" lon="7.65538">
				 <ele>224</ele>
			 </trkpt>
			 <trkpt lat="45.002211" lon="7.661505">
				 <ele>222</ele>
			 </trkpt>
			 <trkpt lat="45.00235" lon="7.665374">
				 <ele>220</ele>
			 </trkpt>
			 <trkpt lat="45.002373" lon="7.665548">
				 <ele>221</ele>
			 </trkpt>
			 <trkpt lat="45.002402" lon="7.665644">
				 <ele>221</ele>
			 </trkpt>
			 <trkpt lat="45.002524" lon="7.665858">
				 <ele>221</ele>
			 </trkpt>
			 <trkpt lat="45.003049" lon="7.667012">
				 <ele>222</ele>
			 </trkpt>
			 <trkpt lat="45.003088" lon="7.66713">
				 <ele>222</ele>
			 </trkpt>
			 <trkpt lat="45.003088" lon="7.667261">
				 <ele>222</ele>
			 </trkpt>
			 <trkpt lat="45.002636" lon="7.669501">
				 <ele>221</ele>
			 </trkpt>
			 <trkpt lat="45.002451" lon="7.670387">
				 <ele>221</ele>
			 </trkpt>
			 <trkpt lat="45.002389" lon="7.67049">
				 <ele>222</ele>
			 </trkpt>
			 <trkpt lat="45.001959" lon="7.670844">
				 <ele>222</ele>
			 </trkpt>
			 <trkpt lat="45.001369" lon="7.67129">
				 <ele>222</ele>
			 </trkpt>
			 <trkpt lat="45.001101" lon="7.671468">
				 <ele>221</ele>
			 </trkpt>
			 <trkpt lat="45.000867" lon="7.671605">
				 <ele>222</ele>
			 </trkpt>
			 <trkpt lat="45.000394" lon="7.671743">
				 <ele>221</ele>
			 </trkpt>
			 <trkpt lat="45.000351" lon="7.671734">
				 <ele>221</ele>
			 </trkpt>
			 <trkpt lat="45.000333" lon="7.671708">
				 <ele>221</ele>
			 </trkpt>
			 <trkpt lat="45.000116" lon="7.671171">
				 <ele>221</ele>
			 </trkpt>
			 <trkpt lat="44.998889" lon="7.667572">
				 <ele>221</ele>
			 </trkpt>
			 <trkpt lat="44.998845" lon="7.667517">
				 <ele>221</ele>
			 </trkpt>
			 <trkpt lat="44.998815" lon="7.667495">
				 <ele>221</ele>
			 </trkpt>
			 <trkpt lat="44.998788" lon="7.667498">
				 <ele>221</ele>
			 </trkpt>
			 <trkpt lat="44.997718" lon="7.668147">
				 <ele>221</ele>
			 </trkpt>
			 <trkpt lat="44.997676" lon="7.66819">
				 <ele>221</ele>
			 </trkpt>
			 <trkpt lat="44.997671" lon="7.668298">
				 <ele>221</ele>
			 </trkpt>
			 <trkpt lat="44.998148" lon="7.669328">
				 <ele>221</ele>
			 </trkpt>
			 <trkpt lat="44.998604" lon="7.670366">
				 <ele>221</ele>
			 </trkpt>
			 <trkpt lat="44.999082" lon="7.671436">
				 <ele>221</ele>
			 </trkpt>
			 <trkpt lat="44.999206" lon="7.671634">
				 <ele>221</ele>
			 </trkpt>
			 <trkpt lat="44.999326" lon="7.671722">
				 <ele>221</ele>
			 </trkpt>
			 <trkpt lat="44.999524" lon="7.671812">
				 <ele>222</ele>
			 </trkpt>
			 <trkpt lat="44.999691" lon="7.671837">
				 <ele>222</ele>
			 </trkpt>
			 <trkpt lat="45.000181" lon="7.671853">
				 <ele>222</ele>
			 </trkpt>
			 <trkpt lat="45.000586" lon="7.671783">
				 <ele>221</ele>
			 </trkpt>
			 <trkpt lat="45.000844" lon="7.671693">
				 <ele>222</ele>
			 </trkpt>
			 <trkpt lat="45.001319" lon="7.671405">
				 <ele>222</ele>
			 </trkpt>
			 <trkpt lat="45.002144" lon="7.670841">
				 <ele>222</ele>
			 </trkpt>
			 <trkpt lat="45.002209" lon="7.670828">
				 <ele>222</ele>
			 </trkpt>
			 <trkpt lat="45.002264" lon="7.670867">
				 <ele>222</ele>
			 </trkpt>
			 <trkpt lat="45.002305" lon="7.670968">
				 <ele>221</ele>
			 </trkpt>
			 <trkpt lat="45.002201" lon="7.672485">
				 <ele>220</ele>
			 </trkpt>
			 <trkpt lat="45.002184" lon="7.672833">
				 <ele>219</ele>
			 </trkpt>
			 <trkpt lat="45.002207" lon="7.673101">
				 <ele>220</ele>
			 </trkpt>
			 <trkpt lat="45.002253" lon="7.673232">
				 <ele>220</ele>
			 </trkpt>
			 <trkpt lat="45.002637" lon="7.673552">
				 <ele>220</ele>
			 </trkpt>
			 <trkpt lat="45.002805" lon="7.673775">
				 <ele>220</ele>
			 </trkpt>
			 <trkpt lat="45.002921" lon="7.674077">
				 <ele>220</ele>
			 </trkpt>
			 <trkpt lat="45.003012" lon="7.674667">
				 <ele>220</ele>
			 </trkpt>
			 <trkpt lat="45.002994" lon="7.675121">
				 <ele>221</ele>
			 </trkpt>
			 <trkpt lat="45.002994" lon="7.67558">
				 <ele>222</ele>
			 </trkpt>
			 <trkpt lat="45.002981" lon="7.675882">
				 <ele>222</ele>
			 </trkpt>
			 <trkpt lat="45.002937" lon="7.675988">
				 <ele>222</ele>
			 </trkpt>
			 <trkpt lat="45.002701" lon="7.676294">
				 <ele>222</ele>
			 </trkpt>
			 <trkpt lat="45.002054" lon="7.677065">
				 <ele>222</ele>
			 </trkpt>
			 <trkpt lat="45.001893" lon="7.677125">
				 <ele>222</ele>
			 </trkpt>
			 <trkpt lat="45.001833" lon="7.677137">
				 <ele>222</ele>
			 </trkpt>
			 <trkpt lat="45.001779" lon="7.677192">
				 <ele>222</ele>
			 </trkpt>
			 <trkpt lat="45.001715" lon="7.677372">
				 <ele>222</ele>
			 </trkpt>
			 <trkpt lat="45.00167" lon="7.677567">
				 <ele>222</ele>
			 </trkpt>
			 <trkpt lat="45.001623" lon="7.677694">
				 <ele>223</ele>
			 </trkpt>
			 <trkpt lat="45.00046" lon="7.679227">
				 <ele>223</ele>
			 </trkpt>
			 <trkpt lat="45.000236" lon="7.679415">
				 <ele>223</ele>
			 </trkpt>
			 <trkpt lat="44.999926" lon="7.679748">
				 <ele>223</ele>
			 </trkpt>
			 <trkpt lat="44.999823" lon="7.679816">
				 <ele>223</ele>
			 </trkpt>
			 <trkpt lat="44.999787" lon="7.679872">
				 <ele>223</ele>
			 </trkpt>
			 <trkpt lat="44.999788" lon="7.67992">
				 <ele>223</ele>
			 </trkpt>
			 <trkpt lat="44.999964" lon="7.680181">
				 <ele>223</ele>
			 </trkpt>
			 <trkpt lat="45.000065" lon="7.68043">
				 <ele>224</ele>
			 </trkpt>
			 <trkpt lat="45.000386" lon="7.681571">
				 <ele>225</ele>
			 </trkpt>
			 <trkpt lat="45.000488" lon="7.681845">
				 <ele>225</ele>
			 </trkpt>
			 <trkpt lat="45.001473" lon="7.683579">
				 <ele>227</ele>
			 </trkpt>
			 <trkpt lat="45.001627" lon="7.683728">
				 <ele>226</ele>
			 </trkpt>
			 <trkpt lat="45.002198" lon="7.684038">
				 <ele>224</ele>
			 </trkpt>
			 <trkpt lat="45.004236" lon="7.685002">
				 <ele>226</ele>
			 </trkpt>
			 <trkpt lat="45.004678" lon="7.685193">
				 <ele>227</ele>
			 </trkpt>
			 <trkpt lat="45.004848" lon="7.68523">
				 <ele>226</ele>
			 </trkpt>
			 <trkpt lat="45.008845" lon="7.685784">
				 <ele>230</ele>
			 </trkpt>
			 <trkpt lat="45.009717" lon="7.685855">
				 <ele>230</ele>
			 </trkpt>
			 <trkpt lat="45.010107" lon="7.685802">
				 <ele>230</ele>
			 </trkpt>
			 <trkpt lat="45.010408" lon="7.68567">
				 <ele>230</ele>
			 </trkpt>
			 <trkpt lat="45.010676" lon="7.685512">
				 <ele>231</ele>
			 </trkpt>
			 <trkpt lat="45.011057" lon="7.685203">
				 <ele>231</ele>
			 </trkpt>
			 <trkpt lat="45.013386" lon="7.682995">
				 <ele>226</ele>
			 </trkpt>
			 <trkpt lat="45.015234" lon="7.681259">
				 <ele>225</ele>
			 </trkpt>
			 <trkpt lat="45.015828" lon="7.680687">
				 <ele>226</ele>
			 </trkpt>
			 <trkpt lat="45.016043" lon="7.680543">
				 <ele>226</ele>
			 </trkpt>
			 <trkpt lat="45.018624" lon="7.679209">
				 <ele>226</ele>
			 </trkpt>
			 <trkpt lat="45.021048" lon="7.677947">
				 <ele>226</ele>
			 </trkpt>
			 <trkpt lat="45.022839" lon="7.676994">
				 <ele>227</ele>
			 </trkpt>
			 <trkpt lat="45.023863" lon="7.676443">
				 <ele>229</ele>
			 </trkpt>
			 <trkpt lat="45.0246" lon="7.676061">
				 <ele>228</ele>
			 </trkpt>
			 <trkpt lat="45.024892" lon="7.676031">
				 <ele>227</ele>
			 </trkpt>
			 <trkpt lat="45.025228" lon="7.6761">
				 <ele>226</ele>
			 </trkpt>
			 <trkpt lat="45.025854" lon="7.676254">
				 <ele>225</ele>
			 </trkpt>
			 <trkpt lat="45.026201" lon="7.676382">
				 <ele>224</ele>
			 </trkpt>
			 <trkpt lat="45.027983" lon="7.677155">
				 <ele>224</ele>
			 </trkpt>
			 <trkpt lat="45.031324" lon="7.678653">
				 <ele>224</ele>
			 </trkpt>
			 <trkpt lat="45.034319" lon="7.68002">
				 <ele>225</ele>
			 </trkpt>
			 <trkpt lat="45.038563" lon="7.681864">
				 <ele>226</ele>
			 </trkpt>
			 <trkpt lat="45.040076" lon="7.682576">
				 <ele>224</ele>
			 </trkpt>
			 <trkpt lat="45.040685" lon="7.682973">
				 <ele>223</ele>
			 </trkpt>
			 <trkpt lat="45.043748" lon="7.685166">
				 <ele>224</ele>
			 </trkpt>
			 <trkpt lat="45.044473" lon="7.685656">
				 <ele>224</ele>
			 </trkpt>
			 <trkpt lat="45.044692" lon="7.685838">
				 <ele>225</ele>
			 </trkpt>
			 <trkpt lat="45.045061" lon="7.686074">
				 <ele>224</ele>
			 </trkpt>
			 <trkpt lat="45.045227" lon="7.686161">
				 <ele>225</ele>
			 </trkpt>
			 <trkpt lat="45.045904" lon="7.686489">
				 <ele>225</ele>
			 </trkpt>
			 <trkpt lat="45.046783" lon="7.686811">
				 <ele>223</ele>
			 </trkpt>
			 <trkpt lat="45.048186" lon="7.687154">
				 <ele>223</ele>
			 </trkpt>
			 <trkpt lat="45.048528" lon="7.687249">
				 <ele>223</ele>
			 </trkpt>
			 <trkpt lat="45.048806" lon="7.687359">
				 <ele>224</ele>
			 </trkpt>
			 <trkpt lat="45.049369" lon="7.687662">
				 <ele>225</ele>
			 </trkpt>
			 <trkpt lat="45.050581" lon="7.688327">
				 <ele>227</ele>
			 </trkpt>
			 <trkpt lat="45.052009" lon="7.68924">
				 <ele>226</ele>
			 </trkpt>
			 <trkpt lat="45.052432" lon="7.689514">
				 <ele>226</ele>
			 </trkpt>
			 <trkpt lat="45.053217" lon="7.690274">
				 <ele>225</ele>
			 </trkpt>
			 <trkpt lat="45.054043" lon="7.691008">
				 <ele>224</ele>
			 </trkpt>
			 <trkpt lat="45.055727" lon="7.691989">
				 <ele>222</ele>
			 </trkpt>
			 <trkpt lat="45.056167" lon="7.692229">
				 <ele>221</ele>
			 </trkpt>
			 <trkpt lat="45.056638" lon="7.692495">
				 <ele>221</ele>
			 </trkpt>
			 <trkpt lat="45.057288" lon="7.692894">
				 <ele>221</ele>
			 </trkpt>
			 <trkpt lat="45.057343" lon="7.692911">
				 <ele>221</ele>
			 </trkpt>
			 <trkpt lat="45.05739" lon="7.692932">
				 <ele>222</ele>
			 </trkpt>
			 <trkpt lat="45.057446" lon="7.692927">
				 <ele>222</ele>
			 </trkpt>
			 <trkpt lat="45.057505" lon="7.692914">
				 <ele>222</ele>
			 </trkpt>
			 <trkpt lat="45.057564" lon="7.692893">
				 <ele>222</ele>
			 </trkpt>
			 <trkpt lat="45.057615" lon="7.69285">
				 <ele>222</ele>
			 </trkpt>
			 <trkpt lat="45.057665" lon="7.692799">
				 <ele>223</ele>
			 </trkpt>
			 <trkpt lat="45.057703" lon="7.692741">
				 <ele>222</ele>
			 </trkpt>
			 <trkpt lat="45.058443" lon="7.691013">
				 <ele>224</ele>
			 </trkpt>
			 <trkpt lat="45.058483" lon="7.690958">
				 <ele>224</ele>
			 </trkpt>
			 <trkpt lat="45.058532" lon="7.69092">
				 <ele>224</ele>
			 </trkpt>
			 <trkpt lat="45.058586" lon="7.690919">
				 <ele>225</ele>
			 </trkpt>
			 <trkpt lat="45.05871" lon="7.690988">
				 <ele>225</ele>
			 </trkpt>
			 <trkpt lat="45.060093" lon="7.692036">
				 <ele>224</ele>
			 </trkpt>
			 <trkpt lat="45.06129" lon="7.693109">
				 <ele>223</ele>
			 </trkpt>
			 <trkpt lat="45.061396" lon="7.693222">
				 <ele>223</ele>
			 </trkpt>
			 <trkpt lat="45.0616" lon="7.693564">
				 <ele>223</ele>
			 </trkpt>
			 <trkpt lat="45.062121" lon="7.694253">
				 <ele>222</ele>
			 </trkpt>
			 <trkpt lat="45.063861" lon="7.696448">
				 <ele>222</ele>
			 </trkpt>
			 <trkpt lat="45.064328" lon="7.697045">
				 <ele>222</ele>
			 </trkpt>
			 <trkpt lat="45.065441" lon="7.698486">
				 <ele>222</ele>
			 </trkpt>
			 <trkpt lat="45.065503" lon="7.69855">
				 <ele>223</ele>
			 </trkpt>
			 <trkpt lat="45.065549" lon="7.698563">
				 <ele>224</ele>
			 </trkpt>
			 <trkpt lat="45.065591" lon="7.698558">
				 <ele>224</ele>
			 </trkpt>
			 <trkpt lat="45.065636" lon="7.698536">
				 <ele>224</ele>
			 </trkpt>
			 <trkpt lat="45.074353" lon="7.689933">
				 <ele>229</ele>
			 </trkpt>
			 <trkpt lat="45.074389" lon="7.689862">
				 <ele>229</ele>
			 </trkpt>
			 <trkpt lat="45.074471" lon="7.689551">
				 <ele>230</ele>
			 </trkpt>
			 <trkpt lat="45.074509" lon="7.689455">
				 <ele>230</ele>
			 </trkpt>
			 <trkpt lat="45.074672" lon="7.689169">
				 <ele>230</ele>
			 </trkpt>
			 <trkpt lat="45.074739" lon="7.689033">
				 <ele>230</ele>
			 </trkpt>
			 <trkpt lat="45.075354" lon="7.687211">
				 <ele>231</ele>
			 </trkpt>
			 <trkpt lat="45.075669" lon="7.686292">
				 <ele>233</ele>
			 </trkpt>
			 <trkpt lat="45.075663" lon="7.686226">
				 <ele>233</ele>
			 </trkpt>
			 <trkpt lat="45.075643" lon="7.686183">
				 <ele>233</ele>
			 </trkpt>
			 <trkpt lat="45.074567" lon="7.685452">
				 <ele>236</ele>
			 </trkpt>
			 <trkpt lat="45.073872" lon="7.68499">
				 <ele>238</ele>
			 </trkpt>
			 <trkpt lat="45.073387" lon="7.684691">
				 <ele>239</ele>
			 </trkpt>
			 <trkpt lat="45.073328" lon="7.684702">
				 <ele>239</ele>
			 </trkpt>
			 <trkpt lat="45.073225" lon="7.68483">
				 <ele>239</ele>
			 </trkpt>
			 <trkpt lat="45.072997" lon="7.685194">
				 <ele>239</ele>
			 </trkpt>
			 <trkpt lat="45.072819" lon="7.685596">
				 <ele>239</ele>
			 </trkpt>
			 <trkpt lat="45.072611" lon="7.685961">
				 <ele>238</ele>
			 </trkpt>
			 <trkpt lat="45.072354" lon="7.685945">
				 <ele>238</ele>
			 </trkpt>
			 <trkpt lat="45.071308" lon="7.685166">
				 <ele>238</ele>
			 </trkpt>
		 </trkseg>
	 </trk>
</gpx>