<?xml version="1.0" encoding="UTF-8"?>
 <gpx creator="Garmin Connect" version="1.1"
	 xsi:schemaLocation="http://www.topografix.com/GPX/1/1 http://www.topografix.com/GPX/11.xsd"
	 xmlns:ns3="http://www.garmin.com/xmlschemas/TrackPointExtension/v1"
	 xmlns="http://www.topografix.com/GPX/1/1"
	 xmlns:xsi="http://www.w3.org/2001/XMLSchema-instance" xmlns:ns2="http://www.garmin.com/xmlschemas/GpxExtensions/v3">
	 <metadata>
		<name>Venice Marathon 2025 - 42.195 km</name>
		 <link href="https://www.goandrace.com">
		 <text>Garmin Connect</text>
		 </link>
	 <time>2026-08-09T21:07:32</time>
	 </metadata>
	 <trk>
		 <name>Venice Marathon 2025 - 42.195 km</name>
		 <trkseg>
			 <trkpt lat="45.407804" lon="12.013121">
				 <ele>7.3</ele>
			 </trkpt>
			 <trkpt lat="45.407887" lon="12.013229">
				 <ele>7.3</ele>
			 </trkpt>
			 <trkpt lat="45.408019" lon="12.013365">
				 <ele>7.3</ele>
			 </trkpt>
			 <trkpt lat="45.408144" lon="12.013464">
				 <ele>7.2</ele>
			 </trkpt>
			 <trkpt lat="45.408277" lon="12.013548">
				 <ele>7.3</ele>
			 </trkpt>
			 <trkpt lat="45.408432" lon="12.013626">
				 <ele>7.4</ele>
			 </trkpt>
			 <trkpt lat="45.408585" lon="12.013677">
				 <ele>7.5</ele>
			 </trkpt>
			 <trkpt lat="45.411105" lon="12.014164">
				 <ele>7.5</ele>
			 </trkpt>
			 <trkpt lat="45.411335" lon="12.01423">
				 <ele>7.7</ele>
			 </trkpt>
			 <trkpt lat="45.411461" lon="12.014293">
				 <ele>7.9</ele>
			 </trkpt>
			 <trkpt lat="45.411566" lon="12.014368">
				 <ele>8.2</ele>
			 </trkpt>
			 <trkpt lat="45.411659" lon="12.014447">
				 <ele>8.5</ele>
			 </trkpt>
			 <trkpt lat="45.411721" lon="12.014509">
				 <ele>8.8</ele>
			 </trkpt>
			 <trkpt lat="45.411758" lon="12.014545">
				 <ele>9.2</ele>
			 </trkpt>
			 <trkpt lat="45.411831" lon="12.014632">
				 <ele>9.5</ele>
			 </trkpt>
			 <trkpt lat="45.411909" lon="12.014746">
				 <ele>9.5</ele>
			 </trkpt>
			 <trkpt lat="45.411997" lon="12.014891">
				 <ele>10.1</ele>
			 </trkpt>
			 <trkpt lat="45.412063" lon="12.015029">
				 <ele>10.2</ele>
			 </trkpt>
			 <trkpt lat="45.412118" lon="12.01517">
				 <ele>10</ele>
			 </trkpt>
			 <trkpt lat="45.41217" lon="12.015331">
				 <ele>9.7</ele>
			 </trkpt>
			 <trkpt lat="45.412265" lon="12.015725">
				 <ele>9.6</ele>
			 </trkpt>
			 <trkpt lat="45.412479" lon="12.016767">
				 <ele>9.5</ele>
			 </trkpt>
			 <trkpt lat="45.412636" lon="12.017517">
				 <ele>9.4</ele>
			 </trkpt>
			 <trkpt lat="45.412715" lon="12.017894">
				 <ele>9.1</ele>
			 </trkpt>
			 <trkpt lat="45.412813" lon="12.018359">
				 <ele>8.7</ele>
			 </trkpt>
			 <trkpt lat="45.412922" lon="12.018779">
				 <ele>8.5</ele>
			 </trkpt>
			 <trkpt lat="45.412991" lon="12.018996">
				 <ele>8.4</ele>
			 </trkpt>
			 <trkpt lat="45.413043" lon="12.01915">
				 <ele>7.6</ele>
			 </trkpt>
			 <trkpt lat="45.413196" lon="12.019516">
				 <ele>7.2</ele>
			 </trkpt>
			 <trkpt lat="45.413292" lon="12.019686">
				 <ele>6.9</ele>
			 </trkpt>
			 <trkpt lat="45.414042" lon="12.020746">
				 <ele>6.7</ele>
			 </trkpt>
			 <trkpt lat="45.414502" lon="12.02139">
				 <ele>6.5</ele>
			 </trkpt>
			 <trkpt lat="45.415143" lon="12.022288">
				 <ele>6.4</ele>
			 </trkpt>
			 <trkpt lat="45.415277" lon="12.022496">
				 <ele>6.3</ele>
			 </trkpt>
			 <trkpt lat="45.415438" lon="12.022781">
				 <ele>6.3</ele>
			 </trkpt>
			 <trkpt lat="45.415558" lon="12.023012">
				 <ele>6.3</ele>
			 </trkpt>
			 <trkpt lat="45.415643" lon="12.023196">
				 <ele>6.3</ele>
			 </trkpt>
			 <trkpt lat="45.41581" lon="12.023596">
				 <ele>6.5</ele>
			 </trkpt>
			 <trkpt lat="45.415883" lon="12.023792">
				 <ele>6.6</ele>
			 </trkpt>
			 <trkpt lat="45.415947" lon="12.023982">
				 <ele>6.7</ele>
			 </trkpt>
			 <trkpt lat="45.416063" lon="12.024383">
				 <ele>6.9</ele>
			 </trkpt>
			 <trkpt lat="45.416431" lon="12.025935">
				 <ele>7.1</ele>
			 </trkpt>
			 <trkpt lat="45.416574" lon="12.026527">
				 <ele>7.3</ele>
			 </trkpt>
			 <trkpt lat="45.416672" lon="12.026941">
				 <ele>7.4</ele>
			 </trkpt>
			 <trkpt lat="45.416761" lon="12.027304">
				 <ele>7.4</ele>
			 </trkpt>
			 <trkpt lat="45.416772" lon="12.027353">
				 <ele>7.4</ele>
			 </trkpt>
			 <trkpt lat="45.416858" lon="12.027642">
				 <ele>7.5</ele>
			 </trkpt>
			 <trkpt lat="45.417005" lon="12.028191">
				 <ele>7.5</ele>
			 </trkpt>
			 <trkpt lat="45.417026" lon="12.02829">
				 <ele>7.3</ele>
			 </trkpt>
			 <trkpt lat="45.417051" lon="12.028473">
				 <ele>7.2</ele>
			 </trkpt>
			 <trkpt lat="45.417065" lon="12.028664">
				 <ele>7.3</ele>
			 </trkpt>
			 <trkpt lat="45.417071" lon="12.028828">
				 <ele>7.5</ele>
			 </trkpt>
			 <trkpt lat="45.417067" lon="12.028945">
				 <ele>7.6</ele>
			 </trkpt>
			 <trkpt lat="45.417049" lon="12.029129">
				 <ele>7.7</ele>
			 </trkpt>
			 <trkpt lat="45.416988" lon="12.029569">
				 <ele>7.7</ele>
			 </trkpt>
			 <trkpt lat="45.416982" lon="12.029625">
				 <ele>7.7</ele>
			 </trkpt>
			 <trkpt lat="45.416938" lon="12.030038">
				 <ele>7.7</ele>
			 </trkpt>
			 <trkpt lat="45.416908" lon="12.03048">
				 <ele>7.6</ele>
			 </trkpt>
			 <trkpt lat="45.41689" lon="12.030705">
				 <ele>7.5</ele>
			 </trkpt>
			 <trkpt lat="45.416874" lon="12.030932">
				 <ele>7.6</ele>
			 </trkpt>
			 <trkpt lat="45.41686" lon="12.031149">
				 <ele>7.8</ele>
			 </trkpt>
			 <trkpt lat="45.416851" lon="12.031282">
				 <ele>7.9</ele>
			 </trkpt>
			 <trkpt lat="45.416798" lon="12.031777">
				 <ele>7.9</ele>
			 </trkpt>
			 <trkpt lat="45.416784" lon="12.031853">
				 <ele>7.9</ele>
			 </trkpt>
			 <trkpt lat="45.416675" lon="12.032347">
				 <ele>7.9</ele>
			 </trkpt>
			 <trkpt lat="45.416607" lon="12.032659">
				 <ele>8</ele>
			 </trkpt>
			 <trkpt lat="45.416576" lon="12.032856">
				 <ele>8</ele>
			 </trkpt>
			 <trkpt lat="45.416557" lon="12.033064">
				 <ele>8</ele>
			 </trkpt>
			 <trkpt lat="45.416552" lon="12.033293">
				 <ele>7.8</ele>
			 </trkpt>
			 <trkpt lat="45.416564" lon="12.033422">
				 <ele>7.5</ele>
			 </trkpt>
			 <trkpt lat="45.416648" lon="12.033902">
				 <ele>7.5</ele>
			 </trkpt>
			 <trkpt lat="45.416679" lon="12.034081">
				 <ele>7.5</ele>
			 </trkpt>
			 <trkpt lat="45.41672" lon="12.034305">
				 <ele>7.6</ele>
			 </trkpt>
			 <trkpt lat="45.41683" lon="12.034944">
				 <ele>7.7</ele>
			 </trkpt>
			 <trkpt lat="45.416887" lon="12.035385">
				 <ele>7.7</ele>
			 </trkpt>
			 <trkpt lat="45.416973" lon="12.036321">
				 <ele>7.6</ele>
			 </trkpt>
			 <trkpt lat="45.41703" lon="12.036993">
				 <ele>7.5</ele>
			 </trkpt>
			 <trkpt lat="45.417058" lon="12.037323">
				 <ele>7.3</ele>
			 </trkpt>
			 <trkpt lat="45.417065" lon="12.037398">
				 <ele>7.2</ele>
			 </trkpt>
			 <trkpt lat="45.417149" lon="12.038447">
				 <ele>7.5</ele>
			 </trkpt>
			 <trkpt lat="45.417176" lon="12.038727">
				 <ele>7.7</ele>
			 </trkpt>
			 <trkpt lat="45.417187" lon="12.038861">
				 <ele>7.6</ele>
			 </trkpt>
			 <trkpt lat="45.417296" lon="12.040111">
				 <ele>7.2</ele>
			 </trkpt>
			 <trkpt lat="45.417365" lon="12.040877">
				 <ele>6.9</ele>
			 </trkpt>
			 <trkpt lat="45.417397" lon="12.041233">
				 <ele>6.6</ele>
			 </trkpt>
			 <trkpt lat="45.417518" lon="12.042656">
				 <ele>6.5</ele>
			 </trkpt>
			 <trkpt lat="45.417551" lon="12.043064">
				 <ele>6.2</ele>
			 </trkpt>
			 <trkpt lat="45.417668" lon="12.044352">
				 <ele>6</ele>
			 </trkpt>
			 <trkpt lat="45.417788" lon="12.045756">
				 <ele>5.9</ele>
			 </trkpt>
			 <trkpt lat="45.417802" lon="12.045922">
				 <ele>5.8</ele>
			 </trkpt>
			 <trkpt lat="45.417887" lon="12.046889">
				 <ele>5.7</ele>
			 </trkpt>
			 <trkpt lat="45.418041" lon="12.048691">
				 <ele>5.8</ele>
			 </trkpt>
			 <trkpt lat="45.418157" lon="12.050059">
				 <ele>6</ele>
			 </trkpt>
			 <trkpt lat="45.418175" lon="12.050275">
				 <ele>6.5</ele>
			 </trkpt>
			 <trkpt lat="45.418215" lon="12.050753">
				 <ele>6.7</ele>
			 </trkpt>
			 <trkpt lat="45.41824" lon="12.051015">
				 <ele>7.1</ele>
			 </trkpt>
			 <trkpt lat="45.41826" lon="12.05124">
				 <ele>7.5</ele>
			 </trkpt>
			 <trkpt lat="45.418267" lon="12.051404">
				 <ele>8</ele>
			 </trkpt>
			 <trkpt lat="45.418318" lon="12.051663">
				 <ele>8.4</ele>
			 </trkpt>
			 <trkpt lat="45.418326" lon="12.051782">
				 <ele>8.3</ele>
			 </trkpt>
			 <trkpt lat="45.418318" lon="12.051946">
				 <ele>8.1</ele>
			 </trkpt>
			 <trkpt lat="45.418326" lon="12.052036">
				 <ele>7.6</ele>
			 </trkpt>
			 <trkpt lat="45.418323" lon="12.052098">
				 <ele>7.1</ele>
			 </trkpt>
			 <trkpt lat="45.418344" lon="12.052262">
				 <ele>6.5</ele>
			 </trkpt>
			 <trkpt lat="45.41841" lon="12.053027">
				 <ele>6.1</ele>
			 </trkpt>
			 <trkpt lat="45.418415" lon="12.053096">
				 <ele>5.7</ele>
			 </trkpt>
			 <trkpt lat="45.418433" lon="12.053456">
				 <ele>5.3</ele>
			 </trkpt>
			 <trkpt lat="45.418463" lon="12.053783">
				 <ele>4.8</ele>
			 </trkpt>
			 <trkpt lat="45.418491" lon="12.054136">
				 <ele>4.5</ele>
			 </trkpt>
			 <trkpt lat="45.418528" lon="12.054355">
				 <ele>4.4</ele>
			 </trkpt>
			 <trkpt lat="45.41854" lon="12.0545">
				 <ele>4.7</ele>
			 </trkpt>
			 <trkpt lat="45.418555" lon="12.054675">
				 <ele>5</ele>
			 </trkpt>
			 <trkpt lat="45.418565" lon="12.054782">
				 <ele>5.4</ele>
			 </trkpt>
			 <trkpt lat="45.418616" lon="12.055383">
				 <ele>5.7</ele>
			 </trkpt>
			 <trkpt lat="45.418649" lon="12.05578">
				 <ele>6</ele>
			 </trkpt>
			 <trkpt lat="45.418687" lon="12.056228">
				 <ele>6.2</ele>
			 </trkpt>
			 <trkpt lat="45.418765" lon="12.057073">
				 <ele>6.3</ele>
			 </trkpt>
			 <trkpt lat="45.418778" lon="12.057307">
				 <ele>6.5</ele>
			 </trkpt>
			 <trkpt lat="45.418853" lon="12.058144">
				 <ele>6.9</ele>
			 </trkpt>
			 <trkpt lat="45.41886" lon="12.058221">
				 <ele>7.2</ele>
			 </trkpt>
			 <trkpt lat="45.418869" lon="12.05833">
				 <ele>7.3</ele>
			 </trkpt>
			 <trkpt lat="45.418882" lon="12.058499">
				 <ele>7.2</ele>
			 </trkpt>
			 <trkpt lat="45.418937" lon="12.059168">
				 <ele>7.2</ele>
			 </trkpt>
			 <trkpt lat="45.418974" lon="12.059486">
				 <ele>7.1</ele>
			 </trkpt>
			 <trkpt lat="45.419082" lon="12.060055">
				 <ele>6.9</ele>
			 </trkpt>
			 <trkpt lat="45.41923" lon="12.060619">
				 <ele>6.8</ele>
			 </trkpt>
			 <trkpt lat="45.419659" lon="12.062281">
				 <ele>6.7</ele>
			 </trkpt>
			 <trkpt lat="45.419702" lon="12.062443">
				 <ele>6.8</ele>
			 </trkpt>
			 <trkpt lat="45.420112" lon="12.063988">
				 <ele>6.8</ele>
			 </trkpt>
			 <trkpt lat="45.420204" lon="12.06434">
				 <ele>6.7</ele>
			 </trkpt>
			 <trkpt lat="45.420271" lon="12.064641">
				 <ele>6.5</ele>
			 </trkpt>
			 <trkpt lat="45.420318" lon="12.064884">
				 <ele>6.3</ele>
			 </trkpt>
			 <trkpt lat="45.420362" lon="12.065212">
				 <ele>6.2</ele>
			 </trkpt>
			 <trkpt lat="45.420388" lon="12.06547">
				 <ele>6.1</ele>
			 </trkpt>
			 <trkpt lat="45.420401" lon="12.065754">
				 <ele>6.2</ele>
			 </trkpt>
			 <trkpt lat="45.420402" lon="12.066028">
				 <ele>6.4</ele>
			 </trkpt>
			 <trkpt lat="45.420386" lon="12.066394">
				 <ele>6.5</ele>
			 </trkpt>
			 <trkpt lat="45.420342" lon="12.066813">
				 <ele>6.8</ele>
			 </trkpt>
			 <trkpt lat="45.42008" lon="12.068567">
				 <ele>6.9</ele>
			 </trkpt>
			 <trkpt lat="45.420062" lon="12.068739">
				 <ele>7</ele>
			 </trkpt>
			 <trkpt lat="45.420044" lon="12.069007">
				 <ele>7.1</ele>
			 </trkpt>
			 <trkpt lat="45.420045" lon="12.069272">
				 <ele>7.4</ele>
			 </trkpt>
			 <trkpt lat="45.420064" lon="12.069565">
				 <ele>7.6</ele>
			 </trkpt>
			 <trkpt lat="45.420096" lon="12.069815">
				 <ele>7.9</ele>
			 </trkpt>
			 <trkpt lat="45.420169" lon="12.070168">
				 <ele>8.2</ele>
			 </trkpt>
			 <trkpt lat="45.420267" lon="12.070513">
				 <ele>8.4</ele>
			 </trkpt>
			 <trkpt lat="45.420377" lon="12.07079">
				 <ele>8.5</ele>
			 </trkpt>
			 <trkpt lat="45.420486" lon="12.071022">
				 <ele>8.6</ele>
			 </trkpt>
			 <trkpt lat="45.420598" lon="12.071218">
				 <ele>8.5</ele>
			 </trkpt>
			 <trkpt lat="45.420731" lon="12.07141">
				 <ele>8.5</ele>
			 </trkpt>
			 <trkpt lat="45.420846" lon="12.071558">
				 <ele>8.3</ele>
			 </trkpt>
			 <trkpt lat="45.421025" lon="12.071787">
				 <ele>8.2</ele>
			 </trkpt>
			 <trkpt lat="45.421058" lon="12.071829">
				 <ele>8</ele>
			 </trkpt>
			 <trkpt lat="45.42118" lon="12.071976">
				 <ele>7.8</ele>
			 </trkpt>
			 <trkpt lat="45.421342" lon="12.072172">
				 <ele>7.6</ele>
			 </trkpt>
			 <trkpt lat="45.421676" lon="12.072595">
				 <ele>7.5</ele>
			 </trkpt>
			 <trkpt lat="45.422156" lon="12.073158">
				 <ele>7.3</ele>
			 </trkpt>
			 <trkpt lat="45.422383" lon="12.073454">
				 <ele>7</ele>
			 </trkpt>
			 <trkpt lat="45.422483" lon="12.073579">
				 <ele>6.7</ele>
			 </trkpt>
			 <trkpt lat="45.422774" lon="12.073949">
				 <ele>6.5</ele>
			 </trkpt>
			 <trkpt lat="45.42293" lon="12.074092">
				 <ele>6.4</ele>
			 </trkpt>
			 <trkpt lat="45.423137" lon="12.074252">
				 <ele>6.2</ele>
			 </trkpt>
			 <trkpt lat="45.423455" lon="12.074509">
				 <ele>6</ele>
			 </trkpt>
			 <trkpt lat="45.423515" lon="12.074558">
				 <ele>5.8</ele>
			 </trkpt>
			 <trkpt lat="45.423618" lon="12.074646">
				 <ele>5.7</ele>
			 </trkpt>
			 <trkpt lat="45.423685" lon="12.074705">
				 <ele>5.7</ele>
			 </trkpt>
			 <trkpt lat="45.423778" lon="12.074787">
				 <ele>5.7</ele>
			 </trkpt>
			 <trkpt lat="45.424173" lon="12.075132">
				 <ele>5.8</ele>
			 </trkpt>
			 <trkpt lat="45.424229" lon="12.075181">
				 <ele>6</ele>
			 </trkpt>
			 <trkpt lat="45.424355" lon="12.075272">
				 <ele>6.1</ele>
			 </trkpt>
			 <trkpt lat="45.424461" lon="12.075373">
				 <ele>6.3</ele>
			 </trkpt>
			 <trkpt lat="45.42457" lon="12.075527">
				 <ele>6.5</ele>
			 </trkpt>
			 <trkpt lat="45.424628" lon="12.075607">
				 <ele>6.6</ele>
			 </trkpt>
			 <trkpt lat="45.424688" lon="12.075704">
				 <ele>6.6</ele>
			 </trkpt>
			 <trkpt lat="45.424778" lon="12.075883">
				 <ele>6.6</ele>
			 </trkpt>
			 <trkpt lat="45.424816" lon="12.07598">
				 <ele>6.6</ele>
			 </trkpt>
			 <trkpt lat="45.424845" lon="12.076076">
				 <ele>6.5</ele>
			 </trkpt>
			 <trkpt lat="45.424894" lon="12.076323">
				 <ele>6.4</ele>
			 </trkpt>
			 <trkpt lat="45.424908" lon="12.076412">
				 <ele>6.2</ele>
			 </trkpt>
			 <trkpt lat="45.42493" lon="12.076665">
				 <ele>6.1</ele>
			 </trkpt>
			 <trkpt lat="45.424941" lon="12.076946">
				 <ele>6.1</ele>
			 </trkpt>
			 <trkpt lat="45.424943" lon="12.077038">
				 <ele>6</ele>
			 </trkpt>
			 <trkpt lat="45.424947" lon="12.077246">
				 <ele>5.9</ele>
			 </trkpt>
			 <trkpt lat="45.424954" lon="12.07743">
				 <ele>5.8</ele>
			 </trkpt>
			 <trkpt lat="45.424964" lon="12.077661">
				 <ele>5.9</ele>
			 </trkpt>
			 <trkpt lat="45.424966" lon="12.077735">
				 <ele>6</ele>
			 </trkpt>
			 <trkpt lat="45.424971" lon="12.077853">
				 <ele>6</ele>
			 </trkpt>
			 <trkpt lat="45.424993" lon="12.078315">
				 <ele>6</ele>
			 </trkpt>
			 <trkpt lat="45.425036" lon="12.07881">
				 <ele>6.2</ele>
			 </trkpt>
			 <trkpt lat="45.425072" lon="12.07912">
				 <ele>6.4</ele>
			 </trkpt>
			 <trkpt lat="45.425152" lon="12.079608">
				 <ele>6.5</ele>
			 </trkpt>
			 <trkpt lat="45.425234" lon="12.080093">
				 <ele>6.5</ele>
			 </trkpt>
			 <trkpt lat="45.425289" lon="12.080343">
				 <ele>6.5</ele>
			 </trkpt>
			 <trkpt lat="45.425377" lon="12.080682">
				 <ele>6.4</ele>
			 </trkpt>
			 <trkpt lat="45.425477" lon="12.080999">
				 <ele>6.3</ele>
			 </trkpt>
			 <trkpt lat="45.425533" lon="12.081164">
				 <ele>6.2</ele>
			 </trkpt>
			 <trkpt lat="45.425646" lon="12.081461">
				 <ele>6.2</ele>
			 </trkpt>
			 <trkpt lat="45.425711" lon="12.081642">
				 <ele>6.4</ele>
			 </trkpt>
			 <trkpt lat="45.425741" lon="12.081717">
				 <ele>6.6</ele>
			 </trkpt>
			 <trkpt lat="45.426186" lon="12.082904">
				 <ele>6.7</ele>
			 </trkpt>
			 <trkpt lat="45.426279" lon="12.08312">
				 <ele>6.8</ele>
			 </trkpt>
			 <trkpt lat="45.42647" lon="12.08351">
				 <ele>6.9</ele>
			 </trkpt>
			 <trkpt lat="45.426622" lon="12.08375">
				 <ele>7.1</ele>
			 </trkpt>
			 <trkpt lat="45.426885" lon="12.084106">
				 <ele>7.2</ele>
			 </trkpt>
			 <trkpt lat="45.426963" lon="12.084232">
				 <ele>7.4</ele>
			 </trkpt>
			 <trkpt lat="45.427052" lon="12.084405">
				 <ele>7.5</ele>
			 </trkpt>
			 <trkpt lat="45.427118" lon="12.084574">
				 <ele>7.6</ele>
			 </trkpt>
			 <trkpt lat="45.427162" lon="12.084724">
				 <ele>7.6</ele>
			 </trkpt>
			 <trkpt lat="45.427189" lon="12.084845">
				 <ele>7.5</ele>
			 </trkpt>
			 <trkpt lat="45.427221" lon="12.084832">
				 <ele>7.1</ele>
			 </trkpt>
			 <trkpt lat="45.427189" lon="12.084845">
				 <ele>6.8</ele>
			 </trkpt>
			 <trkpt lat="45.427201" lon="12.084895">
				 <ele>6.5</ele>
			 </trkpt>
			 <trkpt lat="45.427227" lon="12.085054">
				 <ele>6.1</ele>
			 </trkpt>
			 <trkpt lat="45.427245" lon="12.085275">
				 <ele>5.8</ele>
			 </trkpt>
			 <trkpt lat="45.427247" lon="12.085465">
				 <ele>5.8</ele>
			 </trkpt>
			 <trkpt lat="45.427235" lon="12.085647">
				 <ele>6</ele>
			 </trkpt>
			 <trkpt lat="45.427185" lon="12.086">
				 <ele>6.1</ele>
			 </trkpt>
			 <trkpt lat="45.427134" lon="12.086268">
				 <ele>6.1</ele>
			 </trkpt>
			 <trkpt lat="45.42707" lon="12.086541">
				 <ele>6.1</ele>
			 </trkpt>
			 <trkpt lat="45.426975" lon="12.08687">
				 <ele>6.1</ele>
			 </trkpt>
			 <trkpt lat="45.42687" lon="12.087175">
				 <ele>6.2</ele>
			 </trkpt>
			 <trkpt lat="45.42657" lon="12.087939">
				 <ele>6.3</ele>
			 </trkpt>
			 <trkpt lat="45.42646" lon="12.088273">
				 <ele>6.5</ele>
			 </trkpt>
			 <trkpt lat="45.426411" lon="12.088483">
				 <ele>6.6</ele>
			 </trkpt>
			 <trkpt lat="45.426388" lon="12.088694">
				 <ele>6.7</ele>
			 </trkpt>
			 <trkpt lat="45.426383" lon="12.08883">
				 <ele>6.5</ele>
			 </trkpt>
			 <trkpt lat="45.426391" lon="12.088982">
				 <ele>6.2</ele>
			 </trkpt>
			 <trkpt lat="45.426409" lon="12.089129">
				 <ele>5.9</ele>
			 </trkpt>
			 <trkpt lat="45.426438" lon="12.089274">
				 <ele>5.7</ele>
			 </trkpt>
			 <trkpt lat="45.426479" lon="12.089425">
				 <ele>5.5</ele>
			 </trkpt>
			 <trkpt lat="45.426724" lon="12.090143">
				 <ele>5.4</ele>
			 </trkpt>
			 <trkpt lat="45.426765" lon="12.090248">
				 <ele>5.2</ele>
			 </trkpt>
			 <trkpt lat="45.426824" lon="12.090377">
				 <ele>5.1</ele>
			 </trkpt>
			 <trkpt lat="45.427266" lon="12.091703">
				 <ele>5.1</ele>
			 </trkpt>
			 <trkpt lat="45.427291" lon="12.091799">
				 <ele>5.1</ele>
			 </trkpt>
			 <trkpt lat="45.427329" lon="12.09201">
				 <ele>5.1</ele>
			 </trkpt>
			 <trkpt lat="45.427373" lon="12.092131">
				 <ele>5.2</ele>
			 </trkpt>
			 <trkpt lat="45.427372" lon="12.092685">
				 <ele>5.3</ele>
			 </trkpt>
			 <trkpt lat="45.427344" lon="12.092937">
				 <ele>5.4</ele>
			 </trkpt>
			 <trkpt lat="45.427292" lon="12.093179">
				 <ele>5.4</ele>
			 </trkpt>
			 <trkpt lat="45.427215" lon="12.093412">
				 <ele>5.3</ele>
			 </trkpt>
			 <trkpt lat="45.427161" lon="12.093537">
				 <ele>5.3</ele>
			 </trkpt>
			 <trkpt lat="45.427096" lon="12.093674">
				 <ele>5.2</ele>
			 </trkpt>
			 <trkpt lat="45.426962" lon="12.093911">
				 <ele>5</ele>
			 </trkpt>
			 <trkpt lat="45.42654" lon="12.094568">
				 <ele>4.7</ele>
			 </trkpt>
			 <trkpt lat="45.426445" lon="12.094734">
				 <ele>4.5</ele>
			 </trkpt>
			 <trkpt lat="45.426312" lon="12.095009">
				 <ele>4.4</ele>
			 </trkpt>
			 <trkpt lat="45.426263" lon="12.095135">
				 <ele>4.4</ele>
			 </trkpt>
			 <trkpt lat="45.426199" lon="12.095328">
				 <ele>4.4</ele>
			 </trkpt>
			 <trkpt lat="45.426142" lon="12.095552">
				 <ele>4.3</ele>
			 </trkpt>
			 <trkpt lat="45.426102" lon="12.09575">
				 <ele>4.2</ele>
			 </trkpt>
			 <trkpt lat="45.426079" lon="12.095915">
				 <ele>4.3</ele>
			 </trkpt>
			 <trkpt lat="45.426053" lon="12.096363">
				 <ele>4.4</ele>
			 </trkpt>
			 <trkpt lat="45.426055" lon="12.096552">
				 <ele>4.5</ele>
			 </trkpt>
			 <trkpt lat="45.42615" lon="12.098356">
				 <ele>4.5</ele>
			 </trkpt>
			 <trkpt lat="45.426177" lon="12.099777">
				 <ele>4.5</ele>
			 </trkpt>
			 <trkpt lat="45.426189" lon="12.099991">
				 <ele>4.5</ele>
			 </trkpt>
			 <trkpt lat="45.426203" lon="12.100206">
				 <ele>4.5</ele>
			 </trkpt>
			 <trkpt lat="45.426227" lon="12.100442">
				 <ele>4.5</ele>
			 </trkpt>
			 <trkpt lat="45.426359" lon="12.101388">
				 <ele>4.4</ele>
			 </trkpt>
			 <trkpt lat="45.426432" lon="12.101854">
				 <ele>4.4</ele>
			 </trkpt>
			 <trkpt lat="45.426514" lon="12.102292">
				 <ele>4.4</ele>
			 </trkpt>
			 <trkpt lat="45.426656" lon="12.102924">
				 <ele>4.4</ele>
			 </trkpt>
			 <trkpt lat="45.426703" lon="12.103105">
				 <ele>4.4</ele>
			 </trkpt>
			 <trkpt lat="45.426774" lon="12.103338">
				 <ele>4.5</ele>
			 </trkpt>
			 <trkpt lat="45.426899" lon="12.103678">
				 <ele>4.6</ele>
			 </trkpt>
			 <trkpt lat="45.427011" lon="12.103933">
				 <ele>4.5</ele>
			 </trkpt>
			 <trkpt lat="45.427129" lon="12.104203">
				 <ele>4.4</ele>
			 </trkpt>
			 <trkpt lat="45.427237" lon="12.104421">
				 <ele>4.3</ele>
			 </trkpt>
			 <trkpt lat="45.427535" lon="12.104953">
				 <ele>4.1</ele>
			 </trkpt>
			 <trkpt lat="45.427877" lon="12.105566">
				 <ele>3.9</ele>
			 </trkpt>
			 <trkpt lat="45.42819" lon="12.106156">
				 <ele>3.7</ele>
			 </trkpt>
			 <trkpt lat="45.428706" lon="12.107151">
				 <ele>3.7</ele>
			 </trkpt>
			 <trkpt lat="45.429537" lon="12.108752">
				 <ele>3.5</ele>
			 </trkpt>
			 <trkpt lat="45.429853" lon="12.10936">
				 <ele>3.5</ele>
			 </trkpt>
			 <trkpt lat="45.429936" lon="12.109504">
				 <ele>3.5</ele>
			 </trkpt>
			 <trkpt lat="45.430024" lon="12.109642">
				 <ele>3.5</ele>
			 </trkpt>
			 <trkpt lat="45.430084" lon="12.109716">
				 <ele>3.8</ele>
			 </trkpt>
			 <trkpt lat="45.430235" lon="12.109871">
				 <ele>4.2</ele>
			 </trkpt>
			 <trkpt lat="45.430569" lon="12.110156">
				 <ele>4.5</ele>
			 </trkpt>
			 <trkpt lat="45.430812" lon="12.110333">
				 <ele>4.8</ele>
			 </trkpt>
			 <trkpt lat="45.430903" lon="12.110431">
				 <ele>5.2</ele>
			 </trkpt>
			 <trkpt lat="45.431" lon="12.110574">
				 <ele>5.5</ele>
			 </trkpt>
			 <trkpt lat="45.431069" lon="12.110696">
				 <ele>5.5</ele>
			 </trkpt>
			 <trkpt lat="45.431127" lon="12.110828">
				 <ele>5.6</ele>
			 </trkpt>
			 <trkpt lat="45.431176" lon="12.110977">
				 <ele>5.6</ele>
			 </trkpt>
			 <trkpt lat="45.431236" lon="12.111193">
				 <ele>5.5</ele>
			 </trkpt>
			 <trkpt lat="45.431443" lon="12.11218">
				 <ele>5.5</ele>
			 </trkpt>
			 <trkpt lat="45.431519" lon="12.112386">
				 <ele>5.5</ele>
			 </trkpt>
			 <trkpt lat="45.431697" lon="12.112861">
				 <ele>5.5</ele>
			 </trkpt>
			 <trkpt lat="45.432025" lon="12.113547">
				 <ele>5.5</ele>
			 </trkpt>
			 <trkpt lat="45.432285" lon="12.11408">
				 <ele>5.6</ele>
			 </trkpt>
			 <trkpt lat="45.432797" lon="12.115178">
				 <ele>5.7</ele>
			 </trkpt>
			 <trkpt lat="45.432843" lon="12.115285">
				 <ele>5.9</ele>
			 </trkpt>
			 <trkpt lat="45.432927" lon="12.115455">
				 <ele>6.3</ele>
			 </trkpt>
			 <trkpt lat="45.433006" lon="12.115661">
				 <ele>6.6</ele>
			 </trkpt>
			 <trkpt lat="45.433137" lon="12.116049">
				 <ele>7.1</ele>
			 </trkpt>
			 <trkpt lat="45.433222" lon="12.11633">
				 <ele>7.5</ele>
			 </trkpt>
			 <trkpt lat="45.433238" lon="12.116393">
				 <ele>7.9</ele>
			 </trkpt>
			 <trkpt lat="45.433274" lon="12.116375">
				 <ele>7.9</ele>
			 </trkpt>
			 <trkpt lat="45.433238" lon="12.116393">
				 <ele>7.9</ele>
			 </trkpt>
			 <trkpt lat="45.433288" lon="12.116576">
				 <ele>7.7</ele>
			 </trkpt>
			 <trkpt lat="45.433333" lon="12.116808">
				 <ele>7.5</ele>
			 </trkpt>
			 <trkpt lat="45.433368" lon="12.117041">
				 <ele>7.3</ele>
			 </trkpt>
			 <trkpt lat="45.433417" lon="12.117507">
				 <ele>7.1</ele>
			 </trkpt>
			 <trkpt lat="45.433429" lon="12.117695">
				 <ele>6.8</ele>
			 </trkpt>
			 <trkpt lat="45.43343" lon="12.118129">
				 <ele>6.6</ele>
			 </trkpt>
			 <trkpt lat="45.433396" lon="12.118739">
				 <ele>6.4</ele>
			 </trkpt>
			 <trkpt lat="45.433361" lon="12.119115">
				 <ele>5.9</ele>
			 </trkpt>
			 <trkpt lat="45.433358" lon="12.119283">
				 <ele>5.5</ele>
			 </trkpt>
			 <trkpt lat="45.433355" lon="12.119324">
				 <ele>5.3</ele>
			 </trkpt>
			 <trkpt lat="45.433349" lon="12.119425">
				 <ele>5.1</ele>
			 </trkpt>
			 <trkpt lat="45.43335" lon="12.119726">
				 <ele>5</ele>
			 </trkpt>
			 <trkpt lat="45.433394" lon="12.120526">
				 <ele>4.9</ele>
			 </trkpt>
			 <trkpt lat="45.433406" lon="12.120759">
				 <ele>4.7</ele>
			 </trkpt>
			 <trkpt lat="45.433419" lon="12.120959">
				 <ele>4.5</ele>
			 </trkpt>
			 <trkpt lat="45.433423" lon="12.121008">
				 <ele>4.3</ele>
			 </trkpt>
			 <trkpt lat="45.433455" lon="12.121376">
				 <ele>4</ele>
			 </trkpt>
			 <trkpt lat="45.433458" lon="12.121421">
				 <ele>3.7</ele>
			 </trkpt>
			 <trkpt lat="45.433458" lon="12.121463">
				 <ele>3.6</ele>
			 </trkpt>
			 <trkpt lat="45.433488" lon="12.121985">
				 <ele>3.5</ele>
			 </trkpt>
			 <trkpt lat="45.433517" lon="12.122501">
				 <ele>3.3</ele>
			 </trkpt>
			 <trkpt lat="45.433518" lon="12.122617">
				 <ele>3.1</ele>
			 </trkpt>
			 <trkpt lat="45.433537" lon="12.122975">
				 <ele>2.8</ele>
			 </trkpt>
			 <trkpt lat="45.433549" lon="12.123176">
				 <ele>2.5</ele>
			 </trkpt>
			 <trkpt lat="45.43356" lon="12.123344">
				 <ele>2.3</ele>
			 </trkpt>
			 <trkpt lat="45.433624" lon="12.123964">
				 <ele>2</ele>
			 </trkpt>
			 <trkpt lat="45.433683" lon="12.124883">
				 <ele>1.9</ele>
			 </trkpt>
			 <trkpt lat="45.433767" lon="12.12609">
				 <ele>1.8</ele>
			 </trkpt>
			 <trkpt lat="45.43378" lon="12.126247">
				 <ele>1.8</ele>
			 </trkpt>
			 <trkpt lat="45.433811" lon="12.126452">
				 <ele>1.8</ele>
			 </trkpt>
			 <trkpt lat="45.433842" lon="12.126603">
				 <ele>1.9</ele>
			 </trkpt>
			 <trkpt lat="45.433909" lon="12.12685">
				 <ele>2.1</ele>
			 </trkpt>
			 <trkpt lat="45.433869" lon="12.126885">
				 <ele>2.3</ele>
			 </trkpt>
			 <trkpt lat="45.433833" lon="12.126953">
				 <ele>2.6</ele>
			 </trkpt>
			 <trkpt lat="45.433823" lon="12.126997">
				 <ele>3.1</ele>
			 </trkpt>
			 <trkpt lat="45.433817" lon="12.127061">
				 <ele>3.5</ele>
			 </trkpt>
			 <trkpt lat="45.433819" lon="12.12712">
				 <ele>4</ele>
			 </trkpt>
			 <trkpt lat="45.433822" lon="12.127307">
				 <ele>4.4</ele>
			 </trkpt>
			 <trkpt lat="45.433841" lon="12.127638">
				 <ele>4.7</ele>
			 </trkpt>
			 <trkpt lat="45.433879" lon="12.128114">
				 <ele>5.2</ele>
			 </trkpt>
			 <trkpt lat="45.4339" lon="12.128404">
				 <ele>5.4</ele>
			 </trkpt>
			 <trkpt lat="45.433929" lon="12.128797">
				 <ele>5.5</ele>
			 </trkpt>
			 <trkpt lat="45.433949" lon="12.12905">
				 <ele>5.5</ele>
			 </trkpt>
			 <trkpt lat="45.433972" lon="12.129313">
				 <ele>5.5</ele>
			 </trkpt>
			 <trkpt lat="45.434038" lon="12.130015">
				 <ele>5.5</ele>
			 </trkpt>
			 <trkpt lat="45.434095" lon="12.130618">
				 <ele>5.4</ele>
			 </trkpt>
			 <trkpt lat="45.434168" lon="12.131477">
				 <ele>5.3</ele>
			 </trkpt>
			 <trkpt lat="45.434234" lon="12.132244">
				 <ele>5.2</ele>
			 </trkpt>
			 <trkpt lat="45.434253" lon="12.132441">
				 <ele>5.1</ele>
			 </trkpt>
			 <trkpt lat="45.434331" lon="12.133382">
				 <ele>5</ele>
			 </trkpt>
			 <trkpt lat="45.434428" lon="12.134603">
				 <ele>4.7</ele>
			 </trkpt>
			 <trkpt lat="45.434515" lon="12.135714">
				 <ele>4.7</ele>
			 </trkpt>
			 <trkpt lat="45.434546" lon="12.136104">
				 <ele>4.8</ele>
			 </trkpt>
			 <trkpt lat="45.434576" lon="12.136354">
				 <ele>4.9</ele>
			 </trkpt>
			 <trkpt lat="45.434612" lon="12.13659">
				 <ele>4.9</ele>
			 </trkpt>
			 <trkpt lat="45.434638" lon="12.136711">
				 <ele>4.9</ele>
			 </trkpt>
			 <trkpt lat="45.434658" lon="12.136803">
				 <ele>4.8</ele>
			 </trkpt>
			 <trkpt lat="45.434793" lon="12.137226">
				 <ele>4.7</ele>
			 </trkpt>
			 <trkpt lat="45.43488" lon="12.137425">
				 <ele>4.5</ele>
			 </trkpt>
			 <trkpt lat="45.434929" lon="12.137516">
				 <ele>4.4</ele>
			 </trkpt>
			 <trkpt lat="45.434973" lon="12.137574">
				 <ele>4.2</ele>
			 </trkpt>
			 <trkpt lat="45.435069" lon="12.137658">
				 <ele>4.2</ele>
			 </trkpt>
			 <trkpt lat="45.435139" lon="12.137679">
				 <ele>4.3</ele>
			 </trkpt>
			 <trkpt lat="45.435211" lon="12.137684">
				 <ele>4.4</ele>
			 </trkpt>
			 <trkpt lat="45.435283" lon="12.137674">
				 <ele>4.5</ele>
			 </trkpt>
			 <trkpt lat="45.435357" lon="12.137646">
				 <ele>4.5</ele>
			 </trkpt>
			 <trkpt lat="45.436272" lon="12.137096">
				 <ele>4.8</ele>
			 </trkpt>
			 <trkpt lat="45.436436" lon="12.137009">
				 <ele>5.2</ele>
			 </trkpt>
			 <trkpt lat="45.43657" lon="12.136969">
				 <ele>5.5</ele>
			 </trkpt>
			 <trkpt lat="45.436704" lon="12.136948">
				 <ele>6</ele>
			 </trkpt>
			 <trkpt lat="45.437013" lon="12.136957">
				 <ele>6.4</ele>
			 </trkpt>
			 <trkpt lat="45.43728" lon="12.137005">
				 <ele>6.6</ele>
			 </trkpt>
			 <trkpt lat="45.437527" lon="12.137079">
				 <ele>6.6</ele>
			 </trkpt>
			 <trkpt lat="45.437825" lon="12.137222">
				 <ele>6.5</ele>
			 </trkpt>
			 <trkpt lat="45.43804" lon="12.137393">
				 <ele>6.4</ele>
			 </trkpt>
			 <trkpt lat="45.438164" lon="12.137504">
				 <ele>6.2</ele>
			 </trkpt>
			 <trkpt lat="45.438341" lon="12.137707">
				 <ele>6</ele>
			 </trkpt>
			 <trkpt lat="45.43845" lon="12.137836">
				 <ele>5.7</ele>
			 </trkpt>
			 <trkpt lat="45.438494" lon="12.137889">
				 <ele>5.4</ele>
			 </trkpt>
			 <trkpt lat="45.438557" lon="12.137982">
				 <ele>5</ele>
			 </trkpt>
			 <trkpt lat="45.438587" lon="12.138067">
				 <ele>4.6</ele>
			 </trkpt>
			 <trkpt lat="45.438597" lon="12.138126">
				 <ele>4.4</ele>
			 </trkpt>
			 <trkpt lat="45.43861" lon="12.138528">
				 <ele>4.3</ele>
			 </trkpt>
			 <trkpt lat="45.438612" lon="12.138699">
				 <ele>4.3</ele>
			 </trkpt>
			 <trkpt lat="45.438613" lon="12.138887">
				 <ele>4.2</ele>
			 </trkpt>
			 <trkpt lat="45.438612" lon="12.138999">
				 <ele>4.2</ele>
			 </trkpt>
			 <trkpt lat="45.438587" lon="12.139159">
				 <ele>4.2</ele>
			 </trkpt>
			 <trkpt lat="45.438492" lon="12.139476">
				 <ele>4.1</ele>
			 </trkpt>
			 <trkpt lat="45.438393" lon="12.139735">
				 <ele>4.1</ele>
			 </trkpt>
			 <trkpt lat="45.438275" lon="12.140022">
				 <ele>4.1</ele>
			 </trkpt>
			 <trkpt lat="45.438155" lon="12.140259">
				 <ele>4.1</ele>
			 </trkpt>
			 <trkpt lat="45.438034" lon="12.140477">
				 <ele>4.2</ele>
			 </trkpt>
			 <trkpt lat="45.437965" lon="12.140616">
				 <ele>4.3</ele>
			 </trkpt>
			 <trkpt lat="45.437903" lon="12.140779">
				 <ele>4.3</ele>
			 </trkpt>
			 <trkpt lat="45.437847" lon="12.140947">
				 <ele>4.3</ele>
			 </trkpt>
			 <trkpt lat="45.437786" lon="12.141246">
				 <ele>4.5</ele>
			 </trkpt>
			 <trkpt lat="45.437765" lon="12.141394">
				 <ele>4.6</ele>
			 </trkpt>
			 <trkpt lat="45.437746" lon="12.141609">
				 <ele>4.8</ele>
			 </trkpt>
			 <trkpt lat="45.437742" lon="12.141775">
				 <ele>5.1</ele>
			 </trkpt>
			 <trkpt lat="45.437748" lon="12.141987">
				 <ele>5.3</ele>
			 </trkpt>
			 <trkpt lat="45.43777" lon="12.14217">
				 <ele>5.5</ele>
			 </trkpt>
			 <trkpt lat="45.437801" lon="12.142358">
				 <ele>5.5</ele>
			 </trkpt>
			 <trkpt lat="45.437851" lon="12.142579">
				 <ele>5.5</ele>
			 </trkpt>
			 <trkpt lat="45.437913" lon="12.142815">
				 <ele>5.5</ele>
			 </trkpt>
			 <trkpt lat="45.437993" lon="12.143081">
				 <ele>5.6</ele>
			 </trkpt>
			 <trkpt lat="45.438058" lon="12.143262">
				 <ele>5.8</ele>
			 </trkpt>
			 <trkpt lat="45.438201" lon="12.143579">
				 <ele>5.9</ele>
			 </trkpt>
			 <trkpt lat="45.438279" lon="12.143708">
				 <ele>6</ele>
			 </trkpt>
			 <trkpt lat="45.438365" lon="12.143819">
				 <ele>6.2</ele>
			 </trkpt>
			 <trkpt lat="45.438459" lon="12.143913">
				 <ele>6.3</ele>
			 </trkpt>
			 <trkpt lat="45.438596" lon="12.144009">
				 <ele>6.3</ele>
			 </trkpt>
			 <trkpt lat="45.438698" lon="12.144059">
				 <ele>6.1</ele>
			 </trkpt>
			 <trkpt lat="45.438795" lon="12.144093">
				 <ele>6</ele>
			 </trkpt>
			 <trkpt lat="45.438888" lon="12.144114">
				 <ele>5.9</ele>
			 </trkpt>
			 <trkpt lat="45.439002" lon="12.144102">
				 <ele>5.7</ele>
			 </trkpt>
			 <trkpt lat="45.439135" lon="12.144055">
				 <ele>5.5</ele>
			 </trkpt>
			 <trkpt lat="45.439691" lon="12.143756">
				 <ele>5.1</ele>
			 </trkpt>
			 <trkpt lat="45.43985" lon="12.143673">
				 <ele>4.7</ele>
			 </trkpt>
			 <trkpt lat="45.439935" lon="12.143644">
				 <ele>4.4</ele>
			 </trkpt>
			 <trkpt lat="45.44003" lon="12.143623">
				 <ele>3.9</ele>
			 </trkpt>
			 <trkpt lat="45.440155" lon="12.143611">
				 <ele>3.5</ele>
			 </trkpt>
			 <trkpt lat="45.44029" lon="12.143639">
				 <ele>3.3</ele>
			 </trkpt>
			 <trkpt lat="45.440431" lon="12.143699">
				 <ele>3.2</ele>
			 </trkpt>
			 <trkpt lat="45.440511" lon="12.143759">
				 <ele>3</ele>
			 </trkpt>
			 <trkpt lat="45.440629" lon="12.143872">
				 <ele>2.8</ele>
			 </trkpt>
			 <trkpt lat="45.440706" lon="12.143974">
				 <ele>2.8</ele>
			 </trkpt>
			 <trkpt lat="45.440781" lon="12.144125">
				 <ele>2.9</ele>
			 </trkpt>
			 <trkpt lat="45.440899" lon="12.14435">
				 <ele>2.9</ele>
			 </trkpt>
			 <trkpt lat="45.440926" lon="12.144402">
				 <ele>2.9</ele>
			 </trkpt>
			 <trkpt lat="45.441012" lon="12.144487">
				 <ele>2.9</ele>
			 </trkpt>
			 <trkpt lat="45.441102" lon="12.14472">
				 <ele>2.9</ele>
			 </trkpt>
			 <trkpt lat="45.441582" lon="12.145805">
				 <ele>2.9</ele>
			 </trkpt>
			 <trkpt lat="45.441646" lon="12.145955">
				 <ele>2.9</ele>
			 </trkpt>
			 <trkpt lat="45.441773" lon="12.146278">
				 <ele>2.9</ele>
			 </trkpt>
			 <trkpt lat="45.441905" lon="12.146617">
				 <ele>3</ele>
			 </trkpt>
			 <trkpt lat="45.441949" lon="12.146728">
				 <ele>3.2</ele>
			 </trkpt>
			 <trkpt lat="45.442058" lon="12.147034">
				 <ele>3.1</ele>
			 </trkpt>
			 <trkpt lat="45.442024" lon="12.147079">
				 <ele>2.9</ele>
			 </trkpt>
			 <trkpt lat="45.441981" lon="12.147168">
				 <ele>2.8</ele>
			 </trkpt>
			 <trkpt lat="45.441938" lon="12.147335">
				 <ele>2.6</ele>
			 </trkpt>
			 <trkpt lat="45.441861" lon="12.147713">
				 <ele>2.5</ele>
			 </trkpt>
			 <trkpt lat="45.441535" lon="12.149021">
				 <ele>2.3</ele>
			 </trkpt>
			 <trkpt lat="45.441498" lon="12.149239">
				 <ele>2</ele>
			 </trkpt>
			 <trkpt lat="45.441484" lon="12.14937">
				 <ele>1.7</ele>
			 </trkpt>
			 <trkpt lat="45.441482" lon="12.149504">
				 <ele>1.5</ele>
			 </trkpt>
			 <trkpt lat="45.44149" lon="12.149583">
				 <ele>1.3</ele>
			 </trkpt>
			 <trkpt lat="45.441506" lon="12.149682">
				 <ele>1.2</ele>
			 </trkpt>
			 <trkpt lat="45.441551" lon="12.14986">
				 <ele>1.3</ele>
			 </trkpt>
			 <trkpt lat="45.441635" lon="12.150122">
				 <ele>1.4</ele>
			 </trkpt>
			 <trkpt lat="45.441697" lon="12.150289">
				 <ele>1.5</ele>
			 </trkpt>
			 <trkpt lat="45.441777" lon="12.150502">
				 <ele>1.5</ele>
			 </trkpt>
			 <trkpt lat="45.441927" lon="12.150859">
				 <ele>1.5</ele>
			 </trkpt>
			 <trkpt lat="45.442148" lon="12.151239">
				 <ele>1.6</ele>
			 </trkpt>
			 <trkpt lat="45.442346" lon="12.151544">
				 <ele>1.8</ele>
			 </trkpt>
			 <trkpt lat="45.442505" lon="12.151734">
				 <ele>2</ele>
			 </trkpt>
			 <trkpt lat="45.442738" lon="12.151898">
				 <ele>2.3</ele>
			 </trkpt>
			 <trkpt lat="45.44293" lon="12.151997">
				 <ele>2.5</ele>
			 </trkpt>
			 <trkpt lat="45.443639" lon="12.152287">
				 <ele>2.5</ele>
			 </trkpt>
			 <trkpt lat="45.44376" lon="12.152357">
				 <ele>2.4</ele>
			 </trkpt>
			 <trkpt lat="45.443913" lon="12.152478">
				 <ele>2.3</ele>
			 </trkpt>
			 <trkpt lat="45.444131" lon="12.152721">
				 <ele>2.2</ele>
			 </trkpt>
			 <trkpt lat="45.444218" lon="12.152834">
				 <ele>2.2</ele>
			 </trkpt>
			 <trkpt lat="45.444266" lon="12.152822">
				 <ele>2.4</ele>
			 </trkpt>
			 <trkpt lat="45.444378" lon="12.153178">
				 <ele>2.5</ele>
			 </trkpt>
			 <trkpt lat="45.444447" lon="12.153407">
				 <ele>2.5</ele>
			 </trkpt>
			 <trkpt lat="45.444482" lon="12.153546">
				 <ele>2.5</ele>
			 </trkpt>
			 <trkpt lat="45.444537" lon="12.153829">
				 <ele>2.5</ele>
			 </trkpt>
			 <trkpt lat="45.444573" lon="12.154119">
				 <ele>2.4</ele>
			 </trkpt>
			 <trkpt lat="45.444592" lon="12.154465">
				 <ele>2.3</ele>
			 </trkpt>
			 <trkpt lat="45.4446" lon="12.15482">
				 <ele>2.2</ele>
			 </trkpt>
			 <trkpt lat="45.444616" lon="12.155024">
				 <ele>2.1</ele>
			 </trkpt>
			 <trkpt lat="45.444654" lon="12.155376">
				 <ele>2</ele>
			 </trkpt>
			 <trkpt lat="45.44471" lon="12.155729">
				 <ele>1.9</ele>
			 </trkpt>
			 <trkpt lat="45.444748" lon="12.155962">
				 <ele>1.8</ele>
			 </trkpt>
			 <trkpt lat="45.444863" lon="12.156642">
				 <ele>1.7</ele>
			 </trkpt>
			 <trkpt lat="45.444897" lon="12.156793">
				 <ele>1.7</ele>
			 </trkpt>
			 <trkpt lat="45.444907" lon="12.156829">
				 <ele>1.8</ele>
			 </trkpt>
			 <trkpt lat="45.444939" lon="12.15694">
				 <ele>1.9</ele>
			 </trkpt>
			 <trkpt lat="45.444982" lon="12.157083">
				 <ele>2</ele>
			 </trkpt>
			 <trkpt lat="45.44508" lon="12.157319">
				 <ele>2.1</ele>
			 </trkpt>
			 <trkpt lat="45.445208" lon="12.157587">
				 <ele>2.2</ele>
			 </trkpt>
			 <trkpt lat="45.445336" lon="12.157832">
				 <ele>2.3</ele>
			 </trkpt>
			 <trkpt lat="45.445441" lon="12.157979">
				 <ele>2.4</ele>
			 </trkpt>
			 <trkpt lat="45.445521" lon="12.158044">
				 <ele>2.5</ele>
			 </trkpt>
			 <trkpt lat="45.445564" lon="12.158067">
				 <ele>2.5</ele>
			 </trkpt>
			 <trkpt lat="45.445693" lon="12.158182">
				 <ele>2.5</ele>
			 </trkpt>
			 <trkpt lat="45.445771" lon="12.158301">
				 <ele>2.4</ele>
			 </trkpt>
			 <trkpt lat="45.445785" lon="12.15837">
				 <ele>2.4</ele>
			 </trkpt>
			 <trkpt lat="45.445811" lon="12.158432">
				 <ele>2.4</ele>
			 </trkpt>
			 <trkpt lat="45.445851" lon="12.158485">
				 <ele>2.5</ele>
			 </trkpt>
			 <trkpt lat="45.445875" lon="12.158505">
				 <ele>2.5</ele>
			 </trkpt>
			 <trkpt lat="45.445945" lon="12.158723">
				 <ele>2.6</ele>
			 </trkpt>
			 <trkpt lat="45.445988" lon="12.15898">
				 <ele>2.7</ele>
			 </trkpt>
			 <trkpt lat="45.44605" lon="12.159177">
				 <ele>2.7</ele>
			 </trkpt>
			 <trkpt lat="45.446185" lon="12.159422">
				 <ele>2.6</ele>
			 </trkpt>
			 <trkpt lat="45.446338" lon="12.159702">
				 <ele>2.5</ele>
			 </trkpt>
			 <trkpt lat="45.446538" lon="12.160049">
				 <ele>2.3</ele>
			 </trkpt>
			 <trkpt lat="45.446595" lon="12.160165">
				 <ele>2.1</ele>
			 </trkpt>
			 <trkpt lat="45.446651" lon="12.160303">
				 <ele>1.8</ele>
			 </trkpt>
			 <trkpt lat="45.446711" lon="12.160521">
				 <ele>1.6</ele>
			 </trkpt>
			 <trkpt lat="45.446782" lon="12.160854">
				 <ele>1.5</ele>
			 </trkpt>
			 <trkpt lat="45.446861" lon="12.161329">
				 <ele>1.3</ele>
			 </trkpt>
			 <trkpt lat="45.446891" lon="12.161505">
				 <ele>0.9</ele>
			 </trkpt>
			 <trkpt lat="45.44695" lon="12.161745">
				 <ele>0.8</ele>
			 </trkpt>
			 <trkpt lat="45.447017" lon="12.161951">
				 <ele>0.8</ele>
			 </trkpt>
			 <trkpt lat="45.447103" lon="12.162151">
				 <ele>0.9</ele>
			 </trkpt>
			 <trkpt lat="45.447799" lon="12.163518">
				 <ele>1.1</ele>
			 </trkpt>
			 <trkpt lat="45.448304" lon="12.164551">
				 <ele>1.3</ele>
			 </trkpt>
			 <trkpt lat="45.448798" lon="12.1656">
				 <ele>1.7</ele>
			 </trkpt>
			 <trkpt lat="45.448909" lon="12.165842">
				 <ele>2</ele>
			 </trkpt>
			 <trkpt lat="45.449149" lon="12.166363">
				 <ele>2.1</ele>
			 </trkpt>
			 <trkpt lat="45.449177" lon="12.166427">
				 <ele>2.1</ele>
			 </trkpt>
			 <trkpt lat="45.449617" lon="12.167326">
				 <ele>2.2</ele>
			 </trkpt>
			 <trkpt lat="45.450366" lon="12.168799">
				 <ele>2.5</ele>
			 </trkpt>
			 <trkpt lat="45.451047" lon="12.170162">
				 <ele>2.6</ele>
			 </trkpt>
			 <trkpt lat="45.451322" lon="12.170754">
				 <ele>2.6</ele>
			 </trkpt>
			 <trkpt lat="45.451439" lon="12.171006">
				 <ele>2.6</ele>
			 </trkpt>
			 <trkpt lat="45.451646" lon="12.171458">
				 <ele>2.5</ele>
			 </trkpt>
			 <trkpt lat="45.451848" lon="12.171901">
				 <ele>2.5</ele>
			 </trkpt>
			 <trkpt lat="45.452087" lon="12.172432">
				 <ele>2.4</ele>
			 </trkpt>
			 <trkpt lat="45.452281" lon="12.17282">
				 <ele>2.5</ele>
			 </trkpt>
			 <trkpt lat="45.452533" lon="12.173323">
				 <ele>2.6</ele>
			 </trkpt>
			 <trkpt lat="45.452639" lon="12.173512">
				 <ele>2.8</ele>
			 </trkpt>
			 <trkpt lat="45.452733" lon="12.173695">
				 <ele>2.8</ele>
			 </trkpt>
			 <trkpt lat="45.45298" lon="12.174094">
				 <ele>2.8</ele>
			 </trkpt>
			 <trkpt lat="45.453312" lon="12.174665">
				 <ele>2.7</ele>
			 </trkpt>
			 <trkpt lat="45.453435" lon="12.174932">
				 <ele>2.7</ele>
			 </trkpt>
			 <trkpt lat="45.453494" lon="12.175088">
				 <ele>2.6</ele>
			 </trkpt>
			 <trkpt lat="45.453536" lon="12.175222">
				 <ele>2.6</ele>
			 </trkpt>
			 <trkpt lat="45.453587" lon="12.175416">
				 <ele>2.5</ele>
			 </trkpt>
			 <trkpt lat="45.453615" lon="12.175596">
				 <ele>2.4</ele>
			 </trkpt>
			 <trkpt lat="45.453626" lon="12.175801">
				 <ele>2.1</ele>
			 </trkpt>
			 <trkpt lat="45.45362" lon="12.175981">
				 <ele>1.8</ele>
			 </trkpt>
			 <trkpt lat="45.453573" lon="12.176564">
				 <ele>1.5</ele>
			 </trkpt>
			 <trkpt lat="45.4535" lon="12.177301">
				 <ele>1.1</ele>
			 </trkpt>
			 <trkpt lat="45.453476" lon="12.177535">
				 <ele>0.8</ele>
			 </trkpt>
			 <trkpt lat="45.453388" lon="12.178113">
				 <ele>0.7</ele>
			 </trkpt>
			 <trkpt lat="45.453334" lon="12.178417">
				 <ele>0.7</ele>
			 </trkpt>
			 <trkpt lat="45.453198" lon="12.179039">
				 <ele>0.9</ele>
			 </trkpt>
			 <trkpt lat="45.453133" lon="12.179298">
				 <ele>1.1</ele>
			 </trkpt>
			 <trkpt lat="45.453072" lon="12.179516">
				 <ele>1.1</ele>
			 </trkpt>
			 <trkpt lat="45.452922" lon="12.179918">
				 <ele>1.1</ele>
			 </trkpt>
			 <trkpt lat="45.45285" lon="12.180092">
				 <ele>1.2</ele>
			 </trkpt>
			 <trkpt lat="45.452728" lon="12.180351">
				 <ele>1.3</ele>
			 </trkpt>
			 <trkpt lat="45.452467" lon="12.180807">
				 <ele>1.5</ele>
			 </trkpt>
			 <trkpt lat="45.452031" lon="12.181502">
				 <ele>1.8</ele>
			 </trkpt>
			 <trkpt lat="45.451935" lon="12.181676">
				 <ele>2.1</ele>
			 </trkpt>
			 <trkpt lat="45.451864" lon="12.181832">
				 <ele>2.3</ele>
			 </trkpt>
			 <trkpt lat="45.451818" lon="12.181947">
				 <ele>2.3</ele>
			 </trkpt>
			 <trkpt lat="45.451736" lon="12.182205">
				 <ele>2.2</ele>
			 </trkpt>
			 <trkpt lat="45.451531" lon="12.182979">
				 <ele>2.1</ele>
			 </trkpt>
			 <trkpt lat="45.451517" lon="12.18302">
				 <ele>2.2</ele>
			 </trkpt>
			 <trkpt lat="45.451448" lon="12.183225">
				 <ele>2.3</ele>
			 </trkpt>
			 <trkpt lat="45.451356" lon="12.183442">
				 <ele>2.3</ele>
			 </trkpt>
			 <trkpt lat="45.451304" lon="12.183541">
				 <ele>2.3</ele>
			 </trkpt>
			 <trkpt lat="45.451176" lon="12.183753">
				 <ele>2.3</ele>
			 </trkpt>
			 <trkpt lat="45.451109" lon="12.183836">
				 <ele>2.3</ele>
			 </trkpt>
			 <trkpt lat="45.450994" lon="12.183967">
				 <ele>2.3</ele>
			 </trkpt>
			 <trkpt lat="45.450872" lon="12.184089">
				 <ele>2.2</ele>
			 </trkpt>
			 <trkpt lat="45.450691" lon="12.184229">
				 <ele>2.2</ele>
			 </trkpt>
			 <trkpt lat="45.450455" lon="12.184358">
				 <ele>2.2</ele>
			 </trkpt>
			 <trkpt lat="45.449416" lon="12.18475">
				 <ele>2.2</ele>
			 </trkpt>
			 <trkpt lat="45.449315" lon="12.18481">
				 <ele>2.2</ele>
			 </trkpt>
			 <trkpt lat="45.449205" lon="12.184904">
				 <ele>2.2</ele>
			 </trkpt>
			 <trkpt lat="45.449117" lon="12.185015">
				 <ele>2.2</ele>
			 </trkpt>
			 <trkpt lat="45.449053" lon="12.185127">
				 <ele>2.3</ele>
			 </trkpt>
			 <trkpt lat="45.448989" lon="12.1853">
				 <ele>2.3</ele>
			 </trkpt>
			 <trkpt lat="45.448949" lon="12.185477">
				 <ele>2.1</ele>
			 </trkpt>
			 <trkpt lat="45.448935" lon="12.185668">
				 <ele>1.9</ele>
			 </trkpt>
			 <trkpt lat="45.448932" lon="12.185852">
				 <ele>1.7</ele>
			 </trkpt>
			 <trkpt lat="45.448951" lon="12.186144">
				 <ele>1.5</ele>
			 </trkpt>
			 <trkpt lat="45.448993" lon="12.186514">
				 <ele>1.5</ele>
			 </trkpt>
			 <trkpt lat="45.449058" lon="12.186925">
				 <ele>1.4</ele>
			 </trkpt>
			 <trkpt lat="45.449125" lon="12.187268">
				 <ele>1.3</ele>
			 </trkpt>
			 <trkpt lat="45.449322" lon="12.188017">
				 <ele>1.2</ele>
			 </trkpt>
			 <trkpt lat="45.449406" lon="12.188316">
				 <ele>1.1</ele>
			 </trkpt>
			 <trkpt lat="45.44944" lon="12.188461">
				 <ele>0.9</ele>
			 </trkpt>
			 <trkpt lat="45.449461" lon="12.188644">
				 <ele>0.8</ele>
			 </trkpt>
			 <trkpt lat="45.449462" lon="12.188779">
				 <ele>1</ele>
			 </trkpt>
			 <trkpt lat="45.449447" lon="12.18893">
				 <ele>1.4</ele>
			 </trkpt>
			 <trkpt lat="45.449413" lon="12.189102">
				 <ele>1.7</ele>
			 </trkpt>
			 <trkpt lat="45.449337" lon="12.189367">
				 <ele>2</ele>
			 </trkpt>
			 <trkpt lat="45.449195" lon="12.189802">
				 <ele>2.1</ele>
			 </trkpt>
			 <trkpt lat="45.448987" lon="12.190387">
				 <ele>2.2</ele>
			 </trkpt>
			 <trkpt lat="45.448647" lon="12.191306">
				 <ele>2.3</ele>
			 </trkpt>
			 <trkpt lat="45.4486" lon="12.191473">
				 <ele>2.3</ele>
			 </trkpt>
			 <trkpt lat="45.448578" lon="12.191576">
				 <ele>2.3</ele>
			 </trkpt>
			 <trkpt lat="45.448541" lon="12.191818">
				 <ele>2.3</ele>
			 </trkpt>
			 <trkpt lat="45.448495" lon="12.191801">
				 <ele>2.3</ele>
			 </trkpt>
			 <trkpt lat="45.448458" lon="12.191816">
				 <ele>2.1</ele>
			 </trkpt>
			 <trkpt lat="45.448397" lon="12.191866">
				 <ele>1.7</ele>
			 </trkpt>
			 <trkpt lat="45.44831" lon="12.192013">
				 <ele>1.4</ele>
			 </trkpt>
			 <trkpt lat="45.44817" lon="12.192284">
				 <ele>1.2</ele>
			 </trkpt>
			 <trkpt lat="45.448209" lon="12.192335">
				 <ele>1.1</ele>
			 </trkpt>
			 <trkpt lat="45.448167" lon="12.192288">
				 <ele>1</ele>
			 </trkpt>
			 <trkpt lat="45.447964" lon="12.19266">
				 <ele>0.9</ele>
			 </trkpt>
			 <trkpt lat="45.447794" lon="12.192898">
				 <ele>0.9</ele>
			 </trkpt>
			 <trkpt lat="45.447644" lon="12.193054">
				 <ele>0.8</ele>
			 </trkpt>
			 <trkpt lat="45.447494" lon="12.193182">
				 <ele>0.7</ele>
			 </trkpt>
			 <trkpt lat="45.447464" lon="12.193211">
				 <ele>0.5</ele>
			 </trkpt>
			 <trkpt lat="45.4463" lon="12.19411">
				 <ele>0.2</ele>
			 </trkpt>
			 <trkpt lat="45.446268" lon="12.194146">
				 <ele>-0.1</ele>
			 </trkpt>
			 <trkpt lat="45.445861" lon="12.194454">
				 <ele>-0.3</ele>
			 </trkpt>
			 <trkpt lat="45.445721" lon="12.194555">
				 <ele>-0.7</ele>
			 </trkpt>
			 <trkpt lat="45.445588" lon="12.194645">
				 <ele>-1.1</ele>
			 </trkpt>
			 <trkpt lat="45.445235" lon="12.194917">
				 <ele>-1.4</ele>
			 </trkpt>
			 <trkpt lat="45.444944" lon="12.195138">
				 <ele>-1.5</ele>
			 </trkpt>
			 <trkpt lat="45.444857" lon="12.195207">
				 <ele>-1.5</ele>
			 </trkpt>
			 <trkpt lat="45.444039" lon="12.195853">
				 <ele>-1.6</ele>
			 </trkpt>
			 <trkpt lat="45.443771" lon="12.196062">
				 <ele>-1.7</ele>
			 </trkpt>
			 <trkpt lat="45.443667" lon="12.196147">
				 <ele>-1.7</ele>
			 </trkpt>
			 <trkpt lat="45.443017" lon="12.196675">
				 <ele>-1.5</ele>
			 </trkpt>
			 <trkpt lat="45.44265" lon="12.196973">
				 <ele>-1.4</ele>
			 </trkpt>
			 <trkpt lat="45.442539" lon="12.197063">
				 <ele>-1.2</ele>
			 </trkpt>
			 <trkpt lat="45.442481" lon="12.197111">
				 <ele>-0.8</ele>
			 </trkpt>
			 <trkpt lat="45.442328" lon="12.197255">
				 <ele>-0.4</ele>
			 </trkpt>
			 <trkpt lat="45.442197" lon="12.197388">
				 <ele>0</ele>
			 </trkpt>
			 <trkpt lat="45.441918" lon="12.197643">
				 <ele>0.2</ele>
			 </trkpt>
			 <trkpt lat="45.44185" lon="12.197713">
				 <ele>0.4</ele>
			 </trkpt>
			 <trkpt lat="45.441756" lon="12.197808">
				 <ele>0.6</ele>
			 </trkpt>
			 <trkpt lat="45.44148" lon="12.198089">
				 <ele>0.9</ele>
			 </trkpt>
			 <trkpt lat="45.441384" lon="12.198187">
				 <ele>1.2</ele>
			 </trkpt>
			 <trkpt lat="45.441252" lon="12.198322">
				 <ele>1.5</ele>
			 </trkpt>
			 <trkpt lat="45.441039" lon="12.198544">
				 <ele>1.6</ele>
			 </trkpt>
			 <trkpt lat="45.440957" lon="12.198609">
				 <ele>1.8</ele>
			 </trkpt>
			 <trkpt lat="45.440865" lon="12.198667">
				 <ele>2</ele>
			 </trkpt>
			 <trkpt lat="45.4404" lon="12.198923">
				 <ele>2</ele>
			 </trkpt>
			 <trkpt lat="45.440269" lon="12.199007">
				 <ele>2.1</ele>
			 </trkpt>
			 <trkpt lat="45.44018" lon="12.199079">
				 <ele>2.2</ele>
			 </trkpt>
			 <trkpt lat="45.440097" lon="12.199166">
				 <ele>2.3</ele>
			 </trkpt>
			 <trkpt lat="45.440022" lon="12.199266">
				 <ele>2.4</ele>
			 </trkpt>
			 <trkpt lat="45.439955" lon="12.199377">
				 <ele>2.4</ele>
			 </trkpt>
			 <trkpt lat="45.439874" lon="12.199547">
				 <ele>2.3</ele>
			 </trkpt>
			 <trkpt lat="45.439799" lon="12.199678">
				 <ele>2.2</ele>
			 </trkpt>
			 <trkpt lat="45.439693" lon="12.199824">
				 <ele>2</ele>
			 </trkpt>
			 <trkpt lat="45.439604" lon="12.199919">
				 <ele>1.8</ele>
			 </trkpt>
			 <trkpt lat="45.439533" lon="12.199974">
				 <ele>1.6</ele>
			 </trkpt>
			 <trkpt lat="45.439428" lon="12.200042">
				 <ele>1.5</ele>
			 </trkpt>
			 <trkpt lat="45.439315" lon="12.200077">
				 <ele>1.4</ele>
			 </trkpt>
			 <trkpt lat="45.439199" lon="12.200079">
				 <ele>1.2</ele>
			 </trkpt>
			 <trkpt lat="45.439046" lon="12.200045">
				 <ele>1.1</ele>
			 </trkpt>
			 <trkpt lat="45.438687" lon="12.19994">
				 <ele>1</ele>
			 </trkpt>
			 <trkpt lat="45.4385" lon="12.199902">
				 <ele>1</ele>
			 </trkpt>
			 <trkpt lat="45.438396" lon="12.199911">
				 <ele>1.2</ele>
			 </trkpt>
			 <trkpt lat="45.438298" lon="12.199958">
				 <ele>1.3</ele>
			 </trkpt>
			 <trkpt lat="45.438252" lon="12.199994">
				 <ele>1.3</ele>
			 </trkpt>
			 <trkpt lat="45.438211" lon="12.200039">
				 <ele>1.3</ele>
			 </trkpt>
			 <trkpt lat="45.438174" lon="12.200091">
				 <ele>1.3</ele>
			 </trkpt>
			 <trkpt lat="45.438115" lon="12.200213">
				 <ele>1.2</ele>
			 </trkpt>
			 <trkpt lat="45.437823" lon="12.201105">
				 <ele>1.1</ele>
			 </trkpt>
			 <trkpt lat="45.437589" lon="12.20182">
				 <ele>1</ele>
			 </trkpt>
			 <trkpt lat="45.43753" lon="12.201948">
				 <ele>0.9</ele>
			 </trkpt>
			 <trkpt lat="45.437452" lon="12.202078">
				 <ele>0.8</ele>
			 </trkpt>
			 <trkpt lat="45.437379" lon="12.202163">
				 <ele>0.7</ele>
			 </trkpt>
			 <trkpt lat="45.437289" lon="12.202246">
				 <ele>0.5</ele>
			 </trkpt>
			 <trkpt lat="45.437192" lon="12.20231">
				 <ele>0.5</ele>
			 </trkpt>
			 <trkpt lat="45.436538" lon="12.202559">
				 <ele>0.5</ele>
			 </trkpt>
			 <trkpt lat="45.436415" lon="12.202629">
				 <ele>0.5</ele>
			 </trkpt>
			 <trkpt lat="45.436303" lon="12.202728">
				 <ele>0.5</ele>
			 </trkpt>
			 <trkpt lat="45.436252" lon="12.202787">
				 <ele>0.5</ele>
			 </trkpt>
			 <trkpt lat="45.436162" lon="12.202924">
				 <ele>0.5</ele>
			 </trkpt>
			 <trkpt lat="45.43613" lon="12.202987">
				 <ele>0.5</ele>
			 </trkpt>
			 <trkpt lat="45.436068" lon="12.203145">
				 <ele>0.5</ele>
			 </trkpt>
			 <trkpt lat="45.436046" lon="12.203223">
				 <ele>0.4</ele>
			 </trkpt>
			 <trkpt lat="45.436014" lon="12.203385">
				 <ele>0.3</ele>
			 </trkpt>
			 <trkpt lat="45.436006" lon="12.203469">
				 <ele>0.2</ele>
			 </trkpt>
			 <trkpt lat="45.435914" lon="12.203465">
				 <ele>0.1</ele>
			 </trkpt>
			 <trkpt lat="45.435912" lon="12.203524">
				 <ele>0</ele>
			 </trkpt>
			 <trkpt lat="45.435941" lon="12.203559">
				 <ele>0.1</ele>
			 </trkpt>
			 <trkpt lat="45.435954" lon="12.20375">
				 <ele>0.3</ele>
			 </trkpt>
			 <trkpt lat="45.435965" lon="12.203863">
				 <ele>0.5</ele>
			 </trkpt>
			 <trkpt lat="45.435984" lon="12.203964">
				 <ele>0.6</ele>
			 </trkpt>
			 <trkpt lat="45.436023" lon="12.20416">
				 <ele>0.8</ele>
			 </trkpt>
			 <trkpt lat="45.436053" lon="12.204305">
				 <ele>1</ele>
			 </trkpt>
			 <trkpt lat="45.436134" lon="12.204593">
				 <ele>1.2</ele>
			 </trkpt>
			 <trkpt lat="45.436192" lon="12.204545">
				 <ele>1.5</ele>
			 </trkpt>
			 <trkpt lat="45.436225" lon="12.204609">
				 <ele>1.6</ele>
			 </trkpt>
			 <trkpt lat="45.436318" lon="12.204729">
				 <ele>1.7</ele>
			 </trkpt>
			 <trkpt lat="45.436361" lon="12.204768">
				 <ele>1.8</ele>
			 </trkpt>
			 <trkpt lat="45.436394" lon="12.204797">
				 <ele>1.5</ele>
			 </trkpt>
			 <trkpt lat="45.436531" lon="12.204873">
				 <ele>1.3</ele>
			 </trkpt>
			 <trkpt lat="45.436886" lon="12.20506">
				 <ele>1.1</ele>
			 </trkpt>
			 <trkpt lat="45.437048" lon="12.205141">
				 <ele>0.8</ele>
			 </trkpt>
			 <trkpt lat="45.43759" lon="12.20541">
				 <ele>0.5</ele>
			 </trkpt>
			 <trkpt lat="45.438092" lon="12.205668">
				 <ele>0.3</ele>
			 </trkpt>
			 <trkpt lat="45.438227" lon="12.205739">
				 <ele>0</ele>
			 </trkpt>
			 <trkpt lat="45.439463" lon="12.20639">
				 <ele>-0.4</ele>
			 </trkpt>
			 <trkpt lat="45.439667" lon="12.206508">
				 <ele>-0.6</ele>
			 </trkpt>
			 <trkpt lat="45.439874" lon="12.206643">
				 <ele>-0.6</ele>
			 </trkpt>
			 <trkpt lat="45.440015" lon="12.206746">
				 <ele>-0.5</ele>
			 </trkpt>
			 <trkpt lat="45.440105" lon="12.206828">
				 <ele>-0.2</ele>
			 </trkpt>
			 <trkpt lat="45.440325" lon="12.207037">
				 <ele>-0.1</ele>
			 </trkpt>
			 <trkpt lat="45.441424" lon="12.208188">
				 <ele>-0.4</ele>
			 </trkpt>
			 <trkpt lat="45.441656" lon="12.208409">
				 <ele>-0.5</ele>
			 </trkpt>
			 <trkpt lat="45.441836" lon="12.208553">
				 <ele>0.1</ele>
			 </trkpt>
			 <trkpt lat="45.442029" lon="12.208677">
				 <ele>0.5</ele>
			 </trkpt>
			 <trkpt lat="45.442342" lon="12.208852">
				 <ele>0.8</ele>
			 </trkpt>
			 <trkpt lat="45.443065" lon="12.209229">
				 <ele>1</ele>
			 </trkpt>
			 <trkpt lat="45.443802" lon="12.209651">
				 <ele>1.2</ele>
			 </trkpt>
			 <trkpt lat="45.444378" lon="12.21004">
				 <ele>1.1</ele>
			 </trkpt>
			 <trkpt lat="45.444843" lon="12.210424">
				 <ele>0.8</ele>
			 </trkpt>
			 <trkpt lat="45.445037" lon="12.210582">
				 <ele>0.5</ele>
			 </trkpt>
			 <trkpt lat="45.445552" lon="12.210986">
				 <ele>0.5</ele>
			 </trkpt>
			 <trkpt lat="45.446445" lon="12.211773">
				 <ele>0.5</ele>
			 </trkpt>
			 <trkpt lat="45.446655" lon="12.211963">
				 <ele>0.5</ele>
			 </trkpt>
			 <trkpt lat="45.446906" lon="12.212171">
				 <ele>0</ele>
			 </trkpt>
			 <trkpt lat="45.447084" lon="12.212304">
				 <ele>-0.4</ele>
			 </trkpt>
			 <trkpt lat="45.447261" lon="12.212423">
				 <ele>-0.7</ele>
			 </trkpt>
			 <trkpt lat="45.447631" lon="12.212623">
				 <ele>-0.9</ele>
			 </trkpt>
			 <trkpt lat="45.448117" lon="12.212828">
				 <ele>-1.2</ele>
			 </trkpt>
			 <trkpt lat="45.448319" lon="12.212914">
				 <ele>-1.4</ele>
			 </trkpt>
			 <trkpt lat="45.448415" lon="12.212944">
				 <ele>-1.5</ele>
			 </trkpt>
			 <trkpt lat="45.448727" lon="12.213016">
				 <ele>-1.5</ele>
			 </trkpt>
			 <trkpt lat="45.44896" lon="12.21305">
				 <ele>-1.6</ele>
			 </trkpt>
			 <trkpt lat="45.449011" lon="12.213064">
				 <ele>-1.6</ele>
			 </trkpt>
			 <trkpt lat="45.449103" lon="12.213116">
				 <ele>-1.5</ele>
			 </trkpt>
			 <trkpt lat="45.449128" lon="12.213135">
				 <ele>-1.5</ele>
			 </trkpt>
			 <trkpt lat="45.449172" lon="12.213151">
				 <ele>-1.5</ele>
			 </trkpt>
			 <trkpt lat="45.449248" lon="12.213169">
				 <ele>-1.5</ele>
			 </trkpt>
			 <trkpt lat="45.449289" lon="12.213194">
				 <ele>-1.2</ele>
			 </trkpt>
			 <trkpt lat="45.449528" lon="12.21338">
				 <ele>-0.8</ele>
			 </trkpt>
			 <trkpt lat="45.449677" lon="12.213471">
				 <ele>-0.5</ele>
			 </trkpt>
			 <trkpt lat="45.4499" lon="12.213593">
				 <ele>-0.2</ele>
			 </trkpt>
			 <trkpt lat="45.450049" lon="12.213664">
				 <ele>0</ele>
			 </trkpt>
			 <trkpt lat="45.450407" lon="12.213809">
				 <ele>0.1</ele>
			 </trkpt>
			 <trkpt lat="45.450902" lon="12.214038">
				 <ele>0</ele>
			 </trkpt>
			 <trkpt lat="45.451146" lon="12.21415">
				 <ele>0</ele>
			 </trkpt>
			 <trkpt lat="45.451614" lon="12.214365">
				 <ele>0.2</ele>
			 </trkpt>
			 <trkpt lat="45.451845" lon="12.21446">
				 <ele>0.2</ele>
			 </trkpt>
			 <trkpt lat="45.451946" lon="12.214413">
				 <ele>0.1</ele>
			 </trkpt>
			 <trkpt lat="45.452159" lon="12.214547">
				 <ele>-0.2</ele>
			 </trkpt>
			 <trkpt lat="45.452534" lon="12.214739">
				 <ele>-0.4</ele>
			 </trkpt>
			 <trkpt lat="45.453428" lon="12.215092">
				 <ele>-0.5</ele>
			 </trkpt>
			 <trkpt lat="45.453803" lon="12.215236">
				 <ele>-0.6</ele>
			 </trkpt>
			 <trkpt lat="45.454589" lon="12.215654">
				 <ele>-0.6</ele>
			 </trkpt>
			 <trkpt lat="45.454948" lon="12.215858">
				 <ele>-0.5</ele>
			 </trkpt>
			 <trkpt lat="45.455077" lon="12.215942">
				 <ele>-0.2</ele>
			 </trkpt>
			 <trkpt lat="45.45518" lon="12.21603">
				 <ele>0.1</ele>
			 </trkpt>
			 <trkpt lat="45.455306" lon="12.216153">
				 <ele>0.1</ele>
			 </trkpt>
			 <trkpt lat="45.455329" lon="12.216182">
				 <ele>0.3</ele>
			 </trkpt>
			 <trkpt lat="45.455421" lon="12.216293">
				 <ele>0.5</ele>
			 </trkpt>
			 <trkpt lat="45.455627" lon="12.216602">
				 <ele>0.8</ele>
			 </trkpt>
			 <trkpt lat="45.455909" lon="12.217056">
				 <ele>1.1</ele>
			 </trkpt>
			 <trkpt lat="45.456376" lon="12.21787">
				 <ele>1.3</ele>
			 </trkpt>
			 <trkpt lat="45.456429" lon="12.217965">
				 <ele>1.2</ele>
			 </trkpt>
			 <trkpt lat="45.456801" lon="12.218628">
				 <ele>1.2</ele>
			 </trkpt>
			 <trkpt lat="45.457062" lon="12.219095">
				 <ele>1.3</ele>
			 </trkpt>
			 <trkpt lat="45.457811" lon="12.220432">
				 <ele>1.3</ele>
			 </trkpt>
			 <trkpt lat="45.457968" lon="12.220713">
				 <ele>1.4</ele>
			 </trkpt>
			 <trkpt lat="45.458294" lon="12.221281">
				 <ele>1.5</ele>
			 </trkpt>
			 <trkpt lat="45.458405" lon="12.22148">
				 <ele>1.5</ele>
			 </trkpt>
			 <trkpt lat="45.458583" lon="12.221678">
				 <ele>1.5</ele>
			 </trkpt>
			 <trkpt lat="45.458606" lon="12.221699">
				 <ele>1.8</ele>
			 </trkpt>
			 <trkpt lat="45.458983" lon="12.222011">
				 <ele>1.7</ele>
			 </trkpt>
			 <trkpt lat="45.459559" lon="12.22229">
				 <ele>1.6</ele>
			 </trkpt>
			 <trkpt lat="45.460089" lon="12.222344">
				 <ele>1.8</ele>
			 </trkpt>
			 <trkpt lat="45.460842" lon="12.222789">
				 <ele>1.9</ele>
			 </trkpt>
			 <trkpt lat="45.462019" lon="12.223492">
				 <ele>1.9</ele>
			 </trkpt>
			 <trkpt lat="45.465323" lon="12.225466">
				 <ele>1.8</ele>
			 </trkpt>
			 <trkpt lat="45.466241" lon="12.226024">
				 <ele>1.7</ele>
			 </trkpt>
			 <trkpt lat="45.467783" lon="12.226893">
				 <ele>1.6</ele>
			 </trkpt>
			 <trkpt lat="45.467828" lon="12.226737">
				 <ele>1.5</ele>
			 </trkpt>
			 <trkpt lat="45.467904" lon="12.226753">
				 <ele>1.3</ele>
			 </trkpt>
			 <trkpt lat="45.468208" lon="12.226587">
				 <ele>0.7</ele>
			 </trkpt>
			 <trkpt lat="45.469111" lon="12.226067">
				 <ele>0.5</ele>
			 </trkpt>
			 <trkpt lat="45.46957" lon="12.225777">
				 <ele>0.3</ele>
			 </trkpt>
			 <trkpt lat="45.469717" lon="12.225756">
				 <ele>0.1</ele>
			 </trkpt>
			 <trkpt lat="45.469834" lon="12.225788">
				 <ele>0</ele>
			 </trkpt>
			 <trkpt lat="45.470071" lon="12.225874">
				 <ele>0.1</ele>
			 </trkpt>
			 <trkpt lat="45.470578" lon="12.226072">
				 <ele>0.4</ele>
			 </trkpt>
			 <trkpt lat="45.470658" lon="12.226088">
				 <ele>0.5</ele>
			 </trkpt>
			 <trkpt lat="45.470703" lon="12.226024">
				 <ele>0.7</ele>
			 </trkpt>
			 <trkpt lat="45.470767" lon="12.225712">
				 <ele>0.9</ele>
			 </trkpt>
			 <trkpt lat="45.470842" lon="12.225412">
				 <ele>1</ele>
			 </trkpt>
			 <trkpt lat="45.470876" lon="12.22516">
				 <ele>1.1</ele>
			 </trkpt>
			 <trkpt lat="45.471011" lon="12.224956">
				 <ele>1.2</ele>
			 </trkpt>
			 <trkpt lat="45.471594" lon="12.224516">
				 <ele>1.4</ele>
			 </trkpt>
			 <trkpt lat="45.471929" lon="12.22427">
				 <ele>1.5</ele>
			 </trkpt>
			 <trkpt lat="45.472215" lon="12.224119">
				 <ele>1.5</ele>
			 </trkpt>
			 <trkpt lat="45.472305" lon="12.224103">
				 <ele>1.4</ele>
			 </trkpt>
			 <trkpt lat="45.47238" lon="12.224146">
				 <ele>1.2</ele>
			 </trkpt>
			 <trkpt lat="45.472414" lon="12.224328">
				 <ele>0.9</ele>
			 </trkpt>
			 <trkpt lat="45.472512" lon="12.224479">
				 <ele>0.7</ele>
			 </trkpt>
			 <trkpt lat="45.472674" lon="12.224543">
				 <ele>0.6</ele>
			 </trkpt>
			 <trkpt lat="45.47293" lon="12.224516">
				 <ele>0.6</ele>
			 </trkpt>
			 <trkpt lat="45.472994" lon="12.224473">
				 <ele>1</ele>
			 </trkpt>
			 <trkpt lat="45.473042" lon="12.224307">
				 <ele>1.2</ele>
			 </trkpt>
			 <trkpt lat="45.473122" lon="12.224071">
				 <ele>1.5</ele>
			 </trkpt>
			 <trkpt lat="45.473189" lon="12.22406">
				 <ele>1.8</ele>
			 </trkpt>
			 <trkpt lat="45.473426" lon="12.224173">
				 <ele>2.4</ele>
			 </trkpt>
			 <trkpt lat="45.474679" lon="12.224677">
				 <ele>2.5</ele>
			 </trkpt>
			 <trkpt lat="45.47551" lon="12.225004">
				 <ele>2.5</ele>
			 </trkpt>
			 <trkpt lat="45.476041" lon="12.225267">
				 <ele>2.8</ele>
			 </trkpt>
			 <trkpt lat="45.476996" lon="12.225654">
				 <ele>3</ele>
			 </trkpt>
			 <trkpt lat="45.477334" lon="12.225745">
				 <ele>3</ele>
			 </trkpt>
			 <trkpt lat="45.477585" lon="12.226351">
				 <ele>3</ele>
			 </trkpt>
			 <trkpt lat="45.477782" lon="12.226839">
				 <ele>2.6</ele>
			 </trkpt>
			 <trkpt lat="45.478497" lon="12.228534">
				 <ele>2.4</ele>
			 </trkpt>
			 <trkpt lat="45.478722" lon="12.229087">
				 <ele>1.9</ele>
			 </trkpt>
			 <trkpt lat="45.478734" lon="12.229291">
				 <ele>1.4</ele>
			 </trkpt>
			 <trkpt lat="45.478877" lon="12.229301">
				 <ele>0.6</ele>
			 </trkpt>
			 <trkpt lat="45.478974" lon="12.229365">
				 <ele>0.3</ele>
			 </trkpt>
			 <trkpt lat="45.479061" lon="12.229451">
				 <ele>0</ele>
			 </trkpt>
			 <trkpt lat="45.479072" lon="12.229543">
				 <ele>-0.5</ele>
			 </trkpt>
			 <trkpt lat="45.479057" lon="12.229714">
				 <ele>-0.8</ele>
			 </trkpt>
			 <trkpt lat="45.479035" lon="12.229849">
				 <ele>-0.7</ele>
			 </trkpt>
			 <trkpt lat="45.478959" lon="12.229982">
				 <ele>-0.7</ele>
			 </trkpt>
			 <trkpt lat="45.478986" lon="12.23009">
				 <ele>-0.5</ele>
			 </trkpt>
			 <trkpt lat="45.479091" lon="12.230181">
				 <ele>-0.2</ele>
			 </trkpt>
			 <trkpt lat="45.479166" lon="12.230288">
				 <ele>0.2</ele>
			 </trkpt>
			 <trkpt lat="45.479381" lon="12.230852">
				 <ele>0.6</ele>
			 </trkpt>
			 <trkpt lat="45.479622" lon="12.231447">
				 <ele>1.1</ele>
			 </trkpt>
			 <trkpt lat="45.479764" lon="12.231769">
				 <ele>1.5</ele>
			 </trkpt>
			 <trkpt lat="45.479877" lon="12.232064">
				 <ele>1.7</ele>
			 </trkpt>
			 <trkpt lat="45.479971" lon="12.232204">
				 <ele>1.7</ele>
			 </trkpt>
			 <trkpt lat="45.480159" lon="12.232606">
				 <ele>1.6</ele>
			 </trkpt>
			 <trkpt lat="45.480238" lon="12.232686">
				 <ele>1.5</ele>
			 </trkpt>
			 <trkpt lat="45.480302" lon="12.232799">
				 <ele>1.4</ele>
			 </trkpt>
			 <trkpt lat="45.4804" lon="12.233099">
				 <ele>1.2</ele>
			 </trkpt>
			 <trkpt lat="45.480528" lon="12.233545">
				 <ele>0.9</ele>
			 </trkpt>
			 <trkpt lat="45.480569" lon="12.233722">
				 <ele>0.6</ele>
			 </trkpt>
			 <trkpt lat="45.480851" lon="12.233952">
				 <ele>0.4</ele>
			 </trkpt>
			 <trkpt lat="45.481419" lon="12.234242">
				 <ele>0.1</ele>
			 </trkpt>
			 <trkpt lat="45.481679" lon="12.234338">
				 <ele>-0.1</ele>
			 </trkpt>
			 <trkpt lat="45.481814" lon="12.234355">
				 <ele>-0.1</ele>
			 </trkpt>
			 <trkpt lat="45.481927" lon="12.234296">
				 <ele>0.5</ele>
			 </trkpt>
			 <trkpt lat="45.481965" lon="12.23421">
				 <ele>1.2</ele>
			 </trkpt>
			 <trkpt lat="45.482036" lon="12.234156">
				 <ele>1.7</ele>
			 </trkpt>
			 <trkpt lat="45.482115" lon="12.234172">
				 <ele>2</ele>
			 </trkpt>
			 <trkpt lat="45.482706" lon="12.234542">
				 <ele>2.5</ele>
			 </trkpt>
			 <trkpt lat="45.483879" lon="12.235256">
				 <ele>3</ele>
			 </trkpt>
			 <trkpt lat="45.484752" lon="12.235803">
				 <ele>3.8</ele>
			 </trkpt>
			 <trkpt lat="45.485481" lon="12.236173">
				 <ele>4.1</ele>
			 </trkpt>
			 <trkpt lat="45.486151" lon="12.236624">
				 <ele>4.3</ele>
			 </trkpt>
			 <trkpt lat="45.487061" lon="12.237123">
				 <ele>4.5</ele>
			 </trkpt>
			 <trkpt lat="45.487576" lon="12.237439">
				 <ele>4.5</ele>
			 </trkpt>
			 <trkpt lat="45.487956" lon="12.237638">
				 <ele>4.3</ele>
			 </trkpt>
			 <trkpt lat="45.488851" lon="12.238206">
				 <ele>4.1</ele>
			 </trkpt>
			 <trkpt lat="45.489126" lon="12.23841">
				 <ele>4</ele>
			 </trkpt>
			 <trkpt lat="45.48922" lon="12.23856">
				 <ele>4.5</ele>
			 </trkpt>
			 <trkpt lat="45.48931" lon="12.238496">
				 <ele>4.9</ele>
			 </trkpt>
			 <trkpt lat="45.489536" lon="12.238389">
				 <ele>5.2</ele>
			 </trkpt>
			 <trkpt lat="45.489716" lon="12.238378">
				 <ele>5</ele>
			 </trkpt>
			 <trkpt lat="45.48993" lon="12.238512">
				 <ele>5.4</ele>
			 </trkpt>
			 <trkpt lat="45.491149" lon="12.239226">
				 <ele>5.7</ele>
			 </trkpt>
			 <trkpt lat="45.491033" lon="12.239676">
				 <ele>6</ele>
			 </trkpt>
			 <trkpt lat="45.490895" lon="12.240076">
				 <ele>6.3</ele>
			 </trkpt>
			 <trkpt lat="45.490831" lon="12.240341">
				 <ele>6.3</ele>
			 </trkpt>
			 <trkpt lat="45.491399" lon="12.240612">
				 <ele>6.2</ele>
			 </trkpt>
			 <trkpt lat="45.49141" lon="12.240675">
				 <ele>6.4</ele>
			 </trkpt>
			 <trkpt lat="45.491552" lon="12.240786">
				 <ele>6.2</ele>
			 </trkpt>
			 <trkpt lat="45.491591" lon="12.240799">
				 <ele>5.9</ele>
			 </trkpt>
			 <trkpt lat="45.491787" lon="12.240687">
				 <ele>5.7</ele>
			 </trkpt>
			 <trkpt lat="45.492062" lon="12.24067">
				 <ele>5.7</ele>
			 </trkpt>
			 <trkpt lat="45.492597" lon="12.240532">
				 <ele>5.7</ele>
			 </trkpt>
			 <trkpt lat="45.492446" lon="12.241377">
				 <ele>5.8</ele>
			 </trkpt>
			 <trkpt lat="45.492412" lon="12.241591">
				 <ele>6.2</ele>
			 </trkpt>
			 <trkpt lat="45.492469" lon="12.241693">
				 <ele>6.7</ele>
			 </trkpt>
			 <trkpt lat="45.492476" lon="12.24194">
				 <ele>7.5</ele>
			 </trkpt>
			 <trkpt lat="45.492495" lon="12.242197">
				 <ele>8.2</ele>
			 </trkpt>
			 <trkpt lat="45.492502" lon="12.242374">
				 <ele>8</ele>
			 </trkpt>
			 <trkpt lat="45.492551" lon="12.242589">
				 <ele>7.9</ele>
			 </trkpt>
			 <trkpt lat="45.492563" lon="12.242964">
				 <ele>7.8</ele>
			 </trkpt>
			 <trkpt lat="45.492548" lon="12.243163">
				 <ele>7.3</ele>
			 </trkpt>
			 <trkpt lat="45.492495" lon="12.243302">
				 <ele>6.7</ele>
			 </trkpt>
			 <trkpt lat="45.492081" lon="12.244236">
				 <ele>6.5</ele>
			 </trkpt>
			 <trkpt lat="45.491878" lon="12.244783">
				 <ele>6.2</ele>
			 </trkpt>
			 <trkpt lat="45.491495" lon="12.245738">
				 <ele>5.7</ele>
			 </trkpt>
			 <trkpt lat="45.491168" lon="12.246366">
				 <ele>5</ele>
			 </trkpt>
			 <trkpt lat="45.490904" lon="12.246773">
				 <ele>4.3</ele>
			 </trkpt>
			 <trkpt lat="45.490139" lon="12.247634">
				 <ele>3.6</ele>
			 </trkpt>
			 <trkpt lat="45.489951" lon="12.247825">
				 <ele>3.4</ele>
			 </trkpt>
			 <trkpt lat="45.489804" lon="12.247988">
				 <ele>3.1</ele>
			 </trkpt>
			 <trkpt lat="45.489678" lon="12.24812">
				 <ele>2.6</ele>
			 </trkpt>
			 <trkpt lat="45.48952" lon="12.248289">
				 <ele>2.6</ele>
			 </trkpt>
			 <trkpt lat="45.489252" lon="12.248565">
				 <ele>2.5</ele>
			 </trkpt>
			 <trkpt lat="45.488733" lon="12.249093">
				 <ele>2.1</ele>
			 </trkpt>
			 <trkpt lat="45.488688" lon="12.249441">
				 <ele>1.7</ele>
			 </trkpt>
			 <trkpt lat="45.488651" lon="12.249732">
				 <ele>1.5</ele>
			 </trkpt>
			 <trkpt lat="45.488524" lon="12.249863">
				 <ele>1.1</ele>
			 </trkpt>
			 <trkpt lat="45.485214" lon="12.252996">
				 <ele>1</ele>
			 </trkpt>
			 <trkpt lat="45.486553" lon="12.255646">
				 <ele>0.8</ele>
			 </trkpt>
			 <trkpt lat="45.485839" lon="12.256365">
				 <ele>0.8</ele>
			 </trkpt>
			 <trkpt lat="45.484928" lon="12.257298">
				 <ele>0.9</ele>
			 </trkpt>
			 <trkpt lat="45.483289" lon="12.259176">
				 <ele>1.1</ele>
			 </trkpt>
			 <trkpt lat="45.480942" lon="12.261987">
				 <ele>1.3</ele>
			 </trkpt>
			 <trkpt lat="45.479287" lon="12.263982">
				 <ele>1.5</ele>
			 </trkpt>
			 <trkpt lat="45.478591" lon="12.265114">
				 <ele>1.8</ele>
			 </trkpt>
			 <trkpt lat="45.478674" lon="12.265238">
				 <ele>2</ele>
			 </trkpt>
			 <trkpt lat="45.478734" lon="12.265361">
				 <ele>1.9</ele>
			 </trkpt>
			 <trkpt lat="45.47876" lon="12.26549">
				 <ele>1.9</ele>
			 </trkpt>
			 <trkpt lat="45.478756" lon="12.26564">
				 <ele>1.5</ele>
			 </trkpt>
			 <trkpt lat="45.478644" lon="12.265828">
				 <ele>1.3</ele>
			 </trkpt>
			 <trkpt lat="45.47838" lon="12.266005">
				 <ele>1</ele>
			 </trkpt>
			 <trkpt lat="45.478215" lon="12.266171">
				 <ele>0.6</ele>
			 </trkpt>
			 <trkpt lat="45.477703" lon="12.267045">
				 <ele>0.3</ele>
			 </trkpt>
			 <trkpt lat="45.47735" lon="12.267662">
				 <ele>0</ele>
			 </trkpt>
			 <trkpt lat="45.477165" lon="12.267957">
				 <ele>-0.3</ele>
			 </trkpt>
			 <trkpt lat="45.477052" lon="12.268226">
				 <ele>-0.5</ele>
			 </trkpt>
			 <trkpt lat="45.476996" lon="12.268655">
				 <ele>-0.5</ele>
			 </trkpt>
			 <trkpt lat="45.476985" lon="12.26896">
				 <ele>-0.6</ele>
			 </trkpt>
			 <trkpt lat="45.476849" lon="12.269261">
				 <ele>-0.6</ele>
			 </trkpt>
			 <trkpt lat="45.476714" lon="12.269357">
				 <ele>-0.5</ele>
			 </trkpt>
			 <trkpt lat="45.476571" lon="12.269379">
				 <ele>-0.5</ele>
			 </trkpt>
			 <trkpt lat="45.476834" lon="12.271793">
				 <ele>-0.5</ele>
			 </trkpt>
			 <trkpt lat="45.476834" lon="12.272201">
				 <ele>-0.4</ele>
			 </trkpt>
			 <trkpt lat="45.476736" lon="12.272458">
				 <ele>-0.2</ele>
			 </trkpt>
			 <trkpt lat="45.475909" lon="12.273885">
				 <ele>-0.2</ele>
			 </trkpt>
			 <trkpt lat="45.475877" lon="12.273839">
				 <ele>-0.2</ele>
			 </trkpt>
			 <trkpt lat="45.475826" lon="12.273834">
				 <ele>-0.3</ele>
			 </trkpt>
			 <trkpt lat="45.475745" lon="12.273858">
				 <ele>-0.5</ele>
			 </trkpt>
			 <trkpt lat="45.475688" lon="12.273972">
				 <ele>-0.5</ele>
			 </trkpt>
			 <trkpt lat="45.475161" lon="12.273658">
				 <ele>-0.5</ele>
			 </trkpt>
			 <trkpt lat="45.475085" lon="12.273909">
				 <ele>-0.5</ele>
			 </trkpt>
			 <trkpt lat="45.47503" lon="12.274006">
				 <ele>-0.4</ele>
			 </trkpt>
			 <trkpt lat="45.474991" lon="12.274057">
				 <ele>-0.1</ele>
			 </trkpt>
			 <trkpt lat="45.47495" lon="12.274085">
				 <ele>0.3</ele>
			 </trkpt>
			 <trkpt lat="45.474895" lon="12.274112">
				 <ele>0.5</ele>
			 </trkpt>
			 <trkpt lat="45.474739" lon="12.274137">
				 <ele>0.8</ele>
			 </trkpt>
			 <trkpt lat="45.474571" lon="12.274184">
				 <ele>1</ele>
			 </trkpt>
			 <trkpt lat="45.474357" lon="12.274264">
				 <ele>1.2</ele>
			 </trkpt>
			 <trkpt lat="45.474255" lon="12.274328">
				 <ele>1.4</ele>
			 </trkpt>
			 <trkpt lat="45.474069" lon="12.274518">
				 <ele>1.5</ele>
			 </trkpt>
			 <trkpt lat="45.473988" lon="12.274683">
				 <ele>1.7</ele>
			 </trkpt>
			 <trkpt lat="45.47386" lon="12.274916">
				 <ele>1.7</ele>
			 </trkpt>
			 <trkpt lat="45.473748" lon="12.275123">
				 <ele>1.5</ele>
			 </trkpt>
			 <trkpt lat="45.473605" lon="12.27542">
				 <ele>1.1</ele>
			 </trkpt>
			 <trkpt lat="45.473424" lon="12.275687">
				 <ele>0.6</ele>
			 </trkpt>
			 <trkpt lat="45.473202" lon="12.275922">
				 <ele>0.1</ele>
			 </trkpt>
			 <trkpt lat="45.472941" lon="12.276147">
				 <ele>-0.4</ele>
			 </trkpt>
			 <trkpt lat="45.472761" lon="12.276264">
				 <ele>-0.8</ele>
			 </trkpt>
			 <trkpt lat="45.4721" lon="12.276511">
				 <ele>-1.3</ele>
			 </trkpt>
			 <trkpt lat="45.472072" lon="12.276233">
				 <ele>-1.8</ele>
			 </trkpt>
			 <trkpt lat="45.472051" lon="12.2759">
				 <ele>-2.4</ele>
			 </trkpt>
			 <trkpt lat="45.472045" lon="12.275574">
				 <ele>-2.7</ele>
			 </trkpt>
			 <trkpt lat="45.472061" lon="12.275246">
				 <ele>-2.8</ele>
			 </trkpt>
			 <trkpt lat="45.47216" lon="12.274917">
				 <ele>-2.7</ele>
			 </trkpt>
			 <trkpt lat="45.472341" lon="12.274564">
				 <ele>-2.6</ele>
			 </trkpt>
			 <trkpt lat="45.472514" lon="12.274361">
				 <ele>-2.5</ele>
			 </trkpt>
			 <trkpt lat="45.47277" lon="12.27419">
				 <ele>-2.2</ele>
			 </trkpt>
			 <trkpt lat="45.472896" lon="12.27411">
				 <ele>-2</ele>
			 </trkpt>
			 <trkpt lat="45.473184" lon="12.273957">
				 <ele>-1.8</ele>
			 </trkpt>
			 <trkpt lat="45.47346" lon="12.273837">
				 <ele>-1.6</ele>
			 </trkpt>
			 <trkpt lat="45.474561" lon="12.273515">
				 <ele>-1.2</ele>
			 </trkpt>
			 <trkpt lat="45.474811" lon="12.273434">
				 <ele>-0.7</ele>
			 </trkpt>
			 <trkpt lat="45.475" lon="12.273321">
				 <ele>-0.5</ele>
			 </trkpt>
			 <trkpt lat="45.475195" lon="12.273094">
				 <ele>-0.5</ele>
			 </trkpt>
			 <trkpt lat="45.475461" lon="12.27263">
				 <ele>-0.7</ele>
			 </trkpt>
			 <trkpt lat="45.475811" lon="12.271943">
				 <ele>-0.8</ele>
			 </trkpt>
			 <trkpt lat="45.475864" lon="12.271696">
				 <ele>-1</ele>
			 </trkpt>
			 <trkpt lat="45.475856" lon="12.27145">
				 <ele>-1.1</ele>
			 </trkpt>
			 <trkpt lat="45.475792" lon="12.271198">
				 <ele>-1.2</ele>
			 </trkpt>
			 <trkpt lat="45.475691" lon="12.270999">
				 <ele>-1.3</ele>
			 </trkpt>
			 <trkpt lat="45.475405" lon="12.270742">
				 <ele>-1.4</ele>
			 </trkpt>
			 <trkpt lat="45.475119" lon="12.270784">
				 <ele>-1.7</ele>
			 </trkpt>
			 <trkpt lat="45.475002" lon="12.270843">
				 <ele>-2</ele>
			 </trkpt>
			 <trkpt lat="45.474878" lon="12.270956">
				 <ele>-1.7</ele>
			 </trkpt>
			 <trkpt lat="45.474735" lon="12.271165">
				 <ele>-1.8</ele>
			 </trkpt>
			 <trkpt lat="45.474698" lon="12.271385">
				 <ele>-1.8</ele>
			 </trkpt>
			 <trkpt lat="45.47466" lon="12.271637">
				 <ele>-1.9</ele>
			 </trkpt>
			 <trkpt lat="45.474683" lon="12.271857">
				 <ele>-2.1</ele>
			 </trkpt>
			 <trkpt lat="45.474652" lon="12.272587">
				 <ele>-2.5</ele>
			 </trkpt>
			 <trkpt lat="45.473103" lon="12.271321">
				 <ele>-2.7</ele>
			 </trkpt>
			 <trkpt lat="45.473088" lon="12.271214">
				 <ele>-2.7</ele>
			 </trkpt>
			 <trkpt lat="45.472975" lon="12.271149">
				 <ele>-2.5</ele>
			 </trkpt>
			 <trkpt lat="45.472877" lon="12.271187">
				 <ele>-2.3</ele>
			 </trkpt>
			 <trkpt lat="45.472068" lon="12.270508">
				 <ele>-2.2</ele>
			 </trkpt>
			 <trkpt lat="45.471433" lon="12.271033">
				 <ele>-2.5</ele>
			 </trkpt>
			 <trkpt lat="45.470783" lon="12.271625">
				 <ele>-2.4</ele>
			 </trkpt>
			 <trkpt lat="45.4704" lon="12.2721">
				 <ele>-2.2</ele>
			 </trkpt>
			 <trkpt lat="45.470728" lon="12.271375">
				 <ele>-1.9</ele>
			 </trkpt>
			 <trkpt lat="45.471231" lon="12.27059">
				 <ele>-1.7</ele>
			 </trkpt>
			 <trkpt lat="45.471576" lon="12.270221">
				 <ele>-1.3</ele>
			 </trkpt>
			 <trkpt lat="45.471689" lon="12.269982">
				 <ele>-0.8</ele>
			 </trkpt>
			 <trkpt lat="45.471677" lon="12.269788">
				 <ele>-0.5</ele>
			 </trkpt>
			 <trkpt lat="45.471589" lon="12.269637">
				 <ele>-0.3</ele>
			 </trkpt>
			 <trkpt lat="45.471492" lon="12.269551">
				 <ele>-0.2</ele>
			 </trkpt>
			 <trkpt lat="45.470759" lon="12.269476">
				 <ele>0.2</ele>
			 </trkpt>
			 <trkpt lat="45.469376" lon="12.26888">
				 <ele>0.9</ele>
			 </trkpt>
			 <trkpt lat="45.469099" lon="12.268883">
				 <ele>1.2</ele>
			 </trkpt>
			 <trkpt lat="45.46884" lon="12.269636">
				 <ele>1.3</ele>
			 </trkpt>
			 <trkpt lat="45.46844" lon="12.270966">
				 <ele>1.4</ele>
			 </trkpt>
			 <trkpt lat="45.467607" lon="12.273295">
				 <ele>1.5</ele>
			 </trkpt>
			 <trkpt lat="45.46665" lon="12.275521">
				 <ele>1.5</ele>
			 </trkpt>
			 <trkpt lat="45.465343" lon="12.278083">
				 <ele>1.5</ele>
			 </trkpt>
			 <trkpt lat="45.463147" lon="12.281983">
				 <ele>1.4</ele>
			 </trkpt>
			 <trkpt lat="45.451363" lon="12.303095">
				 <ele>1.2</ele>
			 </trkpt>
			 <trkpt lat="45.447938" lon="12.309057">
				 <ele>1.3</ele>
			 </trkpt>
			 <trkpt lat="45.446956" lon="12.310633">
				 <ele>1.2</ele>
			 </trkpt>
			 <trkpt lat="45.445818" lon="12.312622">
				 <ele>0.8</ele>
			 </trkpt>
			 <trkpt lat="45.445083" lon="12.313853">
				 <ele>0.7</ele>
			 </trkpt>
			 <trkpt lat="45.444595" lon="12.31464">
				 <ele>0.7</ele>
			 </trkpt>
			 <trkpt lat="45.443803" lon="12.315159">
				 <ele>0.8</ele>
			 </trkpt>
			 <trkpt lat="45.443121" lon="12.315289">
				 <ele>0.9</ele>
			 </trkpt>
			 <trkpt lat="45.44269" lon="12.315397">
				 <ele>1</ele>
			 </trkpt>
			 <trkpt lat="45.442248" lon="12.315666">
				 <ele>1.2</ele>
			 </trkpt>
			 <trkpt lat="45.441862" lon="12.315758">
				 <ele>1.3</ele>
			 </trkpt>
			 <trkpt lat="45.441202" lon="12.31531">
				 <ele>1.5</ele>
			 </trkpt>
			 <trkpt lat="45.440879" lon="12.315075">
				 <ele>1.7</ele>
			 </trkpt>
			 <trkpt lat="45.440783" lon="12.315032">
				 <ele>1.9</ele>
			 </trkpt>
			 <trkpt lat="45.440668" lon="12.315127">
				 <ele>2</ele>
			 </trkpt>
			 <trkpt lat="45.440643" lon="12.315163">
				 <ele>2.1</ele>
			 </trkpt>
			 <trkpt lat="45.440609" lon="12.315269">
				 <ele>2.2</ele>
			 </trkpt>
			 <trkpt lat="45.440632" lon="12.315371">
				 <ele>2.2</ele>
			 </trkpt>
			 <trkpt lat="45.440594" lon="12.315483">
				 <ele>2.2</ele>
			 </trkpt>
			 <trkpt lat="45.44049" lon="12.315544">
				 <ele>2.1</ele>
			 </trkpt>
			 <trkpt lat="45.44031" lon="12.315365">
				 <ele>1.9</ele>
			 </trkpt>
			 <trkpt lat="45.440112" lon="12.315164">
				 <ele>1.7</ele>
			 </trkpt>
			 <trkpt lat="45.440081" lon="12.315259">
				 <ele>1.6</ele>
			 </trkpt>
			 <trkpt lat="45.439977" lon="12.31561">
				 <ele>1.4</ele>
			 </trkpt>
			 <trkpt lat="45.439893" lon="12.315782">
				 <ele>1</ele>
			 </trkpt>
			 <trkpt lat="45.439659" lon="12.316018">
				 <ele>0.6</ele>
			 </trkpt>
			 <trkpt lat="45.439549" lon="12.316107">
				 <ele>0.2</ele>
			 </trkpt>
			 <trkpt lat="45.439323" lon="12.315866">
				 <ele>-0.1</ele>
			 </trkpt>
			 <trkpt lat="45.439115" lon="12.315631">
				 <ele>-0.3</ele>
			 </trkpt>
			 <trkpt lat="45.439015" lon="12.315353">
				 <ele>-0.5</ele>
			 </trkpt>
			 <trkpt lat="45.438923" lon="12.315142">
				 <ele>-0.5</ele>
			 </trkpt>
			 <trkpt lat="45.438711" lon="12.315047">
				 <ele>-0.5</ele>
			 </trkpt>
			 <trkpt lat="45.438606" lon="12.314862">
				 <ele>-0.6</ele>
			 </trkpt>
			 <trkpt lat="45.438253" lon="12.314647">
				 <ele>-0.8</ele>
			 </trkpt>
			 <trkpt lat="45.436829" lon="12.314447">
				 <ele>-0.9</ele>
			 </trkpt>
			 <trkpt lat="45.436298" lon="12.314197">
				 <ele>-0.8</ele>
			 </trkpt>
			 <trkpt lat="45.435294" lon="12.313235">
				 <ele>-0.6</ele>
			 </trkpt>
			 <trkpt lat="45.43364" lon="12.311574">
				 <ele>-0.2</ele>
			 </trkpt>
			 <trkpt lat="45.433371" lon="12.311398">
				 <ele>0.4</ele>
			 </trkpt>
			 <trkpt lat="45.433157" lon="12.311245">
				 <ele>1</ele>
			 </trkpt>
			 <trkpt lat="45.43306" lon="12.311218">
				 <ele>1.7</ele>
			 </trkpt>
			 <trkpt lat="45.432979" lon="12.311211">
				 <ele>2.4</ele>
			 </trkpt>
			 <trkpt lat="45.432842" lon="12.311215">
				 <ele>3.2</ele>
			 </trkpt>
			 <trkpt lat="45.432688" lon="12.311242">
				 <ele>4</ele>
			 </trkpt>
			 <trkpt lat="45.432514" lon="12.311296">
				 <ele>4.8</ele>
			 </trkpt>
			 <trkpt lat="45.432414" lon="12.311338">
				 <ele>5.5</ele>
			 </trkpt>
			 <trkpt lat="45.432327" lon="12.311394">
				 <ele>6.1</ele>
			 </trkpt>
			 <trkpt lat="45.432295" lon="12.31142">
				 <ele>6.5</ele>
			 </trkpt>
			 <trkpt lat="45.43221" lon="12.311513">
				 <ele>6.6</ele>
			 </trkpt>
			 <trkpt lat="45.432176" lon="12.311561">
				 <ele>6.5</ele>
			 </trkpt>
			 <trkpt lat="45.432097" lon="12.311681">
				 <ele>6.3</ele>
			 </trkpt>
			 <trkpt lat="45.432034" lon="12.311819">
				 <ele>5.9</ele>
			 </trkpt>
			 <trkpt lat="45.431987" lon="12.31197">
				 <ele>5.5</ele>
			 </trkpt>
			 <trkpt lat="45.431957" lon="12.312129">
				 <ele>5.1</ele>
			 </trkpt>
			 <trkpt lat="45.431947" lon="12.312293">
				 <ele>4.6</ele>
			 </trkpt>
			 <trkpt lat="45.431985" lon="12.313713">
				 <ele>4.2</ele>
			 </trkpt>
			 <trkpt lat="45.431972" lon="12.313831">
				 <ele>3.8</ele>
			 </trkpt>
			 <trkpt lat="45.431956" lon="12.313887">
				 <ele>3.5</ele>
			 </trkpt>
			 <trkpt lat="45.431909" lon="12.313987">
				 <ele>3.4</ele>
			 </trkpt>
			 <trkpt lat="45.431879" lon="12.314028">
				 <ele>3.3</ele>
			 </trkpt>
			 <trkpt lat="45.431845" lon="12.314064">
				 <ele>3.2</ele>
			 </trkpt>
			 <trkpt lat="45.431768" lon="12.314111">
				 <ele>3</ele>
			 </trkpt>
			 <trkpt lat="45.431627" lon="12.314149">
				 <ele>2.8</ele>
			 </trkpt>
			 <trkpt lat="45.431585" lon="12.31416">
				 <ele>2.6</ele>
			 </trkpt>
			 <trkpt lat="45.431529" lon="12.314173">
				 <ele>2.5</ele>
			 </trkpt>
			 <trkpt lat="45.431455" lon="12.314209">
				 <ele>2.5</ele>
			 </trkpt>
			 <trkpt lat="45.43141" lon="12.314263">
				 <ele>2.4</ele>
			 </trkpt>
			 <trkpt lat="45.431382" lon="12.314356">
				 <ele>2.3</ele>
			 </trkpt>
			 <trkpt lat="45.431358" lon="12.314531">
				 <ele>2.2</ele>
			 </trkpt>
			 <trkpt lat="45.431353" lon="12.314606">
				 <ele>2</ele>
			 </trkpt>
			 <trkpt lat="45.431357" lon="12.314859">
				 <ele>1.7</ele>
			 </trkpt>
			 <trkpt lat="45.431373" lon="12.315347">
				 <ele>1.5</ele>
			 </trkpt>
			 <trkpt lat="45.431371" lon="12.315512">
				 <ele>1.4</ele>
			 </trkpt>
			 <trkpt lat="45.431374" lon="12.31576">
				 <ele>1.2</ele>
			 </trkpt>
			 <trkpt lat="45.431382" lon="12.316395">
				 <ele>1.1</ele>
			 </trkpt>
			 <trkpt lat="45.431383" lon="12.31677">
				 <ele>1</ele>
			 </trkpt>
			 <trkpt lat="45.43133" lon="12.317959">
				 <ele>1</ele>
			 </trkpt>
			 <trkpt lat="45.431336" lon="12.318024">
				 <ele>1.3</ele>
			 </trkpt>
			 <trkpt lat="45.431359" lon="12.318065">
				 <ele>1.5</ele>
			 </trkpt>
			 <trkpt lat="45.431421" lon="12.318083">
				 <ele>1.8</ele>
			 </trkpt>
			 <trkpt lat="45.431456" lon="12.31808">
				 <ele>2.1</ele>
			 </trkpt>
			 <trkpt lat="45.431481" lon="12.318126">
				 <ele>2.5</ele>
			 </trkpt>
			 <trkpt lat="45.431463" lon="12.318525">
				 <ele>2.7</ele>
			 </trkpt>
			 <trkpt lat="45.431461" lon="12.318577">
				 <ele>3</ele>
			 </trkpt>
			 <trkpt lat="45.431443" lon="12.318609">
				 <ele>3.1</ele>
			 </trkpt>
			 <trkpt lat="45.431366" lon="12.319009">
				 <ele>3.1</ele>
			 </trkpt>
			 <trkpt lat="45.431357" lon="12.319061">
				 <ele>3.2</ele>
			 </trkpt>
			 <trkpt lat="45.431309" lon="12.319314">
				 <ele>3.1</ele>
			 </trkpt>
			 <trkpt lat="45.431298" lon="12.31937">
				 <ele>2.7</ele>
			 </trkpt>
			 <trkpt lat="45.431182" lon="12.319802">
				 <ele>2.5</ele>
			 </trkpt>
			 <trkpt lat="45.431112" lon="12.320058">
				 <ele>2.2</ele>
			 </trkpt>
			 <trkpt lat="45.43105" lon="12.320323">
				 <ele>2</ele>
			 </trkpt>
			 <trkpt lat="45.43089" lon="12.320289">
				 <ele>2</ele>
			 </trkpt>
			 <trkpt lat="45.430851" lon="12.3204">
				 <ele>2.2</ele>
			 </trkpt>
			 <trkpt lat="45.43084" lon="12.320466">
				 <ele>2.3</ele>
			 </trkpt>
			 <trkpt lat="45.43082" lon="12.320568">
				 <ele>2.4</ele>
			 </trkpt>
			 <trkpt lat="45.430808" lon="12.320633">
				 <ele>2.9</ele>
			 </trkpt>
			 <trkpt lat="45.43076" lon="12.32089">
				 <ele>2.9</ele>
			 </trkpt>
			 <trkpt lat="45.43069" lon="12.321316">
				 <ele>3.1</ele>
			 </trkpt>
			 <trkpt lat="45.430586" lon="12.321914">
				 <ele>3.5</ele>
			 </trkpt>
			 <trkpt lat="45.43051" lon="12.322309">
				 <ele>3.9</ele>
			 </trkpt>
			 <trkpt lat="45.430053" lon="12.324069">
				 <ele>4.2</ele>
			 </trkpt>
			 <trkpt lat="45.42971" lon="12.325432">
				 <ele>4.3</ele>
			 </trkpt>
			 <trkpt lat="45.429621" lon="12.325785">
				 <ele>4.2</ele>
			 </trkpt>
			 <trkpt lat="45.429531" lon="12.326155">
				 <ele>4</ele>
			 </trkpt>
			 <trkpt lat="45.429475" lon="12.326384">
				 <ele>3.8</ele>
			 </trkpt>
			 <trkpt lat="45.429354" lon="12.326881">
				 <ele>3.8</ele>
			 </trkpt>
			 <trkpt lat="45.42924" lon="12.327351">
				 <ele>3.4</ele>
			 </trkpt>
			 <trkpt lat="45.429225" lon="12.327411">
				 <ele>3.5</ele>
			 </trkpt>
			 <trkpt lat="45.429202" lon="12.32751">
				 <ele>3.5</ele>
			 </trkpt>
			 <trkpt lat="45.429142" lon="12.327755">
				 <ele>3.3</ele>
			 </trkpt>
			 <trkpt lat="45.429095" lon="12.327971">
				 <ele>3</ele>
			 </trkpt>
			 <trkpt lat="45.42893" lon="12.328627">
				 <ele>2.8</ele>
			 </trkpt>
			 <trkpt lat="45.428909" lon="12.328711">
				 <ele>2.8</ele>
			 </trkpt>
			 <trkpt lat="45.428884" lon="12.328811">
				 <ele>2.8</ele>
			 </trkpt>
			 <trkpt lat="45.428859" lon="12.328915">
				 <ele>2.8</ele>
			 </trkpt>
			 <trkpt lat="45.428685" lon="12.329634">
				 <ele>3.2</ele>
			 </trkpt>
			 <trkpt lat="45.428666" lon="12.329709">
				 <ele>3.5</ele>
			 </trkpt>
			 <trkpt lat="45.428653" lon="12.32976">
				 <ele>3.6</ele>
			 </trkpt>
			 <trkpt lat="45.428637" lon="12.329822">
				 <ele>3.7</ele>
			 </trkpt>
			 <trkpt lat="45.428618" lon="12.329968">
				 <ele>3.8</ele>
			 </trkpt>
			 <trkpt lat="45.428436" lon="12.331336">
				 <ele>3.8</ele>
			 </trkpt>
			 <trkpt lat="45.428405" lon="12.331565">
				 <ele>3.9</ele>
			 </trkpt>
			 <trkpt lat="45.428396" lon="12.331639">
				 <ele>4.1</ele>
			 </trkpt>
			 <trkpt lat="45.428389" lon="12.331872">
				 <ele>4.2</ele>
			 </trkpt>
			 <trkpt lat="45.428392" lon="12.331913">
				 <ele>4.2</ele>
			 </trkpt>
			 <trkpt lat="45.428402" lon="12.331995">
				 <ele>4.2</ele>
			 </trkpt>
			 <trkpt lat="45.428407" lon="12.332039">
				 <ele>3.9</ele>
			 </trkpt>
			 <trkpt lat="45.42846" lon="12.332518">
				 <ele>3.7</ele>
			 </trkpt>
			 <trkpt lat="45.428507" lon="12.332763">
				 <ele>3.6</ele>
			 </trkpt>
			 <trkpt lat="45.428517" lon="12.33281">
				 <ele>3.5</ele>
			 </trkpt>
			 <trkpt lat="45.428533" lon="12.332864">
				 <ele>3.4</ele>
			 </trkpt>
			 <trkpt lat="45.428552" lon="12.332926">
				 <ele>3.2</ele>
			 </trkpt>
			 <trkpt lat="45.428565" lon="12.332965">
				 <ele>2.9</ele>
			 </trkpt>
			 <trkpt lat="45.428577" lon="12.333001">
				 <ele>2.5</ele>
			 </trkpt>
			 <trkpt lat="45.428966" lon="12.334016">
				 <ele>2.2</ele>
			 </trkpt>
			 <trkpt lat="45.428987" lon="12.334076">
				 <ele>1.9</ele>
			 </trkpt>
			 <trkpt lat="45.429128" lon="12.33434">
				 <ele>1.6</ele>
			 </trkpt>
			 <trkpt lat="45.429193" lon="12.334461">
				 <ele>1.4</ele>
			 </trkpt>
			 <trkpt lat="45.42921" lon="12.334492">
				 <ele>1.1</ele>
			 </trkpt>
			 <trkpt lat="45.429363" lon="12.334681">
				 <ele>0.9</ele>
			 </trkpt>
			 <trkpt lat="45.429408" lon="12.334733">
				 <ele>0.9</ele>
			 </trkpt>
			 <trkpt lat="45.429441" lon="12.334774">
				 <ele>0.8</ele>
			 </trkpt>
			 <trkpt lat="45.429501" lon="12.334848">
				 <ele>0.8</ele>
			 </trkpt>
			 <trkpt lat="45.429535" lon="12.334891">
				 <ele>0.9</ele>
			 </trkpt>
			 <trkpt lat="45.430072" lon="12.335577">
				 <ele>1</ele>
			 </trkpt>
			 <trkpt lat="45.430328" lon="12.335733">
				 <ele>1.4</ele>
			 </trkpt>
			 <trkpt lat="45.430836" lon="12.336868">
				 <ele>1.7</ele>
			 </trkpt>
			 <trkpt lat="45.430857" lon="12.336917">
				 <ele>2.1</ele>
			 </trkpt>
			 <trkpt lat="45.430905" lon="12.337014">
				 <ele>2.3</ele>
			 </trkpt>
			 <trkpt lat="45.430947" lon="12.337071">
				 <ele>2.7</ele>
			 </trkpt>
			 <trkpt lat="45.432322" lon="12.337945">
				 <ele>3.5</ele>
			 </trkpt>
			 <trkpt lat="45.432594" lon="12.337773">
				 <ele>4.2</ele>
			 </trkpt>
			 <trkpt lat="45.432631" lon="12.337829">
				 <ele>5.1</ele>
			 </trkpt>
			 <trkpt lat="45.4328" lon="12.338344">
				 <ele>5.7</ele>
			 </trkpt>
			 <trkpt lat="45.432976" lon="12.338966">
				 <ele>6.5</ele>
			 </trkpt>
			 <trkpt lat="45.433138" lon="12.339556">
				 <ele>7.4</ele>
			 </trkpt>
			 <trkpt lat="45.433249" lon="12.339834">
				 <ele>7.9</ele>
			 </trkpt>
			 <trkpt lat="45.434267" lon="12.339218">
				 <ele>8.4</ele>
			 </trkpt>
			 <trkpt lat="45.433855" lon="12.337987">
				 <ele>8.6</ele>
			 </trkpt>
			 <trkpt lat="45.43399" lon="12.337942">
				 <ele>9</ele>
			 </trkpt>
			 <trkpt lat="45.434305" lon="12.339285">
				 <ele>9</ele>
			 </trkpt>
			 <trkpt lat="45.433388" lon="12.339847">
				 <ele>8.6</ele>
			 </trkpt>
			 <trkpt lat="45.433433" lon="12.34004">
				 <ele>8.2</ele>
			 </trkpt>
			 <trkpt lat="45.433542" lon="12.340498">
				 <ele>7.5</ele>
			 </trkpt>
			 <trkpt lat="45.433607" lon="12.340769">
				 <ele>7.3</ele>
			 </trkpt>
			 <trkpt lat="45.433641" lon="12.340945">
				 <ele>6.8</ele>
			 </trkpt>
			 <trkpt lat="45.433667" lon="12.341077">
				 <ele>6.2</ele>
			 </trkpt>
			 <trkpt lat="45.433693" lon="12.341204">
				 <ele>5.6</ele>
			 </trkpt>
			 <trkpt lat="45.433707" lon="12.341291">
				 <ele>5.2</ele>
			 </trkpt>
			 <trkpt lat="45.433741" lon="12.341511">
				 <ele>4.8</ele>
			 </trkpt>
			 <trkpt lat="45.433797" lon="12.341869">
				 <ele>4.5</ele>
			 </trkpt>
			 <trkpt lat="45.433813" lon="12.341971">
				 <ele>4.4</ele>
			 </trkpt>
			 <trkpt lat="45.433845" lon="12.342177">
				 <ele>4.1</ele>
			 </trkpt>
			 <trkpt lat="45.433849" lon="12.342216">
				 <ele>3.8</ele>
			 </trkpt>
			 <trkpt lat="45.433854" lon="12.342263">
				 <ele>3.5</ele>
			 </trkpt>
			 <trkpt lat="45.433859" lon="12.342322">
				 <ele>3.1</ele>
			 </trkpt>
			 <trkpt lat="45.433864" lon="12.342366">
				 <ele>2.7</ele>
			 </trkpt>
			 <trkpt lat="45.433887" lon="12.342606">
				 <ele>2.4</ele>
			 </trkpt>
			 <trkpt lat="45.433908" lon="12.342821">
				 <ele>2.1</ele>
			 </trkpt>
			 <trkpt lat="45.433916" lon="12.342901">
				 <ele>1.8</ele>
			 </trkpt>
			 <trkpt lat="45.433958" lon="12.343336">
				 <ele>1.6</ele>
			 </trkpt>
			 <trkpt lat="45.434" lon="12.344082">
				 <ele>1.5</ele>
			 </trkpt>
			 <trkpt lat="45.434005" lon="12.34415">
				 <ele>1.3</ele>
			 </trkpt>
			 <trkpt lat="45.434014" lon="12.344264">
				 <ele>1.2</ele>
			 </trkpt>
			 <trkpt lat="45.434013" lon="12.344303">
				 <ele>1.2</ele>
			 </trkpt>
			 <trkpt lat="45.434013" lon="12.344347">
				 <ele>1.3</ele>
			 </trkpt>
			 <trkpt lat="45.434012" lon="12.344445">
				 <ele>1.5</ele>
			 </trkpt>
			 <trkpt lat="45.434012" lon="12.344489">
				 <ele>1.7</ele>
			 </trkpt>
			 <trkpt lat="45.434012" lon="12.344532">
				 <ele>2</ele>
			 </trkpt>
			 <trkpt lat="45.433977" lon="12.344923">
				 <ele>2.3</ele>
			 </trkpt>
			 <trkpt lat="45.433963" lon="12.345081">
				 <ele>2.5</ele>
			 </trkpt>
			 <trkpt lat="45.433946" lon="12.345295">
				 <ele>2.7</ele>
			 </trkpt>
			 <trkpt lat="45.433941" lon="12.345348">
				 <ele>2.7</ele>
			 </trkpt>
			 <trkpt lat="45.433933" lon="12.345441">
				 <ele>2.7</ele>
			 </trkpt>
			 <trkpt lat="45.433928" lon="12.34549">
				 <ele>2.6</ele>
			 </trkpt>
			 <trkpt lat="45.433924" lon="12.345534">
				 <ele>2.5</ele>
			 </trkpt>
			 <trkpt lat="45.433815" lon="12.346254">
				 <ele>2.2</ele>
			 </trkpt>
			 <trkpt lat="45.433704" lon="12.346998">
				 <ele>1.9</ele>
			 </trkpt>
			 <trkpt lat="45.43369" lon="12.347098">
				 <ele>1.5</ele>
			 </trkpt>
			 <trkpt lat="45.433632" lon="12.347374">
				 <ele>1.3</ele>
			 </trkpt>
			 <trkpt lat="45.433619" lon="12.347436">
				 <ele>1</ele>
			 </trkpt>
			 <trkpt lat="45.433578" lon="12.347647">
				 <ele>0.6</ele>
			 </trkpt>
			 <trkpt lat="45.433519" lon="12.347963">
				 <ele>0.4</ele>
			 </trkpt>
			 <trkpt lat="45.433492" lon="12.348026">
				 <ele>0.4</ele>
			 </trkpt>
			 <trkpt lat="45.433442" lon="12.348144">
				 <ele>0.5</ele>
			 </trkpt>
			 <trkpt lat="45.433417" lon="12.348201">
				 <ele>0.8</ele>
			 </trkpt>
			 <trkpt lat="45.433198" lon="12.348551">
				 <ele>1.1</ele>
			 </trkpt>
			 <trkpt lat="45.433077" lon="12.348747">
				 <ele>1.5</ele>
			 </trkpt>
			 <trkpt lat="45.432892" lon="12.349042">
				 <ele>1.9</ele>
			 </trkpt>
			 <trkpt lat="45.432752" lon="12.349304">
				 <ele>2.4</ele>
			 </trkpt>
			 <trkpt lat="45.43267" lon="12.349445">
				 <ele>2.6</ele>
			 </trkpt>
			 <trkpt lat="45.43264" lon="12.349504">
				 <ele>2.9</ele>
			 </trkpt>
			 <trkpt lat="45.432575" lon="12.349621">
				 <ele>3.2</ele>
			 </trkpt>
			 <trkpt lat="45.432498" lon="12.349761">
				 <ele>3.5</ele>
			 </trkpt>
			 <trkpt lat="45.432424" lon="12.349858">
				 <ele>3.6</ele>
			 </trkpt>
			 <trkpt lat="45.432066" lon="12.350493">
				 <ele>3.7</ele>
			 </trkpt>
			 <trkpt lat="45.432027" lon="12.350577">
				 <ele>3.8</ele>
			 </trkpt>
			 <trkpt lat="45.432001" lon="12.350633">
				 <ele>3.9</ele>
			 </trkpt>
			 <trkpt lat="45.43196" lon="12.350723">
				 <ele>3.9</ele>
			 </trkpt>
			 <trkpt lat="45.431547" lon="12.351598">
				 <ele>3.8</ele>
			 </trkpt>
			 <trkpt lat="45.431459" lon="12.351783">
				 <ele>3.6</ele>
			 </trkpt>
			 <trkpt lat="45.431425" lon="12.351854">
				 <ele>3.5</ele>
			 </trkpt>
		 </trkseg>
	 </trk>
</gpx>