<?xml version="1.0" encoding="UTF-8"?>
 <gpx creator="Garmin Connect" version="1.1"
	 xsi:schemaLocation="http://www.topografix.com/GPX/1/1 http://www.topografix.com/GPX/11.xsd"
	 xmlns:ns3="http://www.garmin.com/xmlschemas/TrackPointExtension/v1"
	 xmlns="http://www.topografix.com/GPX/1/1"
	 xmlns:xsi="http://www.w3.org/2001/XMLSchema-instance" xmlns:ns2="http://www.garmin.com/xmlschemas/GpxExtensions/v3">
	 <metadata>
		<name>Verdi Marathon 2025 - 42.195 km</name>
		 <link href="https://www.goandrace.com">
		 <text>Garmin Connect</text>
		 </link>
	 <time>2026-08-09T18:03:12</time>
	 </metadata>
	 <trk>
		 <name>Verdi Marathon 2025 - 42.195 km</name>
		 <trkseg>
			 <trkpt lat="44.817214" lon="9.980727">
				 <ele>159.8</ele>
			 </trkpt>
			 <trkpt lat="44.817349" lon="9.980927">
				 <ele>159.6</ele>
			 </trkpt>
			 <trkpt lat="44.81752" lon="9.981212">
				 <ele>159.1</ele>
			 </trkpt>
			 <trkpt lat="44.81775" lon="9.981594">
				 <ele>158.8</ele>
			 </trkpt>
			 <trkpt lat="44.818103" lon="9.982176">
				 <ele>158.6</ele>
			 </trkpt>
			 <trkpt lat="44.818216" lon="9.982363">
				 <ele>158.5</ele>
			 </trkpt>
			 <trkpt lat="44.818555" lon="9.982922">
				 <ele>157.9</ele>
			 </trkpt>
			 <trkpt lat="44.818854" lon="9.983414">
				 <ele>157.4</ele>
			 </trkpt>
			 <trkpt lat="44.819155" lon="9.98392">
				 <ele>156.8</ele>
			 </trkpt>
			 <trkpt lat="44.819312" lon="9.984166">
				 <ele>156.3</ele>
			 </trkpt>
			 <trkpt lat="44.819435" lon="9.984358">
				 <ele>155.6</ele>
			 </trkpt>
			 <trkpt lat="44.819715" lon="9.984811">
				 <ele>155.1</ele>
			 </trkpt>
			 <trkpt lat="44.820133" lon="9.985485">
				 <ele>154.4</ele>
			 </trkpt>
			 <trkpt lat="44.820589" lon="9.986239">
				 <ele>153.6</ele>
			 </trkpt>
			 <trkpt lat="44.820764" lon="9.986711">
				 <ele>153</ele>
			 </trkpt>
			 <trkpt lat="44.820826" lon="9.986971">
				 <ele>152.3</ele>
			 </trkpt>
			 <trkpt lat="44.821009" lon="9.98774">
				 <ele>151.5</ele>
			 </trkpt>
			 <trkpt lat="44.821234" lon="9.988761">
				 <ele>150.7</ele>
			 </trkpt>
			 <trkpt lat="44.821344" lon="9.989261">
				 <ele>150</ele>
			 </trkpt>
			 <trkpt lat="44.821357" lon="9.98932">
				 <ele>149.3</ele>
			 </trkpt>
			 <trkpt lat="44.821561" lon="9.990246">
				 <ele>148.6</ele>
			 </trkpt>
			 <trkpt lat="44.821647" lon="9.990635">
				 <ele>148.2</ele>
			 </trkpt>
			 <trkpt lat="44.821728" lon="9.991005">
				 <ele>147.5</ele>
			 </trkpt>
			 <trkpt lat="44.821843" lon="9.991526">
				 <ele>147.1</ele>
			 </trkpt>
			 <trkpt lat="44.821919" lon="9.991869">
				 <ele>146.6</ele>
			 </trkpt>
			 <trkpt lat="44.822069" lon="9.992547">
				 <ele>146</ele>
			 </trkpt>
			 <trkpt lat="44.822142" lon="9.992907">
				 <ele>145.4</ele>
			 </trkpt>
			 <trkpt lat="44.822045" lon="9.993422">
				 <ele>144.7</ele>
			 </trkpt>
			 <trkpt lat="44.821981" lon="9.993663">
				 <ele>144.1</ele>
			 </trkpt>
			 <trkpt lat="44.821729" lon="9.994543">
				 <ele>143.5</ele>
			 </trkpt>
			 <trkpt lat="44.821673" lon="9.994938">
				 <ele>142.9</ele>
			 </trkpt>
			 <trkpt lat="44.821666" lon="9.995239">
				 <ele>142.3</ele>
			 </trkpt>
			 <trkpt lat="44.821695" lon="9.995569">
				 <ele>141.5</ele>
			 </trkpt>
			 <trkpt lat="44.821725" lon="9.99568">
				 <ele>141</ele>
			 </trkpt>
			 <trkpt lat="44.821786" lon="9.995909">
				 <ele>140.5</ele>
			 </trkpt>
			 <trkpt lat="44.821919" lon="9.996277">
				 <ele>140.1</ele>
			 </trkpt>
			 <trkpt lat="44.822098" lon="9.996774">
				 <ele>139.7</ele>
			 </trkpt>
			 <trkpt lat="44.822137" lon="9.996952">
				 <ele>139.3</ele>
			 </trkpt>
			 <trkpt lat="44.822122" lon="9.997013">
				 <ele>138.9</ele>
			 </trkpt>
			 <trkpt lat="44.822137" lon="9.997074">
				 <ele>138.5</ele>
			 </trkpt>
			 <trkpt lat="44.822175" lon="9.997109">
				 <ele>138.2</ele>
			 </trkpt>
			 <trkpt lat="44.822272" lon="9.997264">
				 <ele>138</ele>
			 </trkpt>
			 <trkpt lat="44.822443" lon="9.997823">
				 <ele>137.7</ele>
			 </trkpt>
			 <trkpt lat="44.822514" lon="9.99803">
				 <ele>137.4</ele>
			 </trkpt>
			 <trkpt lat="44.822714" lon="9.998613">
				 <ele>137.1</ele>
			 </trkpt>
			 <trkpt lat="44.822786" lon="9.998823">
				 <ele>136.8</ele>
			 </trkpt>
			 <trkpt lat="44.823004" lon="9.999608">
				 <ele>136.5</ele>
			 </trkpt>
			 <trkpt lat="44.823219" lon="10.000432">
				 <ele>136.1</ele>
			 </trkpt>
			 <trkpt lat="44.823287" lon="10.000685">
				 <ele>135.7</ele>
			 </trkpt>
			 <trkpt lat="44.823632" lon="10.001978">
				 <ele>135.4</ele>
			 </trkpt>
			 <trkpt lat="44.823695" lon="10.002214">
				 <ele>134.9</ele>
			 </trkpt>
			 <trkpt lat="44.823894" lon="10.00299">
				 <ele>134.5</ele>
			 </trkpt>
			 <trkpt lat="44.824105" lon="10.003657">
				 <ele>134</ele>
			 </trkpt>
			 <trkpt lat="44.824225" lon="10.003905">
				 <ele>133.6</ele>
			 </trkpt>
			 <trkpt lat="44.824312" lon="10.004014">
				 <ele>133.3</ele>
			 </trkpt>
			 <trkpt lat="44.824408" lon="10.004215">
				 <ele>132.8</ele>
			 </trkpt>
			 <trkpt lat="44.82442" lon="10.004253">
				 <ele>132.4</ele>
			 </trkpt>
			 <trkpt lat="44.824407" lon="10.00432">
				 <ele>132</ele>
			 </trkpt>
			 <trkpt lat="44.824408" lon="10.004389">
				 <ele>131.8</ele>
			 </trkpt>
			 <trkpt lat="44.824423" lon="10.00445">
				 <ele>131.7</ele>
			 </trkpt>
			 <trkpt lat="44.824449" lon="10.004504">
				 <ele>131.6</ele>
			 </trkpt>
			 <trkpt lat="44.824485" lon="10.004545">
				 <ele>131.6</ele>
			 </trkpt>
			 <trkpt lat="44.824531" lon="10.004571">
				 <ele>131.6</ele>
			 </trkpt>
			 <trkpt lat="44.82458" lon="10.004577">
				 <ele>131.7</ele>
			 </trkpt>
			 <trkpt lat="44.824628" lon="10.004562">
				 <ele>131.8</ele>
			 </trkpt>
			 <trkpt lat="44.824671" lon="10.004527">
				 <ele>132.2</ele>
			 </trkpt>
			 <trkpt lat="44.824705" lon="10.004476">
				 <ele>132.7</ele>
			 </trkpt>
			 <trkpt lat="44.824888" lon="10.004413">
				 <ele>133.4</ele>
			 </trkpt>
			 <trkpt lat="44.82496" lon="10.004419">
				 <ele>134</ele>
			 </trkpt>
			 <trkpt lat="44.825878" lon="10.004495">
				 <ele>134.5</ele>
			 </trkpt>
			 <trkpt lat="44.826759" lon="10.004575">
				 <ele>135.1</ele>
			 </trkpt>
			 <trkpt lat="44.827009" lon="10.004634">
				 <ele>135.6</ele>
			 </trkpt>
			 <trkpt lat="44.827232" lon="10.004703">
				 <ele>136.2</ele>
			 </trkpt>
			 <trkpt lat="44.8273" lon="10.004724">
				 <ele>136.8</ele>
			 </trkpt>
			 <trkpt lat="44.827369" lon="10.00476">
				 <ele>137.4</ele>
			 </trkpt>
			 <trkpt lat="44.827612" lon="10.004885">
				 <ele>137.5</ele>
			 </trkpt>
			 <trkpt lat="44.82796" lon="10.00514">
				 <ele>137.5</ele>
			 </trkpt>
			 <trkpt lat="44.828502" lon="10.005732">
				 <ele>137.5</ele>
			 </trkpt>
			 <trkpt lat="44.828733" lon="10.005965">
				 <ele>137.3</ele>
			 </trkpt>
			 <trkpt lat="44.829279" lon="10.006514">
				 <ele>137.1</ele>
			 </trkpt>
			 <trkpt lat="44.830122" lon="10.007382">
				 <ele>136.9</ele>
			 </trkpt>
			 <trkpt lat="44.830398" lon="10.007589">
				 <ele>136.7</ele>
			 </trkpt>
			 <trkpt lat="44.830642" lon="10.00776">
				 <ele>136.5</ele>
			 </trkpt>
			 <trkpt lat="44.831011" lon="10.008039">
				 <ele>136.2</ele>
			 </trkpt>
			 <trkpt lat="44.831268" lon="10.00826">
				 <ele>135.5</ele>
			 </trkpt>
			 <trkpt lat="44.831499" lon="10.008486">
				 <ele>134.6</ele>
			 </trkpt>
			 <trkpt lat="44.831653" lon="10.008676">
				 <ele>134.1</ele>
			 </trkpt>
			 <trkpt lat="44.831997" lon="10.009189">
				 <ele>133.5</ele>
			 </trkpt>
			 <trkpt lat="44.832501" lon="10.009921">
				 <ele>132.7</ele>
			 </trkpt>
			 <trkpt lat="44.832673" lon="10.010099">
				 <ele>132</ele>
			 </trkpt>
			 <trkpt lat="44.832812" lon="10.010175">
				 <ele>131.1</ele>
			 </trkpt>
			 <trkpt lat="44.832929" lon="10.010219">
				 <ele>130.2</ele>
			 </trkpt>
			 <trkpt lat="44.833142" lon="10.010219">
				 <ele>129.2</ele>
			 </trkpt>
			 <trkpt lat="44.833257" lon="10.010219">
				 <ele>128.3</ele>
			 </trkpt>
			 <trkpt lat="44.833644" lon="10.010139">
				 <ele>127.4</ele>
			 </trkpt>
			 <trkpt lat="44.833901" lon="10.01008">
				 <ele>126.5</ele>
			 </trkpt>
			 <trkpt lat="44.834003" lon="10.010057">
				 <ele>125.7</ele>
			 </trkpt>
			 <trkpt lat="44.83431" lon="10.010039">
				 <ele>124.8</ele>
			 </trkpt>
			 <trkpt lat="44.83456" lon="10.010085">
				 <ele>123.9</ele>
			 </trkpt>
			 <trkpt lat="44.83558" lon="10.010395">
				 <ele>122.8</ele>
			 </trkpt>
			 <trkpt lat="44.836678" lon="10.010733">
				 <ele>121.2</ele>
			 </trkpt>
			 <trkpt lat="44.837133" lon="10.01089">
				 <ele>119.5</ele>
			 </trkpt>
			 <trkpt lat="44.838395" lon="10.011484">
				 <ele>117.9</ele>
			 </trkpt>
			 <trkpt lat="44.838722" lon="10.011653">
				 <ele>116.4</ele>
			 </trkpt>
			 <trkpt lat="44.839157" lon="10.011882">
				 <ele>114.7</ele>
			 </trkpt>
			 <trkpt lat="44.840406" lon="10.01264">
				 <ele>113.3</ele>
			 </trkpt>
			 <trkpt lat="44.841923" lon="10.013543">
				 <ele>112</ele>
			 </trkpt>
			 <trkpt lat="44.842301" lon="10.013787">
				 <ele>110.8</ele>
			 </trkpt>
			 <trkpt lat="44.842481" lon="10.013948">
				 <ele>109.8</ele>
			 </trkpt>
			 <trkpt lat="44.842601" lon="10.014088">
				 <ele>108.9</ele>
			 </trkpt>
			 <trkpt lat="44.842705" lon="10.014244">
				 <ele>108.2</ele>
			 </trkpt>
			 <trkpt lat="44.842789" lon="10.014413">
				 <ele>108</ele>
			 </trkpt>
			 <trkpt lat="44.842862" lon="10.014582">
				 <ele>108</ele>
			 </trkpt>
			 <trkpt lat="44.843025" lon="10.01515">
				 <ele>108.1</ele>
			 </trkpt>
			 <trkpt lat="44.843125" lon="10.015501">
				 <ele>108.2</ele>
			 </trkpt>
			 <trkpt lat="44.843154" lon="10.015608">
				 <ele>108.3</ele>
			 </trkpt>
			 <trkpt lat="44.843202" lon="10.015804">
				 <ele>108.3</ele>
			 </trkpt>
			 <trkpt lat="44.843265" lon="10.016047">
				 <ele>108</ele>
			 </trkpt>
			 <trkpt lat="44.843344" lon="10.016308">
				 <ele>107.6</ele>
			 </trkpt>
			 <trkpt lat="44.84343" lon="10.016536">
				 <ele>107.2</ele>
			 </trkpt>
			 <trkpt lat="44.843528" lon="10.016751">
				 <ele>106.6</ele>
			 </trkpt>
			 <trkpt lat="44.844372" lon="10.018573">
				 <ele>106.1</ele>
			 </trkpt>
			 <trkpt lat="44.845012" lon="10.019964">
				 <ele>105.4</ele>
			 </trkpt>
			 <trkpt lat="44.845392" lon="10.020795">
				 <ele>104.6</ele>
			 </trkpt>
			 <trkpt lat="44.846733" lon="10.023647">
				 <ele>103.6</ele>
			 </trkpt>
			 <trkpt lat="44.846783" lon="10.023753">
				 <ele>102.5</ele>
			 </trkpt>
			 <trkpt lat="44.847181" lon="10.024621">
				 <ele>101.5</ele>
			 </trkpt>
			 <trkpt lat="44.84753" lon="10.02538">
				 <ele>100.5</ele>
			 </trkpt>
			 <trkpt lat="44.847646" lon="10.025643">
				 <ele>99.8</ele>
			 </trkpt>
			 <trkpt lat="44.84796" lon="10.026303">
				 <ele>99.2</ele>
			 </trkpt>
			 <trkpt lat="44.848331" lon="10.027081">
				 <ele>98.5</ele>
			 </trkpt>
			 <trkpt lat="44.848504" lon="10.027392">
				 <ele>98</ele>
			 </trkpt>
			 <trkpt lat="44.848696" lon="10.027681">
				 <ele>97.5</ele>
			 </trkpt>
			 <trkpt lat="44.849047" lon="10.02812">
				 <ele>96.9</ele>
			 </trkpt>
			 <trkpt lat="44.849716" lon="10.029027">
				 <ele>96.3</ele>
			 </trkpt>
			 <trkpt lat="44.849829" lon="10.029203">
				 <ele>95.7</ele>
			 </trkpt>
			 <trkpt lat="44.850198" lon="10.029778">
				 <ele>95.3</ele>
			 </trkpt>
			 <trkpt lat="44.850619" lon="10.030481">
				 <ele>94.8</ele>
			 </trkpt>
			 <trkpt lat="44.851501" lon="10.031866">
				 <ele>94.3</ele>
			 </trkpt>
			 <trkpt lat="44.851871" lon="10.032372">
				 <ele>93.6</ele>
			 </trkpt>
			 <trkpt lat="44.852253" lon="10.032963">
				 <ele>93.1</ele>
			 </trkpt>
			 <trkpt lat="44.852356" lon="10.033132">
				 <ele>92.6</ele>
			 </trkpt>
			 <trkpt lat="44.852421" lon="10.033328">
				 <ele>92.2</ele>
			 </trkpt>
			 <trkpt lat="44.852608" lon="10.033807">
				 <ele>91.7</ele>
			 </trkpt>
			 <trkpt lat="44.852662" lon="10.034032">
				 <ele>91.5</ele>
			 </trkpt>
			 <trkpt lat="44.852662" lon="10.034214">
				 <ele>91.3</ele>
			 </trkpt>
			 <trkpt lat="44.852611" lon="10.034326">
				 <ele>91.2</ele>
			 </trkpt>
			 <trkpt lat="44.85259" lon="10.034456">
				 <ele>91.1</ele>
			 </trkpt>
			 <trkpt lat="44.8526" lon="10.034588">
				 <ele>91</ele>
			 </trkpt>
			 <trkpt lat="44.85264" lon="10.034709">
				 <ele>90.9</ele>
			 </trkpt>
			 <trkpt lat="44.852688" lon="10.034783">
				 <ele>90.8</ele>
			 </trkpt>
			 <trkpt lat="44.852747" lon="10.034837">
				 <ele>90.7</ele>
			 </trkpt>
			 <trkpt lat="44.852814" lon="10.034869">
				 <ele>90.7</ele>
			 </trkpt>
			 <trkpt lat="44.85287" lon="10.034877">
				 <ele>90.6</ele>
			 </trkpt>
			 <trkpt lat="44.853016" lon="10.034995">
				 <ele>90.5</ele>
			 </trkpt>
			 <trkpt lat="44.853109" lon="10.035107">
				 <ele>90.4</ele>
			 </trkpt>
			 <trkpt lat="44.853207" lon="10.035382">
				 <ele>90.2</ele>
			 </trkpt>
			 <trkpt lat="44.853553" lon="10.036312">
				 <ele>89.8</ele>
			 </trkpt>
			 <trkpt lat="44.853979" lon="10.037428">
				 <ele>89.4</ele>
			 </trkpt>
			 <trkpt lat="44.85418" lon="10.037818">
				 <ele>88.9</ele>
			 </trkpt>
			 <trkpt lat="44.854738" lon="10.038897">
				 <ele>88.5</ele>
			 </trkpt>
			 <trkpt lat="44.854962" lon="10.039312">
				 <ele>88.2</ele>
			 </trkpt>
			 <trkpt lat="44.855566" lon="10.040427">
				 <ele>87.7</ele>
			 </trkpt>
			 <trkpt lat="44.855788" lon="10.040849">
				 <ele>87.1</ele>
			 </trkpt>
			 <trkpt lat="44.856078" lon="10.041445">
				 <ele>86.5</ele>
			 </trkpt>
			 <trkpt lat="44.856478" lon="10.042388">
				 <ele>85.8</ele>
			 </trkpt>
			 <trkpt lat="44.856502" lon="10.04246">
				 <ele>85.3</ele>
			 </trkpt>
			 <trkpt lat="44.856829" lon="10.04345">
				 <ele>84.6</ele>
			 </trkpt>
			 <trkpt lat="44.856985" lon="10.043837">
				 <ele>84.2</ele>
			 </trkpt>
			 <trkpt lat="44.857164" lon="10.044214">
				 <ele>83.7</ele>
			 </trkpt>
			 <trkpt lat="44.857441" lon="10.044743">
				 <ele>83.1</ele>
			 </trkpt>
			 <trkpt lat="44.857865" lon="10.045289">
				 <ele>82.5</ele>
			 </trkpt>
			 <trkpt lat="44.858097" lon="10.045573">
				 <ele>81.8</ele>
			 </trkpt>
			 <trkpt lat="44.858213" lon="10.045716">
				 <ele>81.3</ele>
			 </trkpt>
			 <trkpt lat="44.858728" lon="10.046272">
				 <ele>80.8</ele>
			 </trkpt>
			 <trkpt lat="44.859054" lon="10.046721">
				 <ele>80.5</ele>
			 </trkpt>
			 <trkpt lat="44.859359" lon="10.047165">
				 <ele>80.1</ele>
			 </trkpt>
			 <trkpt lat="44.859435" lon="10.047264">
				 <ele>79.7</ele>
			 </trkpt>
			 <trkpt lat="44.859738" lon="10.04771">
				 <ele>79.5</ele>
			 </trkpt>
			 <trkpt lat="44.859809" lon="10.047813">
				 <ele>79.2</ele>
			 </trkpt>
			 <trkpt lat="44.859913" lon="10.047966">
				 <ele>79</ele>
			 </trkpt>
			 <trkpt lat="44.860041" lon="10.048155">
				 <ele>78.9</ele>
			 </trkpt>
			 <trkpt lat="44.860589" lon="10.049035">
				 <ele>78.9</ele>
			 </trkpt>
			 <trkpt lat="44.860669" lon="10.049272">
				 <ele>78.6</ele>
			 </trkpt>
			 <trkpt lat="44.860745" lon="10.04954">
				 <ele>78.3</ele>
			 </trkpt>
			 <trkpt lat="44.86079" lon="10.049796">
				 <ele>77.9</ele>
			 </trkpt>
			 <trkpt lat="44.860878" lon="10.050398">
				 <ele>77.7</ele>
			 </trkpt>
			 <trkpt lat="44.86096" lon="10.051022">
				 <ele>77.7</ele>
			 </trkpt>
			 <trkpt lat="44.861043" lon="10.051645">
				 <ele>77.7</ele>
			 </trkpt>
			 <trkpt lat="44.861094" lon="10.052035">
				 <ele>77.5</ele>
			 </trkpt>
			 <trkpt lat="44.86109" lon="10.052399">
				 <ele>77.5</ele>
			 </trkpt>
			 <trkpt lat="44.861186" lon="10.052788">
				 <ele>77.4</ele>
			 </trkpt>
			 <trkpt lat="44.861282" lon="10.053407">
				 <ele>77.3</ele>
			 </trkpt>
			 <trkpt lat="44.861379" lon="10.054027">
				 <ele>77.2</ele>
			 </trkpt>
			 <trkpt lat="44.861475" lon="10.054647">
				 <ele>77.4</ele>
			 </trkpt>
			 <trkpt lat="44.861572" lon="10.055266">
				 <ele>77.6</ele>
			 </trkpt>
			 <trkpt lat="44.861667" lon="10.055877">
				 <ele>77.8</ele>
			 </trkpt>
			 <trkpt lat="44.861828" lon="10.05629">
				 <ele>77.8</ele>
			 </trkpt>
			 <trkpt lat="44.862104" lon="10.056463">
				 <ele>77.6</ele>
			 </trkpt>
			 <trkpt lat="44.862519" lon="10.05663">
				 <ele>77.5</ele>
			 </trkpt>
			 <trkpt lat="44.862672" lon="10.056981">
				 <ele>77.5</ele>
			 </trkpt>
			 <trkpt lat="44.862716" lon="10.057166">
				 <ele>77.4</ele>
			 </trkpt>
			 <trkpt lat="44.862733" lon="10.057133">
				 <ele>77.3</ele>
			 </trkpt>
			 <trkpt lat="44.863164" lon="10.057614">
				 <ele>77.3</ele>
			 </trkpt>
			 <trkpt lat="44.863147" lon="10.057657">
				 <ele>77.2</ele>
			 </trkpt>
			 <trkpt lat="44.863137" lon="10.057705">
				 <ele>77.1</ele>
			 </trkpt>
			 <trkpt lat="44.863136" lon="10.057755">
				 <ele>77</ele>
			 </trkpt>
			 <trkpt lat="44.863144" lon="10.057803">
				 <ele>77</ele>
			 </trkpt>
			 <trkpt lat="44.86316" lon="10.057848">
				 <ele>77</ele>
			 </trkpt>
			 <trkpt lat="44.863183" lon="10.057885">
				 <ele>77</ele>
			 </trkpt>
			 <trkpt lat="44.863212" lon="10.057914">
				 <ele>77</ele>
			 </trkpt>
			 <trkpt lat="44.863244" lon="10.057932">
				 <ele>77</ele>
			 </trkpt>
			 <trkpt lat="44.863279" lon="10.057938">
				 <ele>77</ele>
			 </trkpt>
			 <trkpt lat="44.863314" lon="10.057932">
				 <ele>77</ele>
			 </trkpt>
			 <trkpt lat="44.863346" lon="10.057915">
				 <ele>77.1</ele>
			 </trkpt>
			 <trkpt lat="44.863375" lon="10.057886">
				 <ele>77.2</ele>
			 </trkpt>
			 <trkpt lat="44.863398" lon="10.057849">
				 <ele>77.4</ele>
			 </trkpt>
			 <trkpt lat="44.863859" lon="10.058405">
				 <ele>77.5</ele>
			 </trkpt>
			 <trkpt lat="44.864147" lon="10.058755">
				 <ele>77.5</ele>
			 </trkpt>
			 <trkpt lat="44.864371" lon="10.058544">
				 <ele>77.6</ele>
			 </trkpt>
			 <trkpt lat="44.864412" lon="10.058506">
				 <ele>77.7</ele>
			 </trkpt>
			 <trkpt lat="44.864885" lon="10.057907">
				 <ele>77.9</ele>
			 </trkpt>
			 <trkpt lat="44.864829" lon="10.057781">
				 <ele>78.1</ele>
			 </trkpt>
			 <trkpt lat="44.864922" lon="10.057658">
				 <ele>78.3</ele>
			 </trkpt>
			 <trkpt lat="44.865114" lon="10.057497">
				 <ele>78.5</ele>
			 </trkpt>
			 <trkpt lat="44.865162" lon="10.057466">
				 <ele>78.6</ele>
			 </trkpt>
			 <trkpt lat="44.865495" lon="10.057307">
				 <ele>78.8</ele>
			 </trkpt>
			 <trkpt lat="44.865592" lon="10.05726">
				 <ele>78.9</ele>
			 </trkpt>
			 <trkpt lat="44.865833" lon="10.057184">
				 <ele>79.2</ele>
			 </trkpt>
			 <trkpt lat="44.866114" lon="10.057113">
				 <ele>79.4</ele>
			 </trkpt>
			 <trkpt lat="44.866153" lon="10.057117">
				 <ele>79.5</ele>
			 </trkpt>
			 <trkpt lat="44.866342" lon="10.057141">
				 <ele>79.4</ele>
			 </trkpt>
			 <trkpt lat="44.866346" lon="10.057356">
				 <ele>79.2</ele>
			 </trkpt>
			 <trkpt lat="44.866728" lon="10.057523">
				 <ele>79.1</ele>
			 </trkpt>
			 <trkpt lat="44.866832" lon="10.057407">
				 <ele>79</ele>
			 </trkpt>
			 <trkpt lat="44.867113" lon="10.057567">
				 <ele>79.2</ele>
			 </trkpt>
			 <trkpt lat="44.867349" lon="10.057696">
				 <ele>79.3</ele>
			 </trkpt>
			 <trkpt lat="44.867274" lon="10.057931">
				 <ele>79.5</ele>
			 </trkpt>
			 <trkpt lat="44.867224" lon="10.058099">
				 <ele>79.6</ele>
			 </trkpt>
			 <trkpt lat="44.867077" lon="10.058602">
				 <ele>79.7</ele>
			 </trkpt>
			 <trkpt lat="44.866824" lon="10.059507">
				 <ele>79.9</ele>
			 </trkpt>
			 <trkpt lat="44.866723" lon="10.059878">
				 <ele>80.2</ele>
			 </trkpt>
			 <trkpt lat="44.866554" lon="10.060523">
				 <ele>80.5</ele>
			 </trkpt>
			 <trkpt lat="44.866443" lon="10.060923">
				 <ele>80.9</ele>
			 </trkpt>
			 <trkpt lat="44.866343" lon="10.061294">
				 <ele>81.1</ele>
			 </trkpt>
			 <trkpt lat="44.866267" lon="10.061543">
				 <ele>81</ele>
			 </trkpt>
			 <trkpt lat="44.866001" lon="10.062421">
				 <ele>80.6</ele>
			 </trkpt>
			 <trkpt lat="44.866172" lon="10.062528">
				 <ele>79.5</ele>
			 </trkpt>
			 <trkpt lat="44.866502" lon="10.062735">
				 <ele>78.3</ele>
			 </trkpt>
			 <trkpt lat="44.866679" lon="10.062847">
				 <ele>77</ele>
			 </trkpt>
			 <trkpt lat="44.867153" lon="10.06313">
				 <ele>75.9</ele>
			 </trkpt>
			 <trkpt lat="44.867449" lon="10.062275">
				 <ele>74.8</ele>
			 </trkpt>
			 <trkpt lat="44.86772" lon="10.0623">
				 <ele>73.8</ele>
			 </trkpt>
			 <trkpt lat="44.86849" lon="10.06274">
				 <ele>72.9</ele>
			 </trkpt>
			 <trkpt lat="44.86863" lon="10.0628">
				 <ele>71.8</ele>
			 </trkpt>
			 <trkpt lat="44.868607" lon="10.06286">
				 <ele>70.6</ele>
			 </trkpt>
			 <trkpt lat="44.868518" lon="10.063107">
				 <ele>69.8</ele>
			 </trkpt>
			 <trkpt lat="44.868456" lon="10.063325">
				 <ele>69</ele>
			 </trkpt>
			 <trkpt lat="44.868415" lon="10.063468">
				 <ele>69</ele>
			 </trkpt>
			 <trkpt lat="44.868237" lon="10.064611">
				 <ele>69</ele>
			 </trkpt>
			 <trkpt lat="44.868215" lon="10.06542">
				 <ele>69</ele>
			 </trkpt>
			 <trkpt lat="44.86827" lon="10.067746">
				 <ele>68.6</ele>
			 </trkpt>
			 <trkpt lat="44.868302" lon="10.069042">
				 <ele>68.3</ele>
			 </trkpt>
			 <trkpt lat="44.868276" lon="10.070183">
				 <ele>67.8</ele>
			 </trkpt>
			 <trkpt lat="44.868224" lon="10.072526">
				 <ele>67.4</ele>
			 </trkpt>
			 <trkpt lat="44.86818" lon="10.072991">
				 <ele>67.1</ele>
			 </trkpt>
			 <trkpt lat="44.867994" lon="10.074102">
				 <ele>67.1</ele>
			 </trkpt>
			 <trkpt lat="44.867981" lon="10.0744">
				 <ele>67</ele>
			 </trkpt>
			 <trkpt lat="44.868003" lon="10.074883">
				 <ele>66.9</ele>
			 </trkpt>
			 <trkpt lat="44.868003" lon="10.074993">
				 <ele>66.7</ele>
			 </trkpt>
			 <trkpt lat="44.868004" lon="10.075068">
				 <ele>66.6</ele>
			 </trkpt>
			 <trkpt lat="44.867994" lon="10.07519">
				 <ele>66.5</ele>
			 </trkpt>
			 <trkpt lat="44.867977" lon="10.075288">
				 <ele>66.6</ele>
			 </trkpt>
			 <trkpt lat="44.867957" lon="10.075377">
				 <ele>66.6</ele>
			 </trkpt>
			 <trkpt lat="44.867917" lon="10.07552">
				 <ele>66.6</ele>
			 </trkpt>
			 <trkpt lat="44.867867" lon="10.075664">
				 <ele>66.6</ele>
			 </trkpt>
			 <trkpt lat="44.867833" lon="10.075763">
				 <ele>66.6</ele>
			 </trkpt>
			 <trkpt lat="44.867737" lon="10.076046">
				 <ele>66.5</ele>
			 </trkpt>
			 <trkpt lat="44.867518" lon="10.076683">
				 <ele>66.5</ele>
			 </trkpt>
			 <trkpt lat="44.867332" lon="10.077281">
				 <ele>66.5</ele>
			 </trkpt>
			 <trkpt lat="44.867255" lon="10.077442">
				 <ele>66.5</ele>
			 </trkpt>
			 <trkpt lat="44.867215" lon="10.077497">
				 <ele>66.5</ele>
			 </trkpt>
			 <trkpt lat="44.867131" lon="10.077576">
				 <ele>66.5</ele>
			 </trkpt>
			 <trkpt lat="44.867069" lon="10.077595">
				 <ele>66.5</ele>
			 </trkpt>
			 <trkpt lat="44.867029" lon="10.077625">
				 <ele>66.6</ele>
			 </trkpt>
			 <trkpt lat="44.866996" lon="10.077667">
				 <ele>66.7</ele>
			 </trkpt>
			 <trkpt lat="44.86697" lon="10.077718">
				 <ele>66.8</ele>
			 </trkpt>
			 <trkpt lat="44.866956" lon="10.077765">
				 <ele>67</ele>
			 </trkpt>
			 <trkpt lat="44.866949" lon="10.077815">
				 <ele>67.2</ele>
			 </trkpt>
			 <trkpt lat="44.866884" lon="10.077895">
				 <ele>67.4</ele>
			 </trkpt>
			 <trkpt lat="44.866773" lon="10.077961">
				 <ele>67.5</ele>
			 </trkpt>
			 <trkpt lat="44.866695" lon="10.077992">
				 <ele>67.6</ele>
			 </trkpt>
			 <trkpt lat="44.866286" lon="10.078094">
				 <ele>67.7</ele>
			 </trkpt>
			 <trkpt lat="44.865733" lon="10.078232">
				 <ele>67.7</ele>
			 </trkpt>
			 <trkpt lat="44.86523" lon="10.078397">
				 <ele>67.7</ele>
			 </trkpt>
			 <trkpt lat="44.864859" lon="10.078535">
				 <ele>67.8</ele>
			 </trkpt>
			 <trkpt lat="44.864555" lon="10.078749">
				 <ele>67.8</ele>
			 </trkpt>
			 <trkpt lat="44.864312" lon="10.078955">
				 <ele>67.7</ele>
			 </trkpt>
			 <trkpt lat="44.864056" lon="10.079256">
				 <ele>67.5</ele>
			 </trkpt>
			 <trkpt lat="44.863908" lon="10.07946">
				 <ele>67.4</ele>
			 </trkpt>
			 <trkpt lat="44.863618" lon="10.079994">
				 <ele>67.2</ele>
			 </trkpt>
			 <trkpt lat="44.863472" lon="10.080389">
				 <ele>67.1</ele>
			 </trkpt>
			 <trkpt lat="44.863408" lon="10.08061">
				 <ele>67</ele>
			 </trkpt>
			 <trkpt lat="44.863314" lon="10.080938">
				 <ele>66.9</ele>
			 </trkpt>
			 <trkpt lat="44.86325" lon="10.081205">
				 <ele>66.9</ele>
			 </trkpt>
			 <trkpt lat="44.862821" lon="10.082897">
				 <ele>66.7</ele>
			 </trkpt>
			 <trkpt lat="44.862342" lon="10.084713">
				 <ele>66.5</ele>
			 </trkpt>
			 <trkpt lat="44.862152" lon="10.085485">
				 <ele>66.4</ele>
			 </trkpt>
			 <trkpt lat="44.861676" lon="10.087268">
				 <ele>66.5</ele>
			 </trkpt>
			 <trkpt lat="44.861321" lon="10.088662">
				 <ele>66.5</ele>
			 </trkpt>
			 <trkpt lat="44.860568" lon="10.091896">
				 <ele>66.9</ele>
			 </trkpt>
			 <trkpt lat="44.859772" lon="10.094128">
				 <ele>66.7</ele>
			 </trkpt>
			 <trkpt lat="44.859661" lon="10.094278">
				 <ele>66.4</ele>
			 </trkpt>
			 <trkpt lat="44.858438" lon="10.098143">
				 <ele>66.1</ele>
			 </trkpt>
			 <trkpt lat="44.857903" lon="10.100177">
				 <ele>65.7</ele>
			 </trkpt>
			 <trkpt lat="44.85665" lon="10.104834">
				 <ele>65.3</ele>
			 </trkpt>
			 <trkpt lat="44.85664" lon="10.10544">
				 <ele>64.8</ele>
			 </trkpt>
			 <trkpt lat="44.85662" lon="10.1056">
				 <ele>64.4</ele>
			 </trkpt>
			 <trkpt lat="44.85665" lon="10.1057">
				 <ele>63.9</ele>
			 </trkpt>
			 <trkpt lat="44.85674" lon="10.10568">
				 <ele>63.2</ele>
			 </trkpt>
			 <trkpt lat="44.85717" lon="10.10545">
				 <ele>63.5</ele>
			 </trkpt>
			 <trkpt lat="44.85728" lon="10.10533">
				 <ele>63.4</ele>
			 </trkpt>
			 <trkpt lat="44.85741" lon="10.10516">
				 <ele>63.7</ele>
			 </trkpt>
			 <trkpt lat="44.85791" lon="10.10582">
				 <ele>64.2</ele>
			 </trkpt>
			 <trkpt lat="44.85796" lon="10.10696">
				 <ele>64.7</ele>
			 </trkpt>
			 <trkpt lat="44.857813" lon="10.10756">
				 <ele>65.4</ele>
			 </trkpt>
			 <trkpt lat="44.857666" lon="10.108159">
				 <ele>66.2</ele>
			 </trkpt>
			 <trkpt lat="44.857519" lon="10.108759">
				 <ele>67.1</ele>
			 </trkpt>
			 <trkpt lat="44.857372" lon="10.109358">
				 <ele>67.9</ele>
			 </trkpt>
			 <trkpt lat="44.857226" lon="10.109958">
				 <ele>68.5</ele>
			 </trkpt>
			 <trkpt lat="44.857079" lon="10.110557">
				 <ele>69.4</ele>
			 </trkpt>
			 <trkpt lat="44.856932" lon="10.111157">
				 <ele>69.2</ele>
			 </trkpt>
			 <trkpt lat="44.856785" lon="10.111756">
				 <ele>69.1</ele>
			 </trkpt>
			 <trkpt lat="44.856696" lon="10.112118">
				 <ele>69</ele>
			 </trkpt>
			 <trkpt lat="44.856714" lon="10.112594">
				 <ele>69</ele>
			 </trkpt>
			 <trkpt lat="44.856716" lon="10.112542">
				 <ele>68.9</ele>
			 </trkpt>
			 <trkpt lat="44.856689" lon="10.112487">
				 <ele>68.8</ele>
			 </trkpt>
			 <trkpt lat="44.856656" lon="10.112395">
				 <ele>68.6</ele>
			 </trkpt>
			 <trkpt lat="44.856656" lon="10.112345">
				 <ele>68.5</ele>
			 </trkpt>
			 <trkpt lat="44.856642" lon="10.112272">
				 <ele>68.5</ele>
			 </trkpt>
			 <trkpt lat="44.856614" lon="10.112208">
				 <ele>68.6</ele>
			 </trkpt>
			 <trkpt lat="44.856574" lon="10.112158">
				 <ele>68.6</ele>
			 </trkpt>
			 <trkpt lat="44.856525" lon="10.112128">
				 <ele>68.6</ele>
			 </trkpt>
			 <trkpt lat="44.856484" lon="10.11212">
				 <ele>68.6</ele>
			 </trkpt>
			 <trkpt lat="44.856442" lon="10.112125">
				 <ele>68.6</ele>
			 </trkpt>
			 <trkpt lat="44.856403" lon="10.112144">
				 <ele>68.5</ele>
			 </trkpt>
			 <trkpt lat="44.856355" lon="10.112191">
				 <ele>68.5</ele>
			 </trkpt>
			 <trkpt lat="44.856321" lon="10.112257">
				 <ele>68.4</ele>
			 </trkpt>
			 <trkpt lat="44.856304" lon="10.112335">
				 <ele>68.3</ele>
			 </trkpt>
			 <trkpt lat="44.856305" lon="10.112416">
				 <ele>68.2</ele>
			 </trkpt>
			 <trkpt lat="44.856325" lon="10.112493">
				 <ele>68.1</ele>
			 </trkpt>
			 <trkpt lat="44.856361" lon="10.112556">
				 <ele>68</ele>
			 </trkpt>
			 <trkpt lat="44.8564" lon="10.112593">
				 <ele>68</ele>
			 </trkpt>
			 <trkpt lat="44.856444" lon="10.112615">
				 <ele>68</ele>
			 </trkpt>
			 <trkpt lat="44.856491" lon="10.112619">
				 <ele>68</ele>
			 </trkpt>
			 <trkpt lat="44.856568" lon="10.112607">
				 <ele>68.1</ele>
			 </trkpt>
			 <trkpt lat="44.856626" lon="10.11262">
				 <ele>68.1</ele>
			 </trkpt>
			 <trkpt lat="44.856684" lon="10.112648">
				 <ele>67.9</ele>
			 </trkpt>
			 <trkpt lat="44.856717" lon="10.112679">
				 <ele>67.4</ele>
			 </trkpt>
			 <trkpt lat="44.856757" lon="10.112747">
				 <ele>66.9</ele>
			 </trkpt>
			 <trkpt lat="44.856823" lon="10.112851">
				 <ele>66.5</ele>
			 </trkpt>
			 <trkpt lat="44.857508" lon="10.114965">
				 <ele>66.2</ele>
			 </trkpt>
			 <trkpt lat="44.858617" lon="10.11828">
				 <ele>65.5</ele>
			 </trkpt>
			 <trkpt lat="44.859218" lon="10.120022">
				 <ele>64.9</ele>
			 </trkpt>
			 <trkpt lat="44.859312" lon="10.120296">
				 <ele>64.3</ele>
			 </trkpt>
			 <trkpt lat="44.859442" lon="10.120773">
				 <ele>63.6</ele>
			 </trkpt>
			 <trkpt lat="44.859498" lon="10.121085">
				 <ele>62.6</ele>
			 </trkpt>
			 <trkpt lat="44.859653" lon="10.122222">
				 <ele>61.8</ele>
			 </trkpt>
			 <trkpt lat="44.85976" lon="10.122995">
				 <ele>61.2</ele>
			 </trkpt>
			 <trkpt lat="44.859869" lon="10.123579">
				 <ele>60.5</ele>
			 </trkpt>
			 <trkpt lat="44.859953" lon="10.123903">
				 <ele>59.7</ele>
			 </trkpt>
			 <trkpt lat="44.860883" lon="10.12751">
				 <ele>58.8</ele>
			 </trkpt>
			 <trkpt lat="44.860975" lon="10.127861">
				 <ele>57.9</ele>
			 </trkpt>
			 <trkpt lat="44.86104" lon="10.128046">
				 <ele>57.3</ele>
			 </trkpt>
			 <trkpt lat="44.8611" lon="10.128">
				 <ele>56.5</ele>
			 </trkpt>
			 <trkpt lat="44.86121" lon="10.12818">
				 <ele>55.8</ele>
			 </trkpt>
			 <trkpt lat="44.86185" lon="10.12873">
				 <ele>55</ele>
			 </trkpt>
			 <trkpt lat="44.8621" lon="10.12907">
				 <ele>54.5</ele>
			 </trkpt>
			 <trkpt lat="44.86219" lon="10.12924">
				 <ele>53.8</ele>
			 </trkpt>
			 <trkpt lat="44.86248" lon="10.12981">
				 <ele>53.2</ele>
			 </trkpt>
			 <trkpt lat="44.86254" lon="10.12996">
				 <ele>53.1</ele>
			 </trkpt>
			 <trkpt lat="44.86319" lon="10.13146">
				 <ele>52.8</ele>
			 </trkpt>
			 <trkpt lat="44.86466" lon="10.1338">
				 <ele>52.5</ele>
			 </trkpt>
			 <trkpt lat="44.86437" lon="10.13448">
				 <ele>52.1</ele>
			 </trkpt>
			 <trkpt lat="44.86436" lon="10.13465">
				 <ele>51.7</ele>
			 </trkpt>
			 <trkpt lat="44.86523" lon="10.13543">
				 <ele>51.5</ele>
			 </trkpt>
			 <trkpt lat="44.86536" lon="10.13563">
				 <ele>51.3</ele>
			 </trkpt>
			 <trkpt lat="44.86542" lon="10.13596">
				 <ele>51.2</ele>
			 </trkpt>
			 <trkpt lat="44.86549" lon="10.13739">
				 <ele>51.1</ele>
			 </trkpt>
			 <trkpt lat="44.86556" lon="10.13761">
				 <ele>51</ele>
			 </trkpt>
			 <trkpt lat="44.86607" lon="10.13828">
				 <ele>50.8</ele>
			 </trkpt>
			 <trkpt lat="44.86624" lon="10.1385">
				 <ele>50.5</ele>
			 </trkpt>
			 <trkpt lat="44.86628" lon="10.13884">
				 <ele>50.4</ele>
			 </trkpt>
			 <trkpt lat="44.86604" lon="10.14025">
				 <ele>50.4</ele>
			 </trkpt>
			 <trkpt lat="44.86564" lon="10.14094">
				 <ele>50.4</ele>
			 </trkpt>
			 <trkpt lat="44.86552" lon="10.14129">
				 <ele>50.3</ele>
			 </trkpt>
			 <trkpt lat="44.86537" lon="10.14246">
				 <ele>50.1</ele>
			 </trkpt>
			 <trkpt lat="44.8652" lon="10.14381">
				 <ele>49.9</ele>
			 </trkpt>
			 <trkpt lat="44.86525" lon="10.14493">
				 <ele>49.6</ele>
			 </trkpt>
			 <trkpt lat="44.86527" lon="10.14512">
				 <ele>49.6</ele>
			 </trkpt>
			 <trkpt lat="44.86557" lon="10.14597">
				 <ele>49.5</ele>
			 </trkpt>
			 <trkpt lat="44.8656" lon="10.14633">
				 <ele>49.7</ele>
			 </trkpt>
			 <trkpt lat="44.86557" lon="10.1465">
				 <ele>49.6</ele>
			 </trkpt>
			 <trkpt lat="44.86432" lon="10.14957">
				 <ele>49.7</ele>
			 </trkpt>
			 <trkpt lat="44.86431" lon="10.14966">
				 <ele>49.9</ele>
			 </trkpt>
			 <trkpt lat="44.86461" lon="10.14997">
				 <ele>50.1</ele>
			 </trkpt>
			 <trkpt lat="44.86586" lon="10.15087">
				 <ele>50.5</ele>
			 </trkpt>
			 <trkpt lat="44.86727" lon="10.15195">
				 <ele>50.9</ele>
			 </trkpt>
			 <trkpt lat="44.867314" lon="10.151956">
				 <ele>51.3</ele>
			 </trkpt>
			 <trkpt lat="44.867428" lon="10.152125">
				 <ele>51.8</ele>
			 </trkpt>
			 <trkpt lat="44.867522" lon="10.15236">
				 <ele>52.1</ele>
			 </trkpt>
			 <trkpt lat="44.867556" lon="10.152541">
				 <ele>52.5</ele>
			 </trkpt>
			 <trkpt lat="44.867566" lon="10.152682">
				 <ele>52.6</ele>
			 </trkpt>
			 <trkpt lat="44.867569" lon="10.153608">
				 <ele>53.1</ele>
			 </trkpt>
			 <trkpt lat="44.867571" lon="10.153966">
				 <ele>53.4</ele>
			 </trkpt>
			 <trkpt lat="44.867589" lon="10.15419">
				 <ele>53.3</ele>
			 </trkpt>
			 <trkpt lat="44.867612" lon="10.154292">
				 <ele>53.3</ele>
			 </trkpt>
			 <trkpt lat="44.867662" lon="10.154418">
				 <ele>53.2</ele>
			 </trkpt>
			 <trkpt lat="44.86774" lon="10.154542">
				 <ele>53.1</ele>
			 </trkpt>
			 <trkpt lat="44.867946" lon="10.154659">
				 <ele>53</ele>
			 </trkpt>
			 <trkpt lat="44.869195" lon="10.155039">
				 <ele>52.7</ele>
			 </trkpt>
			 <trkpt lat="44.869565" lon="10.155183">
				 <ele>52.3</ele>
			 </trkpt>
			 <trkpt lat="44.869867" lon="10.155329">
				 <ele>51.8</ele>
			 </trkpt>
			 <trkpt lat="44.870029" lon="10.155432">
				 <ele>51.4</ele>
			 </trkpt>
			 <trkpt lat="44.870122" lon="10.155505">
				 <ele>50.9</ele>
			 </trkpt>
			 <trkpt lat="44.870291" lon="10.155706">
				 <ele>50.5</ele>
			 </trkpt>
			 <trkpt lat="44.870739" lon="10.156371">
				 <ele>50.3</ele>
			 </trkpt>
			 <trkpt lat="44.870792" lon="10.15648">
				 <ele>50</ele>
			 </trkpt>
			 <trkpt lat="44.870821" lon="10.156644">
				 <ele>49.7</ele>
			 </trkpt>
			 <trkpt lat="44.870889" lon="10.157476">
				 <ele>49.5</ele>
			 </trkpt>
			 <trkpt lat="44.871053" lon="10.159472">
				 <ele>49.4</ele>
			 </trkpt>
			 <trkpt lat="44.871073" lon="10.159612">
				 <ele>49.3</ele>
			 </trkpt>
			 <trkpt lat="44.871097" lon="10.159964">
				 <ele>49.2</ele>
			 </trkpt>
			 <trkpt lat="44.871092" lon="10.160209">
				 <ele>49.1</ele>
			 </trkpt>
			 <trkpt lat="44.871045" lon="10.160937">
				 <ele>49</ele>
			 </trkpt>
			 <trkpt lat="44.870961" lon="10.162278">
				 <ele>48.9</ele>
			 </trkpt>
			 <trkpt lat="44.870948" lon="10.16248">
				 <ele>48.9</ele>
			 </trkpt>
			 <trkpt lat="44.871715" lon="10.162614">
				 <ele>48.9</ele>
			 </trkpt>
			 <trkpt lat="44.872456" lon="10.162891">
				 <ele>48.9</ele>
			 </trkpt>
			 <trkpt lat="44.872498" lon="10.162895">
				 <ele>48.9</ele>
			 </trkpt>
			 <trkpt lat="44.872702" lon="10.162979">
				 <ele>48.9</ele>
			 </trkpt>
			 <trkpt lat="44.873156" lon="10.163141">
				 <ele>48.9</ele>
			 </trkpt>
			 <trkpt lat="44.873606" lon="10.163324">
				 <ele>49</ele>
			 </trkpt>
			 <trkpt lat="44.873806" lon="10.163401">
				 <ele>49.1</ele>
			 </trkpt>
			 <trkpt lat="44.873858" lon="10.163442">
				 <ele>49.2</ele>
			 </trkpt>
			 <trkpt lat="44.874054" lon="10.163698">
				 <ele>49.3</ele>
			 </trkpt>
			 <trkpt lat="44.874133" lon="10.164322">
				 <ele>49.3</ele>
			 </trkpt>
			 <trkpt lat="44.874196" lon="10.16482">
				 <ele>49.2</ele>
			 </trkpt>
			 <trkpt lat="44.874287" lon="10.165441">
				 <ele>49.2</ele>
			 </trkpt>
			 <trkpt lat="44.874378" lon="10.166062">
				 <ele>49.1</ele>
			 </trkpt>
			 <trkpt lat="44.874383" lon="10.1661">
				 <ele>49</ele>
			 </trkpt>
			 <trkpt lat="44.874591" lon="10.166529">
				 <ele>48.8</ele>
			 </trkpt>
			 <trkpt lat="44.874654" lon="10.166599">
				 <ele>48.6</ele>
			 </trkpt>
			 <trkpt lat="44.874899" lon="10.166799">
				 <ele>48.4</ele>
			 </trkpt>
			 <trkpt lat="44.875078" lon="10.167251">
				 <ele>48.3</ele>
			 </trkpt>
			 <trkpt lat="44.875407" lon="10.167685">
				 <ele>48.3</ele>
			 </trkpt>
			 <trkpt lat="44.875735" lon="10.168118">
				 <ele>48.3</ele>
			 </trkpt>
			 <trkpt lat="44.87588" lon="10.16831">
				 <ele>48.5</ele>
			 </trkpt>
			 <trkpt lat="44.875996" lon="10.168473">
				 <ele>48.7</ele>
			 </trkpt>
			 <trkpt lat="44.876142" lon="10.168583">
				 <ele>49</ele>
			 </trkpt>
			 <trkpt lat="44.876307" lon="10.16868">
				 <ele>49.3</ele>
			 </trkpt>
			 <trkpt lat="44.876545" lon="10.168776">
				 <ele>49.5</ele>
			 </trkpt>
			 <trkpt lat="44.877015" lon="10.168925">
				 <ele>49.8</ele>
			 </trkpt>
			 <trkpt lat="44.877286" lon="10.169038">
				 <ele>50.1</ele>
			 </trkpt>
			 <trkpt lat="44.877518" lon="10.169201">
				 <ele>50.4</ele>
			 </trkpt>
			 <trkpt lat="44.878089" lon="10.169672">
				 <ele>50.5</ele>
			 </trkpt>
			 <trkpt lat="44.878116" lon="10.169697">
				 <ele>50.6</ele>
			 </trkpt>
			 <trkpt lat="44.878158" lon="10.169737">
				 <ele>50.6</ele>
			 </trkpt>
			 <trkpt lat="44.878344" lon="10.169914">
				 <ele>50.5</ele>
			 </trkpt>
			 <trkpt lat="44.878461" lon="10.17001">
				 <ele>50.4</ele>
			 </trkpt>
			 <trkpt lat="44.878906" lon="10.170377">
				 <ele>50.1</ele>
			 </trkpt>
			 <trkpt lat="44.879247" lon="10.170663">
				 <ele>49.9</ele>
			 </trkpt>
			 <trkpt lat="44.879613" lon="10.170968">
				 <ele>49.7</ele>
			 </trkpt>
			 <trkpt lat="44.879995" lon="10.17129">
				 <ele>49.5</ele>
			 </trkpt>
			 <trkpt lat="44.880446" lon="10.171632">
				 <ele>49.4</ele>
			 </trkpt>
			 <trkpt lat="44.880663" lon="10.171815">
				 <ele>49.2</ele>
			 </trkpt>
			 <trkpt lat="44.880882" lon="10.171995">
				 <ele>49</ele>
			 </trkpt>
			 <trkpt lat="44.880919" lon="10.17201">
				 <ele>48.8</ele>
			 </trkpt>
			 <trkpt lat="44.880962" lon="10.1719">
				 <ele>48.7</ele>
			 </trkpt>
			 <trkpt lat="44.881337" lon="10.172057">
				 <ele>48.6</ele>
			 </trkpt>
			 <trkpt lat="44.881448" lon="10.17206">
				 <ele>48.6</ele>
			 </trkpt>
			 <trkpt lat="44.881524" lon="10.171649">
				 <ele>48.6</ele>
			 </trkpt>
			 <trkpt lat="44.881526" lon="10.171488">
				 <ele>48.6</ele>
			 </trkpt>
			 <trkpt lat="44.881545" lon="10.171183">
				 <ele>48.6</ele>
			 </trkpt>
			 <trkpt lat="44.881702" lon="10.170611">
				 <ele>48.6</ele>
			 </trkpt>
			 <trkpt lat="44.881983" lon="10.170649">
				 <ele>48.6</ele>
			 </trkpt>
			 <trkpt lat="44.882405" lon="10.170868">
				 <ele>48.6</ele>
			 </trkpt>
			 <trkpt lat="44.882605" lon="10.17101">
				 <ele>48.7</ele>
			 </trkpt>
			 <trkpt lat="44.882526" lon="10.171235">
				 <ele>48.7</ele>
			 </trkpt>
			 <trkpt lat="44.882541" lon="10.171328">
				 <ele>48.7</ele>
			 </trkpt>
			 <trkpt lat="44.882624" lon="10.171603">
				 <ele>48.7</ele>
			 </trkpt>
			 <trkpt lat="44.882668" lon="10.171776">
				 <ele>48.6</ele>
			 </trkpt>
			 <trkpt lat="44.882744" lon="10.17186">
				 <ele>48.6</ele>
			 </trkpt>
			 <trkpt lat="44.88309" lon="10.172265">
				 <ele>48.5</ele>
			 </trkpt>
			 <trkpt lat="44.883214" lon="10.172409">
				 <ele>48.5</ele>
			 </trkpt>
			 <trkpt lat="44.883228" lon="10.172684">
				 <ele>48.4</ele>
			 </trkpt>
			 <trkpt lat="44.883423" lon="10.173002">
				 <ele>48.2</ele>
			 </trkpt>
			 <trkpt lat="44.883562" lon="10.173131">
				 <ele>48.1</ele>
			 </trkpt>
			 <trkpt lat="44.883727" lon="10.173157">
				 <ele>48</ele>
			 </trkpt>
			 <trkpt lat="44.883803" lon="10.173128">
				 <ele>47.9</ele>
			 </trkpt>
			 <trkpt lat="44.884036" lon="10.173041">
				 <ele>47.8</ele>
			 </trkpt>
			 <trkpt lat="44.88411" lon="10.173022">
				 <ele>47.8</ele>
			 </trkpt>
			 <trkpt lat="44.884261" lon="10.172914">
				 <ele>47.9</ele>
			 </trkpt>
			 <trkpt lat="44.884294" lon="10.172763">
				 <ele>47.8</ele>
			 </trkpt>
			 <trkpt lat="44.884122" lon="10.172177">
				 <ele>47.7</ele>
			 </trkpt>
			 <trkpt lat="44.88395" lon="10.17159">
				 <ele>47.6</ele>
			 </trkpt>
			 <trkpt lat="44.883893" lon="10.171395">
				 <ele>47.5</ele>
			 </trkpt>
			 <trkpt lat="44.883753" lon="10.170792">
				 <ele>47.3</ele>
			 </trkpt>
			 <trkpt lat="44.883702" lon="10.170572">
				 <ele>47</ele>
			 </trkpt>
			 <trkpt lat="44.883609" lon="10.170013">
				 <ele>46.7</ele>
			 </trkpt>
			 <trkpt lat="44.88362" lon="10.16992">
				 <ele>46.5</ele>
			 </trkpt>
			 <trkpt lat="44.883746" lon="10.169868">
				 <ele>46.2</ele>
			 </trkpt>
			 <trkpt lat="44.885008" lon="10.169571">
				 <ele>45.7</ele>
			 </trkpt>
			 <trkpt lat="44.886413" lon="10.169172">
				 <ele>45.2</ele>
			 </trkpt>
			 <trkpt lat="44.88679" lon="10.169065">
				 <ele>44.7</ele>
			 </trkpt>
			 <trkpt lat="44.886991" lon="10.169022">
				 <ele>44.3</ele>
			 </trkpt>
			 <trkpt lat="44.887174" lon="10.168918">
				 <ele>43.8</ele>
			 </trkpt>
			 <trkpt lat="44.887984" lon="10.168071">
				 <ele>43.4</ele>
			 </trkpt>
			 <trkpt lat="44.888066" lon="10.167985">
				 <ele>43.2</ele>
			 </trkpt>
			 <trkpt lat="44.88817" lon="10.167876">
				 <ele>42.8</ele>
			 </trkpt>
			 <trkpt lat="44.888425" lon="10.167608">
				 <ele>42.5</ele>
			 </trkpt>
			 <trkpt lat="44.8887" lon="10.167328">
				 <ele>42.2</ele>
			 </trkpt>
			 <trkpt lat="44.888793" lon="10.16727">
				 <ele>41.9</ele>
			 </trkpt>
			 <trkpt lat="44.888945" lon="10.167217">
				 <ele>41.7</ele>
			 </trkpt>
			 <trkpt lat="44.889021" lon="10.167253">
				 <ele>41.5</ele>
			 </trkpt>
			 <trkpt lat="44.889102" lon="10.167255">
				 <ele>41.5</ele>
			 </trkpt>
			 <trkpt lat="44.889179" lon="10.167223">
				 <ele>41.5</ele>
			 </trkpt>
			 <trkpt lat="44.889246" lon="10.16716">
				 <ele>41.5</ele>
			 </trkpt>
			 <trkpt lat="44.889407" lon="10.167118">
				 <ele>41.5</ele>
			 </trkpt>
			 <trkpt lat="44.889633" lon="10.16715">
				 <ele>41.5</ele>
			 </trkpt>
			 <trkpt lat="44.89131" lon="10.167851">
				 <ele>41.5</ele>
			 </trkpt>
			 <trkpt lat="44.891626" lon="10.167895">
				 <ele>41.7</ele>
			 </trkpt>
			 <trkpt lat="44.891926" lon="10.167862">
				 <ele>41.9</ele>
			 </trkpt>
			 <trkpt lat="44.892364" lon="10.167785">
				 <ele>42</ele>
			 </trkpt>
			 <trkpt lat="44.893853" lon="10.167567">
				 <ele>42.1</ele>
			 </trkpt>
			 <trkpt lat="44.894479" lon="10.167476">
				 <ele>42.1</ele>
			 </trkpt>
			 <trkpt lat="44.894796" lon="10.167388">
				 <ele>42</ele>
			 </trkpt>
			 <trkpt lat="44.894837" lon="10.167359">
				 <ele>41.9</ele>
			 </trkpt>
			 <trkpt lat="44.894961" lon="10.167267">
				 <ele>41.9</ele>
			 </trkpt>
			 <trkpt lat="44.895062" lon="10.167187">
				 <ele>42</ele>
			 </trkpt>
			 <trkpt lat="44.895228" lon="10.167034">
				 <ele>42</ele>
			 </trkpt>
			 <trkpt lat="44.895381" lon="10.166851">
				 <ele>42.1</ele>
			 </trkpt>
			 <trkpt lat="44.895616" lon="10.166464">
				 <ele>42.1</ele>
			 </trkpt>
			 <trkpt lat="44.897217" lon="10.163537">
				 <ele>42.2</ele>
			 </trkpt>
			 <trkpt lat="44.897367" lon="10.163173">
				 <ele>42.4</ele>
			 </trkpt>
			 <trkpt lat="44.897819" lon="10.161911">
				 <ele>42.5</ele>
			 </trkpt>
			 <trkpt lat="44.898216" lon="10.160802">
				 <ele>42.5</ele>
			 </trkpt>
			 <trkpt lat="44.898235" lon="10.16077">
				 <ele>42.6</ele>
			 </trkpt>
			 <trkpt lat="44.898324" lon="10.160618">
				 <ele>42.7</ele>
			 </trkpt>
			 <trkpt lat="44.898427" lon="10.160514">
				 <ele>42.7</ele>
			 </trkpt>
			 <trkpt lat="44.898582" lon="10.160437">
				 <ele>42.6</ele>
			 </trkpt>
			 <trkpt lat="44.898924" lon="10.160334">
				 <ele>42.6</ele>
			 </trkpt>
			 <trkpt lat="44.899442" lon="10.160197">
				 <ele>42.5</ele>
			 </trkpt>
			 <trkpt lat="44.899486" lon="10.160184">
				 <ele>42.5</ele>
			 </trkpt>
			 <trkpt lat="44.900759" lon="10.159813">
				 <ele>42.5</ele>
			 </trkpt>
			 <trkpt lat="44.901425" lon="10.159537">
				 <ele>42.3</ele>
			 </trkpt>
			 <trkpt lat="44.902599" lon="10.158957">
				 <ele>42.2</ele>
			 </trkpt>
			 <trkpt lat="44.902905" lon="10.158796">
				 <ele>42.2</ele>
			 </trkpt>
			 <trkpt lat="44.903459" lon="10.15843">
				 <ele>42.2</ele>
			 </trkpt>
			 <trkpt lat="44.904002" lon="10.157974">
				 <ele>42.3</ele>
			 </trkpt>
			 <trkpt lat="44.904985" lon="10.15699">
				 <ele>42.5</ele>
			 </trkpt>
			 <trkpt lat="44.905586" lon="10.156411">
				 <ele>42.7</ele>
			 </trkpt>
			 <trkpt lat="44.905844" lon="10.156209">
				 <ele>43</ele>
			 </trkpt>
			 <trkpt lat="44.906949" lon="10.155469">
				 <ele>43.2</ele>
			 </trkpt>
			 <trkpt lat="44.90716" lon="10.15525">
				 <ele>43.2</ele>
			 </trkpt>
			 <trkpt lat="44.90848" lon="10.153">
				 <ele>43.2</ele>
			 </trkpt>
			 <trkpt lat="44.908632" lon="10.152741">
				 <ele>43.5</ele>
			 </trkpt>
			 <trkpt lat="44.908782" lon="10.15256">
				 <ele>43.6</ele>
			 </trkpt>
			 <trkpt lat="44.909607" lon="10.152187">
				 <ele>43.8</ele>
			 </trkpt>
			 <trkpt lat="44.911171" lon="10.151526">
				 <ele>43.9</ele>
			 </trkpt>
			 <trkpt lat="44.911462" lon="10.151367">
				 <ele>44</ele>
			 </trkpt>
			 <trkpt lat="44.913619" lon="10.149923">
				 <ele>44</ele>
			 </trkpt>
			 <trkpt lat="44.913771" lon="10.149793">
				 <ele>44.1</ele>
			 </trkpt>
			 <trkpt lat="44.913883" lon="10.149644">
				 <ele>43.9</ele>
			 </trkpt>
			 <trkpt lat="44.914041" lon="10.149308">
				 <ele>43.8</ele>
			 </trkpt>
			 <trkpt lat="44.914107" lon="10.148982">
				 <ele>43.9</ele>
			 </trkpt>
			 <trkpt lat="44.914114" lon="10.148905">
				 <ele>43.9</ele>
			 </trkpt>
			 <trkpt lat="44.914121" lon="10.148429">
				 <ele>43.7</ele>
			 </trkpt>
			 <trkpt lat="44.914123" lon="10.147568">
				 <ele>43.5</ele>
			 </trkpt>
			 <trkpt lat="44.914128" lon="10.146012">
				 <ele>43.5</ele>
			 </trkpt>
			 <trkpt lat="44.914146" lon="10.145264">
				 <ele>43.4</ele>
			 </trkpt>
			 <trkpt lat="44.914184" lon="10.144791">
				 <ele>43.3</ele>
			 </trkpt>
			 <trkpt lat="44.914254" lon="10.14441">
				 <ele>43</ele>
			 </trkpt>
			 <trkpt lat="44.914534" lon="10.143277">
				 <ele>42.9</ele>
			 </trkpt>
			 <trkpt lat="44.915255" lon="10.140135">
				 <ele>43.1</ele>
			 </trkpt>
			 <trkpt lat="44.915585" lon="10.138693">
				 <ele>43.2</ele>
			 </trkpt>
			 <trkpt lat="44.91591" lon="10.137164">
				 <ele>43.2</ele>
			 </trkpt>
			 <trkpt lat="44.916767" lon="10.133142">
				 <ele>43.3</ele>
			 </trkpt>
			 <trkpt lat="44.917094" lon="10.13164">
				 <ele>43.3</ele>
			 </trkpt>
			 <trkpt lat="44.917187" lon="10.131522">
				 <ele>43.4</ele>
			 </trkpt>
			 <trkpt lat="44.917221" lon="10.131503">
				 <ele>43.4</ele>
			 </trkpt>
			 <trkpt lat="44.917333" lon="10.131444">
				 <ele>43.5</ele>
			 </trkpt>
			 <trkpt lat="44.917467" lon="10.131456">
				 <ele>43.6</ele>
			 </trkpt>
			 <trkpt lat="44.917536" lon="10.131482">
				 <ele>44</ele>
			 </trkpt>
			 <trkpt lat="44.918046" lon="10.131746">
				 <ele>44</ele>
			 </trkpt>
			 <trkpt lat="44.918605" lon="10.132035">
				 <ele>44</ele>
			 </trkpt>
			 <trkpt lat="44.921152" lon="10.133274">
				 <ele>44.2</ele>
			 </trkpt>
			 <trkpt lat="44.923251" lon="10.134203">
				 <ele>44.4</ele>
			 </trkpt>
			 <trkpt lat="44.923345" lon="10.134203">
				 <ele>44.5</ele>
			 </trkpt>
			 <trkpt lat="44.923457" lon="10.134177">
				 <ele>44.8</ele>
			 </trkpt>
			 <trkpt lat="44.923559" lon="10.134071">
				 <ele>44.9</ele>
			 </trkpt>
			 <trkpt lat="44.923807" lon="10.133732">
				 <ele>44.9</ele>
			 </trkpt>
			 <trkpt lat="44.9239" lon="10.133607">
				 <ele>44.8</ele>
			 </trkpt>
			 <trkpt lat="44.924543" lon="10.132677">
				 <ele>44.7</ele>
			 </trkpt>
			 <trkpt lat="44.92456" lon="10.132638">
				 <ele>44.7</ele>
			 </trkpt>
			 <trkpt lat="44.925071" lon="10.131481">
				 <ele>44.8</ele>
			 </trkpt>
			 <trkpt lat="44.925222" lon="10.131152">
				 <ele>45</ele>
			 </trkpt>
			 <trkpt lat="44.925469" lon="10.130622">
				 <ele>45.1</ele>
			 </trkpt>
			 <trkpt lat="44.925707" lon="10.130084">
				 <ele>45.2</ele>
			 </trkpt>
			 <trkpt lat="44.925917" lon="10.129612">
				 <ele>45.4</ele>
			 </trkpt>
			 <trkpt lat="44.926167" lon="10.129084">
				 <ele>45.5</ele>
			 </trkpt>
			 <trkpt lat="44.926418" lon="10.128557">
				 <ele>45.8</ele>
			 </trkpt>
			 <trkpt lat="44.926669" lon="10.12803">
				 <ele>46.3</ele>
			 </trkpt>
			 <trkpt lat="44.926919" lon="10.127502">
				 <ele>46.8</ele>
			 </trkpt>
			 <trkpt lat="44.92717" lon="10.126975">
				 <ele>47.2</ele>
			 </trkpt>
			 <trkpt lat="44.927421" lon="10.126418">
				 <ele>47.4</ele>
			 </trkpt>
			 <trkpt lat="44.927577" lon="10.126073">
				 <ele>47.2</ele>
			 </trkpt>
			 <trkpt lat="44.927817" lon="10.125555">
				 <ele>46.9</ele>
			 </trkpt>
			 <trkpt lat="44.928101" lon="10.124386">
				 <ele>46.5</ele>
			 </trkpt>
			 <trkpt lat="44.928147" lon="10.123911">
				 <ele>46.3</ele>
			 </trkpt>
			 <trkpt lat="44.92816" lon="10.12377">
				 <ele>45.9</ele>
			 </trkpt>
			 <trkpt lat="44.92817" lon="10.12358">
				 <ele>45.5</ele>
			 </trkpt>
			 <trkpt lat="44.92801" lon="10.12342">
				 <ele>45.2</ele>
			 </trkpt>
			 <trkpt lat="44.92791" lon="10.12334">
				 <ele>44.8</ele>
			 </trkpt>
			 <trkpt lat="44.92731" lon="10.12291">
				 <ele>44.5</ele>
			 </trkpt>
			 <trkpt lat="44.9264" lon="10.12234">
				 <ele>44.1</ele>
			 </trkpt>
			 <trkpt lat="44.92607" lon="10.12214">
				 <ele>43.8</ele>
			 </trkpt>
			 <trkpt lat="44.92607" lon="10.12194">
				 <ele>43.9</ele>
			 </trkpt>
			 <trkpt lat="44.92611" lon="10.12178">
				 <ele>43.8</ele>
			 </trkpt>
			 <trkpt lat="44.9265" lon="10.12182">
				 <ele>43.8</ele>
			 </trkpt>
			 <trkpt lat="44.92678" lon="10.12201">
				 <ele>43.7</ele>
			 </trkpt>
			 <trkpt lat="44.92737" lon="10.12243">
				 <ele>43.7</ele>
			 </trkpt>
			 <trkpt lat="44.92759" lon="10.12269">
				 <ele>43.9</ele>
			 </trkpt>
			 <trkpt lat="44.9276" lon="10.12279">
				 <ele>44.2</ele>
			 </trkpt>
			 <trkpt lat="44.92776" lon="10.12295">
				 <ele>44.7</ele>
			 </trkpt>
			 <trkpt lat="44.92789" lon="10.12312">
				 <ele>45.3</ele>
			 </trkpt>
			 <trkpt lat="44.92799" lon="10.12307">
				 <ele>45.7</ele>
			 </trkpt>
			 <trkpt lat="44.92825" lon="10.12307">
				 <ele>46</ele>
			 </trkpt>
			 <trkpt lat="44.92828" lon="10.123088">
				 <ele>46</ele>
			 </trkpt>
			 <trkpt lat="44.928652" lon="10.121841">
				 <ele>46.1</ele>
			 </trkpt>
			 <trkpt lat="44.928699" lon="10.121591">
				 <ele>46.3</ele>
			 </trkpt>
			 <trkpt lat="44.92892" lon="10.120427">
				 <ele>46.5</ele>
			 </trkpt>
			 <trkpt lat="44.929026" lon="10.119866">
				 <ele>46.3</ele>
			 </trkpt>
			 <trkpt lat="44.929128" lon="10.119267">
				 <ele>46.1</ele>
			 </trkpt>
			 <trkpt lat="44.929367" lon="10.118081">
				 <ele>45.7</ele>
			 </trkpt>
			 <trkpt lat="44.929517" lon="10.117338">
				 <ele>45.3</ele>
			 </trkpt>
			 <trkpt lat="44.929631" lon="10.116778">
				 <ele>44.7</ele>
			 </trkpt>
			 <trkpt lat="44.930046" lon="10.114793">
				 <ele>44.2</ele>
			 </trkpt>
			 <trkpt lat="44.929635" lon="10.114607">
				 <ele>43.7</ele>
			 </trkpt>
			 <trkpt lat="44.929453" lon="10.114524">
				 <ele>43.5</ele>
			 </trkpt>
			 <trkpt lat="44.92884" lon="10.11414">
				 <ele>43.4</ele>
			 </trkpt>
			 <trkpt lat="44.928147" lon="10.113928">
				 <ele>43.1</ele>
			 </trkpt>
			 <trkpt lat="44.927735" lon="10.113871">
				 <ele>42.9</ele>
			 </trkpt>
			 <trkpt lat="44.926966" lon="10.113596">
				 <ele>43.1</ele>
			 </trkpt>
			 <trkpt lat="44.925484" lon="10.113077">
				 <ele>43.2</ele>
			 </trkpt>
			 <trkpt lat="44.924857" lon="10.112919">
				 <ele>43.3</ele>
			 </trkpt>
			 <trkpt lat="44.924845" lon="10.1128">
				 <ele>43.2</ele>
			 </trkpt>
			 <trkpt lat="44.924844" lon="10.112322">
				 <ele>43.1</ele>
			 </trkpt>
			 <trkpt lat="44.924912" lon="10.111949">
				 <ele>43.1</ele>
			 </trkpt>
			 <trkpt lat="44.925098" lon="10.111119">
				 <ele>43.2</ele>
			 </trkpt>
			 <trkpt lat="44.925118" lon="10.111025">
				 <ele>43.2</ele>
			 </trkpt>
			 <trkpt lat="44.925143" lon="10.110095">
				 <ele>43.3</ele>
			 </trkpt>
			 <trkpt lat="44.925437" lon="10.108776">
				 <ele>43.5</ele>
			 </trkpt>
			 <trkpt lat="44.925525" lon="10.108547">
				 <ele>43.5</ele>
			 </trkpt>
			 <trkpt lat="44.925561" lon="10.108461">
				 <ele>43.5</ele>
			 </trkpt>
			 <trkpt lat="44.925607" lon="10.10845">
				 <ele>43.5</ele>
			 </trkpt>
			 <trkpt lat="44.925664" lon="10.108407">
				 <ele>43.4</ele>
			 </trkpt>
			 <trkpt lat="44.925694" lon="10.108365">
				 <ele>43.2</ele>
			 </trkpt>
			 <trkpt lat="44.925722" lon="10.108293">
				 <ele>43.1</ele>
			 </trkpt>
			 <trkpt lat="44.925731" lon="10.108236">
				 <ele>43</ele>
			 </trkpt>
			 <trkpt lat="44.925717" lon="10.10811">
				 <ele>43</ele>
			 </trkpt>
			 <trkpt lat="44.925668" lon="10.108017">
				 <ele>43</ele>
			 </trkpt>
			 <trkpt lat="44.925645" lon="10.107858">
				 <ele>43</ele>
			 </trkpt>
			 <trkpt lat="44.925652" lon="10.107687">
				 <ele>43</ele>
			 </trkpt>
			 <trkpt lat="44.925813" lon="10.106324">
				 <ele>43</ele>
			 </trkpt>
			 <trkpt lat="44.926161" lon="10.104605">
				 <ele>43</ele>
			 </trkpt>
			 <trkpt lat="44.92622" lon="10.10452">
				 <ele>43.2</ele>
			 </trkpt>
			 <trkpt lat="44.926527" lon="10.104389">
				 <ele>43.4</ele>
			 </trkpt>
			 <trkpt lat="44.926784" lon="10.1033">
				 <ele>43.5</ele>
			 </trkpt>
			 <trkpt lat="44.927085" lon="10.102032">
				 <ele>43.7</ele>
			 </trkpt>
			 <trkpt lat="44.927181" lon="10.101719">
				 <ele>43.9</ele>
			 </trkpt>
			 <trkpt lat="44.927307" lon="10.10145">
				 <ele>43.9</ele>
			 </trkpt>
			 <trkpt lat="44.927672" lon="10.100945">
				 <ele>43.9</ele>
			 </trkpt>
			 <trkpt lat="44.927713" lon="10.100747">
				 <ele>43.9</ele>
			 </trkpt>
			 <trkpt lat="44.927704" lon="10.100654">
				 <ele>43.8</ele>
			 </trkpt>
			 <trkpt lat="44.927649" lon="10.100587">
				 <ele>43.7</ele>
			 </trkpt>
			 <trkpt lat="44.92726" lon="10.100298">
				 <ele>43.5</ele>
			 </trkpt>
			 <trkpt lat="44.925879" lon="10.099276">
				 <ele>43.4</ele>
			 </trkpt>
			 <trkpt lat="44.9258" lon="10.09913">
				 <ele>43.1</ele>
			 </trkpt>
			 <trkpt lat="44.925776" lon="10.098993">
				 <ele>43</ele>
			 </trkpt>
			 <trkpt lat="44.925773" lon="10.098929">
				 <ele>43.1</ele>
			 </trkpt>
			 <trkpt lat="44.92574" lon="10.098296">
				 <ele>43.1</ele>
			 </trkpt>
			 <trkpt lat="44.925639" lon="10.096318">
				 <ele>43.1</ele>
			 </trkpt>
			 <trkpt lat="44.925609" lon="10.095746">
				 <ele>43.1</ele>
			 </trkpt>
			 <trkpt lat="44.925633" lon="10.095555">
				 <ele>43.1</ele>
			 </trkpt>
			 <trkpt lat="44.926157" lon="10.094177">
				 <ele>43.2</ele>
			 </trkpt>
			 <trkpt lat="44.926769" lon="10.092536">
				 <ele>43.2</ele>
			 </trkpt>
			 <trkpt lat="44.926906" lon="10.09217">
				 <ele>43.3</ele>
			 </trkpt>
			 <trkpt lat="44.926911" lon="10.092081">
				 <ele>43.3</ele>
			 </trkpt>
			 <trkpt lat="44.926887" lon="10.092014">
				 <ele>43.4</ele>
			 </trkpt>
			 <trkpt lat="44.926816" lon="10.091902">
				 <ele>43.4</ele>
			 </trkpt>
			 <trkpt lat="44.926648" lon="10.091729">
				 <ele>43</ele>
			 </trkpt>
			 <trkpt lat="44.925229" lon="10.090277">
				 <ele>42.8</ele>
			 </trkpt>
			 <trkpt lat="44.925112" lon="10.0901">
				 <ele>42.8</ele>
			 </trkpt>
			 <trkpt lat="44.925616" lon="10.089481">
				 <ele>42.8</ele>
			 </trkpt>
			 <trkpt lat="44.926106" lon="10.08888">
				 <ele>42.7</ele>
			 </trkpt>
			 <trkpt lat="44.928414" lon="10.08605">
				 <ele>42.5</ele>
			 </trkpt>
			 <trkpt lat="44.929697" lon="10.084496">
				 <ele>42.5</ele>
			 </trkpt>
			 <trkpt lat="44.929934" lon="10.084249">
				 <ele>42.3</ele>
			 </trkpt>
			 <trkpt lat="44.93012" lon="10.084111">
				 <ele>42.1</ele>
			 </trkpt>
			 <trkpt lat="44.930311" lon="10.084033">
				 <ele>41.8</ele>
			 </trkpt>
			 <trkpt lat="44.930446" lon="10.083926">
				 <ele>41.6</ele>
			 </trkpt>
			 <trkpt lat="44.930766" lon="10.083415">
				 <ele>41.6</ele>
			 </trkpt>
			 <trkpt lat="44.931094" lon="10.082856">
				 <ele>41.5</ele>
			 </trkpt>
			 <trkpt lat="44.931571" lon="10.082139">
				 <ele>41.5</ele>
			 </trkpt>
			 <trkpt lat="44.931998" lon="10.081627">
				 <ele>41.4</ele>
			 </trkpt>
			 <trkpt lat="44.932723" lon="10.080793">
				 <ele>41.4</ele>
			 </trkpt>
			 <trkpt lat="44.933109" lon="10.080401">
				 <ele>41.4</ele>
			 </trkpt>
			 <trkpt lat="44.933618" lon="10.07998">
				 <ele>41.4</ele>
			 </trkpt>
			 <trkpt lat="44.933736" lon="10.079861">
				 <ele>41.5</ele>
			 </trkpt>
			 <trkpt lat="44.933837" lon="10.07973">
				 <ele>41.5</ele>
			 </trkpt>
			 <trkpt lat="44.934594" lon="10.07847">
				 <ele>41.7</ele>
			 </trkpt>
			 <trkpt lat="44.934805" lon="10.078161">
				 <ele>41.8</ele>
			 </trkpt>
			 <trkpt lat="44.934987" lon="10.077954">
				 <ele>41.9</ele>
			 </trkpt>
			 <trkpt lat="44.935663" lon="10.077079">
				 <ele>42</ele>
			 </trkpt>
			 <trkpt lat="44.938061" lon="10.074096">
				 <ele>41.9</ele>
			 </trkpt>
			 <trkpt lat="44.939046" lon="10.072931">
				 <ele>42</ele>
			 </trkpt>
			 <trkpt lat="44.939264" lon="10.072682">
				 <ele>41.8</ele>
			 </trkpt>
			 <trkpt lat="44.939399" lon="10.072527">
				 <ele>41.7</ele>
			 </trkpt>
			 <trkpt lat="44.940109" lon="10.071623">
				 <ele>41.6</ele>
			 </trkpt>
			 <trkpt lat="44.94104" lon="10.070459">
				 <ele>41.5</ele>
			 </trkpt>
			 <trkpt lat="44.941758" lon="10.06966">
				 <ele>41.5</ele>
			 </trkpt>
			 <trkpt lat="44.944894" lon="10.065798">
				 <ele>41.3</ele>
			 </trkpt>
			 <trkpt lat="44.945697" lon="10.064823">
				 <ele>41.1</ele>
			 </trkpt>
			 <trkpt lat="44.945778" lon="10.064783">
				 <ele>40.9</ele>
			 </trkpt>
			 <trkpt lat="44.945861" lon="10.064784">
				 <ele>40.6</ele>
			 </trkpt>
			 <trkpt lat="44.94597" lon="10.064847">
				 <ele>40.5</ele>
			 </trkpt>
			 <trkpt lat="44.946727" lon="10.065235">
				 <ele>40.2</ele>
			 </trkpt>
			 <trkpt lat="44.946929" lon="10.065338">
				 <ele>40.2</ele>
			 </trkpt>
			 <trkpt lat="44.947598" lon="10.06568">
				 <ele>40.1</ele>
			 </trkpt>
			 <trkpt lat="44.947725" lon="10.065759">
				 <ele>40</ele>
			 </trkpt>
			 <trkpt lat="44.94831" lon="10.066122">
				 <ele>40</ele>
			 </trkpt>
			 <trkpt lat="44.948896" lon="10.066489">
				 <ele>40.1</ele>
			 </trkpt>
			 <trkpt lat="44.948953" lon="10.066525">
				 <ele>40.3</ele>
			 </trkpt>
			 <trkpt lat="44.949312" lon="10.066674">
				 <ele>40.5</ele>
			 </trkpt>
			 <trkpt lat="44.949408" lon="10.066692">
				 <ele>40.7</ele>
			 </trkpt>
			 <trkpt lat="44.949716" lon="10.066751">
				 <ele>40.9</ele>
			 </trkpt>
			 <trkpt lat="44.949991" lon="10.066826">
				 <ele>41.1</ele>
			 </trkpt>
			 <trkpt lat="44.950204" lon="10.066914">
				 <ele>41.2</ele>
			 </trkpt>
			 <trkpt lat="44.950608" lon="10.067126">
				 <ele>41.3</ele>
			 </trkpt>
			 <trkpt lat="44.950667" lon="10.06719">
				 <ele>41.4</ele>
			 </trkpt>
			 <trkpt lat="44.949874" lon="10.070195">
				 <ele>41.5</ele>
			 </trkpt>
			 <trkpt lat="44.949865" lon="10.070338">
				 <ele>41.5</ele>
			 </trkpt>
			 <trkpt lat="44.949893" lon="10.070448">
				 <ele>41.4</ele>
			 </trkpt>
			 <trkpt lat="44.949924" lon="10.070531">
				 <ele>41.4</ele>
			 </trkpt>
			 <trkpt lat="44.950067" lon="10.070689">
				 <ele>41.3</ele>
			 </trkpt>
			 <trkpt lat="44.950794" lon="10.071157">
				 <ele>41.3</ele>
			 </trkpt>
			 <trkpt lat="44.951519" lon="10.071752">
				 <ele>41.4</ele>
			 </trkpt>
			 <trkpt lat="44.951767" lon="10.071917">
				 <ele>41.5</ele>
			 </trkpt>
			 <trkpt lat="44.952029" lon="10.072095">
				 <ele>41.5</ele>
			 </trkpt>
			 <trkpt lat="44.952164" lon="10.072204">
				 <ele>41.5</ele>
			 </trkpt>
			 <trkpt lat="44.952309" lon="10.072306">
				 <ele>41.4</ele>
			 </trkpt>
			 <trkpt lat="44.952252" lon="10.07245">
				 <ele>41.2</ele>
			 </trkpt>
			 <trkpt lat="44.952345" lon="10.072542">
				 <ele>41</ele>
			 </trkpt>
			 <trkpt lat="44.95273" lon="10.07277">
				 <ele>40.8</ele>
			 </trkpt>
			 <trkpt lat="44.9529" lon="10.07287">
				 <ele>40.5</ele>
			 </trkpt>
			 <trkpt lat="44.952944" lon="10.072904">
				 <ele>40.2</ele>
			 </trkpt>
			 <trkpt lat="44.95339" lon="10.073162">
				 <ele>39.8</ele>
			 </trkpt>
			 <trkpt lat="44.953652" lon="10.073314">
				 <ele>39.5</ele>
			 </trkpt>
			 <trkpt lat="44.953723" lon="10.073369">
				 <ele>39.3</ele>
			 </trkpt>
			 <trkpt lat="44.953743" lon="10.07347">
				 <ele>39.1</ele>
			 </trkpt>
			 <trkpt lat="44.953626" lon="10.073893">
				 <ele>39</ele>
			 </trkpt>
			 <trkpt lat="44.955149" lon="10.074731">
				 <ele>38.7</ele>
			 </trkpt>
			 <trkpt lat="44.955923" lon="10.075116">
				 <ele>38.5</ele>
			 </trkpt>
			 <trkpt lat="44.955988" lon="10.075159">
				 <ele>38</ele>
			 </trkpt>
			 <trkpt lat="44.956853" lon="10.075587">
				 <ele>37.5</ele>
			 </trkpt>
			 <trkpt lat="44.958244" lon="10.076275">
				 <ele>37.1</ele>
			 </trkpt>
			 <trkpt lat="44.960414" lon="10.077415">
				 <ele>36.6</ele>
			 </trkpt>
			 <trkpt lat="44.961831" lon="10.07815">
				 <ele>36.4</ele>
			 </trkpt>
			 <trkpt lat="44.962184" lon="10.078337">
				 <ele>36</ele>
			 </trkpt>
			 <trkpt lat="44.964424" lon="10.079522">
				 <ele>35.5</ele>
			 </trkpt>
			 <trkpt lat="44.964635" lon="10.079697">
				 <ele>35.1</ele>
			 </trkpt>
			 <trkpt lat="44.966084" lon="10.080948">
				 <ele>34.5</ele>
			 </trkpt>
			 <trkpt lat="44.967661" lon="10.082357">
				 <ele>34.3</ele>
			 </trkpt>
			 <trkpt lat="44.967715" lon="10.082235">
				 <ele>34.2</ele>
			 </trkpt>
			 <trkpt lat="44.968063" lon="10.081745">
				 <ele>34.3</ele>
			 </trkpt>
			 <trkpt lat="44.968686" lon="10.080872">
				 <ele>34.4</ele>
			 </trkpt>
			 <trkpt lat="44.968747" lon="10.080739">
				 <ele>34.8</ele>
			 </trkpt>
			 <trkpt lat="44.968776" lon="10.080599">
				 <ele>35.2</ele>
			 </trkpt>
			 <trkpt lat="44.968771" lon="10.080413">
				 <ele>35.5</ele>
			 </trkpt>
			 <trkpt lat="44.968441" lon="10.079163">
				 <ele>35.5</ele>
			 </trkpt>
			 <trkpt lat="44.968371" lon="10.078851">
				 <ele>35.7</ele>
			 </trkpt>
			 <trkpt lat="44.967722" lon="10.07532">
				 <ele>35.9</ele>
			 </trkpt>
			 <trkpt lat="44.967703" lon="10.075101">
				 <ele>36.1</ele>
			 </trkpt>
			 <trkpt lat="44.967694" lon="10.074795">
				 <ele>36.3</ele>
			 </trkpt>
			 <trkpt lat="44.967694" lon="10.074217">
				 <ele>36.4</ele>
			 </trkpt>
			 <trkpt lat="44.967796" lon="10.07275">
				 <ele>36.4</ele>
			 </trkpt>
			 <trkpt lat="44.967778" lon="10.072451">
				 <ele>36.5</ele>
			 </trkpt>
			 <trkpt lat="44.96775" lon="10.072165">
				 <ele>36.4</ele>
			 </trkpt>
			 <trkpt lat="44.967585" lon="10.071386">
				 <ele>36.4</ele>
			 </trkpt>
			 <trkpt lat="44.967566" lon="10.071165">
				 <ele>36.3</ele>
			 </trkpt>
			 <trkpt lat="44.967594" lon="10.070879">
				 <ele>36.4</ele>
			 </trkpt>
			 <trkpt lat="44.967952" lon="10.06932">
				 <ele>36.6</ele>
			 </trkpt>
			 <trkpt lat="44.96809" lon="10.068657">
				 <ele>36.5</ele>
			 </trkpt>
			 <trkpt lat="44.968256" lon="10.067948">
				 <ele>36.5</ele>
			 </trkpt>
			 <trkpt lat="44.968356" lon="10.067558">
				 <ele>36.5</ele>
			 </trkpt>
			 <trkpt lat="44.968816" lon="10.065942">
				 <ele>36.5</ele>
			 </trkpt>
			 <trkpt lat="44.969004" lon="10.065338">
				 <ele>36.7</ele>
			 </trkpt>
			 <trkpt lat="44.969161" lon="10.06477">
				 <ele>36.8</ele>
			 </trkpt>
			 <trkpt lat="44.96923" lon="10.064638">
				 <ele>37.1</ele>
			 </trkpt>
			 <trkpt lat="44.969303" lon="10.064485">
				 <ele>37.3</ele>
			 </trkpt>
			 <trkpt lat="44.969339" lon="10.064386">
				 <ele>37.5</ele>
			 </trkpt>
			 <trkpt lat="44.970664" lon="10.061925">
				 <ele>37.5</ele>
			 </trkpt>
			 <trkpt lat="44.971727" lon="10.059839">
				 <ele>37.4</ele>
			 </trkpt>
			 <trkpt lat="44.971971" lon="10.059378">
				 <ele>37.6</ele>
			 </trkpt>
			 <trkpt lat="44.972401" lon="10.058567">
				 <ele>38</ele>
			 </trkpt>
			 <trkpt lat="44.972539" lon="10.058288">
				 <ele>38.4</ele>
			 </trkpt>
			 <trkpt lat="44.974452" lon="10.054431">
				 <ele>38.7</ele>
			 </trkpt>
			 <trkpt lat="44.974877" lon="10.053575">
				 <ele>39</ele>
			 </trkpt>
			 <trkpt lat="44.975084" lon="10.053059">
				 <ele>39.4</ele>
			 </trkpt>
			 <trkpt lat="44.975516" lon="10.051656">
				 <ele>39.5</ele>
			 </trkpt>
			 <trkpt lat="44.975638" lon="10.051253">
				 <ele>39.5</ele>
			 </trkpt>
			 <trkpt lat="44.975972" lon="10.050187">
				 <ele>39.6</ele>
			 </trkpt>
			 <trkpt lat="44.975998" lon="10.050177">
				 <ele>40</ele>
			 </trkpt>
			 <trkpt lat="44.976422" lon="10.05039">
				 <ele>40.4</ele>
			 </trkpt>
			 <trkpt lat="44.97684" lon="10.0506">
				 <ele>40.6</ele>
			 </trkpt>
			 <trkpt lat="44.97695" lon="10.05019">
				 <ele>40.8</ele>
			 </trkpt>
			 <trkpt lat="44.97812" lon="10.0461">
				 <ele>41.1</ele>
			 </trkpt>
			 <trkpt lat="44.97827" lon="10.04556">
				 <ele>41.4</ele>
			 </trkpt>
			 <trkpt lat="44.97911" lon="10.04246">
				 <ele>41.5</ele>
			 </trkpt>
			 <trkpt lat="44.97932" lon="10.04156">
				 <ele>41.6</ele>
			 </trkpt>
			 <trkpt lat="44.97948" lon="10.04163">
				 <ele>41.7</ele>
			 </trkpt>
			 <trkpt lat="44.97971" lon="10.04177">
				 <ele>41.8</ele>
			 </trkpt>
			 <trkpt lat="44.98034" lon="10.04213">
				 <ele>41.9</ele>
			 </trkpt>
			 <trkpt lat="44.98093" lon="10.04254">
				 <ele>42</ele>
			 </trkpt>
		 </trkseg>
	 </trk>
</gpx>