<?xml version="1.0" encoding="UTF-8"?>
 <gpx creator="Garmin Connect" version="1.1"
	 xsi:schemaLocation="http://www.topografix.com/GPX/1/1 http://www.topografix.com/GPX/11.xsd"
	 xmlns:ns3="http://www.garmin.com/xmlschemas/TrackPointExtension/v1"
	 xmlns="http://www.topografix.com/GPX/1/1"
	 xmlns:xsi="http://www.w3.org/2001/XMLSchema-instance" xmlns:ns2="http://www.garmin.com/xmlschemas/GpxExtensions/v3">
	 <metadata>
		<name>Zürich Marathon 2025 - 42.195 km</name>
		 <link href="https://www.goandrace.com">
		 <text>Garmin Connect</text>
		 </link>
	 <time>2026-08-09T18:04:33</time>
	 </metadata>
	 <trk>
		 <name>Zürich Marathon 2025 - 42.195 km</name>
		 <trkseg>
			 <trkpt lat="47.366848" lon="8.543322">
				 <ele>408.2</ele>
			 </trkpt>
			 <trkpt lat="47.36686" lon="8.54332">
				 <ele>408.3</ele>
			 </trkpt>
			 <trkpt lat="47.36697" lon="8.54396">
				 <ele>408.3</ele>
			 </trkpt>
			 <trkpt lat="47.36697" lon="8.54412">
				 <ele>408.2</ele>
			 </trkpt>
			 <trkpt lat="47.36694" lon="8.54429">
				 <ele>408.2</ele>
			 </trkpt>
			 <trkpt lat="47.3669" lon="8.5444">
				 <ele>408.2</ele>
			 </trkpt>
			 <trkpt lat="47.36683" lon="8.54451">
				 <ele>408.4</ele>
			 </trkpt>
			 <trkpt lat="47.36669" lon="8.54466">
				 <ele>408.5</ele>
			 </trkpt>
			 <trkpt lat="47.36646" lon="8.54486">
				 <ele>408.4</ele>
			 </trkpt>
			 <trkpt lat="47.36621" lon="8.54502">
				 <ele>408.3</ele>
			 </trkpt>
			 <trkpt lat="47.36617" lon="8.54509">
				 <ele>408.2</ele>
			 </trkpt>
			 <trkpt lat="47.36542" lon="8.54553">
				 <ele>408</ele>
			 </trkpt>
			 <trkpt lat="47.36542" lon="8.54553">
				 <ele>407.8</ele>
			 </trkpt>
			 <trkpt lat="47.36501" lon="8.54579">
				 <ele>407.8</ele>
			 </trkpt>
			 <trkpt lat="47.36438" lon="8.54618">
				 <ele>407.7</ele>
			 </trkpt>
			 <trkpt lat="47.36438" lon="8.54618">
				 <ele>407.6</ele>
			 </trkpt>
			 <trkpt lat="47.36297" lon="8.547">
				 <ele>407.6</ele>
			 </trkpt>
			 <trkpt lat="47.36169" lon="8.54775">
				 <ele>407.6</ele>
			 </trkpt>
			 <trkpt lat="47.3612" lon="8.54804">
				 <ele>407.6</ele>
			 </trkpt>
			 <trkpt lat="47.36075" lon="8.54831">
				 <ele>407.7</ele>
			 </trkpt>
			 <trkpt lat="47.36027" lon="8.54867">
				 <ele>407.9</ele>
			 </trkpt>
			 <trkpt lat="47.35991" lon="8.54893">
				 <ele>408.1</ele>
			 </trkpt>
			 <trkpt lat="47.35987" lon="8.54896">
				 <ele>408.4</ele>
			 </trkpt>
			 <trkpt lat="47.35987" lon="8.54896">
				 <ele>408.6</ele>
			 </trkpt>
			 <trkpt lat="47.35847" lon="8.54997">
				 <ele>408.8</ele>
			 </trkpt>
			 <trkpt lat="47.35655" lon="8.55137">
				 <ele>409</ele>
			 </trkpt>
			 <trkpt lat="47.3556" lon="8.55207">
				 <ele>409.2</ele>
			 </trkpt>
			 <trkpt lat="47.35494" lon="8.55256">
				 <ele>409.2</ele>
			 </trkpt>
			 <trkpt lat="47.35448" lon="8.55298">
				 <ele>409.2</ele>
			 </trkpt>
			 <trkpt lat="47.35414" lon="8.55342">
				 <ele>409.2</ele>
			 </trkpt>
			 <trkpt lat="47.35384" lon="8.55393">
				 <ele>409.1</ele>
			 </trkpt>
			 <trkpt lat="47.35374" lon="8.55416">
				 <ele>408.9</ele>
			 </trkpt>
			 <trkpt lat="47.35357" lon="8.55461">
				 <ele>408.7</ele>
			 </trkpt>
			 <trkpt lat="47.35347" lon="8.55496">
				 <ele>408.5</ele>
			 </trkpt>
			 <trkpt lat="47.35328" lon="8.55583">
				 <ele>408.4</ele>
			 </trkpt>
			 <trkpt lat="47.35328" lon="8.55583">
				 <ele>408.2</ele>
			 </trkpt>
			 <trkpt lat="47.35315" lon="8.5564">
				 <ele>408.1</ele>
			 </trkpt>
			 <trkpt lat="47.35302" lon="8.55681">
				 <ele>408</ele>
			 </trkpt>
			 <trkpt lat="47.35302" lon="8.55682">
				 <ele>408</ele>
			 </trkpt>
			 <trkpt lat="47.35329" lon="8.55674">
				 <ele>408</ele>
			 </trkpt>
			 <trkpt lat="47.35337" lon="8.55667">
				 <ele>408.2</ele>
			 </trkpt>
			 <trkpt lat="47.3535" lon="8.55656">
				 <ele>408.5</ele>
			 </trkpt>
			 <trkpt lat="47.35367" lon="8.55632">
				 <ele>408.7</ele>
			 </trkpt>
			 <trkpt lat="47.35378" lon="8.55619">
				 <ele>409.1</ele>
			 </trkpt>
			 <trkpt lat="47.35381" lon="8.55624">
				 <ele>409.5</ele>
			 </trkpt>
			 <trkpt lat="47.35451" lon="8.55538">
				 <ele>409.8</ele>
			 </trkpt>
			 <trkpt lat="47.3549" lon="8.55491">
				 <ele>410.2</ele>
			 </trkpt>
			 <trkpt lat="47.3549" lon="8.55491">
				 <ele>410.5</ele>
			 </trkpt>
			 <trkpt lat="47.35523" lon="8.55453">
				 <ele>410.9</ele>
			 </trkpt>
			 <trkpt lat="47.35534" lon="8.55443">
				 <ele>411.3</ele>
			 </trkpt>
			 <trkpt lat="47.3559" lon="8.55398">
				 <ele>411.4</ele>
			 </trkpt>
			 <trkpt lat="47.35652" lon="8.55347">
				 <ele>411.2</ele>
			 </trkpt>
			 <trkpt lat="47.35652" lon="8.55347">
				 <ele>410.9</ele>
			 </trkpt>
			 <trkpt lat="47.35828" lon="8.55208">
				 <ele>410.6</ele>
			 </trkpt>
			 <trkpt lat="47.35828" lon="8.55208">
				 <ele>410.3</ele>
			 </trkpt>
			 <trkpt lat="47.36035" lon="8.55045">
				 <ele>409.9</ele>
			 </trkpt>
			 <trkpt lat="47.3611" lon="8.54988">
				 <ele>409.5</ele>
			 </trkpt>
			 <trkpt lat="47.36153" lon="8.54952">
				 <ele>409.2</ele>
			 </trkpt>
			 <trkpt lat="47.36182" lon="8.54929">
				 <ele>408.8</ele>
			 </trkpt>
			 <trkpt lat="47.36182" lon="8.54929">
				 <ele>408.5</ele>
			 </trkpt>
			 <trkpt lat="47.36276" lon="8.54855">
				 <ele>408.1</ele>
			 </trkpt>
			 <trkpt lat="47.36292" lon="8.54842">
				 <ele>408</ele>
			 </trkpt>
			 <trkpt lat="47.36292" lon="8.54842">
				 <ele>408.1</ele>
			 </trkpt>
			 <trkpt lat="47.36412" lon="8.54748">
				 <ele>408.2</ele>
			 </trkpt>
			 <trkpt lat="47.364584" lon="8.547116">
				 <ele>408.2</ele>
			 </trkpt>
			 <trkpt lat="47.364322" lon="8.546172">
				 <ele>408</ele>
			 </trkpt>
			 <trkpt lat="47.366475" lon="8.54497">
				 <ele>408.1</ele>
			 </trkpt>
			 <trkpt lat="47.36691" lon="8.544561">
				 <ele>408.1</ele>
			 </trkpt>
			 <trkpt lat="47.367027" lon="8.544207">
				 <ele>408.1</ele>
			 </trkpt>
			 <trkpt lat="47.367034" lon="8.543842">
				 <ele>408.1</ele>
			 </trkpt>
			 <trkpt lat="47.366878" lon="8.542668">
				 <ele>408.1</ele>
			 </trkpt>
			 <trkpt lat="47.36674" lon="8.541917">
				 <ele>408.2</ele>
			 </trkpt>
			 <trkpt lat="47.366609" lon="8.541144">
				 <ele>408.3</ele>
			 </trkpt>
			 <trkpt lat="47.366565" lon="8.540726">
				 <ele>408.3</ele>
			 </trkpt>
			 <trkpt lat="47.366638" lon="8.540372">
				 <ele>408.3</ele>
			 </trkpt>
			 <trkpt lat="47.367757" lon="8.539964">
				 <ele>408.4</ele>
			 </trkpt>
			 <trkpt lat="47.368978" lon="8.539546">
				 <ele>408.7</ele>
			 </trkpt>
			 <trkpt lat="47.369672" lon="8.539356">
				 <ele>408.8</ele>
			 </trkpt>
			 <trkpt lat="47.36967" lon="8.53937">
				 <ele>409</ele>
			 </trkpt>
			 <trkpt lat="47.36995" lon="8.53936">
				 <ele>409.2</ele>
			 </trkpt>
			 <trkpt lat="47.37013" lon="8.5393">
				 <ele>409.4</ele>
			 </trkpt>
			 <trkpt lat="47.37059" lon="8.53902">
				 <ele>409.5</ele>
			 </trkpt>
			 <trkpt lat="47.37094" lon="8.53889">
				 <ele>409.6</ele>
			 </trkpt>
			 <trkpt lat="47.37094" lon="8.53889">
				 <ele>409.7</ele>
			 </trkpt>
			 <trkpt lat="47.37109" lon="8.53885">
				 <ele>409.9</ele>
			 </trkpt>
			 <trkpt lat="47.37156" lon="8.53866">
				 <ele>410.1</ele>
			 </trkpt>
			 <trkpt lat="47.37168" lon="8.53864">
				 <ele>410.3</ele>
			 </trkpt>
			 <trkpt lat="47.3718" lon="8.53853">
				 <ele>410.4</ele>
			 </trkpt>
			 <trkpt lat="47.37222" lon="8.53838">
				 <ele>410.5</ele>
			 </trkpt>
			 <trkpt lat="47.373393" lon="8.538263">
				 <ele>410.5</ele>
			 </trkpt>
			 <trkpt lat="47.373858" lon="8.538263">
				 <ele>410.5</ele>
			 </trkpt>
			 <trkpt lat="47.373872" lon="8.538145">
				 <ele>410.5</ele>
			 </trkpt>
			 <trkpt lat="47.373836" lon="8.537437">
				 <ele>410.5</ele>
			 </trkpt>
			 <trkpt lat="47.373763" lon="8.537169">
				 <ele>410.6</ele>
			 </trkpt>
			 <trkpt lat="47.373611" lon="8.537051">
				 <ele>410.7</ele>
			 </trkpt>
			 <trkpt lat="47.373197" lon="8.536933">
				 <ele>410.7</ele>
			 </trkpt>
			 <trkpt lat="47.373095" lon="8.536675">
				 <ele>410.7</ele>
			 </trkpt>
			 <trkpt lat="47.372717" lon="8.535259">
				 <ele>410.7</ele>
			 </trkpt>
			 <trkpt lat="47.372623" lon="8.534658">
				 <ele>410.7</ele>
			 </trkpt>
			 <trkpt lat="47.372456" lon="8.534358">
				 <ele>410.7</ele>
			 </trkpt>
			 <trkpt lat="47.372085" lon="8.534219">
				 <ele>410.7</ele>
			 </trkpt>
			 <trkpt lat="47.37209" lon="8.53419">
				 <ele>410.7</ele>
			 </trkpt>
			 <trkpt lat="47.37193" lon="8.53416">
				 <ele>410.7</ele>
			 </trkpt>
			 <trkpt lat="47.37179" lon="8.53416">
				 <ele>410.7</ele>
			 </trkpt>
			 <trkpt lat="47.37167" lon="8.53423">
				 <ele>410.5</ele>
			 </trkpt>
			 <trkpt lat="47.3715" lon="8.53439">
				 <ele>410.4</ele>
			 </trkpt>
			 <trkpt lat="47.37114" lon="8.53475">
				 <ele>410.2</ele>
			 </trkpt>
			 <trkpt lat="47.37095" lon="8.53495">
				 <ele>410</ele>
			 </trkpt>
			 <trkpt lat="47.37075" lon="8.53524">
				 <ele>409.8</ele>
			 </trkpt>
			 <trkpt lat="47.36991" lon="8.5366">
				 <ele>409.6</ele>
			 </trkpt>
			 <trkpt lat="47.36991" lon="8.5366">
				 <ele>409.5</ele>
			 </trkpt>
			 <trkpt lat="47.36928" lon="8.53763">
				 <ele>409.3</ele>
			 </trkpt>
			 <trkpt lat="47.36904" lon="8.538">
				 <ele>409.1</ele>
			 </trkpt>
			 <trkpt lat="47.36888" lon="8.53815">
				 <ele>408.9</ele>
			 </trkpt>
			 <trkpt lat="47.36851" lon="8.53848">
				 <ele>408.7</ele>
			 </trkpt>
			 <trkpt lat="47.36789" lon="8.53906">
				 <ele>408.6</ele>
			 </trkpt>
			 <trkpt lat="47.367753" lon="8.539136">
				 <ele>408.5</ele>
			 </trkpt>
			 <trkpt lat="47.367556" lon="8.538031">
				 <ele>408.5</ele>
			 </trkpt>
			 <trkpt lat="47.366707" lon="8.53544">
				 <ele>408.4</ele>
			 </trkpt>
			 <trkpt lat="47.36606" lon="8.533502">
				 <ele>408.3</ele>
			 </trkpt>
			 <trkpt lat="47.365108" lon="8.534189">
				 <ele>408.2</ele>
			 </trkpt>
			 <trkpt lat="47.363953" lon="8.534983">
				 <ele>408.1</ele>
			 </trkpt>
			 <trkpt lat="47.363692" lon="8.535111">
				 <ele>408</ele>
			 </trkpt>
			 <trkpt lat="47.363576" lon="8.534854">
				 <ele>408</ele>
			 </trkpt>
			 <trkpt lat="47.363321" lon="8.533642">
				 <ele>408</ele>
			 </trkpt>
			 <trkpt lat="47.362486" lon="8.533899">
				 <ele>408</ele>
			 </trkpt>
			 <trkpt lat="47.36248" lon="8.53388">
				 <ele>408.1</ele>
			 </trkpt>
			 <trkpt lat="47.36191" lon="8.534">
				 <ele>408.1</ele>
			 </trkpt>
			 <trkpt lat="47.36108" lon="8.53412">
				 <ele>408.1</ele>
			 </trkpt>
			 <trkpt lat="47.36108" lon="8.53412">
				 <ele>408.1</ele>
			 </trkpt>
			 <trkpt lat="47.3605" lon="8.53422">
				 <ele>408.1</ele>
			 </trkpt>
			 <trkpt lat="47.3603" lon="8.53425">
				 <ele>408.1</ele>
			 </trkpt>
			 <trkpt lat="47.36031" lon="8.53471">
				 <ele>408.1</ele>
			 </trkpt>
			 <trkpt lat="47.360347" lon="8.535475">
				 <ele>408.1</ele>
			 </trkpt>
			 <trkpt lat="47.361547" lon="8.535378">
				 <ele>408.1</ele>
			 </trkpt>
			 <trkpt lat="47.362493" lon="8.535303">
				 <ele>408.1</ele>
			 </trkpt>
			 <trkpt lat="47.363521" lon="8.535206">
				 <ele>408.1</ele>
			 </trkpt>
			 <trkpt lat="47.363976" lon="8.535967">
				 <ele>408</ele>
			 </trkpt>
			 <trkpt lat="47.364546" lon="8.537185">
				 <ele>408</ele>
			 </trkpt>
			 <trkpt lat="47.365409" lon="8.538932">
				 <ele>408</ele>
			 </trkpt>
			 <trkpt lat="47.365925" lon="8.539967">
				 <ele>408</ele>
			 </trkpt>
			 <trkpt lat="47.36594" lon="8.53995">
				 <ele>408</ele>
			 </trkpt>
			 <trkpt lat="47.36599" lon="8.54005">
				 <ele>408</ele>
			 </trkpt>
			 <trkpt lat="47.36607" lon="8.5402">
				 <ele>408</ele>
			 </trkpt>
			 <trkpt lat="47.3661" lon="8.54035">
				 <ele>408.1</ele>
			 </trkpt>
			 <trkpt lat="47.36627" lon="8.54074">
				 <ele>408.2</ele>
			 </trkpt>
			 <trkpt lat="47.36634" lon="8.54097">
				 <ele>408.2</ele>
			 </trkpt>
			 <trkpt lat="47.36641" lon="8.54137">
				 <ele>408</ele>
			 </trkpt>
			 <trkpt lat="47.36641" lon="8.54137">
				 <ele>408.2</ele>
			 </trkpt>
			 <trkpt lat="47.36649" lon="8.54178">
				 <ele>408.3</ele>
			 </trkpt>
			 <trkpt lat="47.3666" lon="8.54207">
				 <ele>408.4</ele>
			 </trkpt>
			 <trkpt lat="47.36667" lon="8.54226">
				 <ele>408.5</ele>
			 </trkpt>
			 <trkpt lat="47.36684" lon="8.5432">
				 <ele>408.5</ele>
			 </trkpt>
			 <trkpt lat="47.36697" lon="8.54396">
				 <ele>408.6</ele>
			 </trkpt>
			 <trkpt lat="47.36697" lon="8.54412">
				 <ele>408.7</ele>
			 </trkpt>
			 <trkpt lat="47.36696" lon="8.54415">
				 <ele>408.6</ele>
			 </trkpt>
			 <trkpt lat="47.36696" lon="8.54415">
				 <ele>408.5</ele>
			 </trkpt>
			 <trkpt lat="47.36694" lon="8.54429">
				 <ele>408.5</ele>
			 </trkpt>
			 <trkpt lat="47.3669" lon="8.5444">
				 <ele>408.7</ele>
			 </trkpt>
			 <trkpt lat="47.36683" lon="8.54451">
				 <ele>408.5</ele>
			 </trkpt>
			 <trkpt lat="47.36669" lon="8.54466">
				 <ele>408.5</ele>
			 </trkpt>
			 <trkpt lat="47.36646" lon="8.54486">
				 <ele>408.4</ele>
			 </trkpt>
			 <trkpt lat="47.36621" lon="8.54502">
				 <ele>408.2</ele>
			 </trkpt>
			 <trkpt lat="47.36617" lon="8.54509">
				 <ele>408</ele>
			 </trkpt>
			 <trkpt lat="47.36528" lon="8.54561">
				 <ele>407.9</ele>
			 </trkpt>
			 <trkpt lat="47.36487" lon="8.54588">
				 <ele>407.9</ele>
			 </trkpt>
			 <trkpt lat="47.36487" lon="8.54588">
				 <ele>408</ele>
			 </trkpt>
			 <trkpt lat="47.36203" lon="8.54755">
				 <ele>408.2</ele>
			 </trkpt>
			 <trkpt lat="47.36075" lon="8.54831">
				 <ele>408.4</ele>
			 </trkpt>
			 <trkpt lat="47.35971" lon="8.54908">
				 <ele>408.5</ele>
			 </trkpt>
			 <trkpt lat="47.35839" lon="8.55003">
				 <ele>408.7</ele>
			 </trkpt>
			 <trkpt lat="47.35839" lon="8.55003">
				 <ele>408.9</ele>
			 </trkpt>
			 <trkpt lat="47.35636" lon="8.55151">
				 <ele>409.1</ele>
			 </trkpt>
			 <trkpt lat="47.35588" lon="8.55185">
				 <ele>409.3</ele>
			 </trkpt>
			 <trkpt lat="47.35529" lon="8.55229">
				 <ele>409.5</ele>
			 </trkpt>
			 <trkpt lat="47.3547" lon="8.55276">
				 <ele>409.5</ele>
			 </trkpt>
			 <trkpt lat="47.35443" lon="8.55304">
				 <ele>409.4</ele>
			 </trkpt>
			 <trkpt lat="47.35407" lon="8.55353">
				 <ele>409.3</ele>
			 </trkpt>
			 <trkpt lat="47.35381" lon="8.55399">
				 <ele>409.1</ele>
			 </trkpt>
			 <trkpt lat="47.35371" lon="8.55424">
				 <ele>408.9</ele>
			 </trkpt>
			 <trkpt lat="47.35354" lon="8.55472">
				 <ele>408.7</ele>
			 </trkpt>
			 <trkpt lat="47.35318" lon="8.55629">
				 <ele>408.5</ele>
			 </trkpt>
			 <trkpt lat="47.3531" lon="8.55655">
				 <ele>408.4</ele>
			 </trkpt>
			 <trkpt lat="47.35292" lon="8.55705">
				 <ele>408.1</ele>
			 </trkpt>
			 <trkpt lat="47.35274" lon="8.55742">
				 <ele>407.9</ele>
			 </trkpt>
			 <trkpt lat="47.35264" lon="8.55759">
				 <ele>407.7</ele>
			 </trkpt>
			 <trkpt lat="47.35201" lon="8.55848">
				 <ele>407.6</ele>
			 </trkpt>
			 <trkpt lat="47.35157" lon="8.55916">
				 <ele>407.5</ele>
			 </trkpt>
			 <trkpt lat="47.35131" lon="8.55952">
				 <ele>407.3</ele>
			 </trkpt>
			 <trkpt lat="47.35099" lon="8.55987">
				 <ele>407.1</ele>
			 </trkpt>
			 <trkpt lat="47.35059" lon="8.56029">
				 <ele>407</ele>
			 </trkpt>
			 <trkpt lat="47.35059" lon="8.56029">
				 <ele>406.9</ele>
			 </trkpt>
			 <trkpt lat="47.35032" lon="8.56055">
				 <ele>406.9</ele>
			 </trkpt>
			 <trkpt lat="47.35009" lon="8.56082">
				 <ele>406.8</ele>
			 </trkpt>
			 <trkpt lat="47.34993" lon="8.56096">
				 <ele>407</ele>
			 </trkpt>
			 <trkpt lat="47.34969" lon="8.56124">
				 <ele>407.1</ele>
			 </trkpt>
			 <trkpt lat="47.34961" lon="8.56125">
				 <ele>407.4</ele>
			 </trkpt>
			 <trkpt lat="47.34925" lon="8.56161">
				 <ele>407.7</ele>
			 </trkpt>
			 <trkpt lat="47.3489" lon="8.56195">
				 <ele>408.1</ele>
			 </trkpt>
			 <trkpt lat="47.34813" lon="8.56261">
				 <ele>408.5</ele>
			 </trkpt>
			 <trkpt lat="47.34763" lon="8.56308">
				 <ele>408.8</ele>
			 </trkpt>
			 <trkpt lat="47.34729" lon="8.56342">
				 <ele>409.2</ele>
			 </trkpt>
			 <trkpt lat="47.34674" lon="8.56404">
				 <ele>409.6</ele>
			 </trkpt>
			 <trkpt lat="47.34632" lon="8.56454">
				 <ele>410</ele>
			 </trkpt>
			 <trkpt lat="47.34615" lon="8.56472">
				 <ele>410.5</ele>
			 </trkpt>
			 <trkpt lat="47.34539" lon="8.56562">
				 <ele>410.7</ele>
			 </trkpt>
			 <trkpt lat="47.34506" lon="8.56599">
				 <ele>411.1</ele>
			 </trkpt>
			 <trkpt lat="47.34484" lon="8.56618">
				 <ele>411.3</ele>
			 </trkpt>
			 <trkpt lat="47.34461" lon="8.56641">
				 <ele>411.4</ele>
			 </trkpt>
			 <trkpt lat="47.34456" lon="8.56649">
				 <ele>411.6</ele>
			 </trkpt>
			 <trkpt lat="47.34398" lon="8.56685">
				 <ele>411.8</ele>
			 </trkpt>
			 <trkpt lat="47.34359" lon="8.56707">
				 <ele>412</ele>
			 </trkpt>
			 <trkpt lat="47.34333" lon="8.56719">
				 <ele>412.2</ele>
			 </trkpt>
			 <trkpt lat="47.34308" lon="8.56727">
				 <ele>412.2</ele>
			 </trkpt>
			 <trkpt lat="47.34282" lon="8.56732">
				 <ele>412.1</ele>
			 </trkpt>
			 <trkpt lat="47.34234" lon="8.56739">
				 <ele>411.9</ele>
			 </trkpt>
			 <trkpt lat="47.34234" lon="8.56739">
				 <ele>411.7</ele>
			 </trkpt>
			 <trkpt lat="47.34062" lon="8.5676">
				 <ele>411.5</ele>
			 </trkpt>
			 <trkpt lat="47.33988" lon="8.56769">
				 <ele>411.5</ele>
			 </trkpt>
			 <trkpt lat="47.33962" lon="8.56773">
				 <ele>411.4</ele>
			 </trkpt>
			 <trkpt lat="47.33956" lon="8.56775">
				 <ele>411.1</ele>
			 </trkpt>
			 <trkpt lat="47.33951" lon="8.56774">
				 <ele>411.1</ele>
			 </trkpt>
			 <trkpt lat="47.33946" lon="8.56774">
				 <ele>411.3</ele>
			 </trkpt>
			 <trkpt lat="47.33937" lon="8.56775">
				 <ele>411.1</ele>
			 </trkpt>
			 <trkpt lat="47.33908" lon="8.56783">
				 <ele>411</ele>
			 </trkpt>
			 <trkpt lat="47.33894" lon="8.5679">
				 <ele>411.1</ele>
			 </trkpt>
			 <trkpt lat="47.33871" lon="8.56807">
				 <ele>411.2</ele>
			 </trkpt>
			 <trkpt lat="47.33866" lon="8.56815">
				 <ele>411.4</ele>
			 </trkpt>
			 <trkpt lat="47.33843" lon="8.56828">
				 <ele>411.5</ele>
			 </trkpt>
			 <trkpt lat="47.33816" lon="8.56843">
				 <ele>411.5</ele>
			 </trkpt>
			 <trkpt lat="47.33748" lon="8.56879">
				 <ele>411.4</ele>
			 </trkpt>
			 <trkpt lat="47.33686" lon="8.56899">
				 <ele>411.3</ele>
			 </trkpt>
			 <trkpt lat="47.33644" lon="8.56911">
				 <ele>411</ele>
			 </trkpt>
			 <trkpt lat="47.33644" lon="8.56911">
				 <ele>410.5</ele>
			 </trkpt>
			 <trkpt lat="47.33601" lon="8.56922">
				 <ele>410.5</ele>
			 </trkpt>
			 <trkpt lat="47.33577" lon="8.56931">
				 <ele>410.4</ele>
			 </trkpt>
			 <trkpt lat="47.33561" lon="8.5694">
				 <ele>410.3</ele>
			 </trkpt>
			 <trkpt lat="47.33553" lon="8.56948">
				 <ele>410.3</ele>
			 </trkpt>
			 <trkpt lat="47.33513" lon="8.56989">
				 <ele>410.1</ele>
			 </trkpt>
			 <trkpt lat="47.33448" lon="8.57062">
				 <ele>409.6</ele>
			 </trkpt>
			 <trkpt lat="47.33417" lon="8.5709">
				 <ele>409.4</ele>
			 </trkpt>
			 <trkpt lat="47.33391" lon="8.57109">
				 <ele>409.1</ele>
			 </trkpt>
			 <trkpt lat="47.3337" lon="8.57123">
				 <ele>408.9</ele>
			 </trkpt>
			 <trkpt lat="47.33337" lon="8.57135">
				 <ele>408.7</ele>
			 </trkpt>
			 <trkpt lat="47.33261" lon="8.57155">
				 <ele>408.9</ele>
			 </trkpt>
			 <trkpt lat="47.33255" lon="8.57157">
				 <ele>409.1</ele>
			 </trkpt>
			 <trkpt lat="47.33255" lon="8.57157">
				 <ele>409.3</ele>
			 </trkpt>
			 <trkpt lat="47.33211" lon="8.57172">
				 <ele>409.5</ele>
			 </trkpt>
			 <trkpt lat="47.33184" lon="8.57186">
				 <ele>409.4</ele>
			 </trkpt>
			 <trkpt lat="47.33071" lon="8.57262">
				 <ele>409.4</ele>
			 </trkpt>
			 <trkpt lat="47.33" lon="8.57306">
				 <ele>409.6</ele>
			 </trkpt>
			 <trkpt lat="47.32973" lon="8.57318">
				 <ele>409.8</ele>
			 </trkpt>
			 <trkpt lat="47.32934" lon="8.57326">
				 <ele>410</ele>
			 </trkpt>
			 <trkpt lat="47.3284" lon="8.57336">
				 <ele>410.3</ele>
			 </trkpt>
			 <trkpt lat="47.32804" lon="8.57347">
				 <ele>410.6</ele>
			 </trkpt>
			 <trkpt lat="47.32781" lon="8.57356">
				 <ele>410.6</ele>
			 </trkpt>
			 <trkpt lat="47.32764" lon="8.57365">
				 <ele>410.5</ele>
			 </trkpt>
			 <trkpt lat="47.32734" lon="8.57387">
				 <ele>410.5</ele>
			 </trkpt>
			 <trkpt lat="47.32592" lon="8.57507">
				 <ele>410.3</ele>
			 </trkpt>
			 <trkpt lat="47.32559" lon="8.57539">
				 <ele>410.5</ele>
			 </trkpt>
			 <trkpt lat="47.32534" lon="8.57564">
				 <ele>410.6</ele>
			 </trkpt>
			 <trkpt lat="47.32513" lon="8.57588">
				 <ele>410.9</ele>
			 </trkpt>
			 <trkpt lat="47.32492" lon="8.57616">
				 <ele>411.3</ele>
			 </trkpt>
			 <trkpt lat="47.32466" lon="8.57659">
				 <ele>411.6</ele>
			 </trkpt>
			 <trkpt lat="47.32446" lon="8.57686">
				 <ele>411.9</ele>
			 </trkpt>
			 <trkpt lat="47.32435" lon="8.57697">
				 <ele>412.1</ele>
			 </trkpt>
			 <trkpt lat="47.32388" lon="8.57731">
				 <ele>412.4</ele>
			 </trkpt>
			 <trkpt lat="47.32311" lon="8.5778">
				 <ele>412.6</ele>
			 </trkpt>
			 <trkpt lat="47.32282" lon="8.57794">
				 <ele>412.8</ele>
			 </trkpt>
			 <trkpt lat="47.32243" lon="8.57808">
				 <ele>412.8</ele>
			 </trkpt>
			 <trkpt lat="47.32225" lon="8.57813">
				 <ele>412.7</ele>
			 </trkpt>
			 <trkpt lat="47.32186" lon="8.57827">
				 <ele>412.6</ele>
			 </trkpt>
			 <trkpt lat="47.3217" lon="8.5783">
				 <ele>412.5</ele>
			 </trkpt>
			 <trkpt lat="47.3204" lon="8.57874">
				 <ele>412.3</ele>
			 </trkpt>
			 <trkpt lat="47.31938" lon="8.57913">
				 <ele>412.2</ele>
			 </trkpt>
			 <trkpt lat="47.31922" lon="8.57918">
				 <ele>412.3</ele>
			 </trkpt>
			 <trkpt lat="47.31905" lon="8.57922">
				 <ele>412.5</ele>
			 </trkpt>
			 <trkpt lat="47.31887" lon="8.57923">
				 <ele>412.5</ele>
			 </trkpt>
			 <trkpt lat="47.3186" lon="8.5793">
				 <ele>412.7</ele>
			 </trkpt>
			 <trkpt lat="47.31825" lon="8.57939">
				 <ele>413.2</ele>
			 </trkpt>
			 <trkpt lat="47.31758" lon="8.57956">
				 <ele>413.5</ele>
			 </trkpt>
			 <trkpt lat="47.31699" lon="8.57974">
				 <ele>413.6</ele>
			 </trkpt>
			 <trkpt lat="47.3166" lon="8.57985">
				 <ele>414.2</ele>
			 </trkpt>
			 <trkpt lat="47.31582" lon="8.58009">
				 <ele>414.5</ele>
			 </trkpt>
			 <trkpt lat="47.31557" lon="8.58014">
				 <ele>414.8</ele>
			 </trkpt>
			 <trkpt lat="47.31535" lon="8.58024">
				 <ele>415</ele>
			 </trkpt>
			 <trkpt lat="47.31511" lon="8.58033">
				 <ele>415</ele>
			 </trkpt>
			 <trkpt lat="47.31428" lon="8.58088">
				 <ele>414.9</ele>
			 </trkpt>
			 <trkpt lat="47.31379" lon="8.58122">
				 <ele>414.7</ele>
			 </trkpt>
			 <trkpt lat="47.31307" lon="8.58188">
				 <ele>414.4</ele>
			 </trkpt>
			 <trkpt lat="47.31275" lon="8.58218">
				 <ele>413.9</ele>
			 </trkpt>
			 <trkpt lat="47.31275" lon="8.58218">
				 <ele>413.8</ele>
			 </trkpt>
			 <trkpt lat="47.31191" lon="8.58297">
				 <ele>413.6</ele>
			 </trkpt>
			 <trkpt lat="47.311" lon="8.5838">
				 <ele>413.3</ele>
			 </trkpt>
			 <trkpt lat="47.31088" lon="8.58393">
				 <ele>413.1</ele>
			 </trkpt>
			 <trkpt lat="47.31082" lon="8.58394">
				 <ele>413</ele>
			 </trkpt>
			 <trkpt lat="47.31077" lon="8.58399">
				 <ele>412.9</ele>
			 </trkpt>
			 <trkpt lat="47.31041" lon="8.58435">
				 <ele>412.7</ele>
			 </trkpt>
			 <trkpt lat="47.31014" lon="8.58471">
				 <ele>412.6</ele>
			 </trkpt>
			 <trkpt lat="47.31013" lon="8.58479">
				 <ele>412.8</ele>
			 </trkpt>
			 <trkpt lat="47.31005" lon="8.58489">
				 <ele>412.7</ele>
			 </trkpt>
			 <trkpt lat="47.30988" lon="8.58511">
				 <ele>412.6</ele>
			 </trkpt>
			 <trkpt lat="47.30972" lon="8.58532">
				 <ele>412.5</ele>
			 </trkpt>
			 <trkpt lat="47.30954" lon="8.58559">
				 <ele>412.7</ele>
			 </trkpt>
			 <trkpt lat="47.30894" lon="8.58635">
				 <ele>412.8</ele>
			 </trkpt>
			 <trkpt lat="47.30793" lon="8.58768">
				 <ele>412.7</ele>
			 </trkpt>
			 <trkpt lat="47.30783" lon="8.58783">
				 <ele>412.6</ele>
			 </trkpt>
			 <trkpt lat="47.30783" lon="8.58783">
				 <ele>412.5</ele>
			 </trkpt>
			 <trkpt lat="47.30728" lon="8.58857">
				 <ele>412.5</ele>
			 </trkpt>
			 <trkpt lat="47.30693" lon="8.58899">
				 <ele>412.4</ele>
			 </trkpt>
			 <trkpt lat="47.3068" lon="8.58911">
				 <ele>412.2</ele>
			 </trkpt>
			 <trkpt lat="47.30675" lon="8.58912">
				 <ele>412.2</ele>
			 </trkpt>
			 <trkpt lat="47.30662" lon="8.58921">
				 <ele>412.5</ele>
			 </trkpt>
			 <trkpt lat="47.30643" lon="8.58934">
				 <ele>412.7</ele>
			 </trkpt>
			 <trkpt lat="47.3061" lon="8.58952">
				 <ele>412.6</ele>
			 </trkpt>
			 <trkpt lat="47.30606" lon="8.58958">
				 <ele>412.5</ele>
			 </trkpt>
			 <trkpt lat="47.30594" lon="8.58963">
				 <ele>412.5</ele>
			 </trkpt>
			 <trkpt lat="47.30548" lon="8.58984">
				 <ele>412.7</ele>
			 </trkpt>
			 <trkpt lat="47.30484" lon="8.59014">
				 <ele>413.2</ele>
			 </trkpt>
			 <trkpt lat="47.3044" lon="8.59037">
				 <ele>413.6</ele>
			 </trkpt>
			 <trkpt lat="47.30432" lon="8.59036">
				 <ele>414.1</ele>
			 </trkpt>
			 <trkpt lat="47.30385" lon="8.59065">
				 <ele>414.6</ele>
			 </trkpt>
			 <trkpt lat="47.30331" lon="8.59103">
				 <ele>415.1</ele>
			 </trkpt>
			 <trkpt lat="47.30315" lon="8.59117">
				 <ele>415.2</ele>
			 </trkpt>
			 <trkpt lat="47.3031" lon="8.59125">
				 <ele>415.3</ele>
			 </trkpt>
			 <trkpt lat="47.30305" lon="8.59129">
				 <ele>415.5</ele>
			 </trkpt>
			 <trkpt lat="47.30295" lon="8.59137">
				 <ele>415.9</ele>
			 </trkpt>
			 <trkpt lat="47.30272" lon="8.59155">
				 <ele>416.2</ele>
			 </trkpt>
			 <trkpt lat="47.30257" lon="8.5917">
				 <ele>416.4</ele>
			 </trkpt>
			 <trkpt lat="47.30222" lon="8.59199">
				 <ele>416.3</ele>
			 </trkpt>
			 <trkpt lat="47.30177" lon="8.59239">
				 <ele>416</ele>
			 </trkpt>
			 <trkpt lat="47.30114" lon="8.59294">
				 <ele>415.7</ele>
			 </trkpt>
			 <trkpt lat="47.30105" lon="8.59302">
				 <ele>415.5</ele>
			 </trkpt>
			 <trkpt lat="47.30105" lon="8.59302">
				 <ele>415.2</ele>
			 </trkpt>
			 <trkpt lat="47.3007" lon="8.59333">
				 <ele>414.9</ele>
			 </trkpt>
			 <trkpt lat="47.30044" lon="8.59364">
				 <ele>414.9</ele>
			 </trkpt>
			 <trkpt lat="47.30026" lon="8.59389">
				 <ele>414.7</ele>
			 </trkpt>
			 <trkpt lat="47.30009" lon="8.59423">
				 <ele>414.5</ele>
			 </trkpt>
			 <trkpt lat="47.29979" lon="8.59494">
				 <ele>414.5</ele>
			 </trkpt>
			 <trkpt lat="47.29957" lon="8.59547">
				 <ele>414.5</ele>
			 </trkpt>
			 <trkpt lat="47.29937" lon="8.59581">
				 <ele>414.5</ele>
			 </trkpt>
			 <trkpt lat="47.29922" lon="8.5961">
				 <ele>414.9</ele>
			 </trkpt>
			 <trkpt lat="47.29913" lon="8.59626">
				 <ele>415.3</ele>
			 </trkpt>
			 <trkpt lat="47.29871" lon="8.59687">
				 <ele>415.5</ele>
			 </trkpt>
			 <trkpt lat="47.29869" lon="8.59697">
				 <ele>415.9</ele>
			 </trkpt>
			 <trkpt lat="47.29828" lon="8.59745">
				 <ele>416.3</ele>
			 </trkpt>
			 <trkpt lat="47.29787" lon="8.59794">
				 <ele>416.5</ele>
			 </trkpt>
			 <trkpt lat="47.29769" lon="8.59812">
				 <ele>417.1</ele>
			 </trkpt>
			 <trkpt lat="47.29737" lon="8.59831">
				 <ele>417.2</ele>
			 </trkpt>
			 <trkpt lat="47.29713" lon="8.59841">
				 <ele>416.8</ele>
			 </trkpt>
			 <trkpt lat="47.29673" lon="8.59853">
				 <ele>416.4</ele>
			 </trkpt>
			 <trkpt lat="47.29639" lon="8.59856">
				 <ele>415.9</ele>
			 </trkpt>
			 <trkpt lat="47.29612" lon="8.5985">
				 <ele>415.3</ele>
			 </trkpt>
			 <trkpt lat="47.29542" lon="8.59825">
				 <ele>414.6</ele>
			 </trkpt>
			 <trkpt lat="47.2952" lon="8.59819">
				 <ele>413.9</ele>
			 </trkpt>
			 <trkpt lat="47.295" lon="8.59817">
				 <ele>413.3</ele>
			 </trkpt>
			 <trkpt lat="47.29479" lon="8.59818">
				 <ele>412.6</ele>
			 </trkpt>
			 <trkpt lat="47.29448" lon="8.59825">
				 <ele>411.9</ele>
			 </trkpt>
			 <trkpt lat="47.29404" lon="8.59846">
				 <ele>411.1</ele>
			 </trkpt>
			 <trkpt lat="47.29386" lon="8.59858">
				 <ele>410.8</ele>
			 </trkpt>
			 <trkpt lat="47.2936" lon="8.59881">
				 <ele>410.9</ele>
			 </trkpt>
			 <trkpt lat="47.29331" lon="8.59911">
				 <ele>411.1</ele>
			 </trkpt>
			 <trkpt lat="47.29308" lon="8.59935">
				 <ele>411</ele>
			 </trkpt>
			 <trkpt lat="47.29308" lon="8.59935">
				 <ele>411</ele>
			 </trkpt>
			 <trkpt lat="47.29219" lon="8.60027">
				 <ele>411.1</ele>
			 </trkpt>
			 <trkpt lat="47.29185" lon="8.60064">
				 <ele>411.5</ele>
			 </trkpt>
			 <trkpt lat="47.2918" lon="8.60066">
				 <ele>411.8</ele>
			 </trkpt>
			 <trkpt lat="47.2908" lon="8.602">
				 <ele>412.1</ele>
			 </trkpt>
			 <trkpt lat="47.29038" lon="8.60257">
				 <ele>412.5</ele>
			 </trkpt>
			 <trkpt lat="47.29032" lon="8.60273">
				 <ele>412.6</ele>
			 </trkpt>
			 <trkpt lat="47.28946" lon="8.60389">
				 <ele>412.7</ele>
			 </trkpt>
			 <trkpt lat="47.28933" lon="8.60409">
				 <ele>412.5</ele>
			 </trkpt>
			 <trkpt lat="47.28906" lon="8.60441">
				 <ele>412.5</ele>
			 </trkpt>
			 <trkpt lat="47.28889" lon="8.60462">
				 <ele>412.7</ele>
			 </trkpt>
			 <trkpt lat="47.28833" lon="8.60518">
				 <ele>412.9</ele>
			 </trkpt>
			 <trkpt lat="47.28819" lon="8.60533">
				 <ele>412.8</ele>
			 </trkpt>
			 <trkpt lat="47.28788" lon="8.60577">
				 <ele>412.5</ele>
			 </trkpt>
			 <trkpt lat="47.28745" lon="8.60634">
				 <ele>412.2</ele>
			 </trkpt>
			 <trkpt lat="47.28718" lon="8.60664">
				 <ele>411.9</ele>
			 </trkpt>
			 <trkpt lat="47.2862" lon="8.60755">
				 <ele>411.6</ele>
			 </trkpt>
			 <trkpt lat="47.28536" lon="8.60832">
				 <ele>411.7</ele>
			 </trkpt>
			 <trkpt lat="47.2851" lon="8.60852">
				 <ele>411.6</ele>
			 </trkpt>
			 <trkpt lat="47.28488" lon="8.60869">
				 <ele>411.6</ele>
			 </trkpt>
			 <trkpt lat="47.28488" lon="8.60869">
				 <ele>411.4</ele>
			 </trkpt>
			 <trkpt lat="47.28455" lon="8.60893">
				 <ele>411.3</ele>
			 </trkpt>
			 <trkpt lat="47.2844" lon="8.60907">
				 <ele>411.1</ele>
			 </trkpt>
			 <trkpt lat="47.28357" lon="8.60996">
				 <ele>411.1</ele>
			 </trkpt>
			 <trkpt lat="47.2834" lon="8.61008">
				 <ele>411.1</ele>
			 </trkpt>
			 <trkpt lat="47.28321" lon="8.61019">
				 <ele>411.4</ele>
			 </trkpt>
			 <trkpt lat="47.28287" lon="8.61042">
				 <ele>411.5</ele>
			 </trkpt>
			 <trkpt lat="47.28264" lon="8.6106">
				 <ele>411.5</ele>
			 </trkpt>
			 <trkpt lat="47.2824" lon="8.61088">
				 <ele>411.4</ele>
			 </trkpt>
			 <trkpt lat="47.28226" lon="8.61108">
				 <ele>411.5</ele>
			 </trkpt>
			 <trkpt lat="47.28175" lon="8.61192">
				 <ele>411.6</ele>
			 </trkpt>
			 <trkpt lat="47.28152" lon="8.61223">
				 <ele>411.8</ele>
			 </trkpt>
			 <trkpt lat="47.28076" lon="8.61305">
				 <ele>411.8</ele>
			 </trkpt>
			 <trkpt lat="47.27997" lon="8.61385">
				 <ele>412.1</ele>
			 </trkpt>
			 <trkpt lat="47.27967" lon="8.61407">
				 <ele>411.8</ele>
			 </trkpt>
			 <trkpt lat="47.27919" lon="8.61435">
				 <ele>411.5</ele>
			 </trkpt>
			 <trkpt lat="47.27898" lon="8.61451">
				 <ele>410.9</ele>
			 </trkpt>
			 <trkpt lat="47.27841" lon="8.61516">
				 <ele>410.5</ele>
			 </trkpt>
			 <trkpt lat="47.27822" lon="8.6154">
				 <ele>410.3</ele>
			 </trkpt>
			 <trkpt lat="47.27794" lon="8.61587">
				 <ele>410.1</ele>
			 </trkpt>
			 <trkpt lat="47.2778" lon="8.61612">
				 <ele>409.8</ele>
			 </trkpt>
			 <trkpt lat="47.27689" lon="8.61795">
				 <ele>409.5</ele>
			 </trkpt>
			 <trkpt lat="47.27648" lon="8.61879">
				 <ele>409.1</ele>
			 </trkpt>
			 <trkpt lat="47.27609" lon="8.61976">
				 <ele>408.8</ele>
			 </trkpt>
			 <trkpt lat="47.27592" lon="8.62023">
				 <ele>408.3</ele>
			 </trkpt>
			 <trkpt lat="47.27592" lon="8.62023">
				 <ele>408.3</ele>
			 </trkpt>
			 <trkpt lat="47.27536" lon="8.62172">
				 <ele>408.4</ele>
			 </trkpt>
			 <trkpt lat="47.27511" lon="8.62234">
				 <ele>408.4</ele>
			 </trkpt>
			 <trkpt lat="47.27489" lon="8.62283">
				 <ele>408.4</ele>
			 </trkpt>
			 <trkpt lat="47.27457" lon="8.62346">
				 <ele>408.3</ele>
			 </trkpt>
			 <trkpt lat="47.27424" lon="8.62402">
				 <ele>408.5</ele>
			 </trkpt>
			 <trkpt lat="47.2739" lon="8.6246">
				 <ele>408.6</ele>
			 </trkpt>
			 <trkpt lat="47.27354" lon="8.62537">
				 <ele>408.6</ele>
			 </trkpt>
			 <trkpt lat="47.27315" lon="8.62634">
				 <ele>408.7</ele>
			 </trkpt>
			 <trkpt lat="47.27281" lon="8.62709">
				 <ele>408.9</ele>
			 </trkpt>
			 <trkpt lat="47.27215" lon="8.62823">
				 <ele>409.1</ele>
			 </trkpt>
			 <trkpt lat="47.2716" lon="8.62919">
				 <ele>409.4</ele>
			 </trkpt>
			 <trkpt lat="47.2714" lon="8.62969">
				 <ele>409.6</ele>
			 </trkpt>
			 <trkpt lat="47.27128" lon="8.63011">
				 <ele>410</ele>
			 </trkpt>
			 <trkpt lat="47.27121" lon="8.63041">
				 <ele>410.5</ele>
			 </trkpt>
			 <trkpt lat="47.27117" lon="8.6308">
				 <ele>410.8</ele>
			 </trkpt>
			 <trkpt lat="47.27115" lon="8.63127">
				 <ele>410.8</ele>
			 </trkpt>
			 <trkpt lat="47.27115" lon="8.63131">
				 <ele>410.8</ele>
			 </trkpt>
			 <trkpt lat="47.27113" lon="8.63251">
				 <ele>411.1</ele>
			 </trkpt>
			 <trkpt lat="47.2711" lon="8.63283">
				 <ele>411.4</ele>
			 </trkpt>
			 <trkpt lat="47.27081" lon="8.63443">
				 <ele>411.5</ele>
			 </trkpt>
			 <trkpt lat="47.27074" lon="8.63487">
				 <ele>411.5</ele>
			 </trkpt>
			 <trkpt lat="47.27056" lon="8.63602">
				 <ele>411.5</ele>
			 </trkpt>
			 <trkpt lat="47.27044" lon="8.63658">
				 <ele>411.4</ele>
			 </trkpt>
			 <trkpt lat="47.27029" lon="8.637">
				 <ele>411.3</ele>
			 </trkpt>
			 <trkpt lat="47.27012" lon="8.63727">
				 <ele>411.1</ele>
			 </trkpt>
			 <trkpt lat="47.27001" lon="8.63735">
				 <ele>411</ele>
			 </trkpt>
			 <trkpt lat="47.26979" lon="8.63756">
				 <ele>411.1</ele>
			 </trkpt>
			 <trkpt lat="47.26957" lon="8.63769">
				 <ele>411</ele>
			 </trkpt>
			 <trkpt lat="47.26945" lon="8.63778">
				 <ele>410.8</ele>
			 </trkpt>
			 <trkpt lat="47.26939" lon="8.63785">
				 <ele>410.8</ele>
			 </trkpt>
			 <trkpt lat="47.26928" lon="8.63791">
				 <ele>410.9</ele>
			 </trkpt>
			 <trkpt lat="47.26919" lon="8.63797">
				 <ele>411.2</ele>
			 </trkpt>
			 <trkpt lat="47.268832" lon="8.638209">
				 <ele>412</ele>
			 </trkpt>
			 <trkpt lat="47.268629" lon="8.638574">
				 <ele>412.8</ele>
			 </trkpt>
			 <trkpt lat="47.268978" lon="8.639046">
				 <ele>413.5</ele>
			 </trkpt>
			 <trkpt lat="47.26897" lon="8.63904">
				 <ele>414.4</ele>
			 </trkpt>
			 <trkpt lat="47.26946" lon="8.63943">
				 <ele>415.2</ele>
			 </trkpt>
			 <trkpt lat="47.26996" lon="8.64002">
				 <ele>416.1</ele>
			 </trkpt>
			 <trkpt lat="47.26996" lon="8.64002">
				 <ele>417.1</ele>
			 </trkpt>
			 <trkpt lat="47.27016" lon="8.64026">
				 <ele>417.8</ele>
			 </trkpt>
			 <trkpt lat="47.27032" lon="8.64042">
				 <ele>418.4</ele>
			 </trkpt>
			 <trkpt lat="47.27034" lon="8.64019">
				 <ele>418.3</ele>
			 </trkpt>
			 <trkpt lat="47.27037" lon="8.63978">
				 <ele>418.1</ele>
			 </trkpt>
			 <trkpt lat="47.27039" lon="8.63962">
				 <ele>417.4</ele>
			 </trkpt>
			 <trkpt lat="47.27022" lon="8.63898">
				 <ele>416.7</ele>
			 </trkpt>
			 <trkpt lat="47.27022" lon="8.63898">
				 <ele>416.1</ele>
			 </trkpt>
			 <trkpt lat="47.26985" lon="8.63765">
				 <ele>415.3</ele>
			 </trkpt>
			 <trkpt lat="47.27004" lon="8.63744">
				 <ele>414.5</ele>
			 </trkpt>
			 <trkpt lat="47.27012" lon="8.63727">
				 <ele>413.5</ele>
			 </trkpt>
			 <trkpt lat="47.27029" lon="8.637">
				 <ele>412.8</ele>
			 </trkpt>
			 <trkpt lat="47.27044" lon="8.63658">
				 <ele>412.3</ele>
			 </trkpt>
			 <trkpt lat="47.27056" lon="8.63602">
				 <ele>411.6</ele>
			 </trkpt>
			 <trkpt lat="47.27074" lon="8.63487">
				 <ele>411.6</ele>
			 </trkpt>
			 <trkpt lat="47.27081" lon="8.63443">
				 <ele>411.5</ele>
			 </trkpt>
			 <trkpt lat="47.2711" lon="8.63283">
				 <ele>411.4</ele>
			 </trkpt>
			 <trkpt lat="47.27113" lon="8.63251">
				 <ele>411.1</ele>
			 </trkpt>
			 <trkpt lat="47.27115" lon="8.63131">
				 <ele>410.8</ele>
			 </trkpt>
			 <trkpt lat="47.27115" lon="8.63127">
				 <ele>410.8</ele>
			 </trkpt>
			 <trkpt lat="47.27117" lon="8.6308">
				 <ele>410.8</ele>
			 </trkpt>
			 <trkpt lat="47.27121" lon="8.63041">
				 <ele>410.5</ele>
			 </trkpt>
			 <trkpt lat="47.27128" lon="8.63011">
				 <ele>410.2</ele>
			 </trkpt>
			 <trkpt lat="47.2714" lon="8.62969">
				 <ele>409.8</ele>
			 </trkpt>
			 <trkpt lat="47.2716" lon="8.62919">
				 <ele>409.6</ele>
			 </trkpt>
			 <trkpt lat="47.27215" lon="8.62823">
				 <ele>409.4</ele>
			 </trkpt>
			 <trkpt lat="47.27255" lon="8.62753">
				 <ele>409.2</ele>
			 </trkpt>
			 <trkpt lat="47.27255" lon="8.62753">
				 <ele>409</ele>
			 </trkpt>
			 <trkpt lat="47.27281" lon="8.62709">
				 <ele>408.9</ele>
			 </trkpt>
			 <trkpt lat="47.27302" lon="8.62666">
				 <ele>408.8</ele>
			 </trkpt>
			 <trkpt lat="47.27326" lon="8.6261">
				 <ele>408.5</ele>
			 </trkpt>
			 <trkpt lat="47.2737" lon="8.62501">
				 <ele>408.3</ele>
			 </trkpt>
			 <trkpt lat="47.2739" lon="8.6246">
				 <ele>408.3</ele>
			 </trkpt>
			 <trkpt lat="47.27421" lon="8.62407">
				 <ele>408.3</ele>
			 </trkpt>
			 <trkpt lat="47.27448" lon="8.62362">
				 <ele>408.3</ele>
			 </trkpt>
			 <trkpt lat="47.27476" lon="8.62311">
				 <ele>408.2</ele>
			 </trkpt>
			 <trkpt lat="47.27507" lon="8.62246">
				 <ele>408.1</ele>
			 </trkpt>
			 <trkpt lat="47.27545" lon="8.6215">
				 <ele>408.1</ele>
			 </trkpt>
			 <trkpt lat="47.27609" lon="8.61976">
				 <ele>408.6</ele>
			 </trkpt>
			 <trkpt lat="47.27648" lon="8.61879">
				 <ele>408.9</ele>
			 </trkpt>
			 <trkpt lat="47.27689" lon="8.61795">
				 <ele>409.3</ele>
			 </trkpt>
			 <trkpt lat="47.2778" lon="8.61612">
				 <ele>409.7</ele>
			 </trkpt>
			 <trkpt lat="47.27794" lon="8.61587">
				 <ele>410.1</ele>
			 </trkpt>
			 <trkpt lat="47.27822" lon="8.6154">
				 <ele>410.3</ele>
			 </trkpt>
			 <trkpt lat="47.27841" lon="8.61516">
				 <ele>410.5</ele>
			 </trkpt>
			 <trkpt lat="47.27898" lon="8.61451">
				 <ele>410.8</ele>
			 </trkpt>
			 <trkpt lat="47.27919" lon="8.61435">
				 <ele>411.1</ele>
			 </trkpt>
			 <trkpt lat="47.27967" lon="8.61407">
				 <ele>411.5</ele>
			 </trkpt>
			 <trkpt lat="47.27997" lon="8.61385">
				 <ele>412.1</ele>
			 </trkpt>
			 <trkpt lat="47.28076" lon="8.61305">
				 <ele>411.8</ele>
			 </trkpt>
			 <trkpt lat="47.28102" lon="8.61277">
				 <ele>411.8</ele>
			 </trkpt>
			 <trkpt lat="47.28102" lon="8.61277">
				 <ele>411.7</ele>
			 </trkpt>
			 <trkpt lat="47.2814" lon="8.61237">
				 <ele>411.5</ele>
			 </trkpt>
			 <trkpt lat="47.28166" lon="8.61206">
				 <ele>411.4</ele>
			 </trkpt>
			 <trkpt lat="47.28231" lon="8.61101">
				 <ele>411.4</ele>
			 </trkpt>
			 <trkpt lat="47.28255" lon="8.6107">
				 <ele>411.4</ele>
			 </trkpt>
			 <trkpt lat="47.2827" lon="8.61054">
				 <ele>411.4</ele>
			 </trkpt>
			 <trkpt lat="47.28324" lon="8.61017">
				 <ele>411.4</ele>
			 </trkpt>
			 <trkpt lat="47.28348" lon="8.61003">
				 <ele>411.5</ele>
			 </trkpt>
			 <trkpt lat="47.28367" lon="8.60986">
				 <ele>411.3</ele>
			 </trkpt>
			 <trkpt lat="47.28445" lon="8.60902">
				 <ele>411.5</ele>
			 </trkpt>
			 <trkpt lat="47.2851" lon="8.60852">
				 <ele>411.5</ele>
			 </trkpt>
			 <trkpt lat="47.28536" lon="8.60832">
				 <ele>411.5</ele>
			 </trkpt>
			 <trkpt lat="47.2862" lon="8.60755">
				 <ele>411.7</ele>
			 </trkpt>
			 <trkpt lat="47.28718" lon="8.60664">
				 <ele>412</ele>
			 </trkpt>
			 <trkpt lat="47.28745" lon="8.60634">
				 <ele>412.3</ele>
			 </trkpt>
			 <trkpt lat="47.28788" lon="8.60577">
				 <ele>412.5</ele>
			 </trkpt>
			 <trkpt lat="47.28819" lon="8.60533">
				 <ele>412.8</ele>
			 </trkpt>
			 <trkpt lat="47.28833" lon="8.60518">
				 <ele>412.9</ele>
			 </trkpt>
			 <trkpt lat="47.28889" lon="8.60462">
				 <ele>412.8</ele>
			 </trkpt>
			 <trkpt lat="47.28906" lon="8.60441">
				 <ele>412.6</ele>
			 </trkpt>
			 <trkpt lat="47.28933" lon="8.60409">
				 <ele>412.8</ele>
			 </trkpt>
			 <trkpt lat="47.28946" lon="8.60389">
				 <ele>413.1</ele>
			 </trkpt>
			 <trkpt lat="47.29032" lon="8.60273">
				 <ele>413.2</ele>
			 </trkpt>
			 <trkpt lat="47.29043" lon="8.60265">
				 <ele>413.2</ele>
			 </trkpt>
			 <trkpt lat="47.29085" lon="8.60209">
				 <ele>412.8</ele>
			 </trkpt>
			 <trkpt lat="47.29141" lon="8.6013">
				 <ele>412.5</ele>
			 </trkpt>
			 <trkpt lat="47.29184" lon="8.60071">
				 <ele>412.3</ele>
			 </trkpt>
			 <trkpt lat="47.29185" lon="8.60064">
				 <ele>411.8</ele>
			 </trkpt>
			 <trkpt lat="47.29199" lon="8.60048">
				 <ele>411.7</ele>
			 </trkpt>
			 <trkpt lat="47.29286" lon="8.59958">
				 <ele>411.6</ele>
			 </trkpt>
			 <trkpt lat="47.29331" lon="8.59911">
				 <ele>411.7</ele>
			 </trkpt>
			 <trkpt lat="47.2936" lon="8.59881">
				 <ele>411.4</ele>
			 </trkpt>
			 <trkpt lat="47.29386" lon="8.59858">
				 <ele>411.2</ele>
			 </trkpt>
			 <trkpt lat="47.29404" lon="8.59846">
				 <ele>411.3</ele>
			 </trkpt>
			 <trkpt lat="47.29448" lon="8.59825">
				 <ele>411.5</ele>
			 </trkpt>
			 <trkpt lat="47.29479" lon="8.59818">
				 <ele>412</ele>
			 </trkpt>
			 <trkpt lat="47.295" lon="8.59817">
				 <ele>412.4</ele>
			 </trkpt>
			 <trkpt lat="47.2952" lon="8.59819">
				 <ele>413.1</ele>
			 </trkpt>
			 <trkpt lat="47.29542" lon="8.59825">
				 <ele>413.8</ele>
			 </trkpt>
			 <trkpt lat="47.29552" lon="8.59829">
				 <ele>414.5</ele>
			 </trkpt>
			 <trkpt lat="47.29565" lon="8.59833">
				 <ele>415.1</ele>
			 </trkpt>
			 <trkpt lat="47.29565" lon="8.59834">
				 <ele>415.7</ele>
			 </trkpt>
			 <trkpt lat="47.29612" lon="8.5985">
				 <ele>416.4</ele>
			 </trkpt>
			 <trkpt lat="47.29639" lon="8.59856">
				 <ele>416.9</ele>
			 </trkpt>
			 <trkpt lat="47.29673" lon="8.59853">
				 <ele>417.1</ele>
			 </trkpt>
			 <trkpt lat="47.29703" lon="8.59845">
				 <ele>417</ele>
			 </trkpt>
			 <trkpt lat="47.29737" lon="8.59831">
				 <ele>416.8</ele>
			 </trkpt>
			 <trkpt lat="47.29769" lon="8.59812">
				 <ele>416.8</ele>
			 </trkpt>
			 <trkpt lat="47.29787" lon="8.59794">
				 <ele>416.4</ele>
			 </trkpt>
			 <trkpt lat="47.29869" lon="8.59697">
				 <ele>416</ele>
			 </trkpt>
			 <trkpt lat="47.29905" lon="8.5965">
				 <ele>415.6</ele>
			 </trkpt>
			 <trkpt lat="47.29923" lon="8.59625">
				 <ele>415.3</ele>
			 </trkpt>
			 <trkpt lat="47.29939" lon="8.59585">
				 <ele>415</ele>
			 </trkpt>
			 <trkpt lat="47.2994" lon="8.59579">
				 <ele>414.6</ele>
			 </trkpt>
			 <trkpt lat="47.29957" lon="8.59547">
				 <ele>414.3</ele>
			 </trkpt>
			 <trkpt lat="47.29971" lon="8.59515">
				 <ele>414.2</ele>
			 </trkpt>
			 <trkpt lat="47.29979" lon="8.59494">
				 <ele>414.4</ele>
			 </trkpt>
			 <trkpt lat="47.30009" lon="8.59423">
				 <ele>414.5</ele>
			 </trkpt>
			 <trkpt lat="47.30026" lon="8.59389">
				 <ele>414.5</ele>
			 </trkpt>
			 <trkpt lat="47.30044" lon="8.59364">
				 <ele>414.8</ele>
			 </trkpt>
			 <trkpt lat="47.3007" lon="8.59333">
				 <ele>415.1</ele>
			 </trkpt>
			 <trkpt lat="47.30114" lon="8.59294">
				 <ele>415.5</ele>
			 </trkpt>
			 <trkpt lat="47.30177" lon="8.59239">
				 <ele>415.7</ele>
			 </trkpt>
			 <trkpt lat="47.30222" lon="8.59199">
				 <ele>415.9</ele>
			 </trkpt>
			 <trkpt lat="47.30257" lon="8.5917">
				 <ele>416.1</ele>
			 </trkpt>
			 <trkpt lat="47.30272" lon="8.59155">
				 <ele>416.2</ele>
			 </trkpt>
			 <trkpt lat="47.30295" lon="8.59137">
				 <ele>416</ele>
			 </trkpt>
			 <trkpt lat="47.30305" lon="8.59129">
				 <ele>415.6</ele>
			 </trkpt>
			 <trkpt lat="47.3031" lon="8.59125">
				 <ele>415.4</ele>
			 </trkpt>
			 <trkpt lat="47.30319" lon="8.59125">
				 <ele>415.3</ele>
			 </trkpt>
			 <trkpt lat="47.30321" lon="8.59123">
				 <ele>415</ele>
			 </trkpt>
			 <trkpt lat="47.30394" lon="8.59071">
				 <ele>414.7</ele>
			 </trkpt>
			 <trkpt lat="47.30435" lon="8.59046">
				 <ele>414.2</ele>
			 </trkpt>
			 <trkpt lat="47.3044" lon="8.59037">
				 <ele>413.7</ele>
			 </trkpt>
			 <trkpt lat="47.30484" lon="8.59014">
				 <ele>413.3</ele>
			 </trkpt>
			 <trkpt lat="47.30518" lon="8.58998">
				 <ele>412.8</ele>
			 </trkpt>
			 <trkpt lat="47.30518" lon="8.58998">
				 <ele>412.5</ele>
			 </trkpt>
			 <trkpt lat="47.30594" lon="8.58963">
				 <ele>412.5</ele>
			 </trkpt>
			 <trkpt lat="47.30606" lon="8.58958">
				 <ele>412.5</ele>
			 </trkpt>
			 <trkpt lat="47.30612" lon="8.5896">
				 <ele>412.6</ele>
			 </trkpt>
			 <trkpt lat="47.30646" lon="8.58944">
				 <ele>412.5</ele>
			 </trkpt>
			 <trkpt lat="47.30676" lon="8.5892">
				 <ele>412.4</ele>
			 </trkpt>
			 <trkpt lat="47.30677" lon="8.58918">
				 <ele>412.4</ele>
			 </trkpt>
			 <trkpt lat="47.3068" lon="8.58911">
				 <ele>412.5</ele>
			 </trkpt>
			 <trkpt lat="47.30693" lon="8.58899">
				 <ele>412.5</ele>
			 </trkpt>
			 <trkpt lat="47.30728" lon="8.58857">
				 <ele>412.5</ele>
			 </trkpt>
			 <trkpt lat="47.30793" lon="8.58768">
				 <ele>412.7</ele>
			 </trkpt>
			 <trkpt lat="47.30894" lon="8.58635">
				 <ele>412.8</ele>
			 </trkpt>
			 <trkpt lat="47.30954" lon="8.58559">
				 <ele>412.9</ele>
			 </trkpt>
			 <trkpt lat="47.30972" lon="8.58532">
				 <ele>412.9</ele>
			 </trkpt>
			 <trkpt lat="47.30988" lon="8.58511">
				 <ele>412.9</ele>
			 </trkpt>
			 <trkpt lat="47.31005" lon="8.58489">
				 <ele>413</ele>
			 </trkpt>
			 <trkpt lat="47.31013" lon="8.58479">
				 <ele>413.1</ele>
			 </trkpt>
			 <trkpt lat="47.31017" lon="8.58478">
				 <ele>413.2</ele>
			 </trkpt>
			 <trkpt lat="47.31056" lon="8.58433">
				 <ele>413.3</ele>
			 </trkpt>
			 <trkpt lat="47.3108" lon="8.58408">
				 <ele>413.5</ele>
			 </trkpt>
			 <trkpt lat="47.31085" lon="8.58402">
				 <ele>413.6</ele>
			 </trkpt>
			 <trkpt lat="47.31088" lon="8.58393">
				 <ele>414</ele>
			 </trkpt>
			 <trkpt lat="47.31206" lon="8.58283">
				 <ele>414.1</ele>
			 </trkpt>
			 <trkpt lat="47.31295" lon="8.582">
				 <ele>414.2</ele>
			 </trkpt>
			 <trkpt lat="47.31364" lon="8.58134">
				 <ele>414.5</ele>
			 </trkpt>
			 <trkpt lat="47.31385" lon="8.58118">
				 <ele>414.4</ele>
			 </trkpt>
			 <trkpt lat="47.31415" lon="8.58098">
				 <ele>414.5</ele>
			 </trkpt>
			 <trkpt lat="47.3147" lon="8.5806">
				 <ele>415</ele>
			 </trkpt>
			 <trkpt lat="47.3147" lon="8.5806">
				 <ele>415.2</ele>
			 </trkpt>
			 <trkpt lat="47.31501" lon="8.58039">
				 <ele>415.2</ele>
			 </trkpt>
			 <trkpt lat="47.31521" lon="8.58028">
				 <ele>415.4</ele>
			 </trkpt>
			 <trkpt lat="47.31544" lon="8.58021">
				 <ele>415.2</ele>
			 </trkpt>
			 <trkpt lat="47.31557" lon="8.58014">
				 <ele>414.6</ele>
			 </trkpt>
			 <trkpt lat="47.31582" lon="8.58009">
				 <ele>414.4</ele>
			 </trkpt>
			 <trkpt lat="47.3169" lon="8.57976">
				 <ele>414.1</ele>
			 </trkpt>
			 <trkpt lat="47.31705" lon="8.57972">
				 <ele>413.7</ele>
			 </trkpt>
			 <trkpt lat="47.31762" lon="8.57955">
				 <ele>413.5</ele>
			 </trkpt>
			 <trkpt lat="47.31842" lon="8.57934">
				 <ele>413.3</ele>
			 </trkpt>
			 <trkpt lat="47.31879" lon="8.57924">
				 <ele>412.9</ele>
			 </trkpt>
			 <trkpt lat="47.31905" lon="8.57922">
				 <ele>412.6</ele>
			 </trkpt>
			 <trkpt lat="47.31932" lon="8.57915">
				 <ele>412.6</ele>
			 </trkpt>
			 <trkpt lat="47.31969" lon="8.57901">
				 <ele>412.5</ele>
			 </trkpt>
			 <trkpt lat="47.3204" lon="8.57874">
				 <ele>412.5</ele>
			 </trkpt>
			 <trkpt lat="47.32103" lon="8.57855">
				 <ele>412.6</ele>
			 </trkpt>
			 <trkpt lat="47.32175" lon="8.57828">
				 <ele>412.8</ele>
			 </trkpt>
			 <trkpt lat="47.32186" lon="8.57827">
				 <ele>412.9</ele>
			 </trkpt>
			 <trkpt lat="47.32209" lon="8.57819">
				 <ele>413</ele>
			 </trkpt>
			 <trkpt lat="47.32238" lon="8.5781">
				 <ele>413.1</ele>
			 </trkpt>
			 <trkpt lat="47.32296" lon="8.57789">
				 <ele>412.9</ele>
			 </trkpt>
			 <trkpt lat="47.32334" lon="8.57767">
				 <ele>412.6</ele>
			 </trkpt>
			 <trkpt lat="47.32413" lon="8.57714">
				 <ele>412.4</ele>
			 </trkpt>
			 <trkpt lat="47.3244" lon="8.57693">
				 <ele>412.1</ele>
			 </trkpt>
			 <trkpt lat="47.32454" lon="8.57677">
				 <ele>411.8</ele>
			 </trkpt>
			 <trkpt lat="47.32475" lon="8.57643">
				 <ele>411.5</ele>
			 </trkpt>
			 <trkpt lat="47.32503" lon="8.57602">
				 <ele>411.3</ele>
			 </trkpt>
			 <trkpt lat="47.32513" lon="8.57588">
				 <ele>410.9</ele>
			 </trkpt>
			 <trkpt lat="47.32513" lon="8.57588">
				 <ele>410.7</ele>
			 </trkpt>
			 <trkpt lat="47.32559" lon="8.57539">
				 <ele>410.5</ele>
			 </trkpt>
			 <trkpt lat="47.32592" lon="8.57507">
				 <ele>410.4</ele>
			 </trkpt>
			 <trkpt lat="47.32698" lon="8.57417">
				 <ele>410.4</ele>
			 </trkpt>
			 <trkpt lat="47.32764" lon="8.57365">
				 <ele>410.5</ele>
			 </trkpt>
			 <trkpt lat="47.32781" lon="8.57356">
				 <ele>410.5</ele>
			 </trkpt>
			 <trkpt lat="47.32804" lon="8.57347">
				 <ele>410.6</ele>
			 </trkpt>
			 <trkpt lat="47.32823" lon="8.57341">
				 <ele>410.6</ele>
			 </trkpt>
			 <trkpt lat="47.32871" lon="8.57332">
				 <ele>410.4</ele>
			 </trkpt>
			 <trkpt lat="47.3295" lon="8.57324">
				 <ele>410.1</ele>
			 </trkpt>
			 <trkpt lat="47.32973" lon="8.57318">
				 <ele>410.1</ele>
			 </trkpt>
			 <trkpt lat="47.32995" lon="8.57309">
				 <ele>410</ele>
			 </trkpt>
			 <trkpt lat="47.33026" lon="8.5729">
				 <ele>410.1</ele>
			 </trkpt>
			 <trkpt lat="47.33195" lon="8.5718">
				 <ele>410.2</ele>
			 </trkpt>
			 <trkpt lat="47.3323" lon="8.57164">
				 <ele>410.1</ele>
			 </trkpt>
			 <trkpt lat="47.33303" lon="8.57145">
				 <ele>409.9</ele>
			 </trkpt>
			 <trkpt lat="47.33346" lon="8.57131">
				 <ele>409.6</ele>
			 </trkpt>
			 <trkpt lat="47.3337" lon="8.57123">
				 <ele>409.4</ele>
			 </trkpt>
			 <trkpt lat="47.33391" lon="8.57109">
				 <ele>409.2</ele>
			 </trkpt>
			 <trkpt lat="47.3344" lon="8.5707">
				 <ele>409.5</ele>
			 </trkpt>
			 <trkpt lat="47.33474" lon="8.57034">
				 <ele>409.7</ele>
			 </trkpt>
			 <trkpt lat="47.33532" lon="8.56967">
				 <ele>409.9</ele>
			 </trkpt>
			 <trkpt lat="47.33532" lon="8.56967">
				 <ele>410.2</ele>
			 </trkpt>
			 <trkpt lat="47.33557" lon="8.56944">
				 <ele>410.2</ele>
			 </trkpt>
			 <trkpt lat="47.3357" lon="8.56934">
				 <ele>410.2</ele>
			 </trkpt>
			 <trkpt lat="47.33586" lon="8.56927">
				 <ele>410.5</ele>
			 </trkpt>
			 <trkpt lat="47.33686" lon="8.56899">
				 <ele>410.9</ele>
			 </trkpt>
			 <trkpt lat="47.33748" lon="8.56879">
				 <ele>411.4</ele>
			 </trkpt>
			 <trkpt lat="47.33816" lon="8.56843">
				 <ele>411.7</ele>
			 </trkpt>
			 <trkpt lat="47.33843" lon="8.56828">
				 <ele>412</ele>
			 </trkpt>
			 <trkpt lat="47.33866" lon="8.56815">
				 <ele>412.2</ele>
			 </trkpt>
			 <trkpt lat="47.3387" lon="8.56814">
				 <ele>412.2</ele>
			 </trkpt>
			 <trkpt lat="47.33875" lon="8.56812">
				 <ele>412.3</ele>
			 </trkpt>
			 <trkpt lat="47.33892" lon="8.56803">
				 <ele>412.3</ele>
			 </trkpt>
			 <trkpt lat="47.33911" lon="8.56794">
				 <ele>412.5</ele>
			 </trkpt>
			 <trkpt lat="47.3394" lon="8.56784">
				 <ele>412.8</ele>
			 </trkpt>
			 <trkpt lat="47.33956" lon="8.56775">
				 <ele>412.6</ele>
			 </trkpt>
			 <trkpt lat="47.33993" lon="8.56768">
				 <ele>412.5</ele>
			 </trkpt>
			 <trkpt lat="47.34097" lon="8.56755">
				 <ele>412.3</ele>
			 </trkpt>
			 <trkpt lat="47.3416" lon="8.56748">
				 <ele>412.2</ele>
			 </trkpt>
			 <trkpt lat="47.3416" lon="8.56748">
				 <ele>412.2</ele>
			 </trkpt>
			 <trkpt lat="47.34246" lon="8.56737">
				 <ele>412.2</ele>
			 </trkpt>
			 <trkpt lat="47.34308" lon="8.56727">
				 <ele>412.4</ele>
			 </trkpt>
			 <trkpt lat="47.34333" lon="8.56719">
				 <ele>412.4</ele>
			 </trkpt>
			 <trkpt lat="47.34359" lon="8.56707">
				 <ele>412.4</ele>
			 </trkpt>
			 <trkpt lat="47.34418" lon="8.56672">
				 <ele>412.2</ele>
			 </trkpt>
			 <trkpt lat="47.34456" lon="8.56649">
				 <ele>412</ele>
			 </trkpt>
			 <trkpt lat="47.34466" lon="8.56645">
				 <ele>411.7</ele>
			 </trkpt>
			 <trkpt lat="47.34509" lon="8.56609">
				 <ele>411.5</ele>
			 </trkpt>
			 <trkpt lat="47.34559" lon="8.5656">
				 <ele>411</ele>
			 </trkpt>
			 <trkpt lat="47.34619" lon="8.5649">
				 <ele>410.6</ele>
			 </trkpt>
			 <trkpt lat="47.34709" lon="8.56388">
				 <ele>410.3</ele>
			 </trkpt>
			 <trkpt lat="47.34763" lon="8.56327">
				 <ele>409.8</ele>
			 </trkpt>
			 <trkpt lat="47.34821" lon="8.56271">
				 <ele>409.4</ele>
			 </trkpt>
			 <trkpt lat="47.34883" lon="8.56214">
				 <ele>408.8</ele>
			 </trkpt>
			 <trkpt lat="47.34926" lon="8.56175">
				 <ele>408.3</ele>
			 </trkpt>
			 <trkpt lat="47.34946" lon="8.56155">
				 <ele>407.7</ele>
			 </trkpt>
			 <trkpt lat="47.34965" lon="8.56135">
				 <ele>407.3</ele>
			 </trkpt>
			 <trkpt lat="47.34969" lon="8.56124">
				 <ele>407.1</ele>
			 </trkpt>
			 <trkpt lat="47.34993" lon="8.56096">
				 <ele>406.9</ele>
			 </trkpt>
			 <trkpt lat="47.35009" lon="8.56082">
				 <ele>407</ele>
			 </trkpt>
			 <trkpt lat="47.35032" lon="8.56055">
				 <ele>407</ele>
			 </trkpt>
			 <trkpt lat="47.35059" lon="8.56029">
				 <ele>407</ele>
			 </trkpt>
			 <trkpt lat="47.35099" lon="8.55987">
				 <ele>407.1</ele>
			 </trkpt>
			 <trkpt lat="47.35131" lon="8.55952">
				 <ele>407.2</ele>
			 </trkpt>
			 <trkpt lat="47.35169" lon="8.55896">
				 <ele>407.4</ele>
			 </trkpt>
			 <trkpt lat="47.35178" lon="8.55882">
				 <ele>407.5</ele>
			 </trkpt>
			 <trkpt lat="47.35178" lon="8.55882">
				 <ele>407.7</ele>
			 </trkpt>
			 <trkpt lat="47.35201" lon="8.55848">
				 <ele>407.8</ele>
			 </trkpt>
			 <trkpt lat="47.35264" lon="8.55759">
				 <ele>407.9</ele>
			 </trkpt>
			 <trkpt lat="47.35282" lon="8.55726">
				 <ele>408</ele>
			 </trkpt>
			 <trkpt lat="47.35292" lon="8.55705">
				 <ele>408.1</ele>
			 </trkpt>
			 <trkpt lat="47.3531" lon="8.55655">
				 <ele>408.2</ele>
			 </trkpt>
			 <trkpt lat="47.35323" lon="8.55607">
				 <ele>408.4</ele>
			 </trkpt>
			 <trkpt lat="47.35354" lon="8.55472">
				 <ele>408.5</ele>
			 </trkpt>
			 <trkpt lat="47.35359" lon="8.55457">
				 <ele>408.7</ele>
			 </trkpt>
			 <trkpt lat="47.35367" lon="8.55435">
				 <ele>408.9</ele>
			 </trkpt>
			 <trkpt lat="47.35386" lon="8.55388">
				 <ele>409.1</ele>
			 </trkpt>
			 <trkpt lat="47.35418" lon="8.55335">
				 <ele>409.2</ele>
			 </trkpt>
			 <trkpt lat="47.35443" lon="8.55304">
				 <ele>409.3</ele>
			 </trkpt>
			 <trkpt lat="47.3546" lon="8.55286">
				 <ele>409.3</ele>
			 </trkpt>
			 <trkpt lat="47.35504" lon="8.55247">
				 <ele>409.2</ele>
			 </trkpt>
			 <trkpt lat="47.35588" lon="8.55185">
				 <ele>409</ele>
			 </trkpt>
			 <trkpt lat="47.35791" lon="8.55037">
				 <ele>408.9</ele>
			 </trkpt>
			 <trkpt lat="47.35791" lon="8.55037">
				 <ele>408.6</ele>
			 </trkpt>
			 <trkpt lat="47.35941" lon="8.5493">
				 <ele>408.4</ele>
			 </trkpt>
			 <trkpt lat="47.36027" lon="8.54867">
				 <ele>408.2</ele>
			 </trkpt>
			 <trkpt lat="47.36075" lon="8.54831">
				 <ele>408</ele>
			 </trkpt>
			 <trkpt lat="47.3612" lon="8.54804">
				 <ele>407.8</ele>
			 </trkpt>
			 <trkpt lat="47.36169" lon="8.54775">
				 <ele>407.7</ele>
			 </trkpt>
			 <trkpt lat="47.36297" lon="8.547">
				 <ele>407.6</ele>
			 </trkpt>
			 <trkpt lat="47.36402" lon="8.54637">
				 <ele>407.7</ele>
			 </trkpt>
			 <trkpt lat="47.36467" lon="8.54601">
				 <ele>407.9</ele>
			 </trkpt>
			 <trkpt lat="47.36511" lon="8.54573">
				 <ele>407.9</ele>
			 </trkpt>
			 <trkpt lat="47.36588" lon="8.54526">
				 <ele>407.8</ele>
			 </trkpt>
			 <trkpt lat="47.366594" lon="8.544847">
				 <ele>408</ele>
			 </trkpt>
			 <trkpt lat="47.366895" lon="8.544546">
				 <ele>408.1</ele>
			 </trkpt>
			 <trkpt lat="47.366997" lon="8.544176">
				 <ele>408.1</ele>
			 </trkpt>
			 <trkpt lat="47.367026" lon="8.543747">
				 <ele>408.1</ele>
			 </trkpt>
			 <trkpt lat="47.36705" lon="8.54374">
				 <ele>408.1</ele>
			 </trkpt>
			 <trkpt lat="47.36673" lon="8.54184">
				 <ele>408.1</ele>
			 </trkpt>
			 <trkpt lat="47.36661" lon="8.54112">
				 <ele>408.1</ele>
			 </trkpt>
			 <trkpt lat="47.36649" lon="8.54072">
				 <ele>408</ele>
			 </trkpt>
			 <trkpt lat="47.36643" lon="8.54062">
				 <ele>407.9</ele>
			 </trkpt>
			 <trkpt lat="47.36634" lon="8.54052">
				 <ele>408</ele>
			 </trkpt>
			 <trkpt lat="47.36609" lon="8.54022">
				 <ele>408.1</ele>
			 </trkpt>
			 <trkpt lat="47.36609" lon="8.54022">
				 <ele>408</ele>
			 </trkpt>
			 <trkpt lat="47.36597" lon="8.54001">
				 <ele>408</ele>
			 </trkpt>
			 <trkpt lat="47.36584" lon="8.53976">
				 <ele>408</ele>
			 </trkpt>
			 <trkpt lat="47.36528" lon="8.53863">
				 <ele>408</ele>
			 </trkpt>
			 <trkpt lat="47.36446" lon="8.53697">
				 <ele>408</ele>
			 </trkpt>
			 <trkpt lat="47.3641" lon="8.53624">
				 <ele>408</ele>
			 </trkpt>
			 <trkpt lat="47.36396" lon="8.53596">
				 <ele>408</ele>
			 </trkpt>
			 <trkpt lat="47.36393" lon="8.5358">
				 <ele>408</ele>
			 </trkpt>
			 <trkpt lat="47.3637" lon="8.53532">
				 <ele>408</ele>
			 </trkpt>
			 <trkpt lat="47.36364" lon="8.53514">
				 <ele>408</ele>
			 </trkpt>
			 <trkpt lat="47.36346" lon="8.53437">
				 <ele>408</ele>
			 </trkpt>
			 <trkpt lat="47.36343" lon="8.53402">
				 <ele>408</ele>
			 </trkpt>
			 <trkpt lat="47.36338" lon="8.53387">
				 <ele>408</ele>
			 </trkpt>
			 <trkpt lat="47.36338" lon="8.5336">
				 <ele>408</ele>
			 </trkpt>
			 <trkpt lat="47.36338" lon="8.53346">
				 <ele>408</ele>
			 </trkpt>
			 <trkpt lat="47.36324" lon="8.53355">
				 <ele>408</ele>
			 </trkpt>
			 <trkpt lat="47.36312" lon="8.53364">
				 <ele>408</ele>
			 </trkpt>
			 <trkpt lat="47.36306" lon="8.53366">
				 <ele>408</ele>
			 </trkpt>
			 <trkpt lat="47.36306" lon="8.53366">
				 <ele>408.1</ele>
			 </trkpt>
			 <trkpt lat="47.36252" lon="8.53388">
				 <ele>408.1</ele>
			 </trkpt>
			 <trkpt lat="47.36191" lon="8.534">
				 <ele>408.1</ele>
			 </trkpt>
			 <trkpt lat="47.36129" lon="8.53408">
				 <ele>408.1</ele>
			 </trkpt>
			 <trkpt lat="47.36084" lon="8.53417">
				 <ele>408.1</ele>
			 </trkpt>
			 <trkpt lat="47.3603" lon="8.53425">
				 <ele>408.1</ele>
			 </trkpt>
			 <trkpt lat="47.35973" lon="8.53435">
				 <ele>408.1</ele>
			 </trkpt>
			 <trkpt lat="47.35942" lon="8.5344">
				 <ele>408.1</ele>
			 </trkpt>
			 <trkpt lat="47.35942" lon="8.5344">
				 <ele>408.1</ele>
			 </trkpt>
			 <trkpt lat="47.35738" lon="8.53475">
				 <ele>408.1</ele>
			 </trkpt>
			 <trkpt lat="47.35738" lon="8.53475">
				 <ele>408.1</ele>
			 </trkpt>
			 <trkpt lat="47.35721" lon="8.53477">
				 <ele>408</ele>
			 </trkpt>
			 <trkpt lat="47.35708" lon="8.53477">
				 <ele>408</ele>
			 </trkpt>
			 <trkpt lat="47.35702" lon="8.53474">
				 <ele>408</ele>
			 </trkpt>
			 <trkpt lat="47.357" lon="8.53484">
				 <ele>408</ele>
			 </trkpt>
			 <trkpt lat="47.35699" lon="8.53486">
				 <ele>408</ele>
			 </trkpt>
			 <trkpt lat="47.35696" lon="8.53493">
				 <ele>408</ele>
			 </trkpt>
			 <trkpt lat="47.35697" lon="8.53508">
				 <ele>408</ele>
			 </trkpt>
			 <trkpt lat="47.3575" lon="8.53542">
				 <ele>407.9</ele>
			 </trkpt>
			 <trkpt lat="47.3575" lon="8.53542">
				 <ele>407.8</ele>
			 </trkpt>
			 <trkpt lat="47.3577" lon="8.53551">
				 <ele>407.7</ele>
			 </trkpt>
			 <trkpt lat="47.35785" lon="8.53554">
				 <ele>407.6</ele>
			 </trkpt>
			 <trkpt lat="47.35854" lon="8.53552">
				 <ele>407.6</ele>
			 </trkpt>
			 <trkpt lat="47.35907" lon="8.53548">
				 <ele>407.6</ele>
			 </trkpt>
			 <trkpt lat="47.3592" lon="8.5355">
				 <ele>407.6</ele>
			 </trkpt>
			 <trkpt lat="47.35922" lon="8.5355">
				 <ele>407.6</ele>
			 </trkpt>
			 <trkpt lat="47.35922" lon="8.5355">
				 <ele>407.6</ele>
			 </trkpt>
			 <trkpt lat="47.36133" lon="8.53537">
				 <ele>407.6</ele>
			 </trkpt>
			 <trkpt lat="47.36317" lon="8.53524">
				 <ele>407.6</ele>
			 </trkpt>
			 <trkpt lat="47.36317" lon="8.53524">
				 <ele>407.7</ele>
			 </trkpt>
			 <trkpt lat="47.36347" lon="8.53522">
				 <ele>407.8</ele>
			 </trkpt>
			 <trkpt lat="47.36364" lon="8.53514">
				 <ele>407.9</ele>
			 </trkpt>
			 <trkpt lat="47.36382" lon="8.53506">
				 <ele>408</ele>
			 </trkpt>
			 <trkpt lat="47.36493" lon="8.53429">
				 <ele>408</ele>
			 </trkpt>
			 <trkpt lat="47.36493" lon="8.53429">
				 <ele>408</ele>
			 </trkpt>
			 <trkpt lat="47.36546" lon="8.53394">
				 <ele>408</ele>
			 </trkpt>
			 <trkpt lat="47.36584" lon="8.53367">
				 <ele>408</ele>
			 </trkpt>
			 <trkpt lat="47.36605" lon="8.53354">
				 <ele>408</ele>
			 </trkpt>
			 <trkpt lat="47.36616" lon="8.53386">
				 <ele>408</ele>
			 </trkpt>
			 <trkpt lat="47.36623" lon="8.53406">
				 <ele>408</ele>
			 </trkpt>
			 <trkpt lat="47.36623" lon="8.53406">
				 <ele>408</ele>
			 </trkpt>
			 <trkpt lat="47.36654" lon="8.53492">
				 <ele>408</ele>
			 </trkpt>
			 <trkpt lat="47.36701" lon="8.53634">
				 <ele>408.1</ele>
			 </trkpt>
			 <trkpt lat="47.36753" lon="8.53792">
				 <ele>408.2</ele>
			 </trkpt>
			 <trkpt lat="47.36756" lon="8.5381">
				 <ele>408.3</ele>
			 </trkpt>
			 <trkpt lat="47.36756" lon="8.5381">
				 <ele>408.4</ele>
			 </trkpt>
			 <trkpt lat="47.36773" lon="8.53908">
				 <ele>408.5</ele>
			 </trkpt>
			 <trkpt lat="47.36775" lon="8.5392">
				 <ele>408.5</ele>
			 </trkpt>
			 <trkpt lat="47.36792" lon="8.53904">
				 <ele>408.6</ele>
			 </trkpt>
			 <trkpt lat="47.3684" lon="8.5386">
				 <ele>408.7</ele>
			 </trkpt>
			 <trkpt lat="47.36851" lon="8.53848">
				 <ele>408.8</ele>
			 </trkpt>
			 <trkpt lat="47.36851" lon="8.53848">
				 <ele>408.9</ele>
			 </trkpt>
			 <trkpt lat="47.36888" lon="8.53815">
				 <ele>409.1</ele>
			 </trkpt>
			 <trkpt lat="47.36904" lon="8.538">
				 <ele>409.2</ele>
			 </trkpt>
			 <trkpt lat="47.36928" lon="8.53763">
				 <ele>409.3</ele>
			 </trkpt>
			 <trkpt lat="47.36979" lon="8.5368">
				 <ele>409.4</ele>
			 </trkpt>
			 <trkpt lat="47.37024" lon="8.53607">
				 <ele>409.5</ele>
			 </trkpt>
			 <trkpt lat="47.37084" lon="8.53508">
				 <ele>409.7</ele>
			 </trkpt>
			 <trkpt lat="47.37116" lon="8.53472">
				 <ele>409.9</ele>
			 </trkpt>
			 <trkpt lat="47.37125" lon="8.53464">
				 <ele>410.1</ele>
			 </trkpt>
			 <trkpt lat="47.37125" lon="8.53464">
				 <ele>410.3</ele>
			 </trkpt>
			 <trkpt lat="47.37158" lon="8.53431">
				 <ele>410.5</ele>
			 </trkpt>
			 <trkpt lat="47.37171" lon="8.5342">
				 <ele>410.5</ele>
			 </trkpt>
			 <trkpt lat="47.37187" lon="8.53415">
				 <ele>410.5</ele>
			 </trkpt>
			 <trkpt lat="47.37201" lon="8.53417">
				 <ele>410.5</ele>
			 </trkpt>
			 <trkpt lat="47.37231" lon="8.53426">
				 <ele>410.5</ele>
			 </trkpt>
			 <trkpt lat="47.37253" lon="8.5345">
				 <ele>410.5</ele>
			 </trkpt>
			 <trkpt lat="47.3726" lon="8.53474">
				 <ele>410.5</ele>
			 </trkpt>
			 <trkpt lat="47.3726" lon="8.53474">
				 <ele>410.4</ele>
			 </trkpt>
			 <trkpt lat="47.37268" lon="8.53516">
				 <ele>410.4</ele>
			 </trkpt>
			 <trkpt lat="47.37297" lon="8.53623">
				 <ele>410.4</ele>
			 </trkpt>
			 <trkpt lat="47.37312" lon="8.53678">
				 <ele>410.4</ele>
			 </trkpt>
			 <trkpt lat="47.37318" lon="8.5369">
				 <ele>410.4</ele>
			 </trkpt>
			 <trkpt lat="47.37334" lon="8.53701">
				 <ele>410.5</ele>
			 </trkpt>
			 <trkpt lat="47.37349" lon="8.53706">
				 <ele>410.5</ele>
			 </trkpt>
			 <trkpt lat="47.37361" lon="8.53707">
				 <ele>410.6</ele>
			 </trkpt>
			 <trkpt lat="47.37373" lon="8.5371">
				 <ele>410.7</ele>
			 </trkpt>
			 <trkpt lat="47.37376" lon="8.53713">
				 <ele>410.8</ele>
			 </trkpt>
			 <trkpt lat="47.3738" lon="8.53725">
				 <ele>410.8</ele>
			 </trkpt>
			 <trkpt lat="47.37384" lon="8.53771">
				 <ele>410.8</ele>
			 </trkpt>
			 <trkpt lat="47.373845" lon="8.538234">
				 <ele>410.7</ele>
			 </trkpt>
			 <trkpt lat="47.373736" lon="8.538282">
				 <ele>410.6</ele>
			 </trkpt>
			 <trkpt lat="47.373162" lon="8.538304">
				 <ele>410.5</ele>
			 </trkpt>
			 <trkpt lat="47.372443" lon="8.538345">
				 <ele>410.3</ele>
			 </trkpt>
			 <trkpt lat="47.372304" lon="8.538354">
				 <ele>410.1</ele>
			 </trkpt>
			 <trkpt lat="47.3711" lon="8.538838">
				 <ele>409.8</ele>
			 </trkpt>
			 <trkpt lat="47.370625" lon="8.539014">
				 <ele>409.5</ele>
			 </trkpt>
			 <trkpt lat="47.370054" lon="8.53932">
				 <ele>409.3</ele>
			 </trkpt>
			 <trkpt lat="47.369655" lon="8.539371">
				 <ele>409</ele>
			 </trkpt>
			 <trkpt lat="47.368901" lon="8.539579">
				 <ele>408.8</ele>
			 </trkpt>
			 <trkpt lat="47.367468" lon="8.540064">
				 <ele>408.6</ele>
			 </trkpt>
			 <trkpt lat="47.366658" lon="8.540463">
				 <ele>408.5</ele>
			 </trkpt>
			 <trkpt lat="47.36661" lon="8.540865">
				 <ele>408.5</ele>
			 </trkpt>
			 <trkpt lat="47.366701" lon="8.541498">
				 <ele>408.5</ele>
			 </trkpt>
			 <trkpt lat="47.367177" lon="8.541375">
				 <ele>408.5</ele>
			 </trkpt>
			 <trkpt lat="47.36737" lon="8.541321">
				 <ele>408.4</ele>
			 </trkpt>
			 <trkpt lat="47.368053" lon="8.541096">
				 <ele>408.4</ele>
			 </trkpt>
			 <trkpt lat="47.368998" lon="8.540849">
				 <ele>408.5</ele>
			 </trkpt>
			 <trkpt lat="47.369755" lon="8.540621">
				 <ele>408.5</ele>
			 </trkpt>
			 <trkpt lat="47.369948" lon="8.540857">
				 <ele>408.6</ele>
			 </trkpt>
			 <trkpt lat="47.369901" lon="8.541307">
				 <ele>408.6</ele>
			 </trkpt>
			 <trkpt lat="47.369911" lon="8.541506">
				 <ele>408.6</ele>
			 </trkpt>
			 <trkpt lat="47.369868" lon="8.541881">
				 <ele>408.5</ele>
			 </trkpt>
			 <trkpt lat="47.369116" lon="8.541822">
				 <ele>408.5</ele>
			 </trkpt>
			 <trkpt lat="47.369047" lon="8.541844">
				 <ele>408.5</ele>
			 </trkpt>
			 <trkpt lat="47.367308" lon="8.541747">
				 <ele>408.3</ele>
			 </trkpt>
			 <trkpt lat="47.36719" lon="8.541742">
				 <ele>408.4</ele>
			 </trkpt>
			 <trkpt lat="47.366932" lon="8.541763">
				 <ele>408.5</ele>
			 </trkpt>
			 <trkpt lat="47.366783" lon="8.541811">
				 <ele>408.4</ele>
			 </trkpt>
			 <trkpt lat="47.366751" lon="8.541972">
				 <ele>408.3</ele>
			 </trkpt>
			 <trkpt lat="47.36702" lon="8.543625">
				 <ele>408.2</ele>
			 </trkpt>
			 <trkpt lat="47.367024" lon="8.544239">
				 <ele>408.2</ele>
			 </trkpt>
			 <trkpt lat="47.366904" lon="8.544573">
				 <ele>408.2</ele>
			 </trkpt>
			 <trkpt lat="47.366466" lon="8.545007">
				 <ele>408.2</ele>
			 </trkpt>
			 <trkpt lat="47.366454" lon="8.545194">
				 <ele>408.1</ele>
			 </trkpt>
			 <trkpt lat="47.366454" lon="8.545406">
				 <ele>408</ele>
			 </trkpt>
			 <trkpt lat="47.366444" lon="8.545575">
				 <ele>408.3</ele>
			 </trkpt>
			 <trkpt lat="47.366256" lon="8.545758">
				 <ele>408.2</ele>
			 </trkpt>
		 </trkseg>
	 </trk>
</gpx>